{"type": "FeatureCollection", "features": [{"type": "Feature", "properties": {"OBJECTID": 1365, "GPCODE": "242777", "GPNAME_1": "KAMTA", "DIST_CEN_C": "38", "BLK_NAME": "KALER", "ST_NAME": "BIHAR", "ST_CODE_1": "10", "GPCODE2011": "238483", "REMARKS": "FINALIZED", "MAP_STATUS": "COMPLETED", "BLK_C_2001": "380002", "BLK_C_2011": "01543", "DIST_NAME": "ARWAL", "code2011": 0.0, "Shape_Leng": 0.19153059031, "Shape_Area": 0.00149962795, "Area": 16.7554}, "geometry": {"type": "MultiPolygon", "coordinates": [[[[84.57186898400005, 25.21246498100004], [84.57271378400003, 25.209314749000043], [84.57467405700004, 25.208092227000066], [84.57415901600007, 25.205767526000045], [84.57160921100007, 25.20520241500003], [84.56912887300007, 25.20443868500007], [84.56660892500008, 25.20367037400007], [84.56501631800006, 25.202439195000068], [84.56496740300008, 25.202401381000072], [84.56420406500007, 25.20115078200007], [84.56388689200008, 25.200441985000055], [84.56274717200006, 25.197828064000078], [84.56202395300005, 25.195670250000035], [84.56161317000004, 25.19367046800005], [84.56167874000005, 25.19154908200005], [84.56084065200008, 25.19104773300006], [84.56013633400005, 25.19096616400003], [84.55928274800004, 25.19162472900007], [84.55837984000004, 25.191619821000074], [84.55781450900008, 25.191416454000034], [84.55683736800006, 25.191100050000045], [84.55496271800007, 25.190340923000065], [84.55364838900005, 25.18988891200007], [84.55301351100007, 25.189644841000074], [84.55240863500006, 25.189233840000043], [84.55233960200007, 25.188376172000062], [84.55200745400003, 25.188100631000054], [84.55167020200008, 25.187960618000034], [84.55039068300005, 25.187513082000066], [84.54923058200006, 25.186483399000053], [84.54878427900007, 25.186099496000054], [84.54825886800006, 25.185516966000023], [84.54769868500006, 25.184929839000063], [84.54713883700003, 25.183972665000056], [84.54654394300007, 25.183408103000033], [84.54632134000008, 25.182451151000066], [84.54629199400006, 25.181769502000066], [84.54636659600004, 25.181390461000035], [84.54622313800007, 25.180844226000033], [84.54585173400005, 25.17981492800004], [84.54548021000005, 25.17899321300007], [84.54529760700007, 25.17765703500004], [84.54500556700003, 25.17676768900003], [84.54489719500003, 25.175535423000042], [84.54440610200004, 25.17556218200008], [84.54339405400003, 25.175832442000058], [84.54252600300003, 25.17603962100003], [84.54128578100006, 25.176336823000042], [84.54087411200004, 25.176268870000058], [84.54068586800008, 25.175957311000047], [84.54057721300006, 25.17527568400004], [84.54038909300004, 25.174693363000074], [84.54017673600003, 25.173352617000035], [84.53981487400006, 25.173004891000062], [84.53873867300007, 25.172877865000032], [84.53715639800004, 25.172940093000022], [84.53550463400006, 25.173137694000047], [84.53305911100006, 25.173434134000047], [84.53074249000008, 25.173956262000047], [84.52931375800006, 25.17418557900004], [84.52848542200007, 25.17424821800006], [84.52739412500006, 25.174378405000027], [84.52674884100009, 25.17499635000007], [84.52640609600007, 25.175673135000068], [84.52433207400009, 25.17648424400005], [84.52278906100008, 25.17706090300004], [84.52169752700007, 25.177434737000056], [84.52021401300004, 25.177925733000052], [84.51896888700009, 25.178051235000055], [84.51758008700006, 25.17804572500006], [84.51789112700004, 25.179688903000056], [84.51803935400005, 25.180411196000023], [84.51841568900005, 25.181093033000025], [84.51882176000004, 25.18191481200006], [84.51911897900004, 25.18229873100006], [84.51941642700007, 25.18260583700004], [84.51996155900008, 25.18317490000004], [84.51998516800006, 25.184578730000055], [84.51994998200007, 25.18512486000003], [84.52020733000006, 25.185815599000023], [84.52012732900005, 25.18652871300003], [84.52061308100008, 25.186980430000062], [84.52079625300007, 25.187427444000036], [84.52105890000007, 25.187734549000027], [84.52165864600005, 25.188321719000044], [84.52161312400005, 25.18934629900008], [84.52161261600008, 25.18989694000004], [84.52166189900004, 25.190289660000076], [84.52196411200003, 25.19076837500006], [84.52267290800006, 25.191459460000033], [84.52266732700008, 25.192213223000067], [84.52232985500007, 25.192447697000034], [84.52150155500004, 25.192207859000064], [84.52074757900004, 25.19216679400006], [84.52007282800008, 25.192265604000056], [84.51886725600008, 25.19243175500003], [84.51785528900007, 25.19246258000004], [84.51751779100005, 25.192561667000064], [84.51679309900004, 25.19313887000004], [84.51578045200006, 25.19381969400007], [84.51403779800006, 25.195353029000046], [84.51294068100003, 25.196309074000055], [84.51188289000004, 25.197499907000065], [84.51022869400003, 25.19983219100004], [84.50986089100007, 25.20063536200007], [84.51120430800006, 25.20175125000003], [84.51245876400003, 25.20247887900007], [84.51367845900006, 25.203296840000064], [84.51492792700003, 25.204146340000023], [84.51690136200006, 25.205389036000042], [84.51835450900006, 25.20599948100005], [84.51965381500008, 25.20665031900006], [84.52080927400004, 25.207228909000037], [84.52199465400008, 25.207654020000064], [84.52298659900003, 25.20814223900004], [84.52463339900004, 25.208599159000073], [84.52595775400005, 25.209028928000066], [84.52737629900008, 25.209454089000076], [84.52876039300008, 25.209703336000075], [84.53000045600004, 25.209992976000024], [84.53135479800005, 25.21027364500003], [84.53274390400009, 25.210369375000028], [84.53409328600003, 25.210586805000048], [84.53541294800004, 25.21065083900004], [84.53687169900007, 25.210543361000077], [84.53813192500007, 25.21045835800004], [84.53965028400006, 25.210341924000033], [84.54230960800004, 25.21028023200006], [84.54359956600007, 25.210348659000033], [84.54584707100008, 25.210417607000068], [84.54689879200004, 25.21054457300005], [84.54855086600008, 25.21064468700007], [84.55007396700006, 25.210767361000023], [84.55300099800007, 25.211156979000066], [84.55451917900007, 25.211374426000077], [84.55613143900007, 25.211686617000055], [84.55745582100008, 25.21232360500005], [84.55886965000008, 25.212748528000077], [84.56012967600003, 25.213177968000025], [84.56159295000003, 25.213950443000044], [84.56301167000004, 25.214528796000025], [84.56436582600008, 25.21513869300003], [84.56561586500004, 25.215744006000023], [84.56663762300008, 25.216471157000058], [84.56822508700003, 25.217166878000057], [84.56937585700007, 25.217925569000045], [84.57039267800008, 25.21862106900005], [84.57093845100007, 25.218819905000032], [84.57139086100005, 25.21670314100004], [84.57186898400005, 25.21246498100004]]]]}}, {"type": "Feature", "properties": {"OBJECTID": 1399, "GPCODE": "242781", "GPNAME_1": "BELSAR", "DIST_CEN_C": "38", "BLK_NAME": "KALER", "ST_NAME": "BIHAR", "ST_CODE_1": "10", "GPCODE2011": "238487", "REMARKS": "FINALIZED", "MAP_STATUS": "COMPLETED", "BLK_C_2001": "380002", "BLK_C_2011": "01543", "DIST_NAME": "ARWAL", "code2011": 0.0, "Shape_Leng": 0.17581777167, "Shape_Area": 0.0008714638, "Area": 9.74228}, "geometry": {"type": "MultiPolygon", "coordinates": [[[[84.52889470900004, 25.145455569000035], [84.52972293500005, 25.145289133000063], [84.53073934000008, 25.145497446000036], [84.53152756800006, 25.145813831000055], [84.53291589100007, 25.145918591000054], [84.53316942200007, 25.145119786000066], [84.53336375200007, 25.143851554000037], [84.53351279800006, 25.143508643000075], [84.53318087400004, 25.143097674000046], [84.53284386200005, 25.14275445000004], [84.53212992200008, 25.142650111000023], [84.53214082700003, 25.141381817000024], [84.53202694200007, 25.141142480000042], [84.53142714500007, 25.140835223000067], [84.53014800800008, 25.140617753000072], [84.52881922300008, 25.14038662200005], [84.52880021300007, 25.13938462400006], [84.52898899600007, 25.138906279000025], [84.52936618600006, 25.13850024000004], [84.52963421800007, 25.138157441000033], [84.52997153800004, 25.137954534000073], [84.53110226100006, 25.137752156000033], [84.53148468600006, 25.136867704000053], [84.53137607800005, 25.136253749000048], [84.53145607500005, 25.135328512000058], [84.53258700900005, 25.13485526200003], [84.53267243900007, 25.13324844400006], [84.53263857800005, 25.13221924800007], [84.53260971400005, 25.130919326000026], [84.53241299100006, 25.128820319000056], [84.53350906900005, 25.128378656000052], [84.53497674800008, 25.12821251400004], [84.53633044300005, 25.128150177000066], [84.53719314500006, 25.128155182000057], [84.53742669600007, 25.127333832000033], [84.53754128200006, 25.126544059000025], [84.53772997100003, 25.126241698000058], [84.53773532600007, 25.125695592000056], [84.53735896500007, 25.124937070000044], [84.53710698900005, 25.123808447000044], [84.53702888900006, 25.12209322500007], [84.53507548000005, 25.12201529600003], [84.53429244000006, 25.121667280000054], [84.53384174500007, 25.121017022000046], [84.53369841500006, 25.120330773000035], [84.53336176100004, 25.119752876000064], [84.53280190700008, 25.119265049000035], [84.53212280500009, 25.119020809000062], [84.53167156400008, 25.119124374000023], [84.53088324000004, 25.119187063000027], [84.53016932100007, 25.119222704000038], [84.52960932900004, 25.11891095900006], [84.52867237500004, 25.118869682000025], [84.52681820700008, 25.118850450000025], [84.52658972600005, 25.11929256800005], [84.52651489000004, 25.119874782000068], [84.52628124500006, 25.120732314000065], [84.52549282900003, 25.120898771000043], [84.52496753500003, 25.120586916000036], [84.52395134000005, 25.120378655000025], [84.52320269600006, 25.12037355900003], [84.52297450400005, 25.120508888000074], [84.52256290400004, 25.12064396100004], [84.52188367600007, 25.120711243000073], [84.52105572300007, 25.120706152000025], [84.52007906200004, 25.120700889000034], [84.51921670200005, 25.12031661900005], [84.51865156200006, 25.12021689900007], [84.51808651200008, 25.120139830000028], [84.51733786900007, 25.12007152800004], [84.51647017800008, 25.120170168000072], [84.51583573300007, 25.120061409000073], [84.51534999400008, 25.11988955100003], [84.51497334700008, 25.11971321900006], [84.51418515700004, 25.119644950000065], [84.51382831100005, 25.119418949000078], [84.51390848100004, 25.118561403000058], [84.51398328400006, 25.11808299000006], [84.51413726700008, 25.11774464800004], [84.51451425200008, 25.117505617000063], [84.51489123800008, 25.117298267000024], [84.51549119000003, 25.11713174600004], [84.51549682400008, 25.116450159000067], [84.51538829500004, 25.11576398400007], [84.51550270500007, 25.115353394000067], [84.51528501600006, 25.114910868000038], [84.51536533100005, 25.11371025400007], [84.51521703900005, 25.11329941100007], [84.51522261600007, 25.112613311000075], [84.51511392100008, 25.11210322900007], [84.51508033800008, 25.110902530000033], [84.51489251300006, 25.11021627200006], [84.51489787500003, 25.109837138000046], [84.51448692700006, 25.109254553000028], [84.51449205900008, 25.108983730000034], [84.51411580900003, 25.108401145000073], [84.51404687400003, 25.107954276000044], [84.51406708000007, 25.107525528000053], [84.51391860900003, 25.10721848000003], [84.51378537300008, 25.10656838700004], [84.50765705400005, 25.107746230000032], [84.50778552900005, 25.108247361000053], [84.50789418600004, 25.108622068000045], [84.50785907400007, 25.10910503300005], [84.50811633200004, 25.109615305000034], [84.50845304200004, 25.110026283000025], [84.50840782400007, 25.11064464800006], [84.50837280200005, 25.111055315000044], [84.50806488000006, 25.111601303000043], [84.50776196400005, 25.112151657000027], [84.50722569300007, 25.113067525000076], [84.50711617200005, 25.113545934000058], [84.50711002700007, 25.114746591000028], [84.50750086900007, 25.11561804100006], [84.50776344400003, 25.11583040900007], [84.50831831000005, 25.116205467000043], [84.50869479900007, 25.116521715000033], [84.50880337400008, 25.11703189600007], [84.50899112900004, 25.11775417000007], [84.50902064000007, 25.11806118800007], [84.50928283100006, 25.118575917000044], [84.50909404900005, 25.119018140000037], [84.50909343900008, 25.119668081000043], [84.50923686700008, 25.120047390000025], [84.50930551500005, 25.12090050300003], [84.50790203800005, 25.121274052000047], [84.50635980100003, 25.121674561000077], [84.50549189200007, 25.121908527000073], [84.50444038800003, 25.122350075000043], [84.50372648400008, 25.122412669000028], [84.50338907400004, 25.122656138000025], [84.50248149700008, 25.12289004300004], [84.50184179400009, 25.123020462000056], [84.50161352100008, 25.123223360000054], [84.50171563400005, 25.12531326900006], [84.50055047400008, 25.125307839000072], [84.50069362800008, 25.125890234000053], [84.50069332300006, 25.126264796000044], [84.50091589100003, 25.12674348300004], [84.50113866200007, 25.127086690000056], [84.50136029400005, 25.128630583000074], [84.50016417600006, 25.129839227000048], [84.49996928200005, 25.131310504000055], [84.49992912200008, 25.13178900300005], [84.49932368000003, 25.132271415000048], [84.49902046700004, 25.133020403000046], [84.49791262700006, 25.133448403000045], [84.49661229000003, 25.134381764000068], [84.49759333100008, 25.13531647900004], [84.49787495300006, 25.13556673000005], [84.49902194700007, 25.136423746000048], [84.49965595600008, 25.13711490600008], [84.50010162800004, 25.137697526000068], [84.50092908900007, 25.13831665400005], [84.50175294300004, 25.137568083000076], [84.50224933700008, 25.13705393200007], [84.50281489500009, 25.136751980000042], [84.50330082900007, 25.136752391000073], [84.50363764900004, 25.13706409300005], [84.50457404200006, 25.137854737000055], [84.50531724900009, 25.138442127000076], [84.50625881900004, 25.139097414000048], [84.50708664500007, 25.139305662000027], [84.50753283400007, 25.139409811000064], [84.50854439500006, 25.13945125600003], [84.50918936300008, 25.139045570000064], [84.50952703700005, 25.13846354100008], [84.51093158000003, 25.137169184000072], [84.51228985100005, 25.137535816000025], [84.51278037700007, 25.13787921100004], [84.51386079200006, 25.138534548000052], [84.51465349200004, 25.13929349800003], [84.51464250100008, 25.140489587000047], [84.51463655800006, 25.141550331000076], [84.51459663200006, 25.141893262000053], [84.51466528700007, 25.142750970000066], [84.51454540000003, 25.143707747000065], [84.51453958700006, 25.144597004000047], [84.51442448000006, 25.14579299600007], [84.51412134000003, 25.146614303000035], [84.51433894600007, 25.147228308000024], [84.51460173000004, 25.147269177000055], [84.51535525400004, 25.147508927000047], [84.51592025200006, 25.147856862000026], [84.51606368900008, 25.14833543900005], [84.51623165600006, 25.148967467000034], [84.51626048800006, 25.150032719000023], [84.51748034300005, 25.15008782900003], [84.51886885500005, 25.150133953000022], [84.52033664100009, 25.15023880900003], [84.52198772900005, 25.150592016000076], [84.52503215700006, 25.151081572000066], [84.52685154700004, 25.151827567000055], [84.52663462500004, 25.15025217500005], [84.52671455000007, 25.14949843200003], [84.52675492300006, 25.14854157800005], [84.52681544700005, 25.147327371000074], [84.52708402000007, 25.146334554000077], [84.52746609900004, 25.145960152000043], [84.52803168000008, 25.145653595000056], [84.52889470900004, 25.145455569000035]]]]}}, {"type": "Feature", "properties": {"OBJECTID": 1400, "GPCODE": "242785", "GPNAME_1": "NORTH KALER", "DIST_CEN_C": "38", "BLK_NAME": "KALER", "ST_NAME": "BIHAR", "ST_CODE_1": "10", "GPCODE2011": "238491", "REMARKS": "FINALIZED", "MAP_STATUS": "COMPLETED", "BLK_C_2001": "380002", "BLK_C_2011": "01543", "DIST_NAME": "ARWAL", "code2011": 0.0, "Shape_Leng": 0.10629056622, "Shape_Area": 0.00049872152, "Area": 5.57589}, "geometry": {"type": "MultiPolygon", "coordinates": [[[[84.50141854200007, 25.10501034500004], [84.50151525100006, 25.10670057300007], [84.50065864500004, 25.10812825000005], [84.49843146900008, 25.109670141000038], [84.49700379300003, 25.110355425000023], [84.49546190200005, 25.111326246000033], [84.49454818900006, 25.111840209000036], [84.49380579700005, 25.112639708000074], [84.49380579700005, 25.11446713400005], [84.49380579700005, 25.115609275000054], [84.49329530200004, 25.116413247000025], [84.49272076300008, 25.11697984500006], [84.49203547800005, 25.116751417000046], [84.48969408800008, 25.116865631000053], [84.48780955500007, 25.11743670100003], [84.48523973700009, 25.117550916000027], [84.48209884900007, 25.11823620000007], [84.48112802900005, 25.11949255600007], [84.48038563700004, 25.121662624000066], [84.47869924800005, 25.124380388000077], [84.48001429800007, 25.12521079000004], [84.48222530900006, 25.127636924000058], [84.48408779500005, 25.129510701000072], [84.48631322900007, 25.132049728000027], [84.48744485300006, 25.133468244000028], [84.48944100700004, 25.135410282000066], [84.49042087300006, 25.13651204200005], [84.49126067900005, 25.137017309000043], [84.49173368600003, 25.13752078600004], [84.49227752900003, 25.137776312000028], [84.49385685400006, 25.13656572700006], [84.49573076000007, 25.13500913000007], [84.49661229000003, 25.134381764000068], [84.49791262700006, 25.133448403000045], [84.49902046700004, 25.133020403000046], [84.49932368000003, 25.132271415000048], [84.49992912200008, 25.13178900300005], [84.49996928200005, 25.131310504000055], [84.50016417600006, 25.129839227000048], [84.50136029400005, 25.128630583000074], [84.50113866200007, 25.127086690000056], [84.50091589100003, 25.12674348300004], [84.50069332300006, 25.126264796000044], [84.50069362800008, 25.125890234000053], [84.50055047400008, 25.125307839000072], [84.50171563400005, 25.12531326900006], [84.50161352100008, 25.123223360000054], [84.50184179400009, 25.123020462000056], [84.50248149700008, 25.12289004300004], [84.50338907400004, 25.122656138000025], [84.50372648400008, 25.122412669000028], [84.50444038800003, 25.122350075000043], [84.50549189200007, 25.121908527000073], [84.50635980100003, 25.121674561000077], [84.50790203800005, 25.121274052000047], [84.50930551500005, 25.12090050300003], [84.50923686700008, 25.120047390000025], [84.50909343900008, 25.119668081000043], [84.50909404900005, 25.119018140000037], [84.50928283100006, 25.118575917000044], [84.50902064000007, 25.11806118800007], [84.50899112900004, 25.11775417000007], [84.50880337400008, 25.11703189600007], [84.50869479900007, 25.116521715000033], [84.50831831000005, 25.116205467000043], [84.50776344400003, 25.11583040900007], [84.50750086900007, 25.11561804100006], [84.50711002700007, 25.114746591000028], [84.50711617200005, 25.113545934000058], [84.50722569300007, 25.113067525000076], [84.50776196400005, 25.112151657000027], [84.50806488000006, 25.111601303000043], [84.50837280200005, 25.111055315000044], [84.50840782400007, 25.11064464800006], [84.50845304200004, 25.110026283000025], [84.50811633200004, 25.109615305000034], [84.50785907400007, 25.10910503300005], [84.50789418600004, 25.108622068000045], [84.50778552900005, 25.108247361000053], [84.50765705400005, 25.107746230000032], [84.50722615000006, 25.10734867800005], [84.50709073300004, 25.103809841000043], [84.50141854200007, 25.10501034500004]]]]}}, {"type": "Feature", "properties": {"OBJECTID": 1346, "GPCODE": "242780", "GPNAME_1": "TERI", "DIST_CEN_C": "38", "BLK_NAME": "KALER", "ST_NAME": "BIHAR", "ST_CODE_1": "10", "GPCODE2011": "238486", "REMARKS": "FINALIZED", "MAP_STATUS": "COMPLETED", "BLK_C_2001": "380002", "BLK_C_2011": "01543", "DIST_NAME": "ARWAL", "code2011": 0.0, "Shape_Leng": 0.12612489595, "Shape_Area": 0.00061073763, "Area": 6.82829}, "geometry": {"type": "MultiPolygon", "coordinates": [[[[84.55853021700005, 25.12387380800004], [84.55830798500006, 25.122266813000067], [84.55816443400005, 25.12181995000003], [84.55786229000006, 25.12133677500003], [84.55786776600007, 25.120375395000053], [84.55750123300004, 25.11962592900005], [84.55739252500007, 25.11904357700007], [84.55706095500005, 25.117982711000025], [84.55693267300006, 25.116872296000054], [84.55701220400005, 25.11635779900007], [84.55701745000005, 25.115879291000056], [84.55693835400007, 25.115409897000063], [84.55590745000006, 25.11497608700006], [84.55515421800004, 25.114379923000058], [84.55419896500007, 25.111675696000077], [84.55345093300008, 25.110686851000025], [84.55239999500003, 25.11070442600004], [84.55023789600006, 25.111827246000075], [84.54964291300007, 25.11182696900005], [84.54878049700005, 25.111673015000065], [84.54706074100005, 25.110877747000075], [84.54577233300006, 25.110037460000058], [84.54486067100004, 25.109247064000044], [84.54470269400008, 25.108263038000075], [84.54416764600006, 25.10767588500005], [84.54057043900008, 25.105051458000048], [84.53911351400006, 25.10440513900005], [84.53781967700007, 25.104399811000064], [84.53215806300005, 25.105014754000024], [84.52996658700005, 25.105568623000067], [84.52787025200007, 25.10492176500003], [84.52171146500007, 25.107246659000054], [84.52030360900005, 25.107272790000025], [84.51685901600007, 25.106335927000032], [84.51378537300008, 25.10656838700004], [84.51391860900003, 25.10721848000003], [84.51406708000007, 25.107525528000053], [84.51404687400003, 25.107954276000044], [84.51411580900003, 25.108401145000073], [84.51449205900008, 25.108983730000034], [84.51448692700006, 25.109254553000028], [84.51489787500003, 25.109837138000046], [84.51489251300006, 25.11021627200006], [84.51508033800008, 25.110902530000033], [84.51511392100008, 25.11210322900007], [84.51522261600007, 25.112613311000075], [84.51521703900005, 25.11329941100007], [84.51536533100005, 25.11371025400007], [84.51528501600006, 25.114910868000038], [84.51550270500007, 25.115353394000067], [84.51538829500004, 25.11576398400007], [84.51549682400008, 25.116450159000067], [84.51549119000003, 25.11713174600004], [84.51489123800008, 25.117298267000024], [84.51451425200008, 25.117505617000063], [84.51413726700008, 25.11774464800004], [84.51398328400006, 25.11808299000006], [84.51390848100004, 25.118561403000058], [84.51382831100005, 25.119418949000078], [84.51418515700004, 25.119644950000065], [84.51497334700008, 25.11971321900006], [84.51534999400008, 25.11988955100003], [84.51583573300007, 25.120061409000073], [84.51647017800008, 25.120170168000072], [84.51733786900007, 25.12007152800004], [84.51808651200008, 25.120139830000028], [84.51865156200006, 25.12021689900007], [84.51921670200005, 25.12031661900005], [84.52007906200004, 25.120700889000034], [84.52105572300007, 25.120706152000025], [84.52188367600007, 25.120711243000073], [84.52256290400004, 25.12064396100004], [84.52297450400005, 25.120508888000074], [84.52320269600006, 25.12037355900003], [84.52395134000005, 25.120378655000025], [84.52496753500003, 25.120586916000036], [84.52549282900003, 25.120898771000043], [84.52628124500006, 25.120732314000065], [84.52651489000004, 25.119874782000068], [84.52658972600005, 25.11929256800005], [84.52681820700008, 25.118850450000025], [84.52867237500004, 25.118869682000025], [84.52960932900004, 25.11891095900006], [84.53016932100007, 25.119222704000038], [84.53088324000004, 25.119187063000027], [84.53167156400008, 25.119124374000023], [84.53212280500009, 25.119020809000062], [84.53280190700008, 25.119265049000035], [84.53336176100004, 25.119752876000064], [84.53369841500006, 25.120330773000035], [84.53384174500007, 25.121017022000046], [84.53429244000006, 25.121667280000054], [84.53507548000005, 25.12201529600003], [84.53702888900006, 25.12209322500007], [84.53909633200004, 25.12207181900004], [84.53987478600004, 25.12185566900007], [84.53984050300005, 25.12124174400003], [84.54074807000006, 25.120935321000047], [84.54146198300003, 25.120836453000038], [84.54191328000007, 25.120737372000065], [84.54281559400005, 25.120773967000048], [84.54315256100006, 25.12091409900006], [84.54348464600008, 25.121121973000072], [84.54401014500007, 25.12118988800006], [84.54435194500007, 25.121537646000036], [84.54449536600004, 25.122187690000032], [84.54471831600006, 25.12245862900005], [84.54607168900003, 25.122531597000034], [84.54663685000008, 25.122707933000072], [84.54674560100005, 25.123118805000047], [84.54719660900008, 25.123462059000076], [84.54791054500004, 25.123534645000063], [84.54839629200006, 25.123679326000058], [84.54929872100007, 25.12357598600005], [84.55004156300004, 25.124984592000033], [84.55053196900008, 25.12563934600007], [84.55074994900008, 25.125946433000024], [84.55138942800005, 25.12611826400007], [84.55266849800006, 25.126331046000075], [84.55345684200006, 25.12636752700007], [84.55454756600005, 25.126404128000047], [84.55541026000003, 25.126409124000077], [84.55590121300008, 25.126278442000057], [84.55678373900008, 25.126129873000025], [84.55734910900009, 25.125927001000036], [84.55868815900004, 25.125191853000047], [84.55853021700005, 25.12387380800004]]]]}}, {"type": "Feature", "properties": {"OBJECTID": 1349, "GPCODE": "242786", "GPNAME_1": "BELAWAN", "DIST_CEN_C": "38", "BLK_NAME": "KALER", "ST_NAME": "BIHAR", "ST_CODE_1": "10", "GPCODE2011": "238492", "REMARKS": "FINALIZED", "MAP_STATUS": "COMPLETED", "BLK_C_2001": "380002", "BLK_C_2011": "01543", "DIST_NAME": "ARWAL", "code2011": 0.0, "Shape_Leng": 0.11460468896, "Shape_Area": 0.00074703471, "Area": 8.35121}, "geometry": {"type": "MultiPolygon", "coordinates": [[[[84.47085247400008, 25.151679390000027], [84.47152394000005, 25.151366947000042], [84.47255796900004, 25.151751491000027], [84.47311315100006, 25.151795031000063], [84.47406495600006, 25.151064379000047], [84.47510740400008, 25.150122046000035], [84.47534310900005, 25.14970347600007], [84.47996934000008, 25.145841551000046], [84.48256845300006, 25.143350093000038], [84.48414286000008, 25.14216213700007], [84.48491015400003, 25.141574900000023], [84.48569678800004, 25.141077903000053], [84.48670815800006, 25.14190009200007], [84.48790819300007, 25.141906277000032], [84.48871806000005, 25.14163965700004], [84.48929605500007, 25.141200267000045], [84.48942421500004, 25.140514862000032], [84.48988762400006, 25.140160666000043], [84.49083581800005, 25.139976038000043], [84.49185360100006, 25.13977363500004], [84.49245306500006, 25.13985790600003], [84.49245968800005, 25.138788214000044], [84.49227752900003, 25.137776312000028], [84.49173368600003, 25.13752078600004], [84.49126067900005, 25.137017309000043], [84.49042087300006, 25.13651204200005], [84.48944100700004, 25.135410282000066], [84.48744485300006, 25.133468244000028], [84.48631322900007, 25.132049728000027], [84.48408779500005, 25.129510701000072], [84.48222530900006, 25.127636924000058], [84.48001429800007, 25.12521079000004], [84.47869924800005, 25.124380388000077], [84.47824130200007, 25.124091214000032], [84.47726044600006, 25.124754137000025], [84.47611276500004, 25.12512726600005], [84.47503936600003, 25.12551886800003], [84.47203420900007, 25.12639224700007], [84.46957050700007, 25.127087931000062], [84.46740955300004, 25.127739930000075], [84.46474595600006, 25.128678174000072], [84.46247362400004, 25.129686224000068], [84.46182174100005, 25.13005286500004], [84.46077774800005, 25.12893693700005], [84.45806614900005, 25.130384811000056], [84.45524957000003, 25.13197204900007], [84.45362163900006, 25.132974301000047], [84.45222634400005, 25.134054569000057], [84.45097855200004, 25.13453528200006], [84.44983407000007, 25.13516543000003], [84.45043125300003, 25.136351192000063], [84.45274053600008, 25.14039419100004], [84.45402535200003, 25.14260818200006], [84.45513170400005, 25.144821129000036], [84.45599817900006, 25.146558954000056], [84.45613406700005, 25.147787351000034], [84.45825907600005, 25.15124247800003], [84.46046845600006, 25.155478859000027], [84.46121494200008, 25.15506760200003], [84.46547339600005, 25.153767741000024], [84.46700028000004, 25.15308077000003], [84.46827190500005, 25.152748992000056], [84.46979821100007, 25.15214774900005], [84.47085247400008, 25.151679390000027]]]]}}, {"type": "Feature", "properties": {"OBJECTID": 1351, "GPCODE": "242779", "GPNAME_1": "JAIPUR", "DIST_CEN_C": "38", "BLK_NAME": "KALER", "ST_NAME": "BIHAR", "ST_CODE_1": "10", "GPCODE2011": "238485", "REMARKS": "FINALIZED", "MAP_STATUS": "COMPLETED", "BLK_C_2001": "380002", "BLK_C_2011": "01543", "DIST_NAME": "ARWAL", "code2011": 0.0, "Shape_Leng": 0.18344994107, "Shape_Area": 0.00079399585, "Area": 8.87581}, "geometry": {"type": "MultiPolygon", "coordinates": [[[[84.56443258500008, 25.13933131700003], [84.56526071300004, 25.139133102000073], [84.56691695900008, 25.139142711000034], [84.57065586700008, 25.13879213200005], [84.57266911700003, 25.138585206000073], [84.57421135100003, 25.138283320000028], [84.57489078300006, 25.13801273100006], [84.57605599800007, 25.137913809000054], [84.57686428800008, 25.13784643400004], [84.57675559100005, 25.136808217000066], [84.57657248400005, 25.13594147500004], [84.57669188200003, 25.134975621000024], [84.57912670100006, 25.134362517000056], [84.57923553700005, 25.13480937500003], [84.57942897700008, 25.13480945200007], [84.57995951300006, 25.13471031000006], [84.58167547400006, 25.13375391900007], [84.58255331400005, 25.133199010000055], [84.58282116000004, 25.132959913000036], [84.58297497700005, 25.132409221000046], [84.58291123200007, 25.130504418000044], [84.58152854200006, 25.128436795000027], [84.58013532800004, 25.128364118000036], [84.57946622800006, 25.127817707000077], [84.57904995000007, 25.127127048000034], [84.57739897400006, 25.127122021000048], [84.57617531000005, 25.124580318000028], [84.57466817300008, 25.124403852000057], [84.57391926000008, 25.124845865000054], [84.57309131300008, 25.12488175900006], [84.57211474200005, 25.124565438000047], [84.57170362300008, 25.123603840000044], [84.57058338600007, 25.12294896900005], [84.56930436300007, 25.122808538000072], [84.56832782000004, 25.122392913000056], [84.56788187700005, 25.121878177000042], [84.56750543700008, 25.121088134000047], [84.56736712100007, 25.119991192000043], [84.56710983500005, 25.118862672000034], [84.56673332100007, 25.118280309000056], [84.56595019500008, 25.117693184000075], [84.56533063400008, 25.117404046000047], [84.56474090300009, 25.11692983000006], [84.56410192300007, 25.11579663200007], [84.56388933800008, 25.11461852800005], [84.56097908300006, 25.114946752000037], [84.55784558200008, 25.115468916000054], [84.55693835400007, 25.115409897000063], [84.55701745000005, 25.115879291000056], [84.55701220400005, 25.11635779900007], [84.55693267300006, 25.116872296000054], [84.55706095500005, 25.117982711000025], [84.55739252500007, 25.11904357700007], [84.55750123300004, 25.11962592900005], [84.55786776600007, 25.120375395000053], [84.55786229000006, 25.12133677500003], [84.55816443400005, 25.12181995000003], [84.55830798500006, 25.122266813000067], [84.55853021700005, 25.12387380800004], [84.55868815900004, 25.125191853000047], [84.55734910900009, 25.125927001000036], [84.55678373900008, 25.126129873000025], [84.55590121300008, 25.126278442000057], [84.55541026000003, 25.126409124000077], [84.55454756600005, 25.126404128000047], [84.55345684200006, 25.12636752700007], [84.55266849800006, 25.126331046000075], [84.55138942800005, 25.12611826400007], [84.55074994900008, 25.125946433000024], [84.55053196900008, 25.12563934600007], [84.55004156300004, 25.124984592000033], [84.54929872100007, 25.12357598600005], [84.54839629200006, 25.123679326000058], [84.54791054500004, 25.123534645000063], [84.54719660900008, 25.123462059000076], [84.54674560100005, 25.123118805000047], [84.54663685000008, 25.122707933000072], [84.54607168900003, 25.122531597000034], [84.54471831600006, 25.12245862900005], [84.54449536600004, 25.122187690000032], [84.54435194500007, 25.121537646000036], [84.54401014500007, 25.12118988800006], [84.54348464600008, 25.121121973000072], [84.54315256100006, 25.12091409900006], [84.54281559400005, 25.120773967000048], [84.54191328000007, 25.120737372000065], [84.54146198300003, 25.120836453000038], [84.54074807000006, 25.120935321000047], [84.53984050300005, 25.12124174400003], [84.53987478600004, 25.12185566900007], [84.53909633200004, 25.12207181900004], [84.53702888900006, 25.12209322500007], [84.53710698900005, 25.123808447000044], [84.53735896500007, 25.124937070000044], [84.53773532600007, 25.125695592000056], [84.53772997100003, 25.126241698000058], [84.53754128200006, 25.126544059000025], [84.53742669600007, 25.127333832000033], [84.53719314500006, 25.128155182000057], [84.53633044300005, 25.128150177000066], [84.53497674800008, 25.12821251400004], [84.53350906900005, 25.128378656000052], [84.53241299100006, 25.128820319000056], [84.53260971400005, 25.130919326000026], [84.53263857800005, 25.13221924800007], [84.53267243900007, 25.13324844400006], [84.53258700900005, 25.13485526200003], [84.53145607500005, 25.135328512000058], [84.53137607800005, 25.136253749000048], [84.53148468600006, 25.136867704000053], [84.53110226100006, 25.137752156000033], [84.52997153800004, 25.137954534000073], [84.52963421800007, 25.138157441000033], [84.52936618600006, 25.13850024000004], [84.52898899600007, 25.138906279000025], [84.52880021300007, 25.13938462400006], [84.52881922300008, 25.14038662200005], [84.53014800800008, 25.140617753000072], [84.53142714500007, 25.140835223000067], [84.53202694200007, 25.141142480000042], [84.53214082700003, 25.141381817000024], [84.53212992200008, 25.142650111000023], [84.53284386200005, 25.14275445000004], [84.53318087400004, 25.143097674000046], [84.53351279800006, 25.143508643000075], [84.53403851500008, 25.143391568000027], [84.53502057500003, 25.143089727000074], [84.53633976100008, 25.142819717000066], [84.53750501500008, 25.142928763000043], [84.53929963100006, 25.143453389000058], [84.54065348500006, 25.14339101400003], [84.54213197300004, 25.14223179100003], [84.54232619700008, 25.140900368000075], [84.54237191900006, 25.13922131100003], [84.54188639700004, 25.138670369000067], [84.54124677100003, 25.138669985000035], [84.54063210100009, 25.138340175000053], [84.54036938300004, 25.13813237900007], [84.54037479000004, 25.13748239000006], [84.54007273800005, 25.13686380100006], [84.54000391100004, 25.136114500000076], [84.54011813400007, 25.13580317900005], [84.54091165100004, 25.13556439000007], [84.54073442800006, 25.133614386000033], [84.54006083800004, 25.132657101000063], [84.54128590100004, 25.13209804400003], [84.54271907200007, 25.131656553000028], [84.54364162900004, 25.131268816000045], [84.54437527700009, 25.131531021000058], [84.54485565000004, 25.132316678000052], [84.54518758500006, 25.132867519000058], [84.54548985900004, 25.13307534300003], [84.54699210200005, 25.133252146000075], [84.54767132300003, 25.13339694600006], [84.54815204800008, 25.133704141000067], [84.54871696500004, 25.134291228000052], [84.54886018600007, 25.13524822900007], [84.54921681400003, 25.135952505000034], [84.54970247700004, 25.136295836000045], [84.54992516900006, 25.137085830000046], [84.55022243700006, 25.137528361000022], [84.55066855400008, 25.137740695000048], [84.55062838800006, 25.13852156300004], [84.55165975900007, 25.138576235000073], [84.55266500100004, 25.140806522000048], [84.55308141100005, 25.14095111100005], [84.55364161000006, 25.14128993500003], [84.55446969800005, 25.141294851000055], [84.55642338100006, 25.14140863800003], [84.55736051500008, 25.141481242000054], [84.55878842900006, 25.14179789800005], [84.56002794700004, 25.142006078000065], [84.56013635400006, 25.14337825000007], [84.56170810200007, 25.143658868000045], [84.56249150300005, 25.143880288000048], [84.56283388800006, 25.14336587400004], [84.56294823400003, 25.14278367600008], [84.56310232400006, 25.14196223700003], [84.56341008700008, 25.14141624000007], [84.56394134200008, 25.139949500000057], [84.56443258500008, 25.13933131700003]]]]}}, {"type": "Feature", "properties": {"OBJECTID": 1352, "GPCODE": "242774", "GPNAME_1": "USARI", "DIST_CEN_C": "38", "BLK_NAME": "KALER", "ST_NAME": "BIHAR", "ST_CODE_1": "10", "GPCODE2011": "238480", "REMARKS": "FINALIZED", "MAP_STATUS": "COMPLETED", "BLK_C_2001": "380002", "BLK_C_2011": "01543", "DIST_NAME": "ARWAL", "code2011": 0.0, "Shape_Leng": 0.14152167479, "Shape_Area": 0.0006549607, "Area": 7.32027}, "geometry": {"type": "MultiPolygon", "coordinates": [[[[84.59651530900004, 25.158009702000072], [84.59659980500004, 25.157400369000072], [84.59679346400003, 25.15624037200007], [84.59627277500005, 25.155910843000072], [84.59610938700007, 25.154655999000056], [84.59602566500007, 25.152349439000034], [84.59439429800005, 25.15150058000006], [84.59199440400005, 25.15046637300003], [84.59102255800008, 25.14994704700007], [84.59028371600004, 25.149644507000062], [84.59040293700008, 25.149102850000077], [84.59123619200005, 25.14834927800007], [84.59164794200007, 25.14790706200006], [84.59283832300008, 25.146796968000046], [84.59408336100006, 25.14556947500006], [84.59348841900004, 25.14508640500003], [84.59292315700003, 25.144779278000044], [84.59251171300008, 25.14450387000005], [84.59213473700004, 25.144603102000076], [84.59191662300003, 25.144431551000025], [84.59155479300006, 25.143826619000038], [84.59389051600004, 25.14315010200005], [84.59543273000008, 25.143222657000024], [84.59754546300007, 25.141728988000068], [84.59762482600007, 25.141250580000076], [84.59747623800007, 25.140839820000053], [84.59703517200006, 25.13933212200004], [84.59793777100003, 25.138822255000036], [84.59768007800005, 25.138235424000072], [84.59798270700009, 25.13759003900003], [84.60023881200004, 25.137427939000077], [84.60091820500008, 25.137188825000067], [84.60051191000008, 25.13547803700004], [84.60025432200007, 25.134448861000067], [84.59999161200005, 25.133970396000052], [84.59972403400008, 25.132927609000035], [84.59828626400008, 25.132232272000067], [84.59504900400003, 25.13011920400004], [84.59372533000004, 25.129320051000036], [84.59277346000005, 25.129003863000037], [84.59105775100005, 25.129892684000026], [84.58756217600006, 25.13008588100007], [84.58540032500008, 25.130320066000024], [84.58291123200007, 25.130504418000044], [84.58297497700005, 25.132409221000046], [84.58282116000004, 25.132959913000036], [84.58255331400005, 25.133199010000055], [84.58167547400006, 25.13375391900007], [84.57995951300006, 25.13471031000006], [84.57942897700008, 25.13480945200007], [84.57923553700005, 25.13480937500003], [84.57912670100006, 25.134362517000056], [84.57669188200003, 25.134975621000024], [84.57657248400005, 25.13594147500004], [84.57675559100005, 25.136808217000066], [84.57686428800008, 25.13784643400004], [84.57749859900008, 25.13893891300006], [84.57787003800007, 25.139968159000034], [84.57790961200004, 25.14041052600004], [84.57820190100006, 25.141132760000062], [84.57831056100008, 25.14212133500007], [84.57841949500005, 25.14263597200005], [84.57819123500008, 25.143046569000035], [84.57815135300007, 25.143592777000038], [84.57810635800007, 25.144621907000044], [84.57844339500008, 25.14496503500004], [84.57840349900005, 25.145578842000077], [84.57832900600005, 25.146025688000066], [84.57805602800005, 25.146535690000064], [84.57767876600008, 25.147596290000024], [84.57739587500004, 25.14816036800005], [84.57735611800007, 25.14850340600003], [84.57675076000004, 25.149288565000063], [84.57667134900004, 25.149563887000056], [84.57667116800008, 25.14993854100004], [84.57681484400007, 25.15034937000007], [84.57692870900007, 25.150900054000033], [84.57715169500005, 25.151446314000054], [84.57730036100008, 25.151653922000037], [84.57763211400004, 25.152922406000073], [84.57766672800005, 25.153265454000064], [84.57785485100004, 25.153951624000058], [84.57807277000006, 25.15487700700004], [84.57827585400008, 25.15540967000004], [84.57816159200007, 25.155955773000073], [84.57823074900006, 25.156605768000077], [84.57819094800004, 25.157120381000027], [84.57792304300006, 25.15735946700005], [84.57739728500007, 25.157490229000075], [84.57691120500004, 25.157797010000024], [84.57660358000004, 25.15810836600008], [84.57652906200008, 25.158478401000025], [84.57638006400003, 25.15901549000006], [84.57682632500007, 25.159191643000042], [84.57761987000004, 25.15902496500007], [84.57825969000004, 25.15892582400005], [84.57875066900004, 25.158758973000033], [84.57908800600006, 25.158551446000047], [84.57969327300003, 25.157901666000043], [84.58010504900005, 25.157630967000046], [84.58041239700003, 25.15798316400003], [84.58054115000004, 25.158601555000075], [84.58083353900008, 25.159152292000044], [84.58064486600006, 25.159748120000074], [84.58099681300007, 25.160181514000044], [84.58160182100005, 25.160317129000077], [84.58210756000005, 25.160597049000046], [84.58206270400007, 25.161179318000052], [84.58157657700008, 25.16151319000005], [84.58025213600007, 25.16238392500003], [84.57977100400007, 25.162523689000068], [84.57914597700005, 25.162952377000067], [84.57847126700005, 25.163290621000044], [84.57735501300004, 25.16424266100006], [84.57763758400006, 25.16454973200007], [84.57767222700005, 25.164978518000055], [84.57758746600007, 25.16616104700006], [84.57861404400006, 25.166278772000055], [84.57911983000008, 25.16652269000008], [84.57981412300006, 25.16678018500005], [84.58133155300004, 25.167371935000062], [84.58215962100007, 25.167787456000042], [84.58260602500008, 25.16794102500006], [84.58337458900007, 25.16842424200007], [84.58394986400003, 25.168740316000026], [84.58459945300007, 25.168952605000072], [84.58557630100006, 25.169625437000036], [84.58608207800006, 25.170018251000045], [84.58690528700004, 25.170605281000064], [84.58732199100007, 25.170262309000066], [84.58824965100007, 25.169617127000038], [84.58866141400006, 25.169517890000066], [84.58924172800005, 25.16921113500007], [84.59002547300008, 25.168777977000047], [84.59147395000008, 25.16816899400004], [84.59196505200003, 25.167934408000065], [84.59249580200003, 25.16762303300004], [84.59377558500006, 25.166865049000023], [84.59486685800005, 25.166373282000052], [84.59539753300004, 25.166237986000056], [84.59526382500007, 25.165475164000043], [84.59509534500006, 25.16484322900004], [84.59479787700008, 25.16450006900004], [84.59473846400005, 25.164084822000063], [84.59463442500004, 25.16362439100004], [84.59403461900007, 25.162288198000056], [84.59380663000007, 25.161647252000023], [84.59354392400007, 25.161231867000026], [84.59320672400008, 25.160852676000047], [84.59424342500006, 25.16034733400005], [84.59560233400003, 25.159941459000038], [84.59620250100005, 25.159603050000044], [84.59635137300006, 25.159296092000034], [84.59651530900004, 25.158009702000072]]]]}}, {"type": "Feature", "properties": {"OBJECTID": 1353, "GPCODE": "242773", "GPNAME_1": "INJOR", "DIST_CEN_C": "38", "BLK_NAME": "KALER", "ST_NAME": "BIHAR", "ST_CODE_1": "10", "GPCODE2011": "238479", "REMARKS": "FINALIZED", "MAP_STATUS": "COMPLETED", "BLK_C_2001": "380002", "BLK_C_2011": "01543", "DIST_NAME": "ARWAL", "code2011": 0.0, "Shape_Leng": 0.15349685732, "Shape_Area": 0.00079442377, "Area": 8.87885}, "geometry": {"type": "MultiPolygon", "coordinates": [[[[84.62341971900008, 25.15507865400008], [84.62275517400008, 25.152614091000032], [84.62215024000005, 25.150163216000067], [84.62132712000005, 25.148479577000046], [84.61965108000004, 25.145942787000024], [84.62187759400007, 25.144173512000066], [84.62201145900008, 25.14388465600007], [84.62052397900004, 25.14035485900007], [84.62271070200006, 25.13930318200005], [84.62492722400003, 25.138761541000065], [84.62673707600004, 25.138328270000045], [84.62850725300007, 25.138057428000025], [84.63078813300007, 25.13796257000007], [84.62863123400007, 25.137159171000064], [84.62681140900008, 25.136003704000075], [84.62479327000005, 25.13517768400004], [84.62302812300004, 25.134243324000067], [84.61754427200003, 25.132415081000033], [84.61690460500006, 25.132446694000066], [84.61530809100003, 25.13216673000005], [84.61227368900006, 25.131187031000024], [84.61075656100007, 25.130559471000026], [84.60757362600003, 25.128952223000056], [84.60277369500005, 25.131420552000066], [84.59972403400008, 25.132927609000035], [84.59999161200005, 25.133970396000052], [84.60025432200007, 25.134448861000067], [84.60051191000008, 25.13547803700004], [84.60091820500008, 25.137188825000067], [84.60023881200004, 25.137427939000077], [84.59798270700009, 25.13759003900003], [84.59768007800005, 25.138235424000072], [84.59793777100003, 25.138822255000036], [84.59703517200006, 25.13933212200004], [84.59747623800007, 25.140839820000053], [84.59762482600007, 25.141250580000076], [84.59754546300007, 25.141728988000068], [84.59543273000008, 25.143222657000024], [84.59389051600004, 25.14315010200005], [84.59155479300006, 25.143826619000038], [84.59191662300003, 25.144431551000025], [84.59213473700004, 25.144603102000076], [84.59251171300008, 25.14450387000005], [84.59292315700003, 25.144779278000044], [84.59348841900004, 25.14508640500003], [84.59408336100006, 25.14556947500006], [84.59283832300008, 25.146796968000046], [84.59164794200007, 25.14790706200006], [84.59123619200005, 25.14834927800007], [84.59040293700008, 25.149102850000077], [84.59028371600004, 25.149644507000062], [84.59102255800008, 25.14994704700007], [84.59199440400005, 25.15046637300003], [84.59439429800005, 25.15150058000006], [84.59602566500007, 25.152349439000034], [84.59610938700007, 25.154655999000056], [84.59627277500005, 25.155910843000072], [84.59679346400003, 25.15624037200007], [84.59854414100005, 25.15595637200005], [84.59918390900003, 25.155825556000025], [84.59962029100006, 25.155649668000024], [84.60202564800005, 25.15521668200006], [84.60413342400005, 25.154815351000025], [84.60533853600003, 25.154409266000073], [84.60670729900005, 25.15426049900003], [84.60685591800006, 25.15532117500004], [84.60741119700003, 25.156589671000063], [84.60778293600004, 25.157514951000053], [84.60785727700005, 25.158065686000043], [84.60808040500007, 25.15885107400004], [84.60848688400006, 25.159740320000026], [84.60881915200008, 25.16015563600007], [84.60893319200005, 25.16056639800007], [84.60904215200009, 25.16118480600005], [84.60973141500006, 25.16267438500006], [84.60991474700006, 25.163807329000065], [84.61013785800003, 25.16459722600007], [84.61058415600007, 25.165450374000045], [84.61065345900005, 25.166068763000055], [84.61102533700006, 25.16703022300004], [84.61106004000004, 25.167544744000054], [84.61135756400006, 25.168127046000052], [84.61133769300005, 25.16851978400007], [84.61159545600003, 25.16916976400006], [84.61166487700007, 25.170049977000076], [84.61313299300008, 25.17005909200003], [84.61452664800004, 25.169756824000046], [84.61610889000008, 25.169481521000023], [84.61522127300003, 25.16729233700005], [84.61523130900008, 25.164963286000045], [84.61560834500006, 25.164277251000044], [84.61764670200006, 25.16387560100003], [84.62088037500007, 25.163275414000054], [84.62479339700008, 25.162332153000023], [84.62441158400009, 25.15950209600004], [84.62341971900008, 25.15507865400008]]]]}}, {"type": "Feature", "properties": {"OBJECTID": 1354, "GPCODE": "242783", "GPNAME_1": "MAINPURA", "DIST_CEN_C": "38", "BLK_NAME": "KALER", "ST_NAME": "BIHAR", "ST_CODE_1": "10", "GPCODE2011": "238489", "REMARKS": "FINALIZED", "MAP_STATUS": "COMPLETED", "BLK_C_2001": "380002", "BLK_C_2011": "01543", "DIST_NAME": "ARWAL", "code2011": 0.0, "Shape_Leng": 0.158969354, "Shape_Area": 0.00107853086, "Area": 12.0554}, "geometry": {"type": "MultiPolygon", "coordinates": [[[[84.48172041200007, 25.16636421000004], [84.48313424800006, 25.16630834700004], [84.48398077500008, 25.166570052000054], [84.48452401800006, 25.166938436000066], [84.48470942400007, 25.16663247100007], [84.48738897400005, 25.164836431000026], [84.49164459300005, 25.162384949000057], [84.49366330000004, 25.161555709000027], [84.49428963900004, 25.162132174000078], [84.49532374300009, 25.161726675000068], [84.49564289500006, 25.161443978000023], [84.49603006900008, 25.16137830300005], [84.49648809500007, 25.16191314200006], [84.49699689400006, 25.162245278000057], [84.49789964200005, 25.16223175500005], [84.49830263600006, 25.162275773000033], [84.49931790300008, 25.162355197000068], [84.49986339500003, 25.16246403400004], [84.50022027500006, 25.162581669000076], [84.50028919600004, 25.163132414000074], [84.50113730700008, 25.163069902000075], [84.50165876100004, 25.162361727000075], [84.50166446400004, 25.161607954000033], [84.50151125200006, 25.161129376000076], [84.50177966000007, 25.160520193000025], [84.50251422200006, 25.15998825500003], [84.50402276300008, 25.159009972000035], [84.50421173000007, 25.158620099000075], [84.50421660500007, 25.158617442000036], [84.50577965200006, 25.157765658000073], [84.50792771400006, 25.157054208000034], [84.50984738900007, 25.156550149000054], [84.51086417900007, 25.156420042000036], [84.51274394600006, 25.156191276000072], [84.51417213500008, 25.15623306300006], [84.51543172500004, 25.156391928000062], [84.51583404700006, 25.15569712300004], [84.51663391800008, 25.153991576000067], [84.51735408100006, 25.152723684000023], [84.51746360100003, 25.152276957000026], [84.51748034300005, 25.15008782900003], [84.51626048800006, 25.150032719000023], [84.51623165600006, 25.148967467000034], [84.51606368900008, 25.14833543900005], [84.51592025200006, 25.147856862000026], [84.51535525400004, 25.147508927000047], [84.51460173000004, 25.147269177000055], [84.51433894600007, 25.147228308000024], [84.51412134000003, 25.146614303000035], [84.51442448000006, 25.14579299600007], [84.51453958700006, 25.144597004000047], [84.51454540000003, 25.143707747000065], [84.51466528700007, 25.142750970000066], [84.51459663200006, 25.141893262000053], [84.51463655800006, 25.141550331000076], [84.51464250100008, 25.140489587000047], [84.51465349200004, 25.13929349800003], [84.51386079200006, 25.138534548000052], [84.51278037700007, 25.13787921100004], [84.51228985100005, 25.137535816000025], [84.51093158000003, 25.137169184000072], [84.50952703700005, 25.13846354100008], [84.50918936300008, 25.139045570000064], [84.50854439500006, 25.13945125600003], [84.50753283400007, 25.139409811000064], [84.50708664500007, 25.139305662000027], [84.50625881900004, 25.139097414000048], [84.50531724900009, 25.138442127000076], [84.50457404200006, 25.137854737000055], [84.50363764900004, 25.13706409300005], [84.50330082900007, 25.136752391000073], [84.50281489500009, 25.136751980000042], [84.50224933700008, 25.13705393200007], [84.50175294300004, 25.137568083000076], [84.50092908900007, 25.13831665400005], [84.50010162800004, 25.137697526000068], [84.49965595600008, 25.13711490600008], [84.49902194700007, 25.136423746000048], [84.49787495300006, 25.13556673000005], [84.49759333100008, 25.13531647900004], [84.49661229000003, 25.134381764000068], [84.49573076000007, 25.13500913000007], [84.49385685400006, 25.13656572700006], [84.49227752900003, 25.137776312000028], [84.49245968800005, 25.138788214000044], [84.49245306500006, 25.13985790600003], [84.49185360100006, 25.13977363500004], [84.49083581800005, 25.139976038000043], [84.48988762400006, 25.140160666000043], [84.48942421500004, 25.140514862000032], [84.48929605500007, 25.141200267000045], [84.48871806000005, 25.14163965700004], [84.48790819300007, 25.141906277000032], [84.48670815800006, 25.14190009200007], [84.48569678800004, 25.141077903000053], [84.48491015400003, 25.141574900000023], [84.48414286000008, 25.14216213700007], [84.48256845300006, 25.143350093000038], [84.47996934000008, 25.145841551000046], [84.47534310900005, 25.14970347600007], [84.47510740400008, 25.150122046000035], [84.47406495600006, 25.151064379000047], [84.47311315100006, 25.151795031000063], [84.47255796900004, 25.151751491000027], [84.47152394000005, 25.151366947000042], [84.47085247400008, 25.151679390000027], [84.46979821100007, 25.15214774900005], [84.46827190500005, 25.152748992000056], [84.46700028000004, 25.15308077000003], [84.46547339600005, 25.153767741000024], [84.46121494200008, 25.15506760200003], [84.46046845600006, 25.155478859000027], [84.46344798000007, 25.161050730000056], [84.46495438000005, 25.162805406000075], [84.46600965300007, 25.164535142000034], [84.46823264500006, 25.167476083000054], [84.46966375000005, 25.169406389000073], [84.47093497100008, 25.170726485000046], [84.47146235300005, 25.171252851000077], [84.47509058300005, 25.16928596200006], [84.47701590300005, 25.16835272700007], [84.47917493100005, 25.16733488600005], [84.48109869600006, 25.16664532200008], [84.48172041200007, 25.16636421000004]]]]}}, {"type": "Feature", "properties": {"OBJECTID": 1356, "GPCODE": "242775", "GPNAME_1": "PAHLEJA", "DIST_CEN_C": "38", "BLK_NAME": "KALER", "ST_NAME": "BIHAR", "ST_CODE_1": "10", "GPCODE2011": "238481", "REMARKS": "FINALIZED", "MAP_STATUS": "COMPLETED", "BLK_C_2001": "380002", "BLK_C_2011": "01543", "DIST_NAME": "ARWAL", "code2011": 0.0, "Shape_Leng": 0.16460150242, "Shape_Area": 0.00093349374, "Area": 10.4336}, "geometry": {"type": "MultiPolygon", "coordinates": [[[[84.57758746600007, 25.16616104700006], [84.57767222700005, 25.164978518000055], [84.57763758400006, 25.16454973200007], [84.57735501300004, 25.16424266100006], [84.57847126700005, 25.163290621000044], [84.57914597700005, 25.162952377000067], [84.57977100400007, 25.162523689000068], [84.58025213600007, 25.16238392500003], [84.58157657700008, 25.16151319000005], [84.58206270400007, 25.161179318000052], [84.58210756000005, 25.160597049000046], [84.58160182100005, 25.160317129000077], [84.58099681300007, 25.160181514000044], [84.58064486600006, 25.159748120000074], [84.58083353900008, 25.159152292000044], [84.58054115000004, 25.158601555000075], [84.58041239700003, 25.15798316400003], [84.58010504900005, 25.157630967000046], [84.57969327300003, 25.157901666000043], [84.57908800600006, 25.158551446000047], [84.57875066900004, 25.158758973000033], [84.57825969000004, 25.15892582400005], [84.57761987000004, 25.15902496500007], [84.57682632500007, 25.159191643000042], [84.57638006400003, 25.15901549000006], [84.57652906200008, 25.158478401000025], [84.57660358000004, 25.15810836600008], [84.57691120500004, 25.157797010000024], [84.57739728500007, 25.157490229000075], [84.57792304300006, 25.15735946700005], [84.57819094800004, 25.157120381000027], [84.57823074900006, 25.156605768000077], [84.57816159200007, 25.155955773000073], [84.57827585400008, 25.15540967000004], [84.57807277000006, 25.15487700700004], [84.57785485100004, 25.153951624000058], [84.57766672800005, 25.153265454000064], [84.57763211400004, 25.152922406000073], [84.57730036100008, 25.151653922000037], [84.57715169500005, 25.151446314000054], [84.57692870900007, 25.150900054000033], [84.57681484400007, 25.15034937000007], [84.57667116800008, 25.14993854100004], [84.57667134900004, 25.149563887000056], [84.57675076000004, 25.149288565000063], [84.57735611800007, 25.14850340600003], [84.57739587500004, 25.14816036800005], [84.57767876600008, 25.147596290000024], [84.57805602800005, 25.146535690000064], [84.57832900600005, 25.146025688000066], [84.57840349900005, 25.145578842000077], [84.57844339500008, 25.14496503500004], [84.57810635800007, 25.144621907000044], [84.57815135300007, 25.143592777000038], [84.57819123500008, 25.143046569000035], [84.57841949500005, 25.14263597200005], [84.57831056100008, 25.14212133500007], [84.57820190100006, 25.141132760000062], [84.57790961200004, 25.14041052600004], [84.57787003800007, 25.139968159000034], [84.57749859900008, 25.13893891300006], [84.57686428800008, 25.13784643400004], [84.57605599800007, 25.137913809000054], [84.57489078300006, 25.13801273100006], [84.57421135100003, 25.138283320000028], [84.57266911700003, 25.138585206000073], [84.57065586700008, 25.13879213200005], [84.56691695900008, 25.139142711000034], [84.56526071300004, 25.139133102000073], [84.56443258500008, 25.13933131700003], [84.56394134200008, 25.139949500000057], [84.56341008700008, 25.14141624000007], [84.56310232400006, 25.14196223700003], [84.56294823400003, 25.14278367600008], [84.56283388800006, 25.14336587400004], [84.56249150300005, 25.143880288000048], [84.56170810200007, 25.143658868000045], [84.56013635400006, 25.14337825000007], [84.56002794700004, 25.142006078000065], [84.55878842900006, 25.14179789800005], [84.55736051500008, 25.141481242000054], [84.55642338100006, 25.14140863800003], [84.55446969800005, 25.141294851000055], [84.55364161000006, 25.14128993500003], [84.55308141100005, 25.14095111100005], [84.55266500100004, 25.140806522000048], [84.55165975900007, 25.138576235000073], [84.55062838800006, 25.13852156300004], [84.55066855400008, 25.137740695000048], [84.55022243700006, 25.137528361000022], [84.54992516900006, 25.137085830000046], [84.54970247700004, 25.136295836000045], [84.54921681400003, 25.135952505000034], [84.54886018600007, 25.13524822900007], [84.54871696500004, 25.134291228000052], [84.54815204800008, 25.133704141000067], [84.54767132300003, 25.13339694600006], [84.54699210200005, 25.133252146000075], [84.54548985900004, 25.13307534300003], [84.54518758500006, 25.132867519000058], [84.54485565000004, 25.132316678000052], [84.54437527700009, 25.131531021000058], [84.54364162900004, 25.131268816000045], [84.54271907200007, 25.131656553000028], [84.54128590100004, 25.13209804400003], [84.54006083800004, 25.132657101000063], [84.54073442800006, 25.133614386000033], [84.54091165100004, 25.13556439000007], [84.54011813400007, 25.13580317900005], [84.54000391100004, 25.136114500000076], [84.54007273800005, 25.13686380100006], [84.54037479000004, 25.13748239000006], [84.54036938300004, 25.13813237900007], [84.54063210100009, 25.138340175000053], [84.54124677100003, 25.138669985000035], [84.54188639700004, 25.138670369000067], [84.54237191900006, 25.13922131100003], [84.54232619700008, 25.140900368000075], [84.54213197300004, 25.14223179100003], [84.54065348500006, 25.14339101400003], [84.53929963100006, 25.143453389000058], [84.53750501500008, 25.142928763000043], [84.53633976100008, 25.142819717000066], [84.53502057500003, 25.143089727000074], [84.53403851500008, 25.143391568000027], [84.53351279800006, 25.143508643000075], [84.53336375200007, 25.143851554000037], [84.53316942200007, 25.145119786000066], [84.53291589100007, 25.145918591000054], [84.53321286400006, 25.146708637000074], [84.53444153800007, 25.14828919400003], [84.53496156800009, 25.149214804000053], [84.53518939400004, 25.14962568900006], [84.53544649500003, 25.15068655400006], [84.53592697100004, 25.151377463000074], [84.53637798600005, 25.151684643000067], [84.53690855700006, 25.151861017000044], [84.53738925000005, 25.152240448000043], [84.53911439500007, 25.153139732000056], [84.54033390300003, 25.153880693000076], [84.54071075400003, 25.153984664000063], [84.54112732500005, 25.153975941000056], [84.54191589100003, 25.153877006000073], [84.54213906800004, 25.153741798000055], [84.54315574500004, 25.15374686100006], [84.54390414200003, 25.15437011000006], [84.54390378200003, 25.15494792800007], [84.54438975000005, 25.154984312000067], [84.54484125700003, 25.154713738000055], [84.54531234100006, 25.15466426300003], [84.54542124400007, 25.155007435000073], [84.54612999200003, 25.155630642000062], [84.54657608700006, 25.156046150000066], [84.54755279200003, 25.15642129200006], [84.54822683600008, 25.15714386700006], [84.54875221600008, 25.157663224000032], [84.54898016200008, 25.15797029400005], [84.54950070800004, 25.158282024000073], [84.55066042200008, 25.159618585000032], [84.55171158600007, 25.159935150000024], [84.55249483400007, 25.16048614400006], [84.55491433300006, 25.161814347000075], [84.55611442500003, 25.16191873300005], [84.55720552500009, 25.16199150600005], [84.55829640000007, 25.16233955200005], [84.55934766300004, 25.162583768000047], [84.56099402700005, 25.16297262200004], [84.56313618100006, 25.163632522000057], [84.56499089200008, 25.16410277400007], [84.56672151000004, 25.164654118000044], [84.56809023900007, 25.164889369000036], [84.56970683300005, 25.165440637000074], [84.57106065200009, 25.16582485300006], [84.57244429300005, 25.165969740000037], [84.57275193300006, 25.165626805000045], [84.57335221500006, 25.165252383000052], [84.57406637100007, 25.165360950000036], [84.57459199500005, 25.16563653000003], [84.57519194800005, 25.16608360300006], [84.57567785100008, 25.166431267000064], [84.57612905200006, 25.16663453600006], [84.57647128700006, 25.166702330000078], [84.57684324500008, 25.166706988000044], [84.57758746600007, 25.16616104700006]]]]}}, {"type": "Feature", "properties": {"OBJECTID": 1358, "GPCODE": "242772", "GPNAME_1": "BALIDAD", "DIST_CEN_C": "38", "BLK_NAME": "KALER", "ST_NAME": "BIHAR", "ST_CODE_1": "10", "GPCODE2011": "238478", "REMARKS": "FINALIZED", "MAP_STATUS": "COMPLETED", "BLK_C_2001": "380002", "BLK_C_2011": "01543", "DIST_NAME": "ARWAL", "code2011": 0.0, "Shape_Leng": 0.17315040991, "Shape_Area": 0.00075805558, "Area": 8.4706}, "geometry": {"type": "MultiPolygon", "coordinates": [[[[84.60444007100006, 25.19054571500004], [84.60392919800006, 25.190130456000077], [84.60323481500006, 25.18913732200008], [84.60271902700003, 25.188694853000072], [84.60239174000003, 25.188112596000053], [84.60188093800008, 25.18758893200004], [84.60145934400003, 25.187038118000032], [84.60085938700007, 25.185959280000077], [84.60055691300005, 25.185377018000054], [84.60007585500006, 25.184573416000035], [84.59979328300005, 25.183927936000032], [84.59988769000006, 25.182912358000067], [84.59992268600007, 25.18180654200006], [84.60051298900004, 25.18163059500006], [84.60154973700008, 25.181305811000072], [84.60361331600006, 25.18026796500004], [84.60477433100004, 25.17834077400005], [84.60574675500004, 25.17680175000004], [84.60678352200006, 25.17609325600006], [84.60642157800004, 25.174982853000074], [84.60800394200004, 25.174441384000033], [84.60803878800004, 25.173150450000037], [84.60815790700008, 25.172500482000032], [84.60910036100006, 25.172162057000037], [84.60899640600007, 25.170591323000053], [84.61020165100007, 25.170185202000027], [84.61166487700007, 25.170049977000076], [84.61159545600003, 25.16916976400006], [84.61133769300005, 25.16851978400007], [84.61135756400006, 25.168127046000052], [84.61106004000004, 25.167544744000054], [84.61102533700006, 25.16703022300004], [84.61065345900005, 25.166068763000055], [84.61058415600007, 25.165450374000045], [84.61013785800003, 25.16459722600007], [84.60991474700006, 25.163807329000065], [84.60973141500006, 25.16267438500006], [84.60904215200009, 25.16118480600005], [84.60893319200005, 25.16056639800007], [84.60881915200008, 25.16015563600007], [84.60848688400006, 25.159740320000026], [84.60808040500007, 25.15885107400004], [84.60785727700005, 25.158065686000043], [84.60778293600004, 25.157514951000053], [84.60741119700003, 25.156589671000063], [84.60685591800006, 25.15532117500004], [84.60670729900005, 25.15426049900003], [84.60533853600003, 25.154409266000073], [84.60413342400005, 25.154815351000025], [84.60202564800005, 25.15521668200006], [84.59962029100006, 25.155649668000024], [84.59918390900003, 25.155825556000025], [84.59854414100005, 25.15595637200005], [84.59679346400003, 25.15624037200007], [84.59659980500004, 25.157400369000072], [84.59651530900004, 25.158009702000072], [84.59635137300006, 25.159296092000034], [84.59620250100005, 25.159603050000044], [84.59560233400003, 25.159941459000038], [84.59424342500006, 25.16034733400005], [84.59320672400008, 25.160852676000047], [84.59354392400007, 25.161231867000026], [84.59380663000007, 25.161647252000023], [84.59403461900007, 25.162288198000056], [84.59463442500004, 25.16362439100004], [84.59473846400005, 25.164084822000063], [84.59479787700008, 25.16450006900004], [84.59509534500006, 25.16484322900004], [84.59526382500007, 25.165475164000043], [84.59539753300004, 25.166237986000056], [84.59486685800005, 25.166373282000052], [84.59377558500006, 25.166865049000023], [84.59249580200003, 25.16762303300004], [84.59196505200003, 25.167934408000065], [84.59147395000008, 25.16816899400004], [84.59002547300008, 25.168777977000047], [84.58924172800005, 25.16921113500007], [84.58866141400006, 25.169517890000066], [84.58824965100007, 25.169617127000038], [84.58732199100007, 25.170262309000066], [84.58690528700004, 25.170605281000064], [84.58608207800006, 25.170018251000045], [84.58557630100006, 25.169625437000036], [84.58459945300007, 25.168952605000072], [84.58394986400003, 25.168740316000026], [84.58286325000006, 25.16973756300007], [84.58176179800006, 25.17092882600008], [84.58081405000007, 25.172120135000057], [84.58017402000007, 25.172702239000046], [84.57934028400007, 25.17386198300005], [84.57896317700005, 25.174475719000043], [84.57767832600007, 25.175016930000027], [84.57658691400007, 25.17538673300004], [84.57534166900007, 25.17609952400005], [84.57369943600008, 25.17728147100007], [84.57365933400007, 25.178202317000057], [84.57357962700007, 25.179059867000035], [84.57368362700004, 25.17960604800004], [84.57379230500004, 25.180702911000026], [84.57390105100006, 25.181560601000058], [84.57404958500007, 25.182106755000063], [84.57351851500005, 25.183027371000037], [84.57286338700004, 25.183866645000023], [84.57453021000003, 25.183569386000045], [84.57506105900006, 25.18330320000007], [84.57551279100005, 25.18251348900003], [84.57736317300004, 25.181873153000026], [84.57815200800007, 25.181638743000065], [84.57958570500006, 25.18102976600005], [84.58029998900008, 25.181034511000064], [84.58157428000004, 25.18233936300004], [84.58209493200008, 25.183093314000075], [84.58250620200005, 25.18419023900003], [84.58399358000008, 25.186456587000066], [84.58439026200006, 25.18713371000007], [84.58497065800003, 25.187106759000073], [84.58659763500003, 25.187310350000075], [84.58723254300008, 25.187310509000042], [84.58808080800009, 25.187288133000038], [84.58881504100003, 25.187071682000067], [84.58914746300007, 25.186742258000038], [84.58978237000008, 25.18671984300005], [84.59038755400007, 25.186828345000038], [84.59111681300004, 25.186724662000074], [84.59217846300004, 25.186395429000072], [84.59539302800005, 25.185610705000045], [84.59634011400004, 25.187150046000056], [84.59696990000003, 25.188003302000027], [84.59739137200006, 25.18864429300004], [84.59766412500005, 25.18922210100004], [84.59793186000007, 25.189637418000075], [84.59808070900004, 25.189799965000077], [84.59811036500008, 25.190048201000025], [84.59789702500007, 25.190215152000064], [84.59729180100004, 25.190187999000045], [84.59653285000007, 25.19023752000004], [84.59653266300006, 25.19090097700007], [84.59670618600006, 25.191415609000046], [84.59729647700004, 25.19184446400004], [84.59770316700008, 25.191957452000054], [84.59867541900007, 25.19254892500004], [84.59929043600005, 25.19282885800004], [84.59979640800003, 25.193181008000067], [84.60097681000008, 25.19407489200006], [84.60135880200005, 25.194539854000027], [84.60156210300005, 25.194919044000073], [84.60186467400007, 25.19510869900006], [84.60196369000005, 25.196295805000034], [84.60200328000008, 25.196611803000053], [84.60233557600003, 25.19691873100004], [84.60248440400005, 25.19726629300004], [84.60276710500005, 25.197483060000025], [84.60302508200004, 25.197600454000053], [84.60379398900005, 25.197857836000026], [84.60440417800004, 25.198024892000035], [84.60493977500005, 25.198634286000072], [84.60514813100008, 25.19893679000006], [84.60511827400006, 25.199333962000026], [84.60550029000007, 25.19968609600005], [84.60567379300005, 25.200128423000024], [84.60578287800007, 25.20050764700005], [84.60601104100004, 25.200882315000058], [84.60685432500009, 25.20183932200007], [84.60749433100005, 25.201672373000065], [84.61006424100003, 25.200584855000045], [84.61065469700003, 25.20039984400006], [84.61111606300005, 25.200309665000077], [84.61126990600008, 25.20017421600005], [84.61204379200007, 25.200147204000075], [84.61315015600007, 25.199804251000046], [84.61251027700007, 25.199032405000025], [84.61192490100007, 25.19825598600005], [84.61151816500006, 25.19781361300005], [84.61105684200004, 25.197271929000067], [84.61069971100005, 25.196852114000023], [84.60940012700007, 25.195633255000075], [84.60855684600006, 25.194906497000034], [84.60782770600008, 25.19442342800005], [84.60718781900005, 25.19384109200007], [84.60614114700007, 25.193019437000032], [84.60567996600008, 25.19250029600005], [84.60509475100008, 25.191498213000045], [84.60444007100006, 25.19054571500004]]]]}}, {"type": "Feature", "properties": {"OBJECTID": 1359, "GPCODE": "242782", "GPNAME_1": "SOHSA", "DIST_CEN_C": "38", "BLK_NAME": "KALER", "ST_NAME": "BIHAR", "ST_CODE_1": "10", "GPCODE2011": "238488", "REMARKS": "FINALIZED", "MAP_STATUS": "COMPLETED", "BLK_C_2001": "380002", "BLK_C_2011": "01543", "DIST_NAME": "ARWAL", "code2011": 0.0, "Shape_Leng": 0.15694713624, "Shape_Area": 0.00118108204, "Area": 13.1989}, "geometry": {"type": "MultiPolygon", "coordinates": [[[[84.52007282800008, 25.192265604000056], [84.52074757900004, 25.19216679400006], [84.52150155500004, 25.192207859000064], [84.52232985500007, 25.192447697000034], [84.52266732700008, 25.192213223000067], [84.52267290800006, 25.191459460000033], [84.52196411200003, 25.19076837500006], [84.52166189900004, 25.190289660000076], [84.52161261600008, 25.18989694000004], [84.52161312400005, 25.18934629900008], [84.52165864600005, 25.188321719000044], [84.52105890000007, 25.187734549000027], [84.52079625300007, 25.187427444000036], [84.52061308100008, 25.186980430000062], [84.52012732900005, 25.18652871300003], [84.52020733000006, 25.185815599000023], [84.51994998200007, 25.18512486000003], [84.51998516800006, 25.184578730000055], [84.51996155900008, 25.18317490000004], [84.51941642700007, 25.18260583700004], [84.51911897900004, 25.18229873100006], [84.51882176000004, 25.18191481200006], [84.51841568900005, 25.181093033000025], [84.51803935400005, 25.180411196000023], [84.51789112700004, 25.179688903000056], [84.51758008700006, 25.17804572500006], [84.51749146000003, 25.17731441600006], [84.51745235200008, 25.17663277300005], [84.51723453700004, 25.176118062000057], [84.51723497800003, 25.175639621000073], [84.51678956700005, 25.174470316000054], [84.51661191300008, 25.173441008000054], [84.51642957900003, 25.172140987000034], [84.51654943200003, 25.171220232000053], [84.51642126000007, 25.170276784000066], [84.51594113300007, 25.16921568500004], [84.51559922500007, 25.168768596000064], [84.51504454500008, 25.167874518000076], [84.51486173900008, 25.167088944000056], [84.51444537300006, 25.16677719300003], [84.51373694900008, 25.165919090000045], [84.51378216200004, 25.165269151000075], [84.51397608500008, 25.16468698500006], [84.51405091500004, 25.16420858300006], [84.51363966700006, 25.163797587000033], [84.51360540800005, 25.163350638000054], [84.51315439300004, 25.163002780000056], [84.51280249100006, 25.16271364200003], [84.51295661600005, 25.16227142300005], [84.51400815600005, 25.162141296000073], [84.51412252300008, 25.161866098000075], [84.51427640800006, 25.161626953000052], [84.51468874100004, 25.160914086000048], [84.51473362900003, 25.160602694000033], [84.51495724800003, 25.16005668100007], [84.51534538800007, 25.158585565000067], [84.51543172500004, 25.156391928000062], [84.51417213500008, 25.15623306300006], [84.51274394600006, 25.156191276000072], [84.51086417900007, 25.156420042000036], [84.50984738900007, 25.156550149000054], [84.50792771400006, 25.157054208000034], [84.50577965200006, 25.157765658000073], [84.50421660500007, 25.158617442000036], [84.50421173000007, 25.158620099000075], [84.50402276300008, 25.159009972000035], [84.50251422200006, 25.15998825500003], [84.50177966000007, 25.160520193000025], [84.50151125200006, 25.161129376000076], [84.50166446400004, 25.161607954000033], [84.50165876100004, 25.162361727000075], [84.50113730700008, 25.163069902000075], [84.50028919600004, 25.163132414000074], [84.50022027500006, 25.162581669000076], [84.49986339500003, 25.16246403400004], [84.49931790300008, 25.162355197000068], [84.49830263600006, 25.162275773000033], [84.49789964200005, 25.16223175500005], [84.49699689400006, 25.162245278000057], [84.49648809500007, 25.16191314200006], [84.49603006900008, 25.16137830300005], [84.49564289500006, 25.161443978000023], [84.49532374300009, 25.161726675000068], [84.49428963900004, 25.162132174000078], [84.49366330000004, 25.161555709000027], [84.49164459300005, 25.162384949000057], [84.48738897400005, 25.164836431000026], [84.48470942400007, 25.16663247100007], [84.48452401800006, 25.166938436000066], [84.48398077500008, 25.166570052000054], [84.48313424800006, 25.16630834700004], [84.48172041200007, 25.16636421000004], [84.48109869600006, 25.16664532200008], [84.47917493100005, 25.16733488600005], [84.47701590300005, 25.16835272700007], [84.47509058300005, 25.16928596200006], [84.47146235300005, 25.171252851000077], [84.47403677900007, 25.173577212000055], [84.47658569800006, 25.17602327800006], [84.47859764200007, 25.17789332500007], [84.48045690000004, 25.179609089000053], [84.48197204500008, 25.180831046000037], [84.48270017000004, 25.181796186000042], [84.48394880800004, 25.18280472600003], [84.48655493900003, 25.184885295000072], [84.48873884800008, 25.186282211000048], [84.49070077700009, 25.187474827000074], [84.49370590900008, 25.189241362000075], [84.49458643900005, 25.189656649000028], [84.49686606100005, 25.190856432000032], [84.49792190700003, 25.191406159000053], [84.49862313600005, 25.192075010000053], [84.49935627700006, 25.192822569000043], [84.50150747200007, 25.19463439900005], [84.50289059600004, 25.195556362000048], [84.50354474400007, 25.196238437000034], [84.50572601400006, 25.197883198000056], [84.50793215000004, 25.19937000300007], [84.50906749300003, 25.20020592800006], [84.50986089100007, 25.20063536200007], [84.51022869400003, 25.19983219100004], [84.51188289000004, 25.197499907000065], [84.51294068100003, 25.196309074000055], [84.51403779800006, 25.195353029000046], [84.51578045200006, 25.19381969400007], [84.51679309900004, 25.19313887000004], [84.51751779100005, 25.192561667000064], [84.51785528900007, 25.19246258000004], [84.51886725600008, 25.19243175500003], [84.52007282800008, 25.192265604000056]]]]}}, {"type": "Feature", "properties": {"OBJECTID": 1385, "GPCODE": "242778", "GPNAME_1": "ISMAILPUR KOYAL", "DIST_CEN_C": "38", "BLK_NAME": "KALER", "ST_NAME": "BIHAR", "ST_CODE_1": "10", "GPCODE2011": "238484", "REMARKS": "FINALIZED", "MAP_STATUS": "COMPLETED", "BLK_C_2001": "380002", "BLK_C_2011": "01543", "DIST_NAME": "ARWAL", "code2011": 0.0, "Shape_Leng": 0.13388895919, "Shape_Area": 0.00086545582, "Area": 9.67243}, "geometry": {"type": "MultiPolygon", "coordinates": [[[[84.53715639800004, 25.172940093000022], [84.53873867300007, 25.172877865000032], [84.53981487400006, 25.173004891000062], [84.54057883000007, 25.17285640600005], [84.54234988800005, 25.172347285000058], [84.54481531100004, 25.171694166000066], [84.54666039700004, 25.17180354000004], [84.54879178000004, 25.17400276500007], [84.55242246000006, 25.174108490000037], [84.55291376500008, 25.173558048000075], [84.55333055200003, 25.173391253000034], [84.55411933100004, 25.17305308300007], [84.55517080400006, 25.17302195900004], [84.55558788300004, 25.17237671600003], [84.55553367500005, 25.17170869000006], [84.55550985700006, 25.169894199000055], [84.55528708700007, 25.169244117000062], [84.55533205800003, 25.16863026900006], [84.55518396600007, 25.167393462000064], [84.55496619100006, 25.166468052000027], [84.55505156900006, 25.164653567000073], [84.55494305600007, 25.163525093000032], [84.55491433300006, 25.161814347000075], [84.55249483400007, 25.16048614400006], [84.55171158600007, 25.159935150000024], [84.55066042200008, 25.159618585000032], [84.54950070800004, 25.158282024000073], [84.54898016200008, 25.15797029400005], [84.54875221600008, 25.157663224000032], [84.54822683600008, 25.15714386700006], [84.54755279200003, 25.15642129200006], [84.54657608700006, 25.156046150000066], [84.54612999200003, 25.155630642000062], [84.54542124400007, 25.155007435000073], [84.54531234100006, 25.15466426300003], [84.54484125700003, 25.154713738000055], [84.54438975000005, 25.154984312000067], [84.54390378200003, 25.15494792800007], [84.54390414200003, 25.15437011000006], [84.54315574500004, 25.15374686100006], [84.54213906800004, 25.153741798000055], [84.54191589100003, 25.153877006000073], [84.54112732500005, 25.153975941000056], [84.54071075400003, 25.153984664000063], [84.54033390300003, 25.153880693000076], [84.53911439500007, 25.153139732000056], [84.53738925000005, 25.152240448000043], [84.53690855700006, 25.151861017000044], [84.53637798600005, 25.151684643000067], [84.53592697100004, 25.151377463000074], [84.53544649500003, 25.15068655400006], [84.53518939400004, 25.14962568900006], [84.53496156800009, 25.149214804000053], [84.53444153800007, 25.14828919400003], [84.53321286400006, 25.146708637000074], [84.53291589100007, 25.145918591000054], [84.53152756800006, 25.145813831000055], [84.53073934000008, 25.145497446000036], [84.52972293500005, 25.145289133000063], [84.52889470900004, 25.145455569000035], [84.52803168000008, 25.145653595000056], [84.52746609900004, 25.145960152000043], [84.52708402000007, 25.146334554000077], [84.52681544700005, 25.147327371000074], [84.52675492300006, 25.14854157800005], [84.52671455000007, 25.14949843200003], [84.52663462500004, 25.15025217500005], [84.52685154700004, 25.151827567000055], [84.52503215700006, 25.151081572000066], [84.52198772900005, 25.150592016000076], [84.52033664100009, 25.15023880900003], [84.51886885500005, 25.150133953000022], [84.51748034300005, 25.15008782900003], [84.51746360100003, 25.152276957000026], [84.51735408100006, 25.152723684000023], [84.51663391800008, 25.153991576000067], [84.51583404700006, 25.15569712300004], [84.51543172500004, 25.156391928000062], [84.51534538800007, 25.158585565000067], [84.51495724800003, 25.16005668100007], [84.51473362900003, 25.160602694000033], [84.51468874100004, 25.160914086000048], [84.51427640800006, 25.161626953000052], [84.51412252300008, 25.161866098000075], [84.51400815600005, 25.162141296000073], [84.51295661600005, 25.16227142300005], [84.51280249100006, 25.16271364200003], [84.51315439300004, 25.163002780000056], [84.51360540800005, 25.163350638000054], [84.51363966700006, 25.163797587000033], [84.51405091500004, 25.16420858300006], [84.51397608500008, 25.16468698500006], [84.51378216200004, 25.165269151000075], [84.51373694900008, 25.165919090000045], [84.51444537300006, 25.16677719300003], [84.51486173900008, 25.167088944000056], [84.51504454500008, 25.167874518000076], [84.51559922500007, 25.168768596000064], [84.51594113300007, 25.16921568500004], [84.51642126000007, 25.170276784000066], [84.51654943200003, 25.171220232000053], [84.51642957900003, 25.172140987000034], [84.51661191300008, 25.173441008000054], [84.51678956700005, 25.174470316000054], [84.51723497800003, 25.175639621000073], [84.51723453700004, 25.176118062000057], [84.51745235200008, 25.17663277300005], [84.51749146000003, 25.17731441600006], [84.51758008700006, 25.17804572500006], [84.51896888700009, 25.178051235000055], [84.52021401300004, 25.177925733000052], [84.52169752700007, 25.177434737000056], [84.52278906100008, 25.17706090300004], [84.52433207400009, 25.17648424400005], [84.52640609600007, 25.175673135000068], [84.52674884100009, 25.17499635000007], [84.52739412500006, 25.174378405000027], [84.52848542200007, 25.17424821800006], [84.52931375800006, 25.17418557900004], [84.53074249000008, 25.173956262000047], [84.53305911100006, 25.173434134000047], [84.53550463400006, 25.173137694000047], [84.53715639800004, 25.172940093000022]]]]}}, {"type": "Feature", "properties": {"OBJECTID": 1386, "GPCODE": "242776", "GPNAME_1": "SAKRI KHURD", "DIST_CEN_C": "38", "BLK_NAME": "KALER", "ST_NAME": "BIHAR", "ST_CODE_1": "10", "GPCODE2011": "238482", "REMARKS": "FINALIZED", "MAP_STATUS": "COMPLETED", "BLK_C_2001": "380002", "BLK_C_2011": "01543", "DIST_NAME": "ARWAL", "code2011": 0.0, "Shape_Leng": 0.1298352737, "Shape_Area": 0.0006620007, "Area": 7.39754}, "geometry": {"type": "MultiPolygon", "coordinates": [[[[84.55928274800004, 25.19162472900007], [84.56013633400005, 25.19096616400003], [84.56084065200008, 25.19104773300006], [84.56167874000005, 25.19154908200005], [84.56313252900009, 25.190944923000075], [84.56333671700008, 25.189274945000022], [84.56452280700006, 25.188237254000057], [84.56477614500005, 25.18760096400007], [84.56522353100007, 25.18563315800003], [84.56607197600005, 25.185173080000027], [84.56790253600008, 25.184848869000064], [84.57073024800007, 25.184245068000052], [84.57286338700004, 25.183866645000023], [84.57351851500005, 25.183027371000037], [84.57404958500007, 25.182106755000063], [84.57390105100006, 25.181560601000058], [84.57379230500004, 25.180702911000026], [84.57368362700004, 25.17960604800004], [84.57357962700007, 25.179059867000035], [84.57365933400007, 25.178202317000057], [84.57369943600008, 25.17728147100007], [84.57534166900007, 25.17609952400005], [84.57658691400007, 25.17538673300004], [84.57767832600007, 25.175016930000027], [84.57896317700005, 25.174475719000043], [84.57934028400007, 25.17386198300005], [84.58017402000007, 25.172702239000046], [84.58081405000007, 25.172120135000057], [84.58176179800006, 25.17092882600008], [84.58286325000006, 25.16973756300007], [84.58394986400003, 25.168740316000026], [84.58337458900007, 25.16842424200007], [84.58260602500008, 25.16794102500006], [84.58215962100007, 25.167787456000042], [84.58133155300004, 25.167371935000062], [84.57981412300006, 25.16678018500005], [84.57911983000008, 25.16652269000008], [84.57861404400006, 25.166278772000055], [84.57758746600007, 25.16616104700006], [84.57684324500008, 25.166706988000044], [84.57647128700006, 25.166702330000078], [84.57612905200006, 25.16663453600006], [84.57567785100008, 25.166431267000064], [84.57519194800005, 25.16608360300006], [84.57459199500005, 25.16563653000003], [84.57406637100007, 25.165360950000036], [84.57335221500006, 25.165252383000052], [84.57275193300006, 25.165626805000045], [84.57244429300005, 25.165969740000037], [84.57106065200009, 25.16582485300006], [84.56970683300005, 25.165440637000074], [84.56809023900007, 25.164889369000036], [84.56672151000004, 25.164654118000044], [84.56499089200008, 25.16410277400007], [84.56313618100006, 25.163632522000057], [84.56099402700005, 25.16297262200004], [84.55934766300004, 25.162583768000047], [84.55829640000007, 25.16233955200005], [84.55720552500009, 25.16199150600005], [84.55611442500003, 25.16191873300005], [84.55491433300006, 25.161814347000075], [84.55494305600007, 25.163525093000032], [84.55505156900006, 25.164653567000073], [84.55496619100006, 25.166468052000027], [84.55518396600007, 25.167393462000064], [84.55533205800003, 25.16863026900006], [84.55528708700007, 25.169244117000062], [84.55550985700006, 25.169894199000055], [84.55553367500005, 25.17170869000006], [84.55558788300004, 25.17237671600003], [84.55517080400006, 25.17302195900004], [84.55411933100004, 25.17305308300007], [84.55333055200003, 25.173391253000034], [84.55291376500008, 25.173558048000075], [84.55242246000006, 25.174108490000037], [84.54879178000004, 25.17400276500007], [84.54666039700004, 25.17180354000004], [84.54481531100004, 25.171694166000066], [84.54234988800005, 25.172347285000058], [84.54057883000007, 25.17285640600005], [84.53981487400006, 25.173004891000062], [84.54017673600003, 25.173352617000035], [84.54038909300004, 25.174693363000074], [84.54057721300006, 25.17527568400004], [84.54068586800008, 25.175957311000047], [84.54087411200004, 25.176268870000058], [84.54128578100006, 25.176336823000042], [84.54252600300003, 25.17603962100003], [84.54339405400003, 25.175832442000058], [84.54440610200004, 25.17556218200008], [84.54489719500003, 25.175535423000042], [84.54500556700003, 25.17676768900003], [84.54529760700007, 25.17765703500004], [84.54548021000005, 25.17899321300007], [84.54585173400005, 25.17981492800004], [84.54622313800007, 25.180844226000033], [84.54636659600004, 25.181390461000035], [84.54629199400006, 25.181769502000066], [84.54632134000008, 25.182451151000066], [84.54654394300007, 25.183408103000033], [84.54713883700003, 25.183972665000056], [84.54769868500006, 25.184929839000063], [84.54825886800006, 25.185516966000023], [84.54878427900007, 25.186099496000054], [84.54923058200006, 25.186483399000053], [84.55039068300005, 25.187513082000066], [84.55167020200008, 25.187960618000034], [84.55200745400003, 25.188100631000054], [84.55233960200007, 25.188376172000062], [84.55240863500006, 25.189233840000043], [84.55301351100007, 25.189644841000074], [84.55364838900005, 25.18988891200007], [84.55496271800007, 25.190340923000065], [84.55683736800006, 25.191100050000045], [84.55781450900008, 25.191416454000034], [84.55837984000004, 25.191619821000074], [84.55928274800004, 25.19162472900007]]]]}}, {"type": "Feature", "properties": {"OBJECTID": 1389, "GPCODE": "242785", "GPNAME_1": "SOUTH KALER", "DIST_CEN_C": "38", "BLK_NAME": "KALER", "ST_NAME": "BIHAR", "ST_CODE_1": "10", "GPCODE2011": "238490", "REMARKS": "FINALIZED", "MAP_STATUS": "COMPLETED", "BLK_C_2001": "380002", "BLK_C_2011": "01543", "DIST_NAME": "ARWAL", "code2011": 0.0, "Shape_Leng": 0.18212136646, "Shape_Area": 0.00097900752, "Area": 10.9468}, "geometry": {"type": "MultiPolygon", "coordinates": [[[[84.47869924800005, 25.124380388000077], [84.48038563700004, 25.121662624000066], [84.48112802900005, 25.11949255600007], [84.48209884900007, 25.11823620000007], [84.48523973700009, 25.117550916000027], [84.48780955500007, 25.11743670100003], [84.48969408800008, 25.116865631000053], [84.49203547800005, 25.116751417000046], [84.49272076300008, 25.11697984500006], [84.49329530200004, 25.116413247000025], [84.49380579700005, 25.115609275000054], [84.49380579700005, 25.11446713400005], [84.49380579700005, 25.112639708000074], [84.49454818900006, 25.111840209000036], [84.49546190200005, 25.111326246000033], [84.49700379300003, 25.110355425000023], [84.49843146900008, 25.109670141000038], [84.50065864500004, 25.10812825000005], [84.50151525100006, 25.10670057300007], [84.50141854200007, 25.10501034500004], [84.49878861900004, 25.10268809400003], [84.49789533900008, 25.10184035800006], [84.49678520800006, 25.102097705000062], [84.49603511400005, 25.10154325700006], [84.49589770800003, 25.10050895100005], [84.49396642100004, 25.099366243000077], [84.49285301900005, 25.098259254000027], [84.49171423800004, 25.096430033000047], [84.48945265400005, 25.09823732900003], [84.48814386500004, 25.099056655000027], [84.48660128100005, 25.099215695000055], [84.48642230500008, 25.098497097000063], [84.48557859500005, 25.09786086200006], [84.48482807800008, 25.097387603000072], [84.48406887900006, 25.09751911500007], [84.48273318200006, 25.09787325800005], [84.48173347400007, 25.09841870200006], [84.48103798900007, 25.09786444300005], [84.48014328500005, 25.096659302000035], [84.47936537200007, 25.095030352000038], [84.47682356500007, 25.095649054000035], [84.47639968100003, 25.095263187000057], [84.47444460600008, 25.093239932000074], [84.47408622300009, 25.09268740300007], [84.47367989900005, 25.090311177000046], [84.47298538100006, 25.08961705100006], [84.47158836500006, 25.09027320200005], [84.47113037400004, 25.09137659000004], [84.47030710100006, 25.09222529400006], [84.46846117500007, 25.093330372000025], [84.46630330700003, 25.09513792000007], [84.46474966800008, 25.096262600000045], [84.46413996700005, 25.097031150000078], [84.46404338800005, 25.098190574000057], [84.46355055400005, 25.09928932100007], [84.46260214500006, 25.099541490000036], [84.46156946100007, 25.099784295000063], [84.46014404600004, 25.100219018000075], [84.45938508200004, 25.10106801300003], [84.45865167600004, 25.101808791000053], [84.45861821000005, 25.102390881000076], [84.45948739300007, 25.103663829000027], [84.45984364700007, 25.104545784000038], [84.46032083300008, 25.105112507000058], [84.46073743700003, 25.105859458000054], [84.46197324700006, 25.10718849600005], [84.46564112000004, 25.11038089400006], [84.47011877000006, 25.114132684000026], [84.47104980100005, 25.115076378000026], [84.47131933800006, 25.115574286000026], [84.47088927400006, 25.116149695000047], [84.46988814700006, 25.11688914000007], [84.46848857800006, 25.117901820000043], [84.46648434100007, 25.118884238000078], [84.46260409900003, 25.120159], [84.45891951100003, 25.121831953000026], [84.45539162900008, 25.12379896500005], [84.45238437600005, 25.125741611000024], [84.44822745100004, 25.12756519900006], [84.44564544100007, 25.128905245000055], [84.44723211000007, 25.131175092000035], [84.44983407000007, 25.13516543000003], [84.45097855200004, 25.13453528200006], [84.45222634400005, 25.134054569000057], [84.45362163900006, 25.132974301000047], [84.45524957000003, 25.13197204900007], [84.45806614900005, 25.130384811000056], [84.46077774800005, 25.12893693700005], [84.46182174100005, 25.13005286500004], [84.46247362400004, 25.129686224000068], [84.46474595600006, 25.128678174000072], [84.46740955300004, 25.127739930000075], [84.46957050700007, 25.127087931000062], [84.47203420900007, 25.12639224700007], [84.47503936600003, 25.12551886800003], [84.47611276500004, 25.12512726600005], [84.47726044600006, 25.124754137000025], [84.47824130200007, 25.124091214000032], [84.47869924800005, 25.124380388000077]]]]}}]}