{"type": "FeatureCollection", "features": [{"type": "Feature", "properties": {"OBJECTID": 1413, "GPCODE": "340121", "GPNAME_1": "DAUDNAGAR NAGAR PANCHAYAT", "DIST_CEN_C": null, "BLK_NAME": "DAUDNAGAR", "ST_NAME": null, "ST_CODE_1": null, "GPCODE2011": "801399", "REMARKS": "FINALIZED", "MAP_STATUS": "COMPLETED", "BLK_C_2001": "340001", "BLK_C_2011": "01476", "DIST_NAME": "AURANGABAD", "code2011": 0.0, "Shape_Leng": 0.14894942178, "Shape_Area": 0.00120821966, "Area": 13.5194}, "geometry": {"type": "MultiPolygon", "coordinates": [[[[84.40925698000007, 25.036638207000067], [84.41079353500004, 25.03582085100004], [84.41158240100003, 25.035658356000056], [84.41293477500005, 25.034221626000033], [84.41300583500004, 25.033251648000032], [84.41231432300003, 25.032931818000066], [84.41150116300008, 25.03303109500007], [84.41080738200003, 25.032327552000027], [84.41002197100005, 25.031248925000057], [84.40937103000005, 25.030811974000073], [84.40855896700003, 25.030748651000067], [84.40822394500003, 25.029735732000063], [84.40789317100007, 25.028849233000074], [84.40782758900008, 25.028293725000026], [84.40674904100007, 25.027357809000023], [84.40634527000003, 25.026985453000066], [84.40652067500008, 25.025970874000052], [84.40641143000005, 25.025288685000078], [84.40614993400004, 25.024402601000077], [84.40595388500003, 25.02335891300004], [84.40546092400007, 25.023008529000037], [84.40442354300006, 25.022569306000037], [84.40250487100008, 25.02207099800006], [84.40083490000006, 25.021420533000025], [84.39951088600003, 25.020898444000068], [84.39759206400004, 25.02041803900005], [84.39524120200008, 25.020815249000066], [84.39451638800006, 25.02103672000004], [84.39268471700007, 25.021563264000065], [84.39078437400008, 25.021985640000025], [84.38909181700006, 25.021745619000058], [84.38778616900004, 25.02143114300003], [84.38687070700007, 25.021285913000042], [84.38469536700006, 25.02136355700003], [84.38291735800004, 25.02130806200006], [84.38117075200006, 25.020999953000057], [84.38017202500004, 25.02071880400007], [84.37869700100003, 25.020552171000077], [84.37711785400006, 25.020384973000034], [84.37507627100007, 25.020463208000024], [84.37500323700004, 25.023085086000037], [84.37478498600007, 25.02382850300006], [84.37389475200007, 25.024310679000052], [84.37289223300007, 25.024562099000036], [84.37232904200005, 25.025046159000055], [84.37167294800008, 25.025340176000043], [84.37046866100007, 25.026104925000027], [84.36936086500003, 25.02722215700004], [84.36755416500006, 25.029084483000076], [84.36595710200004, 25.03071338500007], [84.36466468700007, 25.032001106000052], [84.36428273200005, 25.032766070000037], [84.36337528900003, 25.033568520000074], [84.36212630400007, 25.035005385000034], [84.36134320900004, 25.03710849600003], [84.36060247500006, 25.039527770000063], [84.35999382100005, 25.040783357000066], [84.35919208000007, 25.042033333000063], [84.35851471300003, 25.04320722500006], [84.35995280000003, 25.04373491800004], [84.36348979900004, 25.04382827300003], [84.36534705900004, 25.04394319100004], [84.36606280600006, 25.045021602000077], [84.36863230200004, 25.04739290300006], [84.37066276500008, 25.048230888000035], [84.37411311400007, 25.049393207000037], [84.37911305700004, 25.051467169000034], [84.38360634500003, 25.053727555000023], [84.38776841200007, 25.055900234000035], [84.39295813900003, 25.058529976000045], [84.39382916900007, 25.057266716000072], [84.39476871000005, 25.055412636000028], [84.39526774900008, 25.054187842000033], [84.39631154900007, 25.05301129000003], [84.39711242400006, 25.051133872000037], [84.39779603800008, 25.04972054500007], [84.39805282900005, 25.049130728000023], [84.39822796800007, 25.047439173000043], [84.39842222600004, 25.046573737000074], [84.39888628800009, 25.045389337000074], [84.40001146500003, 25.04317517100003], [84.40096998500007, 25.04212450700004], [84.40259520700005, 25.042111212000066], [84.40293908500007, 25.04182429900004], [84.40243692000007, 25.04063893700004], [84.40318443500007, 25.04000686100005], [84.40546437900008, 25.038435570000047], [84.40700084800005, 25.03764091200003], [84.40804921700004, 25.03720450900005], [84.40925698000007, 25.036638207000067]]]]}}, {"type": "Feature", "properties": {"OBJECTID": 1447, "GPCODE": "91327", "GPNAME_1": "AKORHA", "DIST_CEN_C": null, "BLK_NAME": "DAUDNAGAR", "ST_NAME": null, "ST_CODE_1": null, "GPCODE2011": "93887", "REMARKS": "FINALIZED", "MAP_STATUS": "COMPLETED", "BLK_C_2001": "340001", "BLK_C_2011": "01476", "DIST_NAME": "AURANGABAD", "code2011": 0.0, "Shape_Leng": 0.16525934699, "Shape_Area": 0.0011986121, "Area": 13.4105}, "geometry": {"type": "MultiPolygon", "coordinates": [[[[84.42569242300004, 25.052775616000076], [84.42703571100003, 25.052715431000024], [84.42862287000008, 25.053229661000046], [84.42924565000004, 25.05347236800003], [84.42911287100003, 25.051828731000057], [84.43103117400005, 25.05247574200007], [84.43158944400005, 25.051977797000063], [84.43175994700005, 25.051671844000055], [84.43200260700007, 25.05169574200005], [84.43245726200007, 25.051874274000056], [84.43276751700006, 25.05216027700004], [84.43332309000004, 25.052073066000048], [84.43382601200005, 25.051705729000048], [84.43438325300008, 25.051356817000055], [84.43511368200006, 25.050309164000055], [84.43530425200004, 25.04995814800003], [84.43589536900004, 25.048232686000063], [84.43623898700008, 25.04722356600007], [84.43823276300003, 25.04693205600006], [84.43953410500006, 25.04645622000004], [84.44146507100004, 25.04591614900005], [84.44324612200006, 25.04557827900004], [84.44431124800008, 25.04560661200003], [84.44539440400007, 25.045901411000045], [84.44597701800006, 25.046224963000043], [84.44626934600007, 25.046226596000054], [84.44677173400004, 25.045935947000032], [84.44753592300003, 25.045755007000025], [84.44788688400007, 25.04588775600007], [84.44897092400004, 25.04605614700006], [84.44950448700007, 25.045521913000073], [84.44880845100005, 25.043595352000068], [84.44753552900005, 25.04047419500006], [84.44690030800007, 25.039107674000036], [84.44518043300008, 25.034643566000057], [84.44498293700008, 25.033789504000026], [84.44463479200004, 25.033223435000025], [84.44404890400006, 25.032660516000078], [84.44325728000007, 25.032493729000066], [84.44273411200004, 25.03219756200008], [84.44270944800007, 25.031421050000063], [84.44242204800008, 25.030670323000038], [84.44198650300007, 25.029841976000057], [84.44125632300006, 25.02938210600007], [84.44070150600004, 25.029365531000053], [84.44050881800007, 25.027784757000063], [84.43946325900004, 25.02630767900007], [84.43836033400004, 25.024509803000058], [84.43739241300005, 25.024048635000042], [84.43627978700005, 25.02374919400006], [84.43532713100007, 25.02322043500004], [84.43326789500009, 25.023719087000075], [84.43156666200008, 25.024030251000056], [84.43016263900006, 25.024333893000062], [84.42893284400003, 25.024516670000025], [84.42810938600007, 25.024670117000028], [84.42734751000006, 25.024507924000034], [84.42726123400007, 25.02407863600007], [84.42673714800009, 25.023917827000048], [84.42562316900006, 25.023830360000034], [84.42456778000007, 25.02385614800005], [84.42464069800008, 25.024795308000023], [84.42514931100004, 25.02652684700007], [84.42551547900007, 25.028817170000025], [84.42540092900003, 25.029660570000033], [84.42449799700006, 25.02984961100003], [84.42349964000005, 25.03023220400007], [84.42261472800004, 25.030683198000077], [84.42150624800007, 25.031232126000077], [84.42041811500007, 25.031699970000034], [84.41951228800008, 25.032313268000053], [84.41884754700004, 25.033176163000064], [84.41776051100004, 25.033476982000025], [84.41702652400005, 25.033585722000055], [84.41616845400006, 25.03372535500006], [84.41528407500005, 25.03409045500007], [84.41444605000004, 25.034207587000026], [84.41293477500005, 25.034221626000033], [84.41158240100003, 25.035658356000056], [84.41079353500004, 25.03582085100004], [84.40925698000007, 25.036638207000067], [84.40804921700004, 25.03720450900005], [84.40700084800005, 25.03764091200003], [84.40546437900008, 25.038435570000047], [84.40318443500007, 25.04000686100005], [84.40243692000007, 25.04063893700004], [84.40293908500007, 25.04182429900004], [84.40259520700005, 25.042111212000066], [84.40096998500007, 25.04212450700004], [84.40001146500003, 25.04317517100003], [84.39888628800009, 25.045389337000074], [84.39842222600004, 25.046573737000074], [84.39822796800007, 25.047439173000043], [84.39805282900005, 25.049130728000023], [84.39779603800008, 25.04972054500007], [84.39711242400006, 25.051133872000037], [84.39631154900007, 25.05301129000003], [84.39526774900008, 25.054187842000033], [84.39476871000005, 25.055412636000028], [84.39382916900007, 25.057266716000072], [84.39295813900003, 25.058529976000045], [84.39564892800007, 25.059962702000064], [84.39888007400003, 25.062084551000055], [84.40213138400009, 25.064183841000045], [84.40595453300006, 25.066737663000026], [84.40849370800004, 25.067930157000035], [84.41075801100004, 25.06507691300004], [84.41187889400004, 25.063485468000067], [84.41328307300006, 25.061782781000034], [84.41519155200007, 25.059487129000047], [84.41601371900003, 25.058088093000038], [84.41657257500003, 25.057522591000065], [84.41787935600007, 25.05625705700004], [84.41906022800003, 25.05530234500003], [84.42086978300006, 25.054436853000027], [84.42390975300003, 25.053334450000023], [84.42569242300004, 25.052775616000076]]]]}}, {"type": "Feature", "properties": {"OBJECTID": 1448, "GPCODE": "91328", "GPNAME_1": "ANCHHA", "DIST_CEN_C": null, "BLK_NAME": "DAUDNAGAR", "ST_NAME": null, "ST_CODE_1": null, "GPCODE2011": "93888", "REMARKS": "FINALIZED", "MAP_STATUS": "COMPLETED", "BLK_C_2001": "340001", "BLK_C_2011": "01476", "DIST_NAME": "AURANGABAD", "code2011": 0.0, "Shape_Leng": 0.19002429968, "Shape_Area": 0.00129845539, "Area": 14.5319}, "geometry": {"type": "MultiPolygon", "coordinates": [[[[84.37507627100007, 25.020463208000024], [84.37711785400006, 25.020384973000034], [84.37869700100003, 25.020552171000077], [84.38017202500004, 25.02071880400007], [84.38117075200006, 25.020999953000057], [84.38291735800004, 25.02130806200006], [84.38469536700006, 25.02136355700003], [84.38687070700007, 25.021285913000042], [84.38649070400004, 25.01825064600007], [84.38620094100008, 25.01717478100005], [84.38573079600008, 25.015691618000062], [84.38521771600006, 25.013978043000066], [84.38483362100004, 25.01153405900004], [84.38434780300008, 25.009454996000045], [84.38407256700003, 25.007738260000053], [84.38346319100003, 25.005635987000062], [84.38208748400007, 25.005442905000052], [84.38122670500007, 25.00388523600003], [84.38028857400008, 25.002056314000072], [84.37971728700006, 25.00088396900003], [84.37950726600008, 25.000454017000038], [84.37920988000008, 24.999779715000045], [84.37840779800007, 24.999738981000064], [84.37744387800007, 25.000171056000056], [84.37716449100003, 25.00045379000005], [84.37685880300006, 25.00235672900004], [84.37645341600006, 25.002945573000034], [84.37555027600007, 25.00319300600006], [84.37369406000005, 25.003705662000073], [84.37249500200005, 25.003766292000023], [84.37159724000009, 25.003237437000053], [84.37093735100007, 25.003395995000062], [84.36938321000008, 25.00393293600007], [84.36875898300008, 25.003951777000054], [84.36757634700007, 25.00446834400003], [84.36416522600007, 25.00632118300007], [84.36282343600004, 25.00485076800004], [84.36429135500003, 25.00253515000003], [84.36497693900003, 25.000873771000045], [84.36528692300004, 25.000455825000074], [84.36515167600004, 24.999976588000038], [84.36551614900003, 24.999577087000034], [84.36616311700004, 24.999143081000057], [84.36560449800004, 24.998300318000076], [84.36457409200005, 24.996944625000026], [84.36410097600003, 24.995917271000053], [84.36367016900005, 24.99452907600005], [84.36339651700007, 24.99332239000006], [84.36355727700004, 24.99162176300007], [84.36277687600005, 24.99132826300007], [84.36230843900006, 24.991041059000054], [84.36161489200003, 24.991064040000026], [84.36130058100008, 24.99137812400005], [84.36057582700005, 24.991603953000038], [84.36054903600007, 24.991202053000052], [84.35913861300008, 24.991049168000075], [84.35930937900008, 24.989335093000022], [84.35821002800003, 24.989328520000072], [84.35815179500008, 24.988470605000032], [84.35195645100004, 24.991150438000034], [84.35212833400004, 24.994753184000047], [84.35258921800005, 24.997455079000076], [84.35194109600008, 24.998037890000035], [84.34975103400006, 24.998832545000027], [84.34986802600008, 25.00045358600005], [84.34918311700005, 25.00064351700007], [84.34900627000007, 25.00112086300004], [84.34922410900003, 25.002494269000067], [84.34881281700007, 25.00387285000005], [84.34843124000008, 25.00526072400004], [84.34864796300008, 25.006106071000033], [84.34896754000005, 25.007114485000045], [84.34960578200008, 25.008576169000037], [84.34985034300007, 25.00967888100007], [84.35028514400005, 25.011870541000064], [84.34969197300006, 25.01374005100007], [84.34888840900004, 25.01593321100006], [84.34845609300004, 25.016797180000026], [84.34742254100007, 25.017910234000055], [84.34671766000008, 25.01877256000006], [84.34523003000004, 25.020338680000066], [84.34361346500003, 25.02190398500005], [84.34333300100008, 25.02299455700006], [84.34379860500007, 25.024351419000027], [84.34281385400004, 25.025550464000048], [84.34066723100005, 25.027776034000055], [84.33796267300005, 25.03107228400006], [84.33654173800005, 25.032950114000073], [84.34263950900004, 25.03579485100005], [84.34706345200004, 25.038556931000073], [84.35000180700007, 25.039883646000078], [84.35439943300008, 25.041539630000045], [84.35851471300003, 25.04320722500006], [84.35919208000007, 25.042033333000063], [84.35999382100005, 25.040783357000066], [84.36060247500006, 25.039527770000063], [84.36134320900004, 25.03710849600003], [84.36212630400007, 25.035005385000034], [84.36337528900003, 25.033568520000074], [84.36428273200005, 25.032766070000037], [84.36466468700007, 25.032001106000052], [84.36595710200004, 25.03071338500007], [84.36755416500006, 25.029084483000076], [84.36936086500003, 25.02722215700004], [84.37046866100007, 25.026104925000027], [84.37167294800008, 25.025340176000043], [84.37232904200005, 25.025046159000055], [84.37289223300007, 25.024562099000036], [84.37389475200007, 25.024310679000052], [84.37478498600007, 25.02382850300006], [84.37500323700004, 25.023085086000037], [84.37507627100007, 25.020463208000024]]]]}}, {"type": "Feature", "properties": {"OBJECTID": 1449, "GPCODE": "91329", "GPNAME_1": "ARAI", "DIST_CEN_C": null, "BLK_NAME": "DAUDNAGAR", "ST_NAME": null, "ST_CODE_1": null, "GPCODE2011": "93889", "REMARKS": "FINALIZED", "MAP_STATUS": "COMPLETED", "BLK_C_2001": "340001", "BLK_C_2011": "01476", "DIST_NAME": "AURANGABAD", "code2011": 0.0, "Shape_Leng": 0.16777586688, "Shape_Area": 0.00091550642, "Area": 10.239}, "geometry": {"type": "MultiPolygon", "coordinates": [[[[84.49939925400008, 25.101844503000052], [84.49969213200006, 25.101443007000057], [84.49966265900008, 25.101176691000035], [84.49929664300004, 25.100372924000055], [84.49919315000005, 25.099740926000038], [84.49897566700008, 25.09914042400004], [84.49905596600007, 25.098174570000026], [84.49929993700005, 25.09712309400004], [84.49973652800008, 25.096721745000025], [84.50006883800006, 25.09655947400006], [84.50076814600004, 25.096162912000068], [84.50146259200005, 25.095630829000072], [84.50194382900008, 25.095265658000073], [84.50220195300005, 25.094837077000022], [84.50249996900004, 25.094236954000053], [84.50250027600003, 25.093902909000064], [84.50243161400005, 25.093234900000027], [84.50236259200005, 25.092801472000076], [84.50177853300005, 25.091965926000057], [84.50160053800005, 25.091496345000053], [84.50153167900004, 25.090963723000073], [84.50104181900008, 25.090146339000057], [84.50236606500005, 25.089285277000045], [84.50306031700006, 25.088987947000078], [84.50364538900004, 25.088789849000023], [84.50390828900004, 25.088555358000065], [84.50460223600004, 25.088497207000046], [84.50526179000008, 25.088199863000057], [84.50610454000008, 25.08803348400005], [84.50764114000003, 25.087976095000045], [84.50761174900003, 25.087542711000026], [84.50746357500003, 25.087041597000052], [84.50725103000008, 25.086409462000063], [84.50722219200009, 25.085511245000077], [84.50703937300005, 25.08483854800005], [84.50704482200007, 25.084369151000033], [84.50682217100007, 25.08393559600006], [84.50685302300008, 25.082753082000067], [84.50674450300005, 25.082188737000024], [84.50681927700003, 25.081787038000073], [84.50740397100003, 25.08195907700008], [84.50817215300003, 25.08195971300006], [84.50868251600008, 25.08213161200007], [84.50970828600003, 25.08226785200003], [84.51021888900004, 25.082236570000077], [84.51066016900006, 25.082042821000073], [84.51070038600005, 25.08137485900005], [84.51037895700006, 25.080571192000036], [84.50985381600003, 25.08042183300006], [84.50912027200008, 25.080416696000043], [84.50831235700008, 25.080447707000076], [84.50721707700006, 25.08044232900005], [84.50633487500005, 25.080437089000043], [84.50571505300007, 25.080698377000033], [84.50508527800008, 25.081099573000074], [84.50450009000008, 25.081428644000027], [84.50398932700006, 25.081757664000065], [84.50369675700006, 25.08182070500004], [84.50325603600004, 25.081454647000044], [84.50307309600004, 25.08098511700007], [84.50304398000003, 25.08042085200003], [84.50297593700003, 25.079053153000075], [84.50232214700003, 25.078614736000077], [84.50169804700005, 25.07824415700003], [84.50108381200005, 25.077877985000043], [84.50035075100004, 25.077471153000033], [84.49929572000008, 25.07686545100006], [84.49867174700006, 25.07639999500003], [84.49827055500003, 25.07610313300006], [84.49789693200006, 25.07596722900007], [84.49722831300005, 25.07583145600006], [84.49528897400006, 25.07607884600003], [84.49408931500005, 25.076117853000028], [84.49373617900005, 25.07551124200006], [84.49338460900003, 25.07465196100003], [84.49308346000004, 25.073652882000033], [84.49291080900008, 25.072722275000046], [84.49281838900004, 25.071634059000075], [84.49210920400003, 25.070908204000034], [84.49103976600009, 25.07074023900003], [84.49096822200005, 25.070279524000057], [84.49090374800005, 25.06948935300005], [84.49052855400004, 25.06924817500004], [84.48906652200003, 25.069254240000078], [84.48834796200003, 25.069250597000064], [84.48767531900006, 25.06903047800006], [84.48759892000004, 25.068560692000062], [84.48851454200008, 25.067951509000068], [84.48912362500005, 25.068031362000056], [84.49008571600007, 25.06793251700003], [84.49041020300007, 25.067537021000078], [84.49062739000004, 25.066066722000073], [84.49059839800003, 25.06515487000007], [84.49006989600008, 25.064872278000053], [84.48979911100008, 25.064577505000045], [84.48958082200005, 25.063818137000055], [84.48940699900004, 25.063072490000025], [84.48904372800007, 25.062515525000038], [84.48811429500006, 25.06214509700004], [84.48715368100005, 25.06203639100005], [84.48603319700004, 25.062120934000063], [84.48525977400004, 25.062978975000078], [84.48501124000006, 25.063898508000023], [84.48469385200008, 25.064722781000057], [84.48354190200007, 25.06429256000007], [84.48238990300007, 25.063857819000077], [84.48069167100005, 25.062819997000076], [84.48062117800004, 25.06220581100007], [84.48034269700008, 25.060778068000047], [84.47904557300006, 25.06057278000003], [84.47880517400006, 25.060982211000066], [84.47848520200006, 25.061440917000027], [84.47835744600008, 25.062843955000062], [84.47701274400004, 25.063121332000037], [84.47547041000007, 25.063307344000066], [84.47474487400007, 25.063633091000042], [84.47306157400004, 25.064152316000047], [84.47094941500006, 25.065111624000053], [84.46997171200007, 25.065336699000056], [84.47060032000007, 25.068594262000033], [84.47116890200004, 25.070375571000056], [84.47166675000005, 25.071592246000023], [84.47220287500005, 25.072235979000027], [84.47219790100007, 25.073021346000075], [84.47284045200007, 25.07408085900005], [84.47294392700007, 25.074966054000072], [84.47304815300004, 25.075724870000045], [84.47350967200003, 25.07641781700005], [84.47396512700004, 25.078852959000073], [84.47452330500005, 25.081518869000035], [84.47510190300005, 25.081720492000045], [84.47553044600005, 25.082151449000037], [84.47566759100005, 25.083203835000063], [84.47555275300004, 25.084900272000027], [84.47349466900005, 25.085088192000057], [84.47197489700005, 25.085572178000064], [84.47136284500004, 25.085966088000077], [84.47096317100005, 25.086455993000072], [84.47063197000006, 25.08710867800005], [84.47104902800004, 25.08934507600003], [84.47158836500006, 25.09027320200005], [84.47298538100006, 25.08961705100006], [84.47367989900005, 25.090311177000046], [84.47408622300009, 25.09268740300007], [84.47444460600008, 25.093239932000074], [84.47639968100003, 25.095263187000057], [84.47682356500007, 25.095649054000035], [84.47936537200007, 25.095030352000038], [84.48014328500005, 25.096659302000035], [84.48103798900007, 25.09786444300005], [84.48173347400007, 25.09841870200006], [84.48273318200006, 25.09787325800005], [84.48406887900006, 25.09751911500007], [84.48482807800008, 25.097387603000072], [84.48557859500005, 25.09786086200006], [84.48642230500008, 25.098497097000063], [84.48660128100005, 25.099215695000055], [84.48814386500004, 25.099056655000027], [84.48945265400005, 25.09823732900003], [84.49171423800004, 25.096430033000047], [84.49285301900005, 25.098259254000027], [84.49396642100004, 25.099366243000077], [84.49589770800003, 25.10050895100005], [84.49603511400005, 25.10154325700006], [84.49678520800006, 25.102097705000062], [84.49789533900008, 25.10184035800006], [84.49878861900004, 25.10268809400003], [84.49939925400008, 25.101844503000052]]]]}}, {"type": "Feature", "properties": {"OBJECTID": 1450, "GPCODE": "91330", "GPNAME_1": "BELWAN", "DIST_CEN_C": null, "BLK_NAME": "DAUDNAGAR", "ST_NAME": null, "ST_CODE_1": null, "GPCODE2011": "93890", "REMARKS": "FINALIZED", "MAP_STATUS": "COMPLETED", "BLK_C_2001": "340001", "BLK_C_2011": "01476", "DIST_NAME": "AURANGABAD", "code2011": 0.0, "Shape_Leng": 0.23192854992, "Shape_Area": 0.00141679794, "Area": 15.8606}, "geometry": {"type": "MultiPolygon", "coordinates": [[[[84.37093735100007, 25.003395995000062], [84.37159724000009, 25.003237437000053], [84.37249500200005, 25.003766292000023], [84.37369406000005, 25.003705662000073], [84.37555027600007, 25.00319300600006], [84.37645341600006, 25.002945573000034], [84.37685880300006, 25.00235672900004], [84.37716449100003, 25.00045379000005], [84.37744387800007, 25.000171056000056], [84.37840779800007, 24.999738981000064], [84.37920988000008, 24.999779715000045], [84.37950726600008, 25.000454017000038], [84.37971728700006, 25.00088396900003], [84.38092697100006, 25.000715041000035], [84.38291309600004, 25.00072661300004], [84.38372467900007, 25.00083520800007], [84.38425796500007, 25.001781593000032], [84.38466205400005, 25.002072859000066], [84.38628616500006, 25.002145496000026], [84.38773337100008, 25.00202752000007], [84.38891131000008, 25.00143853900005], [84.39004490100007, 25.00082677000006], [84.39067157000005, 25.00046028400004], [84.39095656800004, 25.00006472900003], [84.39160809000003, 24.998971701000073], [84.39165609700007, 24.99776688000003], [84.39097086400005, 24.99587179300005], [84.39110205100008, 24.99481187400005], [84.39162972800005, 24.993718125000044], [84.39143088000003, 24.99309869800004], [84.39055979400007, 24.99159515100007], [84.39088579000008, 24.99101027000006], [84.39136665000007, 24.99094088800007], [84.39257447100005, 24.990324960000066], [84.39273868000004, 24.98948642600004], [84.39246795800005, 24.988532510000027], [84.39159536400007, 24.98725014000007], [84.39099417900007, 24.986808843000063], [84.38983712900006, 24.98654487500005], [84.38915263200005, 24.98668993900003], [84.38854934800008, 24.98726860000005], [84.38742185000007, 24.987736056000074], [84.38670312600004, 24.987113512000064], [84.38590476300004, 24.987253320000036], [84.38481434700003, 24.98737783200005], [84.38460423700008, 24.986261840000054], [84.38405241700008, 24.98443965100006], [84.38323491400007, 24.984489087000043], [84.38094400200004, 24.98490448000007], [84.38022298200008, 24.984615923000035], [84.38075905200003, 24.984447568000064], [84.38104653000005, 24.983704467000052], [84.381088, 24.982021188000033], [84.38311691800004, 24.981545621000066], [84.38394504800004, 24.98137891700003], [84.38727212400005, 24.981511069000078], [84.38930928700006, 24.981265618000066], [84.38994804300006, 24.979843048000077], [84.39051814600003, 24.97904290100007], [84.39158261600005, 24.979080718000034], [84.39164389500007, 24.97953689600007], [84.39274515300008, 24.97925886300004], [84.39284267100004, 24.97877201500006], [84.39369049400005, 24.978632420000054], [84.39613648900007, 24.97867807800003], [84.39595004500006, 24.977715688000046], [84.39568259500004, 24.97628782700008], [84.39542425300004, 24.974255344000028], [84.39387138200004, 24.97394851100006], [84.38894186600004, 24.972845793000033], [84.38532934400007, 24.97179581100005], [84.38420995200005, 24.970417247000057], [84.38365955900008, 24.968400952000025], [84.38428117400008, 24.966603760000055], [84.38504608500006, 24.964852415000053], [84.38438957900007, 24.963846613000044], [84.37765447500004, 24.962561567000023], [84.37555383600005, 24.962030242000026], [84.37538868600006, 24.957371334000072], [84.37364051600008, 24.957415208000043], [84.36997398000005, 24.957768169000076], [84.36733691300003, 24.958181378000063], [84.36720475900006, 24.959354139000027], [84.36439150100006, 24.959477280000044], [84.36407894400008, 24.962336968000045], [84.36381639400008, 24.963734629000044], [84.36767246400007, 24.963901985000064], [84.36772467000003, 24.966312419000076], [84.36799060700008, 24.968602330000067], [84.36820135400006, 24.96960560100007], [84.36584928500008, 24.969591666000042], [84.36487836400005, 24.96964], [84.36396992400006, 24.969264563000024], [84.36165338300003, 24.96913333200007], [84.36096308700007, 24.969418060000066], [84.35895212400004, 24.970177884000066], [84.35735491700007, 24.97054288100003], [84.35613477300006, 24.97013391400003], [84.35375218400003, 24.969550837000043], [84.35256212900003, 24.96976938800003], [84.35008908000003, 24.969384329000036], [84.34646767700008, 24.969601629000067], [84.34514861900004, 24.969850920000056], [84.34458041600004, 24.970361928000045], [84.34493954400006, 24.972706621000043], [84.34302715900003, 24.972839398000076], [84.34192530400009, 24.973175668000067], [84.34188703900008, 24.97434446500006], [84.34211850300005, 24.97654842700007], [84.34260471100004, 24.97777902100006], [84.34325456200008, 24.97964703400004], [84.34340207200006, 24.98046486900006], [84.34481099900006, 24.98081650200004], [84.34552589400005, 24.98124962000003], [84.34563770200003, 24.983570218000068], [84.34587041200007, 24.98560264500003], [84.34568670800007, 24.987023273000034], [84.34703084100005, 24.987428652000062], [84.34730457100005, 24.98860377400007], [84.34754669500006, 24.990036001000078], [84.34864319100006, 24.99044437200007], [84.34970259300007, 24.99050942300005], [84.35076637300006, 24.990655850000053], [84.35195645100004, 24.991150438000034], [84.35815179500008, 24.988470605000032], [84.35821002800003, 24.989328520000072], [84.35930937900008, 24.989335093000022], [84.35913861300008, 24.991049168000075], [84.36054903600007, 24.991202053000052], [84.36057582700005, 24.991603953000038], [84.36130058100008, 24.99137812400005], [84.36161489200003, 24.991064040000026], [84.36230843900006, 24.991041059000054], [84.36277687600005, 24.99132826300007], [84.36355727700004, 24.99162176300007], [84.36339651700007, 24.99332239000006], [84.36367016900005, 24.99452907600005], [84.36410097600003, 24.995917271000053], [84.36457409200005, 24.996944625000026], [84.36560449800004, 24.998300318000076], [84.36616311700004, 24.999143081000057], [84.36551614900003, 24.999577087000034], [84.36515167600004, 24.999976588000038], [84.36528692300004, 25.000455825000074], [84.36497693900003, 25.000873771000045], [84.36429135500003, 25.00253515000003], [84.36282343600004, 25.00485076800004], [84.36416522600007, 25.00632118300007], [84.36757634700007, 25.00446834400003], [84.36875898300008, 25.003951777000054], [84.36938321000008, 25.00393293600007], [84.37093735100007, 25.003395995000062]]]]}}, {"type": "Feature", "properties": {"OBJECTID": 1451, "GPCODE": "91331", "GPNAME_1": "CHAURI", "DIST_CEN_C": null, "BLK_NAME": "DAUDNAGAR", "ST_NAME": null, "ST_CODE_1": null, "GPCODE2011": "93891", "REMARKS": "FINALIZED", "MAP_STATUS": "COMPLETED", "BLK_C_2001": "340001", "BLK_C_2011": "01476", "DIST_NAME": "AURANGABAD", "code2011": 0.0, "Shape_Leng": 0.13456453923, "Shape_Area": 0.00087541676, "Area": 9.78926}, "geometry": {"type": "MultiPolygon", "coordinates": [[[[84.51378537300008, 25.10656838700004], [84.51685901600007, 25.106335927000032], [84.52030360900005, 25.107272790000025], [84.52171146500007, 25.107246659000054], [84.52787025200007, 25.10492176500003], [84.52996658700005, 25.105568623000067], [84.53215806300005, 25.105014754000024], [84.53781967700007, 25.104399811000064], [84.53911351400006, 25.10440513900005], [84.54057043900008, 25.105051458000048], [84.54291136800003, 25.103278833000047], [84.54210916900007, 25.10207325300007], [84.54185675200006, 25.10150892100006], [84.54202558300005, 25.10098987400005], [84.54353850600006, 25.09949214100004], [84.54328132800003, 25.098562230000027], [84.54237996800003, 25.097320420000074], [84.54129078100004, 25.09544661600006], [84.54000341600005, 25.093387609000047], [84.53898844700007, 25.091748577000033], [84.53840946900004, 25.090348912000024], [84.53725125500006, 25.087978574000033], [84.53642523900004, 25.085572236000075], [84.53544503600006, 25.084032454000067], [84.53167318100003, 25.084111419000067], [84.52954667200004, 25.084335708000026], [84.52797533000006, 25.084596489000035], [84.52731598600008, 25.084826234000047], [84.52665172200005, 25.084956746000046], [84.52614099900006, 25.08525424800007], [84.52506528100008, 25.08538896400006], [84.52430278900005, 25.084417991000066], [84.52368889300004, 25.083550976000026], [84.52226776900005, 25.081943054000078], [84.52073762400005, 25.08040277500004], [84.51934988200009, 25.080428871000038], [84.51879960400004, 25.080559427000026], [84.51821477800007, 25.080559013000027], [84.51777373900006, 25.080518019000067], [84.51656442900008, 25.08044493700004], [84.51542946300003, 25.080507271000045], [84.51480999400007, 25.080439150000075], [84.51397293000008, 25.07978850300003], [84.51298195400005, 25.079548587000033], [84.51261497200005, 25.07971530900005], [84.51155433900004, 25.079777655000044], [84.51096441300007, 25.07990814200008], [84.51037895700006, 25.080571192000036], [84.51070038600005, 25.08137485900005], [84.51066016900006, 25.082042821000073], [84.51021888900004, 25.082236570000077], [84.50970828600003, 25.08226785200003], [84.50868251600008, 25.08213161200007], [84.50817215300003, 25.08195971300006], [84.50740397100003, 25.08195907700008], [84.50681927700003, 25.081787038000073], [84.50674450300005, 25.082188737000024], [84.50685302300008, 25.082753082000067], [84.50682217100007, 25.08393559600006], [84.50704482200007, 25.084369151000033], [84.50703937300005, 25.08483854800005], [84.50722219200009, 25.085511245000077], [84.50725103000008, 25.086409462000063], [84.50746357500003, 25.087041597000052], [84.50761174900003, 25.087542711000026], [84.50764114000003, 25.087976095000045], [84.50610454000008, 25.08803348400005], [84.50526179000008, 25.088199863000057], [84.50460223600004, 25.088497207000046], [84.50390828900004, 25.088555358000065], [84.50364538900004, 25.088789849000023], [84.50306031700006, 25.088987947000078], [84.50236606500005, 25.089285277000045], [84.50104181900008, 25.090146339000057], [84.50153167900004, 25.090963723000073], [84.50160053800005, 25.091496345000053], [84.50177853300005, 25.091965926000057], [84.50236259200005, 25.092801472000076], [84.50243161400005, 25.093234900000027], [84.50250027600003, 25.093902909000064], [84.50249996900004, 25.094236954000053], [84.50220195300005, 25.094837077000022], [84.50194382900008, 25.095265658000073], [84.50146259200005, 25.095630829000072], [84.50076814600004, 25.096162912000068], [84.50006883800006, 25.09655947400006], [84.49973652800008, 25.096721745000025], [84.49929993700005, 25.09712309400004], [84.49905596600007, 25.098174570000026], [84.49897566700008, 25.09914042400004], [84.49919315000005, 25.099740926000038], [84.49929664300004, 25.100372924000055], [84.49966265900008, 25.101176691000035], [84.49969213200006, 25.101443007000057], [84.49939925400008, 25.101844503000052], [84.49878861900004, 25.10268809400003], [84.50141854200007, 25.10501034500004], [84.50709073300004, 25.103809841000043], [84.50722615000006, 25.10734867800005], [84.50765705400005, 25.107746230000032], [84.51378537300008, 25.10656838700004]]]]}}, {"type": "Feature", "properties": {"OBJECTID": 1452, "GPCODE": "91332", "GPNAME_1": "GORDIHA", "DIST_CEN_C": null, "BLK_NAME": "DAUDNAGAR", "ST_NAME": null, "ST_CODE_1": null, "GPCODE2011": "93892", "REMARKS": "FINALIZED", "MAP_STATUS": "COMPLETED", "BLK_C_2001": "340001", "BLK_C_2011": "01476", "DIST_NAME": "AURANGABAD", "code2011": 0.0, "Shape_Leng": 0.16418843079, "Shape_Area": 0.00123980428, "Area": 13.8698}, "geometry": {"type": "MultiPolygon", "coordinates": [[[[84.49641722800004, 25.070677379000074], [84.49711655500005, 25.06896133400005], [84.49732436200009, 25.068217677000064], [84.49790270900007, 25.067642834000026], [84.49887384900006, 25.067715711000062], [84.49902322800006, 25.067047797000043], [84.49939594100005, 25.06594678500005], [84.49955059000007, 25.065017065000063], [84.49999276100004, 25.063884466000047], [84.50061710900007, 25.063857917000064], [84.50204487500008, 25.06329489700005], [84.50237694000003, 25.06326358700005], [84.50300158000005, 25.062997747000054], [84.50369559100005, 25.062804207000056], [84.50430023300004, 25.06275510000006], [84.50510334200004, 25.062394625000024], [84.50569859300003, 25.06172706700005], [84.50599642700007, 25.061199228000078], [84.50647256600007, 25.06083399700003], [84.50687968500006, 25.06000374300004], [84.50747006700004, 25.059304637000025], [84.50787191700005, 25.058736186000033], [84.50861651600007, 25.05734202000008], [84.50951975900006, 25.055862269000045], [84.51069540200007, 25.054536107000047], [84.51110252200004, 25.05366982700008], [84.51151449800005, 25.052907292000043], [84.51247700700003, 25.05154487300007], [84.51325123800007, 25.05021391500003], [84.51428302000005, 25.04891918000004], [84.51557253800007, 25.047525455000027], [84.51235807000006, 25.046074049000026], [84.50965889100007, 25.04482168000004], [84.50817302400003, 25.044202169000073], [84.50734111900005, 25.04367336400003], [84.50556815500005, 25.042854973000033], [84.50414645600006, 25.04255590100007], [84.50373508800004, 25.037567890000048], [84.50370353200003, 25.03437663300008], [84.50336830300006, 25.032728784000028], [84.50268509300008, 25.032231727000067], [84.50120454100005, 25.031395468000028], [84.50015474600008, 25.030934123000065], [84.49924849300004, 25.030599375000065], [84.49789658000003, 25.030165700000055], [84.49647202800008, 25.029257206000068], [84.49480909800008, 25.02816997000008], [84.49218614500006, 25.026901915000053], [84.49072114100005, 25.02668226800006], [84.48963403200008, 25.027024218000065], [84.48851448400006, 25.027817377000076], [84.48619127100005, 25.03017053800005], [84.48477201300005, 25.031341315000077], [84.48380130900006, 25.03208554300005], [84.48156565900007, 25.033089500000074], [84.48077543900007, 25.03268377300003], [84.47981354500007, 25.032010770000056], [84.47826149700006, 25.031438483000045], [84.47725270500007, 25.03114443100003], [84.47493563800003, 25.030893126000024], [84.47317843900004, 25.030640232000053], [84.47206393300007, 25.03060726700005], [84.47094685100006, 25.030976106000026], [84.47038180100003, 25.03180356300004], [84.46973202200007, 25.032711935000066], [84.46812394000005, 25.032378507000033], [84.46659738000005, 25.032478796000078], [84.46580255400005, 25.03282207700005], [84.46553721800007, 25.033249528000056], [84.46579062100005, 25.034695164000027], [84.46607766200003, 25.035527184000046], [84.46616338300004, 25.036845499000037], [84.46627882300004, 25.037405809000063], [84.46638728000005, 25.039040286000045], [84.46658401600007, 25.040056900000025], [84.46686360600006, 25.042062286000032], [84.46705839700007, 25.042595989000063], [84.46747796600005, 25.04519790300003], [84.46828989200003, 25.04529702600007], [84.46979534500008, 25.04542224000005], [84.47053186300008, 25.045701466000025], [84.47293263400007, 25.04844472900004], [84.47353941100005, 25.049653008000064], [84.47507873200004, 25.051498053000046], [84.47584610100006, 25.05319909800005], [84.47751014200009, 25.055712734000053], [84.47845862900004, 25.057757757000047], [84.47900308600003, 25.059448662000023], [84.47904557300006, 25.06057278000003], [84.48034269700008, 25.060778068000047], [84.48062117800004, 25.06220581100007], [84.48069167100005, 25.062819997000076], [84.48238990300007, 25.063857819000077], [84.48354190200007, 25.06429256000007], [84.48469385200008, 25.064722781000057], [84.48501124000006, 25.063898508000023], [84.48525977400004, 25.062978975000078], [84.48603319700004, 25.062120934000063], [84.48715368100005, 25.06203639100005], [84.48811429500006, 25.06214509700004], [84.48904372800007, 25.062515525000038], [84.48940699900004, 25.063072490000025], [84.48958082200005, 25.063818137000055], [84.48979911100008, 25.064577505000045], [84.49006989600008, 25.064872278000053], [84.49059839800003, 25.06515487000007], [84.49062739000004, 25.066066722000073], [84.49041020300007, 25.067537021000078], [84.49008571600007, 25.06793251700003], [84.48912362500005, 25.068031362000056], [84.48851454200008, 25.067951509000068], [84.48759892000004, 25.068560692000062], [84.48767531900006, 25.06903047800006], [84.48834796200003, 25.069250597000064], [84.48906652200003, 25.069254240000078], [84.49052855400004, 25.06924817500004], [84.49090374800005, 25.06948935300005], [84.49096822200005, 25.070279524000057], [84.49103976600009, 25.07074023900003], [84.49210920400003, 25.070908204000034], [84.49281838900004, 25.071634059000075], [84.49335630700006, 25.071194412000068], [84.49532105000003, 25.070834314000024], [84.49641722800004, 25.070677379000074]]]]}}, {"type": "Feature", "properties": {"OBJECTID": 1453, "GPCODE": "91333", "GPNAME_1": "KANAP", "DIST_CEN_C": null, "BLK_NAME": "DAUDNAGAR", "ST_NAME": null, "ST_CODE_1": null, "GPCODE2011": "93893", "REMARKS": "FINALIZED", "MAP_STATUS": "COMPLETED", "BLK_C_2001": "340001", "BLK_C_2011": "01476", "DIST_NAME": "AURANGABAD", "code2011": 0.0, "Shape_Leng": 0.1442518835, "Shape_Area": 0.00104561717, "Area": 11.6951}, "geometry": {"type": "MultiPolygon", "coordinates": [[[[84.52978153900006, 25.081880397000077], [84.53036700500007, 25.08101410200004], [84.53157623100003, 25.081118668000045], [84.53231489700005, 25.080925077000074], [84.53275165300005, 25.080157992000068], [84.53269427600009, 25.07722403200006], [84.53308648000007, 25.07634413900007], [84.53298316900003, 25.075378105000027], [84.53375681500006, 25.074678963000053], [84.53392284500006, 25.071311752000042], [84.53618403600007, 25.069372245000068], [84.53766193400008, 25.067910656000038], [84.54016099500006, 25.065750067000067], [84.54189172400004, 25.063995225000042], [84.54240762500007, 25.06316490100005], [84.54271120700008, 25.061233223000045], [84.54257338000008, 25.059833859000037], [84.54082007200003, 25.058555527000067], [84.53870996600006, 25.057213691000072], [84.53754627400008, 25.056206471000053], [84.53601101000004, 25.054932647000044], [84.53403349300004, 25.055459520000056], [84.53242378100003, 25.054578346000028], [84.53140842100004, 25.053972892000047], [84.52950598700005, 25.053502280000032], [84.52775230600008, 25.05289171900006], [84.52665754600008, 25.052484824000032], [84.52534019500007, 25.051680487000056], [84.52446859900004, 25.051007324000068], [84.52337353100006, 25.05106975500007], [84.52213052700006, 25.050265426000067], [84.51986695800008, 25.049252753000076], [84.51854427700005, 25.048822992000055], [84.51557253800007, 25.047525455000027], [84.51428302000005, 25.04891918000004], [84.51325123800007, 25.05021391500003], [84.51247700700003, 25.05154487300007], [84.51151449800005, 25.052907292000043], [84.51110252200004, 25.05366982700008], [84.51069540200007, 25.054536107000047], [84.50951975900006, 25.055862269000045], [84.50861651600007, 25.05734202000008], [84.50787191700005, 25.058736186000033], [84.50747006700004, 25.059304637000025], [84.50687968500006, 25.06000374300004], [84.50647256600007, 25.06083399700003], [84.50599642700007, 25.061199228000078], [84.50569859300003, 25.06172706700005], [84.50510334200004, 25.062394625000024], [84.50430023300004, 25.06275510000006], [84.50369559100005, 25.062804207000056], [84.50300158000005, 25.062997747000054], [84.50237694000003, 25.06326358700005], [84.50204487500008, 25.06329489700005], [84.50061710900007, 25.063857917000064], [84.49999276100004, 25.063884466000047], [84.49955059000007, 25.065017065000063], [84.49939594100005, 25.06594678500005], [84.49902322800006, 25.067047797000043], [84.49887384900006, 25.067715711000062], [84.49790270900007, 25.067642834000026], [84.49732436200009, 25.068217677000064], [84.49711655500005, 25.06896133400005], [84.49641722800004, 25.070677379000074], [84.49532105000003, 25.070834314000024], [84.49335630700006, 25.071194412000068], [84.49281838900004, 25.071634059000075], [84.49291080900008, 25.072722275000046], [84.49308346000004, 25.073652882000033], [84.49338460900003, 25.07465196100003], [84.49373617900005, 25.07551124200006], [84.49408931500005, 25.076117853000028], [84.49528897400006, 25.07607884600003], [84.49722831300005, 25.07583145600006], [84.49789693200006, 25.07596722900007], [84.49827055500003, 25.07610313300006], [84.49867174700006, 25.07639999500003], [84.49929572000008, 25.07686545100006], [84.50035075100004, 25.077471153000033], [84.50108381200005, 25.077877985000043], [84.50169804700005, 25.07824415700003], [84.50232214700003, 25.078614736000077], [84.50297593700003, 25.079053153000075], [84.50304398000003, 25.08042085200003], [84.50307309600004, 25.08098511700007], [84.50325603600004, 25.081454647000044], [84.50369675700006, 25.08182070500004], [84.50398932700006, 25.081757664000065], [84.50450009000008, 25.081428644000027], [84.50508527800008, 25.081099573000074], [84.50571505300007, 25.080698377000033], [84.50633487500005, 25.080437089000043], [84.50721707700006, 25.08044232900005], [84.50831235700008, 25.080447707000076], [84.50912027200008, 25.080416696000043], [84.50985381600003, 25.08042183300006], [84.51037895700006, 25.080571192000036], [84.51096441300007, 25.07990814200008], [84.51155433900004, 25.079777655000044], [84.51261497200005, 25.07971530900005], [84.51298195400005, 25.079548587000033], [84.51397293000008, 25.07978850300003], [84.51480999400007, 25.080439150000075], [84.51542946300003, 25.080507271000045], [84.51656442900008, 25.08044493700004], [84.51777373900006, 25.080518019000067], [84.51821477800007, 25.080559013000027], [84.51879960400004, 25.080559427000026], [84.51934988200009, 25.080428871000038], [84.52073762400005, 25.08040277500004], [84.52226776900005, 25.081943054000078], [84.52368889300004, 25.083550976000026], [84.52430278900005, 25.084417991000066], [84.52506528100008, 25.08538896400006], [84.52614099900006, 25.08525424800007], [84.52665172200005, 25.084956746000046], [84.52731598600008, 25.084826234000047], [84.52797533000006, 25.084596489000035], [84.52954667200004, 25.084335708000026], [84.52929487400007, 25.083076178000056], [84.52978153900006, 25.081880397000077]]]]}}, {"type": "Feature", "properties": {"OBJECTID": 1454, "GPCODE": "91334", "GPNAME_1": "KARMA", "DIST_CEN_C": null, "BLK_NAME": "DAUDNAGAR", "ST_NAME": null, "ST_CODE_1": null, "GPCODE2011": "93894", "REMARKS": "FINALIZED", "MAP_STATUS": "COMPLETED", "BLK_C_2001": "340001", "BLK_C_2011": "01476", "DIST_NAME": "AURANGABAD", "code2011": 0.0, "Shape_Leng": 0.18522586145, "Shape_Area": 0.00087445783, "Area": 9.78849}, "geometry": {"type": "MultiPolygon", "coordinates": [[[[84.40206253300005, 24.99918058700007], [84.40379239100008, 24.998274236000043], [84.40476115800004, 24.99784194800003], [84.40620142700004, 24.997994583000036], [84.40764215700005, 24.996621565000055], [84.40942932400003, 24.994564573000048], [84.40848194700004, 24.99258226300003], [84.40785051400007, 24.990750728000023], [84.40774266500006, 24.989143350000063], [84.40914184900004, 24.98876755300006], [84.41014447000003, 24.988443767000035], [84.41239109200006, 24.987977998000076], [84.41363587400008, 24.98773228400006], [84.41589810000005, 24.98716268100003], [84.41620159100006, 24.988423699000066], [84.41523640000008, 24.989077277000035], [84.41463422000004, 24.989511691000075], [84.41493805000005, 24.99144963200007], [84.41524838600003, 24.993171044000064], [84.41536228800004, 24.993902838000054], [84.41456401400006, 24.994042791000027], [84.41287806500003, 24.994326710000053], [84.41550995600005, 24.99624172500006], [84.41682749200004, 24.99698029600006], [84.41750354900006, 24.997349636000024], [84.41995358900004, 24.996853266000073], [84.42127790600006, 24.99656736600008], [84.42263991800007, 24.99657491000005], [84.42380365100007, 24.996617498000035], [84.42408537400007, 24.995960039000067], [84.42413226200006, 24.99486353900005], [84.42517826700004, 24.99472491800003], [84.42556439000003, 24.99699287100003], [84.42575675500007, 24.997855955000034], [84.42583399000006, 24.998149752000074], [84.42663608000004, 24.998190332000036], [84.42704024700004, 24.997754730000054], [84.42708836100007, 24.996477678000076], [84.42724831600003, 24.996257399000058], [84.42961122400004, 24.996198265000032], [84.42962017700006, 24.99484432400004], [84.43098358400005, 24.994635136000056], [84.43073473000004, 24.99333389800006], [84.43082289800003, 24.992720564000024], [84.43110360900005, 24.992216558000052], [84.43116145400006, 24.991711388000056], [84.43141673100007, 24.991302053000027], [84.43197434300004, 24.990871798000057], [84.43273676200005, 24.990162867000038], [84.43240431600003, 24.989502096000024], [84.43218892600004, 24.988377007000054], [84.43194337400007, 24.98730601500006], [84.43163663000007, 24.987254669000038], [84.43119228900008, 24.98704913200004], [84.43077880600003, 24.98666320600006], [84.43056295100007, 24.985614846000033], [84.43015523600008, 24.984362365000038], [84.42987968500006, 24.983340766000026], [84.42935724600005, 24.982218576000037], [84.42911437800007, 24.981499601000053], [84.42859508500004, 24.980652699000075], [84.42761071400008, 24.980480217000036], [84.42758438100003, 24.979974603000073], [84.42690949800004, 24.979438295000023], [84.42557036500006, 24.978993029000037], [84.42528143900006, 24.978499447000047], [84.42538020600006, 24.977064733000077], [84.42664911100007, 24.976877623000064], [84.42701783200005, 24.97654121000005], [84.42714594400007, 24.975896427000066], [84.42674692800006, 24.97558283500007], [84.42598088700004, 24.97535288100005], [84.42570553500008, 24.975053519000028], [84.42556973600006, 24.975364195000054], [84.42440054700006, 24.975447960000054], [84.42241775400004, 24.975739386000043], [84.42121980500008, 24.97640519600003], [84.41925509900005, 24.976958457000023], [84.41797818900005, 24.97611181600007], [84.41726207500005, 24.97508317100005], [84.41654823300007, 24.97446089600004], [84.41558436800005, 24.97419823100006], [84.41450777800009, 24.973754303000078], [84.41339237300008, 24.97246627100003], [84.41275662000004, 24.972024845000078], [84.41244410900003, 24.970637433000036], [84.41016106700005, 24.970660699000064], [84.40719582800006, 24.97053106900006], [84.40630421400004, 24.97202448200005], [84.40570281400005, 24.972350625000047], [84.40473992300008, 24.97267463600008], [84.40367834800008, 24.97293486500007], [84.40311509000009, 24.973477820000028], [84.40206603700005, 24.974094661000038], [84.40142595600008, 24.97427158100004], [84.40070353300007, 24.97419526500005], [84.39998101000003, 24.974118949000058], [84.39934400600004, 24.97385802100007], [84.39886262400006, 24.973291033000066], [84.39641077800007, 24.974089408000054], [84.39542425300004, 24.974255344000028], [84.39568259500004, 24.97628782700008], [84.39595004500006, 24.977715688000046], [84.39613648900007, 24.97867807800003], [84.39369049400005, 24.978632420000054], [84.39284267100004, 24.97877201500006], [84.39274515300008, 24.97925886300004], [84.39164389500007, 24.97953689600007], [84.39158261600005, 24.979080718000034], [84.39051814600003, 24.97904290100007], [84.38994804300006, 24.979843048000077], [84.38930928700006, 24.981265618000066], [84.38727212400005, 24.981511069000078], [84.38394504800004, 24.98137891700003], [84.38311691800004, 24.981545621000066], [84.381088, 24.982021188000033], [84.38104653000005, 24.983704467000052], [84.38075905200003, 24.984447568000064], [84.38022298200008, 24.984615923000035], [84.38094400200004, 24.98490448000007], [84.38323491400007, 24.984489087000043], [84.38405241700008, 24.98443965100006], [84.38460423700008, 24.986261840000054], [84.38481434700003, 24.98737783200005], [84.38590476300004, 24.987253320000036], [84.38670312600004, 24.987113512000064], [84.38742185000007, 24.987736056000074], [84.38854934800008, 24.98726860000005], [84.38915263200005, 24.98668993900003], [84.38983712900006, 24.98654487500005], [84.39099417900007, 24.986808843000063], [84.39159536400007, 24.98725014000007], [84.39246795800005, 24.988532510000027], [84.39273868000004, 24.98948642600004], [84.39257447100005, 24.990324960000066], [84.39136665000007, 24.99094088800007], [84.39088579000008, 24.99101027000006], [84.39055979400007, 24.99159515100007], [84.39143088000003, 24.99309869800004], [84.39162972800005, 24.993718125000044], [84.39110205100008, 24.99481187400005], [84.39097086400005, 24.99587179300005], [84.39165609700007, 24.99776688000003], [84.39160809000003, 24.998971701000073], [84.39225001600005, 24.998537635000048], [84.39449495300005, 24.998370031000036], [84.39805897200006, 24.99867933200005], [84.39978077300003, 24.998946415000034], [84.40206253300005, 24.99918058700007]]]]}}, {"type": "Feature", "properties": {"OBJECTID": 1455, "GPCODE": "91335", "GPNAME_1": "MAHAWAR", "DIST_CEN_C": null, "BLK_NAME": "DAUDNAGAR", "ST_NAME": null, "ST_CODE_1": null, "GPCODE2011": "93895", "REMARKS": "FINALIZED", "MAP_STATUS": "COMPLETED", "BLK_C_2001": "340001", "BLK_C_2011": "01476", "DIST_NAME": "AURANGABAD", "code2011": 0.0, "Shape_Leng": 0.12772690052, "Shape_Area": 0.00077440677, "Area": 8.66299}, "geometry": {"type": "MultiPolygon", "coordinates": [[[[84.43892127900006, 25.070333687000073], [84.44034454900003, 25.069438723000076], [84.44111218000006, 25.069510621000063], [84.44216901500005, 25.07008507100005], [84.44324885500004, 25.070158674000027], [84.44394852200008, 25.070031554000025], [84.44452255300007, 25.07016563800005], [84.44532397400008, 25.069619309000075], [84.44549612200007, 25.06906058100003], [84.44485482900006, 25.06785200300004], [84.44402406700004, 25.066051155000025], [84.44386596800007, 25.064470519000054], [84.44816481800007, 25.064105638000058], [84.45121851200008, 25.06394612400004], [84.45403581400006, 25.063568548000035], [84.45392390000006, 25.062471205000065], [84.45371987400006, 25.061070934000043], [84.45335142400006, 25.059809676000043], [84.45261957200006, 25.05803198900003], [84.45133312500008, 25.05620616300007], [84.44942458200006, 25.054029374000038], [84.44830320700004, 25.052727966000077], [84.44679667800006, 25.051225893000037], [84.44532631200008, 25.048744501000044], [84.44539440400007, 25.045901411000045], [84.44431124800008, 25.04560661200003], [84.44324612200006, 25.04557827900004], [84.44146507100004, 25.04591614900005], [84.43953410500006, 25.04645622000004], [84.43823276300003, 25.04693205600006], [84.43623898700008, 25.04722356600007], [84.43589536900004, 25.048232686000063], [84.43530425200004, 25.04995814800003], [84.43511368200006, 25.050309164000055], [84.43438325300008, 25.051356817000055], [84.43382601200005, 25.051705729000048], [84.43332309000004, 25.052073066000048], [84.43276751700006, 25.05216027700004], [84.43245726200007, 25.051874274000056], [84.43200260700007, 25.05169574200005], [84.43175994700005, 25.051671844000055], [84.43158944400005, 25.051977797000063], [84.43103117400005, 25.05247574200007], [84.42911287100003, 25.051828731000057], [84.42924565000004, 25.05347236800003], [84.42862287000008, 25.053229661000046], [84.42703571100003, 25.052715431000024], [84.42569242300004, 25.052775616000076], [84.42390975300003, 25.053334450000023], [84.42086978300006, 25.054436853000027], [84.41906022800003, 25.05530234500003], [84.41787935600007, 25.05625705700004], [84.41657257500003, 25.057522591000065], [84.41601371900003, 25.058088093000038], [84.41519155200007, 25.059487129000047], [84.41328307300006, 25.061782781000034], [84.41187889400004, 25.063485468000067], [84.41075801100004, 25.06507691300004], [84.40849370800004, 25.067930157000035], [84.41230353900005, 25.07028960400004], [84.41521395500007, 25.07227843800007], [84.41683276400005, 25.073280458000056], [84.41861104800006, 25.074883715000055], [84.42109987100008, 25.07770497000007], [84.42235337400007, 25.077030447000027], [84.42627118100006, 25.075183649000053], [84.42880668700008, 25.073992645000033], [84.43222267800007, 25.07230989900006], [84.43453869800004, 25.071316187000036], [84.43579004000009, 25.070948386000055], [84.43720937900008, 25.070649247000063], [84.43824581100006, 25.070546660000048], [84.43892127900006, 25.070333687000073]]]]}}, {"type": "Feature", "properties": {"OBJECTID": 1456, "GPCODE": "91336", "GPNAME_1": "MANAR", "DIST_CEN_C": null, "BLK_NAME": "DAUDNAGAR", "ST_NAME": null, "ST_CODE_1": null, "GPCODE2011": "93896", "REMARKS": "FINALIZED", "MAP_STATUS": "COMPLETED", "BLK_C_2001": "340001", "BLK_C_2011": "01476", "DIST_NAME": "AURANGABAD", "code2011": 0.0, "Shape_Leng": 0.16698700212, "Shape_Area": 0.00078546549, "Area": 8.79022}, "geometry": {"type": "MultiPolygon", "coordinates": [[[[84.46549276700006, 25.023084803000074], [84.46744550200003, 25.022950655000045], [84.46847077200005, 25.022983191000037], [84.47020065900006, 25.022829753000053], [84.47240137800009, 25.022656229000063], [84.47269629500005, 25.022229012000025], [84.47270387400005, 25.021028457000057], [84.47303490900003, 25.01959041200007], [84.47341830800008, 25.019271889000038], [84.47388178500006, 25.018841081000062], [84.47394827200003, 25.018498387000022], [84.47470760600004, 25.01827664600006], [84.47553586500004, 25.018118480000055], [84.47670219300005, 25.01777700300005], [84.47759634500005, 25.01737543200005], [84.47733207900006, 25.016864010000063], [84.47800531500008, 25.016136353000036], [84.47794957100007, 25.014750389000028], [84.47830490400008, 25.014169996000078], [84.47844212700005, 25.013624564000054], [84.47889695800006, 25.012182636000034], [84.47887284700005, 25.010489888000052], [84.47813480400004, 25.010486127000036], [84.47735346700006, 25.01026985200008], [84.47624467200006, 25.010137749000023], [84.47555205700007, 25.01000777200005], [84.47444894400007, 25.009771787000034], [84.47318207500007, 25.009575623000046], [84.47163511700006, 25.009030478000057], [84.47033257400005, 25.008996498000045], [84.46936452400007, 25.008549162000065], [84.46848868900008, 25.008404650000045], [84.46685064600007, 25.008946662000028], [84.46572942300008, 25.009220544000073], [84.46515607500004, 25.009023435000074], [84.46478830200004, 25.00921558700003], [84.46388045100008, 25.00943199200003], [84.46293634700004, 25.009896359000038], [84.46261043900006, 25.008955849000074], [84.46205741100005, 25.00790124300005], [84.46304023300007, 25.00757695200008], [84.46262620300007, 25.006482507000044], [84.46242143600006, 25.00518603100005], [84.46191458100003, 25.00388344600003], [84.46180014900006, 25.00242051400005], [84.46165932000008, 25.00120111900003], [84.46215439100007, 25.00045895900007], [84.46211431900008, 24.99896928800007], [84.46007331400006, 24.99903068100008], [84.45603624100005, 24.99907693800003], [84.45415355900008, 24.99917513400004], [84.45264804300007, 24.99990281500004], [84.45235719400006, 25.000456426000028], [84.45240909400007, 25.000862935000043], [84.45208942100004, 25.001267436000035], [84.45135552700003, 25.001407843000038], [84.45052760000004, 25.00152074400006], [84.44998372800006, 25.00137338500008], [84.44864824100006, 25.00107741200003], [84.44808117500008, 25.000695215000064], [84.44734960700004, 25.00045654300004], [84.44715496500004, 24.999922898000023], [84.44684949000003, 24.999672978000035], [84.44593087200008, 24.998512602000062], [84.44501921300008, 24.997036209000044], [84.44479261600009, 24.996087186000068], [84.44488186700005, 24.994544060000067], [84.44500196000007, 24.993596855000078], [84.44419190100007, 24.993258472000036], [84.44299353300005, 24.993224862000034], [84.44153976700005, 24.99286039100008], [84.44006011600004, 24.992676338000024], [84.43827823000004, 24.99251319900003], [84.43719282400008, 24.991870835000043], [84.43658490000007, 24.99092418200007], [84.43614059400005, 24.989951371000075], [84.43480227200007, 24.99012452000005], [84.43273676200005, 24.990162867000038], [84.43197434300004, 24.990871798000057], [84.43141673100007, 24.991302053000027], [84.43116145400006, 24.991711388000056], [84.43110360900005, 24.992216558000052], [84.43082289800003, 24.992720564000024], [84.43073473000004, 24.99333389800006], [84.43098358400005, 24.994635136000056], [84.43173083100004, 24.994738600000062], [84.43232068300006, 24.994665045000033], [84.43281379200005, 24.99573749800004], [84.43306236600006, 24.996348175000037], [84.43328193800005, 24.99685938700003], [84.43380680900003, 24.997625062000054], [84.43424497600006, 24.998773872000072], [84.43438460000004, 24.999383988000034], [84.43588962300004, 24.999496083000054], [84.43601200800003, 25.000458053000045], [84.43565854900004, 25.000731510000037], [84.43579724200004, 25.00224422900004], [84.43573217500006, 25.003101426000057], [84.43524347600004, 25.003599801000064], [84.43397253100005, 25.00403063400006], [84.43357425600004, 25.004335395000055], [84.43362169700004, 25.006159079000042], [84.43382798100004, 25.007180256000026], [84.43458256100007, 25.007680906000076], [84.43512309100004, 25.008333764000042], [84.43523836100007, 25.008885080000027], [84.43415467100004, 25.009465911000063], [84.43338815600003, 25.010021336000023], [84.43188531200008, 25.01105569400005], [84.43083197300007, 25.012291100000027], [84.43020700300008, 25.013167837000026], [84.43185551600004, 25.017058466000037], [84.43252054200008, 25.01837105900006], [84.43230617600005, 25.019331258000022], [84.43263108400004, 25.019639960000063], [84.43441784900006, 25.019866397000044], [84.43540912200007, 25.01979964700007], [84.43620306800005, 25.019591840000032], [84.43716053900005, 25.019389465000074], [84.43827897500006, 25.018808818000025], [84.43901381700005, 25.018546512000057], [84.44042485200004, 25.017913330000056], [84.44161709200006, 25.01815454900003], [84.44384753700007, 25.017977076000022], [84.44452396200006, 25.01755193300005], [84.44605263000005, 25.017108910000047], [84.44763502400008, 25.016769871000065], [84.44898930400007, 25.01648379900007], [84.45110055100008, 25.016332675000058], [84.45244959200005, 25.016073617000075], [84.45317840600006, 25.016745581000066], [84.45444436800005, 25.016323579000073], [84.45523826200008, 25.01611567300006], [84.45565616300007, 25.015838014000053], [84.45662831100003, 25.015658211000073], [84.45768443600008, 25.01550130800007], [84.45921028900005, 25.01548235200005], [84.46005631600008, 25.01564932900004], [84.46078784800005, 25.015892455000028], [84.46137680800007, 25.01597686100007], [84.46201991800007, 25.01611569800008], [84.46245868500006, 25.016438460000074], [84.46298218500004, 25.01668942400005], [84.46297091300005, 25.018472246000044], [84.46338064800005, 25.018686521000063], [84.46405264600008, 25.018960916000026], [84.46472226000003, 25.019605340000055], [84.46492657400006, 25.020193206000044], [84.46523791000004, 25.021878385000036], [84.46549276700006, 25.023084803000074]]]]}}, {"type": "Feature", "properties": {"OBJECTID": 1457, "GPCODE": "91337", "GPNAME_1": "SANSA", "DIST_CEN_C": null, "BLK_NAME": "DAUDNAGAR", "ST_NAME": null, "ST_CODE_1": null, "GPCODE2011": "93897", "REMARKS": "FINALIZED", "MAP_STATUS": "COMPLETED", "BLK_C_2001": "340001", "BLK_C_2011": "01476", "DIST_NAME": "AURANGABAD", "code2011": 0.0, "Shape_Leng": 0.21667616159, "Shape_Area": 0.00136496309, "Area": 15.2716}, "geometry": {"type": "MultiPolygon", "coordinates": [[[[84.46544238300004, 25.065308309000045], [84.46784642600005, 25.06523528400004], [84.46997171200007, 25.065336699000056], [84.47094941500006, 25.065111624000053], [84.47306157400004, 25.064152316000047], [84.47474487400007, 25.063633091000042], [84.47547041000007, 25.063307344000066], [84.47701274400004, 25.063121332000037], [84.47835744600008, 25.062843955000062], [84.47848520200006, 25.061440917000027], [84.47880517400006, 25.060982211000066], [84.47904557300006, 25.06057278000003], [84.47900308600003, 25.059448662000023], [84.47845862900004, 25.057757757000047], [84.47751014200009, 25.055712734000053], [84.47584610100006, 25.05319909800005], [84.47507873200004, 25.051498053000046], [84.47353941100005, 25.049653008000064], [84.47293263400007, 25.04844472900004], [84.47053186300008, 25.045701466000025], [84.46979534500008, 25.04542224000005], [84.46828989200003, 25.04529702600007], [84.46747796600005, 25.04519790300003], [84.46705839700007, 25.042595989000063], [84.46686360600006, 25.042062286000032], [84.46658401600007, 25.040056900000025], [84.46638728000005, 25.039040286000045], [84.46627882300004, 25.037405809000063], [84.46616338300004, 25.036845499000037], [84.46607766200003, 25.035527184000046], [84.46579062100005, 25.034695164000027], [84.46553721800007, 25.033249528000056], [84.46580255400005, 25.03282207700005], [84.46659738000005, 25.032478796000078], [84.46812394000005, 25.032378507000033], [84.46973202200007, 25.032711935000066], [84.47038180100003, 25.03180356300004], [84.47094685100006, 25.030976106000026], [84.47206393300007, 25.03060726700005], [84.47317843900004, 25.030640232000053], [84.47493563800003, 25.030893126000024], [84.47725270500007, 25.03114443100003], [84.47826149700006, 25.031438483000045], [84.47981354500007, 25.032010770000056], [84.48077543900007, 25.03268377300003], [84.48156565900007, 25.033089500000074], [84.48380130900006, 25.03208554300005], [84.48477201300005, 25.031341315000077], [84.48619127100005, 25.03017053800005], [84.48851448400006, 25.027817377000076], [84.48963403200008, 25.027024218000065], [84.49072114100005, 25.02668226800006], [84.49218614500006, 25.026901915000053], [84.49204773400004, 25.02604360600003], [84.49052637100004, 25.02531370300005], [84.48964309500008, 25.02555284400006], [84.48870647900003, 25.025602237000044], [84.48723934200007, 25.025725598000065], [84.48638710400007, 25.025748306000025], [84.48419161600003, 25.025069032000033], [84.48331587300004, 25.024902034000036], [84.48001102300003, 25.02339097400005], [84.47778682100005, 25.022576043000072], [84.47695913900003, 25.02183604700008], [84.47666993100006, 25.021351596000045], [84.47649973600005, 25.02084518600003], [84.47626508800005, 25.020333919000052], [84.47547585300003, 25.01979717100005], [84.47468972400003, 25.019549338000047], [84.47388178500006, 25.018841081000062], [84.47341830800008, 25.019271889000038], [84.47303490900003, 25.01959041200007], [84.47270387400005, 25.021028457000057], [84.47269629500005, 25.022229012000025], [84.47240137800009, 25.022656229000063], [84.47020065900006, 25.022829753000053], [84.46847077200005, 25.022983191000037], [84.46744550200003, 25.022950655000045], [84.46549276700006, 25.023084803000074], [84.46523791000004, 25.021878385000036], [84.46492657400006, 25.020193206000044], [84.46472226000003, 25.019605340000055], [84.46405264600008, 25.018960916000026], [84.46338064800005, 25.018686521000063], [84.46297091300005, 25.018472246000044], [84.46298218500004, 25.01668942400005], [84.46245868500006, 25.016438460000074], [84.46201991800007, 25.01611569800008], [84.46137680800007, 25.01597686100007], [84.46078784800005, 25.015892455000028], [84.46005631600008, 25.01564932900004], [84.45921028900005, 25.01548235200005], [84.45768443600008, 25.01550130800007], [84.45662831100003, 25.015658211000073], [84.45565616300007, 25.015838014000053], [84.45523826200008, 25.01611567300006], [84.45444436800005, 25.016323579000073], [84.45317840600006, 25.016745581000066], [84.45244959200005, 25.016073617000075], [84.45110055100008, 25.016332675000058], [84.44898930400007, 25.01648379900007], [84.44763502400008, 25.016769871000065], [84.44605263000005, 25.017108910000047], [84.44452396200006, 25.01755193300005], [84.44384753700007, 25.017977076000022], [84.44161709200006, 25.01815454900003], [84.44042485200004, 25.017913330000056], [84.43901381700005, 25.018546512000057], [84.43827897500006, 25.018808818000025], [84.43716053900005, 25.019389465000074], [84.43620306800005, 25.019591840000032], [84.43540912200007, 25.01979964700007], [84.43550931900006, 25.021885393000048], [84.43532713100007, 25.02322043500004], [84.43627978700005, 25.02374919400006], [84.43739241300005, 25.024048635000042], [84.43836033400004, 25.024509803000058], [84.43946325900004, 25.02630767900007], [84.44050881800007, 25.027784757000063], [84.44070150600004, 25.029365531000053], [84.44125632300006, 25.02938210600007], [84.44198650300007, 25.029841976000057], [84.44242204800008, 25.030670323000038], [84.44270944800007, 25.031421050000063], [84.44273411200004, 25.03219756200008], [84.44325728000007, 25.032493729000066], [84.44404890400006, 25.032660516000078], [84.44463479200004, 25.033223435000025], [84.44498293700008, 25.033789504000026], [84.44518043300008, 25.034643566000057], [84.44690030800007, 25.039107674000036], [84.44753552900005, 25.04047419500006], [84.44880845100005, 25.043595352000068], [84.44950448700007, 25.045521913000073], [84.44897092400004, 25.04605614700006], [84.44788688400007, 25.04588775600007], [84.44753592300003, 25.045755007000025], [84.44677173400004, 25.045935947000032], [84.44626934600007, 25.046226596000054], [84.44597701800006, 25.046224963000043], [84.44539440400007, 25.045901411000045], [84.44532631200008, 25.048744501000044], [84.44679667800006, 25.051225893000037], [84.44830320700004, 25.052727966000077], [84.44942458200006, 25.054029374000038], [84.45133312500008, 25.05620616300007], [84.45261957200006, 25.05803198900003], [84.45335142400006, 25.059809676000043], [84.45371987400006, 25.061070934000043], [84.45392390000006, 25.062471205000065], [84.45403581400006, 25.063568548000035], [84.45523268300008, 25.063927053000043], [84.45807309500003, 25.06456963900007], [84.45922745400009, 25.064620904000037], [84.46136602300004, 25.06497983500003], [84.46395079700005, 25.065300440000044], [84.46498520600005, 25.06550450700007], [84.46544238300004, 25.065308309000045]]]]}}, {"type": "Feature", "properties": {"OBJECTID": 1458, "GPCODE": "91338", "GPNAME_1": "SHAMSHERNAGAR", "DIST_CEN_C": null, "BLK_NAME": "DAUDNAGAR", "ST_NAME": null, "ST_CODE_1": null, "GPCODE2011": "93898", "REMARKS": "FINALIZED", "MAP_STATUS": "COMPLETED", "BLK_C_2001": "340001", "BLK_C_2011": "01476", "DIST_NAME": "AURANGABAD", "code2011": 0.0, "Shape_Leng": 0.21222606584, "Shape_Area": 0.00214506066, "Area": 23.9895}, "geometry": {"type": "MultiPolygon", "coordinates": [[[[84.47116890200004, 25.070375571000056], [84.47060032000007, 25.068594262000033], [84.46997171200007, 25.065336699000056], [84.46784642600005, 25.06523528400004], [84.46544238300004, 25.065308309000045], [84.46498520600005, 25.06550450700007], [84.46395079700005, 25.065300440000044], [84.46136602300004, 25.06497983500003], [84.45922745400009, 25.064620904000037], [84.45807309500003, 25.06456963900007], [84.45523268300008, 25.063927053000043], [84.45403581400006, 25.063568548000035], [84.45121851200008, 25.06394612400004], [84.44816481800007, 25.064105638000058], [84.44386596800007, 25.064470519000054], [84.44402406700004, 25.066051155000025], [84.44485482900006, 25.06785200300004], [84.44549612200007, 25.06906058100003], [84.44532397400008, 25.069619309000075], [84.44452255300007, 25.07016563800005], [84.44394852200008, 25.070031554000025], [84.44324885500004, 25.070158674000027], [84.44216901500005, 25.07008507100005], [84.44111218000006, 25.069510621000063], [84.44034454900003, 25.069438723000076], [84.43892127900006, 25.070333687000073], [84.43824581100006, 25.070546660000048], [84.43720937900008, 25.070649247000063], [84.43579004000009, 25.070948386000055], [84.43453869800004, 25.071316187000036], [84.43222267800007, 25.07230989900006], [84.42880668700008, 25.073992645000033], [84.42627118100006, 25.075183649000053], [84.42235337400007, 25.077030447000027], [84.42109987100008, 25.07770497000007], [84.42336452800004, 25.08070555200004], [84.42501294600004, 25.083973403000073], [84.42700602600007, 25.087590728000066], [84.42775351100005, 25.089964380000026], [84.42886945800007, 25.093576849000044], [84.43058915000006, 25.098090761000037], [84.43151219900005, 25.100916797000025], [84.43293076300006, 25.10452626500006], [84.43363386000004, 25.107648961000052], [84.43404528100007, 25.10915416200004], [84.43535364900004, 25.112207924000074], [84.43678150300008, 25.11519921300004], [84.43871661100007, 25.118707690000065], [84.44014943700006, 25.12096775200007], [84.44180194500007, 25.123747998000056], [84.44357675000003, 25.12604149300006], [84.44564544100007, 25.128905245000055], [84.44822745100004, 25.12756519900006], [84.45238437600005, 25.125741611000024], [84.45539162900008, 25.12379896500005], [84.45891951100003, 25.121831953000026], [84.46260409900003, 25.120159], [84.46648434100007, 25.118884238000078], [84.46848857800006, 25.117901820000043], [84.46988814700006, 25.11688914000007], [84.47088927400006, 25.116149695000047], [84.47131933800006, 25.115574286000026], [84.47104980100005, 25.115076378000026], [84.47011877000006, 25.114132684000026], [84.46564112000004, 25.11038089400006], [84.46197324700006, 25.10718849600005], [84.46073743700003, 25.105859458000054], [84.46032083300008, 25.105112507000058], [84.45984364700007, 25.104545784000038], [84.45948739300007, 25.103663829000027], [84.45861821000005, 25.102390881000076], [84.45865167600004, 25.101808791000053], [84.45938508200004, 25.10106801300003], [84.46014404600004, 25.100219018000075], [84.46156946100007, 25.099784295000063], [84.46260214500006, 25.099541490000036], [84.46355055400005, 25.09928932100007], [84.46404338800005, 25.098190574000057], [84.46413996700005, 25.097031150000078], [84.46474966800008, 25.096262600000045], [84.46630330700003, 25.09513792000007], [84.46846117500007, 25.093330372000025], [84.47030710100006, 25.09222529400006], [84.47113037400004, 25.09137659000004], [84.47158836500006, 25.09027320200005], [84.47104902800004, 25.08934507600003], [84.47063197000006, 25.08710867800005], [84.47096317100005, 25.086455993000072], [84.47136284500004, 25.085966088000077], [84.47197489700005, 25.085572178000064], [84.47349466900005, 25.085088192000057], [84.47555275300004, 25.084900272000027], [84.47566759100005, 25.083203835000063], [84.47553044600005, 25.082151449000037], [84.47510190300005, 25.081720492000045], [84.47452330500005, 25.081518869000035], [84.47396512700004, 25.078852959000073], [84.47350967200003, 25.07641781700005], [84.47304815300004, 25.075724870000045], [84.47294392700007, 25.074966054000072], [84.47284045200007, 25.07408085900005], [84.47219790100007, 25.073021346000075], [84.47220287500005, 25.072235979000027], [84.47166675000005, 25.071592246000023], [84.47116890200004, 25.070375571000056]]]]}}, {"type": "Feature", "properties": {"OBJECTID": 1459, "GPCODE": "91339", "GPNAME_1": "SINDUAR", "DIST_CEN_C": null, "BLK_NAME": "DAUDNAGAR", "ST_NAME": null, "ST_CODE_1": null, "GPCODE2011": "93899", "REMARKS": "FINALIZED", "MAP_STATUS": "COMPLETED", "BLK_C_2001": "340001", "BLK_C_2011": "01476", "DIST_NAME": "AURANGABAD", "code2011": 0.0, "Shape_Leng": 0.14799617505, "Shape_Area": 0.00082823571, "Area": 9.26871}, "geometry": {"type": "MultiPolygon", "coordinates": [[[[84.48945603000004, 25.01329321000003], [84.48998636100004, 25.013232678000065], [84.49189796600007, 25.014122646000033], [84.49298097500008, 25.014426050000054], [84.49382553100008, 25.012408262000065], [84.49461634400006, 25.01106722000003], [84.49466354900005, 25.010643198000025], [84.49508150100007, 25.010329415000058], [84.49589104700004, 25.009168982000062], [84.49633262200007, 25.008245999000053], [84.49691867300004, 25.007174674000055], [84.49734975500007, 25.006923339000025], [84.49769404300008, 25.006671993000054], [84.49845491300005, 25.00624368800004], [84.49845597600006, 25.00624288700004], [84.49903211900005, 25.005808751000075], [84.49994952500003, 25.004829447000077], [84.50038361100007, 25.004308043000037], [84.50129711800008, 25.003134602000046], [84.50154339200003, 25.002549127000066], [84.50154712500006, 25.00193525700007], [84.50199482300008, 25.00160354800005], [84.50271357700007, 25.001516852000066], [84.50314798000005, 25.00095039300004], [84.50308923300008, 25.000459916000068], [84.50306852300008, 25.000019446000067], [84.50283676200007, 24.998999085000037], [84.50275834300004, 24.998195576000057], [84.50264489500006, 24.997721520000027], [84.50260608800005, 24.996845846000042], [84.50265161700008, 24.99590250700004], [84.50265756500005, 24.994882403000076], [84.50190484200004, 24.994800532000056], [84.50137974400008, 24.99491290000003], [84.50078557500007, 24.994686779000062], [84.50066708900005, 24.994284891000063], [84.49998403500007, 24.993918691000033], [84.49950863500004, 24.993805524000038], [84.49863221900006, 24.99361966300006], [84.49790217700007, 24.99368871000007], [84.49686734800008, 24.99363381200004], [84.49502096200007, 24.993484530000046], [84.49456527500007, 24.99267881700007], [84.49360526800007, 24.992529528000034], [84.49160400200003, 24.992591568000023], [84.49033897500004, 24.992129229000057], [84.48941880500007, 24.991948455000056], [84.48799577300008, 24.99222105000007], [84.48618520400004, 24.992667622000056], [84.48287319600007, 24.993246330000034], [84.48029565400003, 24.993585121000024], [84.47972605700005, 24.992787735000036], [84.47873382300008, 24.99148268400006], [84.47742511500007, 24.991660963000072], [84.47726828100008, 24.992188272000078], [84.47664872000007, 24.993060639000078], [84.47464608700005, 24.993330093000054], [84.47272341400009, 24.993496081000046], [84.46964780800005, 24.99347996700004], [84.46845790800006, 24.993681351000077], [84.46814415600005, 24.994735856000034], [84.46759295600003, 24.996520306000036], [84.46655418400007, 24.997882470000036], [84.46489974700006, 24.998681626000064], [84.46211431900008, 24.99896928800007], [84.46215439100007, 25.00045895900007], [84.46165932000008, 25.00120111900003], [84.46180014900006, 25.00242051400005], [84.46191458100003, 25.00388344600003], [84.46242143600006, 25.00518603100005], [84.46262620300007, 25.006482507000044], [84.46304023300007, 25.00757695200008], [84.46205741100005, 25.00790124300005], [84.46261043900006, 25.008955849000074], [84.46293634700004, 25.009896359000038], [84.46388045100008, 25.00943199200003], [84.46478830200004, 25.00921558700003], [84.46515607500004, 25.009023435000074], [84.46572942300008, 25.009220544000073], [84.46685064600007, 25.008946662000028], [84.46848868900008, 25.008404650000045], [84.46936452400007, 25.008549162000065], [84.47033257400005, 25.008996498000045], [84.47163511700006, 25.009030478000057], [84.47318207500007, 25.009575623000046], [84.47444894400007, 25.009771787000034], [84.47555205700007, 25.01000777200005], [84.47624467200006, 25.010137749000023], [84.47735346700006, 25.01026985200008], [84.47813480400004, 25.010486127000036], [84.47887284700005, 25.010489888000052], [84.47889695800006, 25.012182636000034], [84.47844212700005, 25.013624564000054], [84.47830490400008, 25.014169996000078], [84.47794957100007, 25.014750389000028], [84.47800531500008, 25.016136353000036], [84.47733207900006, 25.016864010000063], [84.47759634500005, 25.01737543200005], [84.47670219300005, 25.01777700300005], [84.47553586500004, 25.018118480000055], [84.47470760600004, 25.01827664600006], [84.47394827200003, 25.018498387000022], [84.47388178500006, 25.018841081000062], [84.47468972400003, 25.019549338000047], [84.47547585300003, 25.01979717100005], [84.47626508800005, 25.020333919000052], [84.47649973600005, 25.02084518600003], [84.47666993100006, 25.021351596000045], [84.47695913900003, 25.02183604700008], [84.47778682100005, 25.022576043000072], [84.48001102300003, 25.02339097400005], [84.48331587300004, 25.024902034000036], [84.48419161600003, 25.025069032000033], [84.48638710400007, 25.025748306000025], [84.48723934200007, 25.025725598000065], [84.48870647900003, 25.025602237000044], [84.48964309500008, 25.02555284400006], [84.49052637100004, 25.02531370300005], [84.49076234700004, 25.023992398000075], [84.49085452800006, 25.023509972000056], [84.49121003500005, 25.022897955000076], [84.49180129400008, 25.02260751700004], [84.49241697500008, 25.02239400600007], [84.49271166100004, 25.021993833000067], [84.49286678900006, 25.02092492400004], [84.49269699300004, 25.01953389600004], [84.49246909400006, 25.018729301000064], [84.49229475200008, 25.01808303400003], [84.49197654800008, 25.01746756500006], [84.49159589500005, 25.01733467200006], [84.49031097500006, 25.016845187000058], [84.49022566500008, 25.01620388400005], [84.48973809000006, 25.014138697000078], [84.48945603000004, 25.01329321000003]]]]}}, {"type": "Feature", "properties": {"OBJECTID": 1460, "GPCODE": "91340", "GPNAME_1": "TARAR", "DIST_CEN_C": null, "BLK_NAME": "DAUDNAGAR", "ST_NAME": null, "ST_CODE_1": null, "GPCODE2011": "93900", "REMARKS": "FINALIZED", "MAP_STATUS": "COMPLETED", "BLK_C_2001": "340001", "BLK_C_2011": "01476", "DIST_NAME": "AURANGABAD", "code2011": 0.0, "Shape_Leng": 0.14255749853, "Shape_Area": 0.00066624229, "Area": 7.45636}, "geometry": {"type": "MultiPolygon", "coordinates": [[[[84.43156666200008, 25.024030251000056], [84.43326789500009, 25.023719087000075], [84.43532713100007, 25.02322043500004], [84.43550931900006, 25.021885393000048], [84.43540912200007, 25.01979964700007], [84.43441784900006, 25.019866397000044], [84.43263108400004, 25.019639960000063], [84.43230617600005, 25.019331258000022], [84.43252054200008, 25.01837105900006], [84.43185551600004, 25.017058466000037], [84.43020700300008, 25.013167837000026], [84.43083197300007, 25.012291100000027], [84.43188531200008, 25.01105569400005], [84.43338815600003, 25.010021336000023], [84.43415467100004, 25.009465911000063], [84.43523836100007, 25.008885080000027], [84.43512309100004, 25.008333764000042], [84.43458256100007, 25.007680906000076], [84.43382798100004, 25.007180256000026], [84.43362169700004, 25.006159079000042], [84.43357425600004, 25.004335395000055], [84.43397253100005, 25.00403063400006], [84.43524347600004, 25.003599801000064], [84.43573217500006, 25.003101426000057], [84.43579724200004, 25.00224422900004], [84.43565854900004, 25.000731510000037], [84.43601200800003, 25.000458053000045], [84.43588962300004, 24.999496083000054], [84.43438460000004, 24.999383988000034], [84.43424497600006, 24.998773872000072], [84.43380680900003, 24.997625062000054], [84.43328193800005, 24.99685938700003], [84.43306236600006, 24.996348175000037], [84.43281379200005, 24.99573749800004], [84.43232068300006, 24.994665045000033], [84.43173083100004, 24.994738600000062], [84.43098358400005, 24.994635136000056], [84.42962017700006, 24.99484432400004], [84.42961122400004, 24.996198265000032], [84.42724831600003, 24.996257399000058], [84.42708836100007, 24.996477678000076], [84.42704024700004, 24.997754730000054], [84.42663608000004, 24.998190332000036], [84.42583399000006, 24.998149752000074], [84.42575675500007, 24.997855955000034], [84.42556439000003, 24.99699287100003], [84.42517826700004, 24.99472491800003], [84.42413226200006, 24.99486353900005], [84.42408537400007, 24.995960039000067], [84.42380365100007, 24.996617498000035], [84.42263991800007, 24.99657491000005], [84.42127790600006, 24.99656736600008], [84.41995358900004, 24.996853266000073], [84.41750354900006, 24.997349636000024], [84.41682749200004, 24.99698029600006], [84.41550995600005, 24.99624172500006], [84.41287806500003, 24.994326710000053], [84.41456401400006, 24.994042791000027], [84.41536228800004, 24.993902838000054], [84.41524838600003, 24.993171044000064], [84.41493805000005, 24.99144963200007], [84.41463422000004, 24.989511691000075], [84.41523640000008, 24.989077277000035], [84.41620159100006, 24.988423699000066], [84.41589810000005, 24.98716268100003], [84.41363587400008, 24.98773228400006], [84.41239109200006, 24.987977998000076], [84.41014447000003, 24.988443767000035], [84.40914184900004, 24.98876755300006], [84.40774266500006, 24.989143350000063], [84.40785051400007, 24.990750728000023], [84.40848194700004, 24.99258226300003], [84.40942932400003, 24.994564573000048], [84.40764215700005, 24.996621565000055], [84.40620142700004, 24.997994583000036], [84.40703967900004, 24.998549989000026], [84.40743557700006, 24.99931951800005], [84.40736345800008, 25.000456513000074], [84.40778040600009, 25.001050084000042], [84.40789391100003, 25.00329848800004], [84.40796238100006, 25.004147346000025], [84.40839162300006, 25.00586039700005], [84.40856675100008, 25.007775113000037], [84.40874975200006, 25.008547945000032], [84.40876820500006, 25.009473381000078], [84.40948593700006, 25.010280786000067], [84.41038866900004, 25.010827520000078], [84.41119781400005, 25.012032662000024], [84.41187515900003, 25.013692938000077], [84.41280287400008, 25.015670527000054], [84.41365506800008, 25.017855369000074], [84.41439577900007, 25.019660443000078], [84.41473901800003, 25.020185919000028], [84.41639405000006, 25.020127504000072], [84.41797328400008, 25.020280762000027], [84.41876793900008, 25.01997825500007], [84.41991405600004, 25.020454060000077], [84.42029528600006, 25.02121899900004], [84.42051502100009, 25.02169411600005], [84.42162215300004, 25.022070452000037], [84.42230167200006, 25.021952378000037], [84.42292842500007, 25.02230339600004], [84.42414433700003, 25.023465611000063], [84.42456778000007, 25.02385614800005], [84.42562316900006, 25.023830360000034], [84.42673714800009, 25.023917827000048], [84.42726123400007, 25.02407863600007], [84.42734751000006, 25.024507924000034], [84.42810938600007, 25.024670117000028], [84.42893284400003, 25.024516670000025], [84.43016263900006, 25.024333893000062], [84.43156666200008, 25.024030251000056]]]]}}, {"type": "Feature", "properties": {"OBJECTID": 1461, "GPCODE": "91341", "GPNAME_1": "TARARI", "DIST_CEN_C": null, "BLK_NAME": "DAUDNAGAR", "ST_NAME": null, "ST_CODE_1": null, "GPCODE2011": "93901", "REMARKS": "FINALIZED", "MAP_STATUS": "COMPLETED", "BLK_C_2001": "340001", "BLK_C_2011": "01476", "DIST_NAME": "AURANGABAD", "code2011": 0.0, "Shape_Leng": 0.14191944489, "Shape_Area": 0.00077520765, "Area": 8.67555}, "geometry": {"type": "MultiPolygon", "coordinates": [[[[84.41884754700004, 25.033176163000064], [84.41951228800008, 25.032313268000053], [84.42041811500007, 25.031699970000034], [84.42150624800007, 25.031232126000077], [84.42261472800004, 25.030683198000077], [84.42349964000005, 25.03023220400007], [84.42449799700006, 25.02984961100003], [84.42540092900003, 25.029660570000033], [84.42551547900007, 25.028817170000025], [84.42514931100004, 25.02652684700007], [84.42464069800008, 25.024795308000023], [84.42456778000007, 25.02385614800005], [84.42414433700003, 25.023465611000063], [84.42292842500007, 25.02230339600004], [84.42230167200006, 25.021952378000037], [84.42162215300004, 25.022070452000037], [84.42051502100009, 25.02169411600005], [84.42029528600006, 25.02121899900004], [84.41991405600004, 25.020454060000077], [84.41876793900008, 25.01997825500007], [84.41797328400008, 25.020280762000027], [84.41639405000006, 25.020127504000072], [84.41473901800003, 25.020185919000028], [84.41439577900007, 25.019660443000078], [84.41365506800008, 25.017855369000074], [84.41280287400008, 25.015670527000054], [84.41187515900003, 25.013692938000077], [84.41119781400005, 25.012032662000024], [84.41038866900004, 25.010827520000078], [84.40948593700006, 25.010280786000067], [84.40876820500006, 25.009473381000078], [84.40874975200006, 25.008547945000032], [84.40856675100008, 25.007775113000037], [84.40839162300006, 25.00586039700005], [84.40796238100006, 25.004147346000025], [84.40789391100003, 25.00329848800004], [84.40778040600009, 25.001050084000042], [84.40736345800008, 25.000456513000074], [84.40743557700006, 24.99931951800005], [84.40703967900004, 24.998549989000026], [84.40620142700004, 24.997994583000036], [84.40476115800004, 24.99784194800003], [84.40379239100008, 24.998274236000043], [84.40206253300005, 24.99918058700007], [84.39978077300003, 24.998946415000034], [84.39805897200006, 24.99867933200005], [84.39449495300005, 24.998370031000036], [84.39225001600005, 24.998537635000048], [84.39160809000003, 24.998971701000073], [84.39095656800004, 25.00006472900003], [84.39067157000005, 25.00046028400004], [84.39004490100007, 25.00082677000006], [84.38891131000008, 25.00143853900005], [84.38773337100008, 25.00202752000007], [84.38628616500006, 25.002145496000026], [84.38466205400005, 25.002072859000066], [84.38425796500007, 25.001781593000032], [84.38372467900007, 25.00083520800007], [84.38291309600004, 25.00072661300004], [84.38092697100006, 25.000715041000035], [84.37971728700006, 25.00088396900003], [84.38028857400008, 25.002056314000072], [84.38122670500007, 25.00388523600003], [84.38208748400007, 25.005442905000052], [84.38346319100003, 25.005635987000062], [84.38407256700003, 25.007738260000053], [84.38434780300008, 25.009454996000045], [84.38483362100004, 25.01153405900004], [84.38521771600006, 25.013978043000066], [84.38573079600008, 25.015691618000062], [84.38620094100008, 25.01717478100005], [84.38649070400004, 25.01825064600007], [84.38687070700007, 25.021285913000042], [84.38778616900004, 25.02143114300003], [84.38909181700006, 25.021745619000058], [84.39078437400008, 25.021985640000025], [84.39268471700007, 25.021563264000065], [84.39451638800006, 25.02103672000004], [84.39524120200008, 25.020815249000066], [84.39759206400004, 25.02041803900005], [84.39951088600003, 25.020898444000068], [84.40083490000006, 25.021420533000025], [84.40250487100008, 25.02207099800006], [84.40442354300006, 25.022569306000037], [84.40546092400007, 25.023008529000037], [84.40595388500003, 25.02335891300004], [84.40614993400004, 25.024402601000077], [84.40641143000005, 25.025288685000078], [84.40652067500008, 25.025970874000052], [84.40634527000003, 25.026985453000066], [84.40674904100007, 25.027357809000023], [84.40782758900008, 25.028293725000026], [84.40789317100007, 25.028849233000074], [84.40822394500003, 25.029735732000063], [84.40855896700003, 25.030748651000067], [84.40937103000005, 25.030811974000073], [84.41002197100005, 25.031248925000057], [84.41080738200003, 25.032327552000027], [84.41150116300008, 25.03303109500007], [84.41231432300003, 25.032931818000066], [84.41300583500004, 25.033251648000032], [84.41293477500005, 25.034221626000033], [84.41444605000004, 25.034207587000026], [84.41528407500005, 25.03409045500007], [84.41616845400006, 25.03372535500006], [84.41702652400005, 25.033585722000055], [84.41776051100004, 25.033476982000025], [84.41884754700004, 25.033176163000064]]]]}}]}