{"type": "FeatureCollection", "features": [{"type": "Feature", "properties": {"OBJECTID": 1188, "GPCODE": "91546", "GPNAME_1": "SABALPUR", "DIST_CEN_C": null, "BLK_NAME": "BARAHAT", "ST_NAME": "BIHAR", "ST_CODE_1": null, "GPCODE2011": "94106", "REMARKS": "FINALIZED", "MAP_STATUS": "COMPLETED", "BLK_C_2001": "230005", "BLK_C_2011": "01349", "DIST_NAME": "BANKA", "code2011": 0.0, "Shape_Leng": 0.15244058454, "Shape_Area": 0.00074791307, "Area": 8.36831}, "geometry": {"type": "MultiPolygon", "coordinates": [[[[87.06587292300009, 24.845711279000056], [87.06608563600008, 24.84537477300006], [87.06754037400003, 24.845393218000027], [87.06874716000004, 24.845707926000046], [87.06991990300008, 24.846059212000057], [87.07157845300009, 24.846476711000037], [87.07285212700003, 24.846294166000064], [87.07371676300005, 24.84588204100004], [87.07502858400005, 24.845933699000057], [87.07504563900005, 24.844737760000044], [87.07544144700006, 24.844399019000036], [87.07572935900004, 24.84143985700007], [87.07601436900006, 24.83861162200003], [87.07541905100004, 24.835460217000048], [87.07498622700007, 24.833272436000073], [87.07486960800009, 24.83274140800006], [87.07599481400007, 24.832565269000042], [87.07712887200006, 24.832650682000065], [87.07755883300007, 24.832279947000075], [87.07868110500004, 24.831566809000037], [87.07809600200005, 24.829114650000065], [87.07840678700006, 24.828045977000045], [87.07690431200007, 24.823754939000025], [87.07659756100009, 24.82273893200005], [87.07614038200006, 24.821250873000054], [87.07546885200009, 24.81963908000006], [87.07488669600008, 24.818391802000065], [87.07449109800007, 24.817724240000075], [87.07432394600005, 24.817117084000074], [87.07456193000007, 24.81614402200006], [87.07455428700007, 24.816137275000074], [87.07389539700006, 24.815552026000034], [87.07298208000003, 24.81533304800007], [87.07199434300009, 24.815769170000067], [87.07102862300007, 24.816020106000053], [87.07064689800006, 24.817653747000065], [87.06943048100004, 24.819031322000058], [87.06721148400004, 24.819157525000037], [87.06649891800004, 24.819205917000033], [87.06356975100005, 24.819404806000023], [87.06354647200004, 24.81780770900008], [87.06297298200008, 24.816122430000064], [87.06280629900004, 24.814527105000025], [87.06209749900006, 24.813407532000042], [87.06150997100008, 24.811776628000075], [87.06095425300003, 24.81131408400006], [87.05962602800008, 24.81147001000005], [87.05694299200007, 24.809941165000055], [87.05455714400006, 24.80844025400006], [87.05335377800003, 24.80594576900006], [87.05164313300008, 24.806665818000056], [87.04909031700004, 24.80757963900004], [87.04853852300005, 24.807777154000064], [87.04787391200006, 24.80764971900004], [87.04713523900006, 24.806503425000074], [87.04670762500007, 24.805655672000057], [87.04511525800007, 24.805665829000077], [87.04379511300004, 24.80706241000007], [87.04263275100004, 24.808082607000074], [87.04104989400008, 24.80910337000006], [87.04277329700005, 24.809944607000034], [87.04434692400008, 24.810002437000037], [87.04661699300004, 24.81103113100005], [87.04822063600005, 24.811111148000066], [87.04909973400004, 24.811366860000078], [87.04958196800004, 24.812222895000048], [87.04969940300003, 24.815213267000047], [87.05044797400006, 24.81670236100007], [87.05068114100004, 24.817430589000026], [87.05064328100008, 24.81823561500005], [87.05063952200004, 24.81831554200005], [87.05059884100007, 24.819263593000073], [87.05025683500008, 24.820928353000056], [87.05082261500007, 24.82208576000005], [87.05192231600006, 24.822537297000054], [87.05276532000005, 24.823028032000025], [87.05329885800006, 24.825025064000044], [87.05296007000004, 24.826906294000025], [87.05375722200006, 24.828665622000074], [87.05472203600004, 24.82970540100007], [87.05641495600008, 24.83114694300008], [87.05778010300008, 24.832159266000076], [87.05844693800003, 24.833116885000038], [87.05839252200008, 24.834475747000056], [87.05796543200006, 24.835045026000046], [87.05763951000006, 24.83508049200003], [87.05650502000003, 24.83496333900007], [87.05575006300006, 24.835437273000025], [87.05540859800004, 24.83713353400003], [87.05543418600007, 24.838897625000072], [87.05607702600008, 24.840582050000023], [87.05714525000008, 24.84123695200003], [87.05756807600005, 24.84275703900005], [87.05783836200004, 24.84365177600006], [87.05878793900007, 24.843974178000053], [87.05883846900008, 24.84507004900007], [87.06000541700007, 24.845024396000042], [87.06028049300005, 24.846248438000032], [87.06014319900004, 24.84701268200007], [87.05964601000005, 24.84854388800005], [87.06109402300007, 24.848097676000066], [87.06327014400006, 24.847371917000032], [87.06413739400006, 24.84679731500006], [87.06496994800005, 24.846552534000068], [87.06587292300009, 24.845711279000056]]]]}}, {"type": "Feature", "properties": {"OBJECTID": 1197, "GPCODE": "91536", "GPNAME_1": "BHURNA", "DIST_CEN_C": null, "BLK_NAME": "BARAHAT", "ST_NAME": "BIHAR", "ST_CODE_1": null, "GPCODE2011": "94096", "REMARKS": "FINALIZED", "MAP_STATUS": "COMPLETED", "BLK_C_2001": "230005", "BLK_C_2011": "01349", "DIST_NAME": "BANKA", "code2011": 0.0, "Shape_Leng": 0.24117990904, "Shape_Area": 0.00142326026, "Area": 15.9235}, "geometry": {"type": "MultiPolygon", "coordinates": [[[[86.95717356800003, 24.854058776000045], [86.95818086100007, 24.85116928900004], [86.96132746100005, 24.851618916000064], [86.96371128800007, 24.850656077000053], [86.96605516000005, 24.849350186000038], [86.96647463800008, 24.84797317500005], [86.96684524300008, 24.847471889000076], [86.96769084000005, 24.846974869000064], [86.97410339800007, 24.848771751000072], [86.97635914100005, 24.848648387000026], [86.97792679600008, 24.848083080000038], [86.98135336200005, 24.84620295800005], [86.98266290900006, 24.844662748000076], [86.98440933900008, 24.844891648000043], [86.98511316900004, 24.846412352000073], [86.98553417400007, 24.84699887000005], [86.98603102000004, 24.84944947500003], [86.98985924700008, 24.84867926800007], [86.99065031800006, 24.848213715000043], [86.99184845900004, 24.849187802000074], [86.99268444500007, 24.849146506000068], [86.99396455000004, 24.847976410000058], [86.99674614900005, 24.839456488000053], [86.99684894000006, 24.83830988300008], [86.99642700500004, 24.836829624000075], [86.99543641200006, 24.835440133000077], [86.99502226600003, 24.831761717000063], [86.99630083900007, 24.829268954000042], [86.99628480400008, 24.828023208000047], [86.99548111100006, 24.825477945000046], [86.99478244400007, 24.82421918500006], [86.99392798600007, 24.820337933000076], [86.99343691600006, 24.81879000400005], [86.99274879400008, 24.818145101000027], [86.99030171600003, 24.819270950000032], [86.98790463100005, 24.820988003000025], [86.97975407800004, 24.826983959000074], [86.97872047900006, 24.827120038000032], [86.97824005700005, 24.82642521300005], [86.97572112300008, 24.82465750500006], [86.97161497200005, 24.823378310000066], [86.96700464500003, 24.82239710300007], [86.96366589800004, 24.82203805000006], [86.96032733800007, 24.821985854000047], [86.95906654100008, 24.822487567000053], [86.95795318700004, 24.821648594000067], [86.95766519100005, 24.820010207000053], [86.95764944000007, 24.81870122600003], [86.95731222200004, 24.81734720000003], [86.95447251900003, 24.815999099000067], [86.95316823200005, 24.818008470000052], [86.95254547800005, 24.818713], [86.94984530400006, 24.818989715000043], [86.94930239500007, 24.820881325000073], [86.95203700300004, 24.820265993000078], [86.95250715900005, 24.82071267400005], [86.95224597900005, 24.822252031000062], [86.95199954600008, 24.823619832000077], [86.95139635200007, 24.823936162000052], [86.95016475100005, 24.82379680300005], [86.94852732400005, 24.82332822400008], [86.94691617800004, 24.82529706100007], [86.94508105900007, 24.825008973000024], [86.94475649200007, 24.82836300200006], [86.94411878700004, 24.828990739000062], [86.94384229300005, 24.82983043400003], [86.94574673400007, 24.83005071300005], [86.94867437000005, 24.829349704000037], [86.94975760200003, 24.829407828000058], [86.95254488800003, 24.833423742000036], [86.95253014600007, 24.833532064000053], [86.95251412000005, 24.839526587000023], [86.94872476900008, 24.839068045000033], [86.94764592500007, 24.838233529000036], [86.94617009200005, 24.83523700300003], [86.94546768100008, 24.835210282000048], [86.94352401300006, 24.835612912000045], [86.94355870400005, 24.835694122000064], [86.94440628300003, 24.83888052800006], [86.94480853000005, 24.84152094500007], [86.94374529600003, 24.84208118600003], [86.94307242800005, 24.84184675000006], [86.94205395000006, 24.84276803100005], [86.94057510600004, 24.843323906000023], [86.93542619900006, 24.844567401000063], [86.93503586900005, 24.845362047000037], [86.93538762700007, 24.846634796000046], [86.93659114000008, 24.849329067000042], [86.93689357600005, 24.85068311200007], [86.93753707800005, 24.851495338000063], [86.93810607900008, 24.85158091200003], [86.93826904100007, 24.851093278000064], [86.93735721900003, 24.847997216000067], [86.93718371100005, 24.847302115000048], [86.93750994400006, 24.846873135000067], [86.94317908200009, 24.846775919000038], [86.94371996600006, 24.849845050000056], [86.94440854100003, 24.851447161000067], [86.94493399900006, 24.853451105000033], [86.94677966500007, 24.854068618000042], [86.94828097800007, 24.85802662100008], [86.94887563600008, 24.859664831000032], [86.95083961400007, 24.859365945000036], [86.95479538000006, 24.856064179000043], [86.95532459100008, 24.85596465200007], [86.95641203200006, 24.854555723000033], [86.95717356800003, 24.854058776000045]]]]}}, {"type": "Feature", "properties": {"OBJECTID": 1198, "GPCODE": "91543", "GPNAME_1": "NARAYANPUR", "DIST_CEN_C": null, "BLK_NAME": "BARAHAT", "ST_NAME": "BIHAR", "ST_CODE_1": null, "GPCODE2011": "94103", "REMARKS": "FINALIZED", "MAP_STATUS": "COMPLETED", "BLK_C_2001": "230005", "BLK_C_2011": "01349", "DIST_NAME": "BANKA", "code2011": 0.0, "Shape_Leng": 0.13744045741, "Shape_Area": 0.00067751506, "Area": 7.57868}, "geometry": {"type": "MultiPolygon", "coordinates": [[[[86.98230139600008, 24.872518143000036], [86.98484834000004, 24.871211740000035], [86.98753949200005, 24.870668126000055], [86.99005703900008, 24.869767969000065], [86.99307544400006, 24.870045438000034], [86.99553274800007, 24.868242414000065], [86.99499036900005, 24.86501993400003], [86.99395908300005, 24.862840611000024], [86.99233097600006, 24.85718602600008], [86.99175957700004, 24.854636140000025], [86.99139523600007, 24.851246478000064], [86.99089024600005, 24.850795496000046], [86.98985924700008, 24.84867926800007], [86.98603102000004, 24.84944947500003], [86.98553417400007, 24.84699887000005], [86.98511316900004, 24.846412352000073], [86.98440933900008, 24.844891648000043], [86.98266290900006, 24.844662748000076], [86.98135336200005, 24.84620295800005], [86.97792679600008, 24.848083080000038], [86.97635914100005, 24.848648387000026], [86.97410339800007, 24.848771751000072], [86.96769084000005, 24.846974869000064], [86.96684524300008, 24.847471889000076], [86.96647463800008, 24.84797317500005], [86.96605516000005, 24.849350186000038], [86.96371128800007, 24.850656077000053], [86.96132746100005, 24.851618916000064], [86.95818086100007, 24.85116928900004], [86.95717356800003, 24.854058776000045], [86.95732804200009, 24.855638553000063], [86.95785872100004, 24.857669508000072], [86.95833436400005, 24.858671353000034], [86.95985224700007, 24.857284743000037], [86.96139032700006, 24.85648941100004], [86.96298349200003, 24.85671413600005], [86.96509565400004, 24.856315653000024], [86.96751935200007, 24.855790530000036], [86.96918099800007, 24.855004101000077], [86.97067667100004, 24.857043417000057], [86.97092987300005, 24.85819436500003], [86.96982289200008, 24.859702630000072], [86.96988876200004, 24.861774453000066], [86.97077823200004, 24.866685027000074], [86.97023445600007, 24.867380510000032], [86.96929504100007, 24.86820262300006], [86.96761272000003, 24.868095355000037], [86.96632677500008, 24.86861067700005], [86.96530820100008, 24.869505098000047], [86.96651621100006, 24.87056059300005], [86.96788156400004, 24.870234785000036], [86.96856451200006, 24.870414835000076], [86.96894577700004, 24.870784740000033], [86.96909493700008, 24.871809315000064], [86.96930803500004, 24.872215479000033], [86.97064925600006, 24.872729132000075], [86.97239076600005, 24.872488788000055], [86.97307883400003, 24.872885561000032], [86.97329233600004, 24.87381984600006], [86.97471873700005, 24.875547668000024], [86.97648642300004, 24.87702703900004], [86.97899096000003, 24.877964190000057], [86.97981213000008, 24.877801145000035], [86.98159680000003, 24.875989795000066], [86.98250084600005, 24.87423329300003], [86.98230139600008, 24.872518143000036]]]]}}, {"type": "Feature", "properties": {"OBJECTID": 1203, "GPCODE": "91541", "GPNAME_1": "MAHUAWA", "DIST_CEN_C": null, "BLK_NAME": "BARAHAT", "ST_NAME": "BIHAR", "ST_CODE_1": null, "GPCODE2011": "94101", "REMARKS": "FINALIZED", "MAP_STATUS": "COMPLETED", "BLK_C_2001": "230005", "BLK_C_2011": "01349", "DIST_NAME": "BANKA", "code2011": 0.0, "Shape_Leng": 0.27814577716, "Shape_Area": 0.00117982986, "Area": 13.1971}, "geometry": {"type": "MultiPolygon", "coordinates": [[[[87.05767688000003, 24.895780983000066], [87.05840377700008, 24.895740646000036], [87.05908110900003, 24.896030250000024], [87.06094304000004, 24.89507809400004], [87.06222924500008, 24.894363060000046], [87.06376837400006, 24.893681052000034], [87.06574023600007, 24.892808787000035], [87.06780797900007, 24.892070644000057], [87.06891397200008, 24.89189021100003], [87.07105163500006, 24.890853400000026], [87.07231752400008, 24.89010694600006], [87.07277317600006, 24.888788248000026], [87.07309856400008, 24.887353938000047], [87.07358475400008, 24.887099744000068], [87.07583182600007, 24.88610669800005], [87.07526543800003, 24.88494941600004], [87.07468622800008, 24.884261614000025], [87.07406430200007, 24.884034522000036], [87.07322952600003, 24.884477891000074], [87.07250317600005, 24.88455450200007], [87.07234736000004, 24.884055510000053], [87.07291861200008, 24.883186669000054], [87.07265351400008, 24.88232352600005], [87.07311138000006, 24.881487624000044], [87.07259594700008, 24.881096828000068], [87.07262862900006, 24.88063169000003], [87.07412002000007, 24.880414932000065], [87.07485801600006, 24.881136936000075], [87.07580258300004, 24.881089299000053], [87.07641966700004, 24.880653038000048], [87.07690726300007, 24.879148964000024], [87.07644966200007, 24.87832433400007], [87.07631383900008, 24.87682783100007], [87.07513608400006, 24.87581342900006], [87.07559590300008, 24.874778973000048], [87.07535367800006, 24.87345077200007], [87.07530827800008, 24.872720337000032], [87.07620156400003, 24.871545252000033], [87.07676524000004, 24.870175578000044], [87.07736707200007, 24.869040120000022], [87.07830036500008, 24.867900607000024], [87.07847602400005, 24.867397659000062], [87.07661340000004, 24.867253481000034], [87.07596136700005, 24.867663053000058], [87.07545760200009, 24.868066284000065], [87.07487238600004, 24.867974118000063], [87.07446341800005, 24.86741511200006], [87.07358826000007, 24.86712340100007], [87.07293512100006, 24.867465353000057], [87.07122586600008, 24.867653102000077], [87.07092323100005, 24.86692578800006], [87.07051812600008, 24.866632890000062], [87.06946135300007, 24.866776618000074], [87.06883957300005, 24.86655410900005], [87.06850042900004, 24.865691859000037], [87.06788102600007, 24.86563174300005], [87.06751114600007, 24.865040605000047], [87.06690602900005, 24.863585863000026], [87.06648876500003, 24.862458403000062], [87.06667874600004, 24.860560844000076], [87.06604571100007, 24.85957129600007], [87.06517307600006, 24.85978500600004], [87.06333339100007, 24.861201626000025], [87.06221037800003, 24.861549188000026], [87.06068465500005, 24.861766215000046], [87.05959034800009, 24.86171175800007], [87.05879284200006, 24.861987715000055], [87.05759697400003, 24.86073417500006], [87.05731075700004, 24.858743101000073], [87.05643277900003, 24.85859125500008], [87.05608355400005, 24.85703425500003], [87.05560285000007, 24.856638407000048], [87.05632684000005, 24.856065613000055], [87.05759671400006, 24.855617078000023], [87.05824196200007, 24.855076819000033], [87.05804977400004, 24.85444738800004], [87.05718012300008, 24.85452560400006], [87.05677561200008, 24.854264261000026], [87.05633581100005, 24.854305668000052], [87.05615905100007, 24.854736468000056], [87.05500286000006, 24.855183664000037], [87.05454619100004, 24.85406101800004], [87.05339854400006, 24.852712145000055], [87.05313317200006, 24.85215131500007], [87.05276574400006, 24.84933095300005], [87.05293135800008, 24.84812869700005], [87.05378094300005, 24.84871406900004], [87.05527669700007, 24.848831319000055], [87.05680171200004, 24.848578330000066], [87.05756225900006, 24.848140458000046], [87.05810638100007, 24.848133818000065], [87.05858885000004, 24.848655950000023], [87.05964601000005, 24.84854388800005], [87.06014319900004, 24.84701268200007], [87.06028049300005, 24.846248438000032], [87.06000541700007, 24.845024396000042], [87.05883846900008, 24.84507004900007], [87.05878793900007, 24.843974178000053], [87.05783836200004, 24.84365177600006], [87.05756807600005, 24.84275703900005], [87.05714525000008, 24.84123695200003], [87.05607702600008, 24.840582050000023], [87.05543418600007, 24.838897625000072], [87.05540859800004, 24.83713353400003], [87.05575006300006, 24.835437273000025], [87.05650502000003, 24.83496333900007], [87.05763951000006, 24.83508049200003], [87.05796543200006, 24.835045026000046], [87.05839252200008, 24.834475747000056], [87.05844693800003, 24.833116885000038], [87.05778010300008, 24.832159266000076], [87.05641495600008, 24.83114694300008], [87.05472203600004, 24.82970540100007], [87.05375722200006, 24.828665622000074], [87.05291737600004, 24.831130466000047], [87.05218590100003, 24.83117091300005], [87.05161732100004, 24.83050991600004], [87.05021803500006, 24.830896766000023], [87.04879563300005, 24.831044725000027], [87.04833194500009, 24.831821938000076], [87.04793709300003, 24.832228315000066], [87.04588193000006, 24.83343973500007], [87.04651514700004, 24.834465487000045], [87.04692769100006, 24.83529088100005], [87.04760616900006, 24.836708612000052], [87.04747457900004, 24.837874378000038], [87.04672055800006, 24.838415972000064], [87.04187251800005, 24.83841095500003], [87.04086080100006, 24.83891948400003], [87.04025298200008, 24.83965771000004], [87.03973222000008, 24.84162692600006], [87.03893505900004, 24.844325871000024], [87.03798941300005, 24.847031120000054], [87.04043031000003, 24.84715526100007], [87.04167516800004, 24.847375068000076], [87.04229975800007, 24.847800707000033], [87.04201848600007, 24.84853509100003], [87.04148203000005, 24.849074005000034], [87.03904797100006, 24.849766513000077], [87.03712456500006, 24.850186634000067], [87.03761615500008, 24.85134497200005], [87.03850153300004, 24.852363213000046], [87.04060928200005, 24.854431773000044], [87.04260494000005, 24.856271483000057], [87.04191579500008, 24.856509869000035], [87.04188884100006, 24.857042671000045], [87.04218245200008, 24.857503879000035], [87.04223587400008, 24.85846890600004], [87.04184045600005, 24.858839153000076], [87.04047311300008, 24.860087467000028], [87.03967308900008, 24.86019632600005], [87.03869348400008, 24.86054196500004], [87.03803076100007, 24.860215940000046], [87.03748658700005, 24.86022251000003], [87.03680067000005, 24.860695492000048], [87.03669668700007, 24.861030587000073], [87.03692047100003, 24.861456644000043], [87.03696709500008, 24.862290908000034], [87.03581697000004, 24.863166472000046], [87.03422420200008, 24.86388495400007], [87.03424321300008, 24.865211396000063], [87.03687043200006, 24.865545476000023], [87.04121041000008, 24.865926724000076], [87.04201814600003, 24.86635027600005], [87.04420194400006, 24.866125520000026], [87.04670736800006, 24.865562882000063], [87.04940509300008, 24.865295778000075], [87.05008611200003, 24.86687597100007], [87.05020360300006, 24.867470199000024], [87.04922538100004, 24.86791520400004], [87.04947738100003, 24.869938261000073], [87.04923984300007, 24.871303801000067], [87.04939931100006, 24.872064514000044], [87.05108407600005, 24.872910578000074], [87.05178543600005, 24.87350227400003], [87.05327804600006, 24.873380507000036], [87.05552842400004, 24.872622272000058], [87.05604391800006, 24.873017636000043], [87.05675921600005, 24.874570332000076], [87.05725452800004, 24.87595869000006], [87.05606238200005, 24.87667252800003], [87.05611159300008, 24.877669173000072], [87.05616744200006, 24.879130442000076], [87.05807934000006, 24.88027151400007], [87.05977943200008, 24.881812242000024], [87.06119146200007, 24.883622655000067], [87.06175560200006, 24.884978537000052], [87.06177940100008, 24.886607275000074], [87.06098902700006, 24.887379450000026], [87.05984540500003, 24.886332866000032], [87.05918045800007, 24.88587614100004], [87.05790891200007, 24.88589152700007], [87.05692802600004, 24.88616515800004], [87.05562551500003, 24.886781073000066], [87.05424590200005, 24.887194860000022], [87.05217108500005, 24.88745448800006], [87.05123069700005, 24.88812921500005], [87.05061806000003, 24.888538159000063], [87.05066869600006, 24.889300151000043], [87.05027514700004, 24.889462842000057], [87.05079573500007, 24.89123442300007], [87.05143384600007, 24.892571470000064], [87.05195598900008, 24.893427044000077], [87.05209306800003, 24.89400746700005], [87.05266519600008, 24.897272018000024], [87.05329349400006, 24.898961147000023], [87.05337987900003, 24.89979035700003], [87.05479884400006, 24.899687440000037], [87.05687026300006, 24.89918414300007], [87.05654701000003, 24.89704463700008], [87.05666722900008, 24.896461119000037], [87.05767688000003, 24.895780983000066]]]]}}, {"type": "Feature", "properties": {"OBJECTID": 1204, "GPCODE": "91544", "GPNAME_1": "PANJWARA", "DIST_CEN_C": null, "BLK_NAME": "BARAHAT", "ST_NAME": "BIHAR", "ST_CODE_1": null, "GPCODE2011": "94104", "REMARKS": "FINALIZED", "MAP_STATUS": "COMPLETED", "BLK_C_2001": "230005", "BLK_C_2011": "01349", "DIST_NAME": "BANKA", "code2011": 0.0, "Shape_Leng": 0.15833473161, "Shape_Area": 0.00079689687, "Area": 8.91537}, "geometry": {"type": "MultiPolygon", "coordinates": [[[[87.10354005700003, 24.86055489200004], [87.10210817900008, 24.859760429000062], [87.10179557200007, 24.859367212000052], [87.10160876900005, 24.856793019000065], [87.10248006800003, 24.85649795300003], [87.10336912500009, 24.856058268000027], [87.10478427600003, 24.855738334000023], [87.10587660900006, 24.855666093000025], [87.10703346200006, 24.854943329000037], [87.10780348000009, 24.85448707000006], [87.10847257000006, 24.853242366000075], [87.10854799300006, 24.85200049100007], [87.10894558300004, 24.850795299000026], [87.11014834600007, 24.850505100000078], [87.11049965400008, 24.84984191800004], [87.11084750700007, 24.848957668000025], [87.11187392200009, 24.848777899000027], [87.11234796100007, 24.848388443000033], [87.11203383800006, 24.84756659800007], [87.11105364200006, 24.846532013000058], [87.10924986300006, 24.846667222000065], [87.10701980200008, 24.847403409000037], [87.10468088800008, 24.84681869800005], [87.10457387100007, 24.845285833000048], [87.10447198700007, 24.844095907000053], [87.10444645100006, 24.84238147900004], [87.10399405700008, 24.841240968000022], [87.10217763100007, 24.839187836000065], [87.10155318400007, 24.837783132000027], [87.10121780700007, 24.837187157000074], [87.10059138100007, 24.83664891500007], [87.10023232000003, 24.83578699000003], [87.10002634700004, 24.835572940000077], [87.09941036600009, 24.834402889000046], [87.09841177000004, 24.83311567900006], [87.09724470500004, 24.832146391000038], [87.09653151900005, 24.83075183300008], [87.09555816400007, 24.83016371700006], [87.09388770400005, 24.827928087000032], [87.09277108600008, 24.826348997000025], [87.09208170800008, 24.825554322000073], [87.09135343600008, 24.823469471000067], [87.08951540700008, 24.822273796000047], [87.08777783700003, 24.822173347000046], [87.08663679500006, 24.82228209300007], [87.08569636900006, 24.82223947800003], [87.08421544300006, 24.822104248000073], [87.08093121700006, 24.82245129100005], [87.07948699800005, 24.82313231100005], [87.07690431200007, 24.823754939000025], [87.07840678700006, 24.828045977000045], [87.07809600200005, 24.829114650000065], [87.07868110500004, 24.831566809000037], [87.07755883300007, 24.832279947000075], [87.07712887200006, 24.832650682000065], [87.07599481400007, 24.832565269000042], [87.07486960800009, 24.83274140800006], [87.07498622700007, 24.833272436000073], [87.07541905100004, 24.835460217000048], [87.07601436900006, 24.83861162200003], [87.07572935900004, 24.84143985700007], [87.07544144700006, 24.844399019000036], [87.07504563900005, 24.844737760000044], [87.07502858400005, 24.845933699000057], [87.07583334900005, 24.846158573000025], [87.07646241900005, 24.84654792500004], [87.07792894000005, 24.847030946000075], [87.07975212500008, 24.847207139000034], [87.08204388100006, 24.84694442800003], [87.08459178700008, 24.84661535300006], [87.08630572500005, 24.846761274000073], [87.08885606100006, 24.84692847900004], [87.09009465600008, 24.847382500000037], [87.09000700200005, 24.848814068000024], [87.08998221600007, 24.849477681000053], [87.09155908100007, 24.85005837400007], [87.09293461500005, 24.852067459000068], [87.09298548800007, 24.85282944900007], [87.09229981400006, 24.853302679000024], [87.09231019200007, 24.853668051000056], [87.09257877600004, 24.85476127000004], [87.09233782800004, 24.85553132700005], [87.09183176300007, 24.85610156300004], [87.09045643300004, 24.85644793700004], [87.08973428200005, 24.857124697000074], [87.08945656300006, 24.858089178000057], [87.08899116400005, 24.858397229000047], [87.08914393700007, 24.859027148000052], [87.08966273400006, 24.859647900000027], [87.09060017100006, 24.861468443000035], [87.09129607000006, 24.86168994800005], [87.09198765300005, 24.86161373400006], [87.09270208300006, 24.860409150000066], [87.09302373500003, 24.86007580300003], [87.09513255200005, 24.85981514200006], [87.09611898700007, 24.859933854000076], [87.09696139100004, 24.860356637000052], [87.09871613000007, 24.863227317000053], [87.10036150000008, 24.865733843000044], [87.10124168500005, 24.86635470500005], [87.10167473400008, 24.866859258000034], [87.10391423800007, 24.86606438900003], [87.10545744600006, 24.865697725000075], [87.10539581800003, 24.865215715000033], [87.10517320600007, 24.864884543000073], [87.10533099300005, 24.864517051000064], [87.10680838600007, 24.863388706000023], [87.10596365400005, 24.86281712400006], [87.10497843700006, 24.86178245800005], [87.10477407100007, 24.86135181700007], [87.10354005700003, 24.86055489200004]]]]}}, {"type": "Feature", "properties": {"OBJECTID": 1205, "GPCODE": "91540", "GPNAME_1": "LODIYA KHURD", "DIST_CEN_C": null, "BLK_NAME": "BARAHAT", "ST_NAME": "BIHAR", "ST_CODE_1": null, "GPCODE2011": "94100", "REMARKS": "FINALIZED", "MAP_STATUS": "COMPLETED", "BLK_C_2001": "230005", "BLK_C_2011": "01349", "DIST_NAME": "BANKA", "code2011": 0.0, "Shape_Leng": 0.20190907983, "Shape_Area": 0.00111686104, "Area": 12.4928}, "geometry": {"type": "MultiPolygon", "coordinates": [[[[87.06788102600007, 24.86563174300005], [87.06850042900004, 24.865691859000037], [87.06883957300005, 24.86655410900005], [87.06946135300007, 24.866776618000074], [87.07051812600008, 24.866632890000062], [87.07092323100005, 24.86692578800006], [87.07122586600008, 24.867653102000077], [87.07293512100006, 24.867465353000057], [87.07358826000007, 24.86712340100007], [87.07446341800005, 24.86741511200006], [87.07487238600004, 24.867974118000063], [87.07545760200009, 24.868066284000065], [87.07596136700005, 24.867663053000058], [87.07661340000004, 24.867253481000034], [87.07847602400005, 24.867397659000062], [87.07830036500008, 24.867900607000024], [87.07736707200007, 24.869040120000022], [87.07676524000004, 24.870175578000044], [87.07620156400003, 24.871545252000033], [87.07530827800008, 24.872720337000032], [87.07535367800006, 24.87345077200007], [87.07559590300008, 24.874778973000048], [87.07513608400006, 24.87581342900006], [87.07631383900008, 24.87682783100007], [87.07644966200007, 24.87832433400007], [87.07690726300007, 24.879148964000024], [87.07641966700004, 24.880653038000048], [87.07580258300004, 24.881089299000053], [87.07485801600006, 24.881136936000075], [87.07412002000007, 24.880414932000065], [87.07262862900006, 24.88063169000003], [87.07259594700008, 24.881096828000068], [87.07311138000006, 24.881487624000044], [87.07265351400008, 24.88232352600005], [87.07291861200008, 24.883186669000054], [87.07234736000004, 24.884055510000053], [87.07250317600005, 24.88455450200007], [87.07322952600003, 24.884477891000074], [87.07406430200007, 24.884034522000036], [87.07468622800008, 24.884261614000025], [87.07526543800003, 24.88494941600004], [87.07629114100007, 24.884697669000047], [87.07709147300005, 24.884606680000047], [87.07807826900006, 24.88474356300003], [87.07836090300003, 24.885452975000078], [87.07853669500008, 24.886299190000045], [87.07853192100004, 24.886980581000046], [87.07914897400008, 24.88821848500004], [87.07970733500008, 24.888829801000043], [87.08010938100006, 24.888906113000075], [87.08065013800007, 24.888664879000032], [87.08115128600008, 24.88808109400003], [87.08189859500004, 24.888085518000025], [87.08288925000005, 24.88847493800006], [87.08347628600006, 24.88868433300007], [87.08389658700008, 24.88866107900003], [87.08464931300006, 24.888020108000035], [87.08521906700008, 24.88806280700004], [87.08526182000008, 24.888610484000026], [87.08532845200006, 24.889153629000077], [87.08585228400005, 24.889052178000043], [87.08830031300005, 24.88692831900005], [87.08951836900007, 24.885636392000038], [87.09025466500003, 24.884896320000053], [87.09091971400005, 24.884355666000033], [87.09220564500004, 24.88364038000003], [87.09295081000005, 24.88350031600004], [87.09383301800005, 24.882925426000043], [87.09583547600005, 24.88280138300007], [87.09704044900008, 24.882633060000046], [87.09710753200005, 24.88215388800006], [87.09658137900004, 24.881045889000063], [87.09593199100004, 24.879307636000078], [87.09550294100006, 24.878415008000047], [87.09510950000004, 24.877576047000048], [87.09493881100008, 24.877081813000075], [87.09456652000006, 24.876671233000025], [87.09463457500004, 24.876255249000053], [87.09587091100008, 24.876203936000024], [87.09744922200008, 24.87552105700007], [87.09754375600005, 24.874558817000036], [87.09650802800007, 24.87345701600003], [87.09536107600007, 24.872532600000056], [87.09566296200006, 24.872199513000055], [87.09611514400007, 24.871995382000023], [87.09797438600003, 24.87190471200006], [87.09829691400006, 24.871634456000038], [87.09817442500008, 24.870719989000065], [87.09940315700004, 24.86982484500004], [87.10115991500004, 24.86917141300006], [87.10215534100007, 24.868563418000065], [87.10176326300007, 24.868153119000056], [87.10167473400008, 24.866859258000034], [87.10124168500005, 24.86635470500005], [87.10036150000008, 24.865733843000044], [87.09871613000007, 24.863227317000053], [87.09696139100004, 24.860356637000052], [87.09611898700007, 24.859933854000076], [87.09513255200005, 24.85981514200006], [87.09302373500003, 24.86007580300003], [87.09270208300006, 24.860409150000066], [87.09198765300005, 24.86161373400006], [87.09129607000006, 24.86168994800005], [87.09060017100006, 24.861468443000035], [87.08966273400006, 24.859647900000027], [87.08914393700007, 24.859027148000052], [87.08899116400005, 24.858397229000047], [87.08945656300006, 24.858089178000057], [87.08973428200005, 24.857124697000074], [87.09045643300004, 24.85644793700004], [87.09183176300007, 24.85610156300004], [87.09233782800004, 24.85553132700005], [87.09257877600004, 24.85476127000004], [87.09231019200007, 24.853668051000056], [87.09229981400006, 24.853302679000024], [87.09298548800007, 24.85282944900007], [87.09293461500005, 24.852067459000068], [87.09155908100007, 24.85005837400007], [87.08998221600007, 24.849477681000053], [87.09000700200005, 24.848814068000024], [87.09009465600008, 24.847382500000037], [87.08885606100006, 24.84692847900004], [87.08630572500005, 24.846761274000073], [87.08459178700008, 24.84661535300006], [87.08204388100006, 24.84694442800003], [87.07975212500008, 24.847207139000034], [87.07792894000005, 24.847030946000075], [87.07646241900005, 24.84654792500004], [87.07583334900005, 24.846158573000025], [87.07502858400005, 24.845933699000057], [87.07371676300005, 24.84588204100004], [87.07285212700003, 24.846294166000064], [87.07157845300009, 24.846476711000037], [87.06991990300008, 24.846059212000057], [87.06874716000004, 24.845707926000046], [87.06754037400003, 24.845393218000027], [87.06608563600008, 24.84537477300006], [87.06587292300009, 24.845711279000056], [87.06496994800005, 24.846552534000068], [87.06413739400006, 24.84679731500006], [87.06327014400006, 24.847371917000032], [87.06109402300007, 24.848097676000066], [87.05964601000005, 24.84854388800005], [87.05858885000004, 24.848655950000023], [87.05810638100007, 24.848133818000065], [87.05756225900006, 24.848140458000046], [87.05680171200004, 24.848578330000066], [87.05527669700007, 24.848831319000055], [87.05378094300005, 24.84871406900004], [87.05293135800008, 24.84812869700005], [87.05276574400006, 24.84933095300005], [87.05313317200006, 24.85215131500007], [87.05339854400006, 24.852712145000055], [87.05454619100004, 24.85406101800004], [87.05500286000006, 24.855183664000037], [87.05615905100007, 24.854736468000056], [87.05633581100005, 24.854305668000052], [87.05677561200008, 24.854264261000026], [87.05718012300008, 24.85452560400006], [87.05804977400004, 24.85444738800004], [87.05824196200007, 24.855076819000033], [87.05759671400006, 24.855617078000023], [87.05632684000005, 24.856065613000055], [87.05560285000007, 24.856638407000048], [87.05608355400005, 24.85703425500003], [87.05643277900003, 24.85859125500008], [87.05731075700004, 24.858743101000073], [87.05759697400003, 24.86073417500006], [87.05879284200006, 24.861987715000055], [87.05959034800009, 24.86171175800007], [87.06068465500005, 24.861766215000046], [87.06221037800003, 24.861549188000026], [87.06333339100007, 24.861201626000025], [87.06517307600006, 24.85978500600004], [87.06604571100007, 24.85957129600007], [87.06667874600004, 24.860560844000076], [87.06648876500003, 24.862458403000062], [87.06690602900005, 24.863585863000026], [87.06751114600007, 24.865040605000047], [87.06788102600007, 24.86563174300005]]]]}}, {"type": "Feature", "properties": {"OBJECTID": 1206, "GPCODE": "91534", "GPNAME_1": "AURIYA", "DIST_CEN_C": null, "BLK_NAME": "BARAHAT", "ST_NAME": "BIHAR", "ST_CODE_1": null, "GPCODE2011": "94094", "REMARKS": "FINALIZED", "MAP_STATUS": "COMPLETED", "BLK_C_2001": "230005", "BLK_C_2011": "01349", "DIST_NAME": "BANKA", "code2011": 0.0, "Shape_Leng": 0.17220368547, "Shape_Area": 0.00122748227, "Area": 13.7313}, "geometry": {"type": "MultiPolygon", "coordinates": [[[[87.01165366600009, 24.863679010000055], [87.01242803300005, 24.864202301000034], [87.01346692900006, 24.86558442000006], [87.01377393500007, 24.866645763000065], [87.01516235700007, 24.866859447000024], [87.01568047100005, 24.867453547000025], [87.01604008200007, 24.86977315000007], [87.01775379400004, 24.869197856000028], [87.01949552200006, 24.86884331500005], [87.02145315800004, 24.868021471000077], [87.02340418400007, 24.86673931000007], [87.02558041300006, 24.865982399000075], [87.02630325100006, 24.865671490000068], [87.02884348300006, 24.86510885000007], [87.03056105700006, 24.865156053000078], [87.03140905400005, 24.865976200000034], [87.03260985500003, 24.86586267100006], [87.03424321300008, 24.865211396000063], [87.03422420200008, 24.86388495400007], [87.03581697000004, 24.863166472000046], [87.03696709500008, 24.862290908000034], [87.03692047100003, 24.861456644000043], [87.03669668700007, 24.861030587000073], [87.03680067000005, 24.860695492000048], [87.03748658700005, 24.86022251000003], [87.03803076100007, 24.860215940000046], [87.03869348400008, 24.86054196500004], [87.03967308900008, 24.86019632600005], [87.04047311300008, 24.860087467000028], [87.04184045600005, 24.858839153000076], [87.04223587400008, 24.85846890600004], [87.04218245200008, 24.857503879000035], [87.04188884100006, 24.857042671000045], [87.04191579500008, 24.856509869000035], [87.04260494000005, 24.856271483000057], [87.04060928200005, 24.854431773000044], [87.03850153300004, 24.852363213000046], [87.03761615500008, 24.85134497200005], [87.03712456500006, 24.850186634000067], [87.03904797100006, 24.849766513000077], [87.04148203000005, 24.849074005000034], [87.04201848600007, 24.84853509100003], [87.04229975800007, 24.847800707000033], [87.04167516800004, 24.847375068000076], [87.04043031000003, 24.84715526100007], [87.03798941300005, 24.847031120000054], [87.03680368900007, 24.846797065000032], [87.03518108500003, 24.846802945000036], [87.03350224500008, 24.846687581000026], [87.03167303500004, 24.846082137000053], [87.02986447200004, 24.84450632900007], [87.02844245200004, 24.841928557000074], [87.02749151800003, 24.84151118500006], [87.02804502700008, 24.839740179000046], [87.02749100500006, 24.839051890000064], [87.02522592200006, 24.838397374000067], [87.02181353500004, 24.838469493000048], [87.01877405000005, 24.838672420000023], [87.01873448300006, 24.83867292900004], [87.01745561600006, 24.839188937000074], [87.01601786300006, 24.839318667000043], [87.01396956300005, 24.839297784000053], [87.01200969300004, 24.83923515500004], [87.01038874700004, 24.837959111000032], [87.00866844300003, 24.837347625000064], [87.00748057900006, 24.837302958000066], [87.00641504400005, 24.837513949000027], [87.00414511500009, 24.83791068900007], [87.00260683700003, 24.837928718000057], [87.00146545500007, 24.837671278000073], [86.99948994900006, 24.837554542000078], [86.99872844900005, 24.837928936000026], [86.99813081400004, 24.838346588000036], [86.99758658600007, 24.838331823000033], [86.99684894000006, 24.83830988300008], [86.99674614900005, 24.839456488000053], [86.99396455000004, 24.847976410000058], [86.99268444500007, 24.849146506000068], [86.99184845900004, 24.849187802000074], [86.99065031800006, 24.848213715000043], [86.98985924700008, 24.84867926800007], [86.99089024600005, 24.850795496000046], [86.99139523600007, 24.851246478000064], [86.99175957700004, 24.854636140000025], [86.99233097600006, 24.85718602600008], [86.99395908300005, 24.862840611000024], [86.99499036900005, 24.86501993400003], [86.99553274800007, 24.868242414000065], [86.99758627900007, 24.868243600000028], [86.99760143700007, 24.868243650000068], [86.99894785600009, 24.86828204300008], [86.99999284400008, 24.86870306700007], [87.00073375000005, 24.869660039000053], [87.00107882700007, 24.870617177000042], [87.00096549200003, 24.873113844000045], [87.00209405200007, 24.873132231000056], [87.00252700600004, 24.872960224000053], [87.00326346400004, 24.87324940900004], [87.00377118000006, 24.87311253400003], [87.00409401400003, 24.872842563000063], [87.00540415100005, 24.872759405000068], [87.00590383400004, 24.872058696000067], [87.00558962400004, 24.870130966000033], [87.00509773900006, 24.86894094300004], [87.00486831500007, 24.868113411000024], [87.00536573700003, 24.867245602000025], [87.00640584300004, 24.866267707000077], [87.00788913700006, 24.865487667000025], [87.00941474700005, 24.86490570600006], [87.01165366600009, 24.863679010000055]]]]}}, {"type": "Feature", "properties": {"OBJECTID": 1207, "GPCODE": "91548", "GPNAME_1": "SONDIHA SOUTH", "DIST_CEN_C": null, "BLK_NAME": "BARAHAT", "ST_NAME": "BIHAR", "ST_CODE_1": null, "GPCODE2011": "94108", "REMARKS": "FINALIZED", "MAP_STATUS": "COMPLETED", "BLK_C_2001": "230005", "BLK_C_2011": "01349", "DIST_NAME": "BANKA", "code2011": 0.0, "Shape_Leng": 0.05807150607, "Shape_Area": 0.00012483736, "Area": 1.39631}, "geometry": {"type": "MultiPolygon", "coordinates": [[[[87.01594997400008, 24.875960880000036], [87.01694924600008, 24.87455017600007], [87.01696638300007, 24.873318053000048], [87.01599541400003, 24.871501958000067], [87.01582899400006, 24.870240480000064], [87.01604008200007, 24.86977315000007], [87.01568047100005, 24.867453547000025], [87.01516235700007, 24.866859447000024], [87.01377393500007, 24.866645763000065], [87.01346692900006, 24.86558442000006], [87.01242803300005, 24.864202301000034], [87.01165366600009, 24.863679010000055], [87.00941474700005, 24.86490570600006], [87.00788913700006, 24.865487667000025], [87.00640584300004, 24.866267707000077], [87.00536573700003, 24.867245602000025], [87.00486831500007, 24.868113411000024], [87.00509773900006, 24.86894094300004], [87.00558962400004, 24.870130966000033], [87.00590383400004, 24.872058696000067], [87.00540415100005, 24.872759405000068], [87.00409401400003, 24.872842563000063], [87.00377118000006, 24.87311253400003], [87.00326346400004, 24.87324940900004], [87.00252700600004, 24.872960224000053], [87.00209405200007, 24.873132231000056], [87.00096549200003, 24.873113844000045], [87.00076276400006, 24.874176669000065], [87.00022351500007, 24.874882472000024], [87.00072466000006, 24.876735730000064], [87.00015258400003, 24.87757722500004], [86.99969425800003, 24.878412912000044], [87.00009923800008, 24.87870599400003], [87.00161963800008, 24.87808804200006], [87.00160466200003, 24.877027721000047], [87.00192347400008, 24.876126002000035], [87.00242365100007, 24.875452291000045], [87.00304119000003, 24.875381869000023], [87.00406422000003, 24.875636109000027], [87.00617443800007, 24.875444368000046], [87.00741152200004, 24.875095919000046], [87.00886424200007, 24.874947913000028], [87.00942474800007, 24.87573551400004], [87.01368862000004, 24.87562206900003], [87.01427363100004, 24.876043811000045], [87.01481971400005, 24.87617273400008], [87.01594997400008, 24.875960880000036]]]]}}, {"type": "Feature", "properties": {"OBJECTID": 1210, "GPCODE": "91545", "GPNAME_1": "PATHARA", "DIST_CEN_C": null, "BLK_NAME": "BARAHAT", "ST_NAME": "BIHAR", "ST_CODE_1": null, "GPCODE2011": "94105", "REMARKS": "FINALIZED", "MAP_STATUS": "COMPLETED", "BLK_C_2001": "230005", "BLK_C_2011": "01349", "DIST_NAME": "BANKA", "code2011": 0.0, "Shape_Leng": 0.15042973081, "Shape_Area": 0.00091786909, "Area": 10.2657}, "geometry": {"type": "MultiPolygon", "coordinates": [[[[87.03992638800008, 24.89114860500007], [87.04047561000004, 24.890113147000022], [87.04110597300007, 24.889555037000036], [87.04146236500009, 24.888869413000066], [87.04212810400008, 24.888365082000064], [87.04313089200008, 24.888235721000058], [87.04303861400007, 24.88938297800007], [87.04364014800007, 24.889574254000024], [87.04493348300008, 24.889342122000073], [87.04509217600008, 24.889024345000053], [87.04464572400008, 24.888267146000032], [87.04578642000007, 24.887752547000048], [87.04716811200007, 24.887821641000073], [87.04845140300006, 24.889286304000052], [87.05027514700004, 24.889462842000057], [87.05066869600006, 24.889300151000043], [87.05061806000003, 24.888538159000063], [87.05123069700005, 24.88812921500005], [87.05217108500005, 24.88745448800006], [87.05424590200005, 24.887194860000022], [87.05562551500003, 24.886781073000066], [87.05692802600004, 24.88616515800004], [87.05790891200007, 24.88589152700007], [87.05918045800007, 24.88587614100004], [87.05984540500003, 24.886332866000032], [87.06098902700006, 24.887379450000026], [87.06177940100008, 24.886607275000074], [87.06175560200006, 24.884978537000052], [87.06119146200007, 24.883622655000067], [87.05977943200008, 24.881812242000024], [87.05807934000006, 24.88027151400007], [87.05616744200006, 24.879130442000076], [87.05611159300008, 24.877669173000072], [87.05606238200005, 24.87667252800003], [87.05725452800004, 24.87595869000006], [87.05675921600005, 24.874570332000076], [87.05604391800006, 24.873017636000043], [87.05552842400004, 24.872622272000058], [87.05327804600006, 24.873380507000036], [87.05178543600005, 24.87350227400003], [87.05108407600005, 24.872910578000074], [87.04939931100006, 24.872064514000044], [87.04923984300007, 24.871303801000067], [87.04947738100003, 24.869938261000073], [87.04922538100004, 24.86791520400004], [87.05020360300006, 24.867470199000024], [87.05008611200003, 24.86687597100007], [87.04940509300008, 24.865295778000075], [87.04670736800006, 24.865562882000063], [87.04420194400006, 24.866125520000026], [87.04201814600003, 24.86635027600005], [87.04121041000008, 24.865926724000076], [87.03687043200006, 24.865545476000023], [87.03424321300008, 24.865211396000063], [87.03260985500003, 24.86586267100006], [87.03140905400005, 24.865976200000034], [87.03056105700006, 24.865156053000078], [87.02884348300006, 24.86510885000007], [87.02630325100006, 24.865671490000068], [87.02558041300006, 24.865982399000075], [87.02340418400007, 24.86673931000007], [87.02145315800004, 24.868021471000077], [87.01949552200006, 24.86884331500005], [87.01775379400004, 24.869197856000028], [87.01604008200007, 24.86977315000007], [87.01582899400006, 24.870240480000064], [87.01599541400003, 24.871501958000067], [87.01696638300007, 24.873318053000048], [87.01694924600008, 24.87455017600007], [87.01594997400008, 24.875960880000036], [87.01646945800007, 24.876649576000034], [87.01819171200003, 24.87736026600004], [87.01859908500006, 24.87782021000004], [87.02046605400005, 24.87826289000003], [87.02108688400006, 24.87842249600004], [87.02138208600007, 24.878649084000074], [87.02121378600003, 24.879684473000054], [87.02325990600008, 24.88262036800006], [87.02357889700005, 24.88451180900006], [87.02323359200005, 24.88597795900006], [87.02191416900007, 24.88818664100006], [87.02128471100008, 24.889854666000076], [87.02030760600007, 24.890398783000023], [87.02024712700006, 24.891360684000063], [87.02125501700004, 24.892977726000026], [87.02152566500007, 24.89390400900004], [87.02165402100007, 24.89526979200008], [87.02202284700007, 24.89579784600005], [87.02319921000003, 24.89637957700006], [87.02360958200006, 24.89704252000007], [87.02362144600005, 24.89787264100005], [87.02464788700007, 24.898356844000034], [87.02563283600006, 24.89835413800006], [87.02675338800003, 24.897808346000033], [87.02684609800008, 24.89667915600006], [87.02962472700005, 24.894750834000035], [87.03205623200006, 24.893823788000077], [87.03339454800005, 24.893275396000035], [87.03576521600007, 24.89327859900004], [87.03825701500006, 24.891723583000044], [87.03992638800008, 24.89114860500007]]]]}}, {"type": "Feature", "properties": {"OBJECTID": 1213, "GPCODE": "91539", "GPNAME_1": "KHARIYARA", "DIST_CEN_C": null, "BLK_NAME": "BARAHAT", "ST_NAME": "BIHAR", "ST_CODE_1": null, "GPCODE2011": "94099", "REMARKS": "FINALIZED", "MAP_STATUS": "COMPLETED", "BLK_C_2001": "230005", "BLK_C_2011": "01349", "DIST_NAME": "BANKA", "code2011": 0.0, "Shape_Leng": 0.19105110224, "Shape_Area": 0.00088644428, "Area": 9.90958}, "geometry": {"type": "MultiPolygon", "coordinates": [[[[86.97349434200004, 24.952911207000056], [86.97232632200007, 24.947179423000023], [86.97196317900006, 24.944949842000028], [86.97138758200003, 24.943379460000074], [86.97059874000007, 24.941123008000034], [86.97044954300009, 24.940337733000035], [86.97003142800008, 24.93743557600004], [86.96987127900007, 24.935169723000058], [86.96901832200007, 24.93322031300005], [86.96789818900004, 24.93139291400007], [86.96738237000005, 24.93003908600008], [86.96582299600004, 24.929936171000065], [86.96570400800005, 24.92977379000007], [86.96571781200004, 24.92835191200004], [86.96542407800007, 24.926090694000038], [86.96527465300005, 24.924786229000063], [86.96477801400005, 24.922538677000034], [86.96370778300007, 24.921108460000028], [86.96328069600008, 24.919104503000028], [86.96329962600004, 24.918007657000032], [86.96302529400003, 24.914766709000048], [86.96301515400006, 24.914667620000046], [86.96288444300006, 24.914591332000043], [86.96265360200005, 24.91437442000006], [86.96153000100009, 24.91421706600005], [86.95858120200006, 24.91586178600005], [86.95715583600008, 24.916061150000075], [86.95632968400008, 24.91679739500006], [86.95512254800008, 24.917592461000027], [86.95326163700008, 24.917918419000046], [86.95069290800006, 24.918131978000076], [86.94963249400007, 24.916164432000073], [86.94648989400008, 24.916892715000074], [86.94399034100007, 24.916948022000042], [86.94293143000004, 24.917508203000068], [86.94083311700007, 24.918109488000027], [86.94026885800008, 24.918087205000063], [86.93853892900006, 24.913479359000064], [86.93813349900006, 24.914170140000067], [86.93895735400008, 24.918570782000074], [86.93905765900007, 24.920940458000075], [86.93877700900003, 24.923852063000027], [86.93867369100008, 24.924939875000064], [86.93946665700008, 24.92680825900004], [86.94038793700008, 24.927841536000074], [86.94279995300008, 24.930336674000046], [86.94334969300007, 24.930823858000053], [86.94474158800006, 24.932348957000045], [86.94609886600006, 24.933887490000075], [86.94670364700005, 24.935286500000075], [86.94730797700004, 24.93606256000004], [86.94768993600007, 24.937357856000062], [86.94792299000005, 24.937872362000064], [86.94839805400005, 24.93761033100003], [86.95403033600007, 24.93555357200006], [86.95636116000009, 24.93438328700006], [86.95982052400007, 24.93301370300003], [86.96042054900005, 24.934439702000077], [86.96077301200006, 24.935883957000044], [86.96281653300008, 24.94145726800008], [86.96391258600005, 24.944038527000032], [86.96622268400006, 24.948144787000047], [86.96584671200009, 24.948569318000068], [86.96436597900004, 24.948019499000054], [86.96127671300007, 24.948143222000056], [86.96059366400004, 24.948391808000054], [86.95669273200008, 24.94891314000006], [86.95603929300006, 24.949161754000045], [86.95428720200005, 24.949939031000042], [86.95430296700005, 24.95134739100007], [86.95486377600008, 24.953373801000055], [86.95581113700007, 24.95591], [86.95601067800004, 24.958270656000025], [86.95559528600006, 24.958993070000076], [86.95622530200006, 24.96079376800003], [86.95682134100008, 24.963515277000056], [86.95726775300005, 24.964796947000025], [86.95751639000008, 24.96629084800003], [86.95797238900008, 24.967021842000065], [86.95805251300004, 24.968335310000043], [86.95763714400005, 24.96914804900007], [86.95802403800008, 24.970140870000023], [86.95974201600006, 24.969643361000067], [86.96164765700007, 24.968581508000057], [86.96326101800008, 24.967406999000048], [86.96586403400005, 24.965270394000072], [86.96816579300008, 24.964230772000064], [86.96889329600003, 24.963769916000047], [86.97186276300005, 24.961921924000023], [86.97305558900007, 24.96140649000006], [86.97654953700004, 24.95925111500003], [86.97533933700004, 24.956719711000062], [86.97356413000006, 24.953412220000075], [86.97349434200004, 24.952911207000056]]]]}}, {"type": "Feature", "properties": {"OBJECTID": 1214, "GPCODE": "91542", "GPNAME_1": "MIRJAPUR", "DIST_CEN_C": null, "BLK_NAME": "BARAHAT", "ST_NAME": "BIHAR", "ST_CODE_1": null, "GPCODE2011": "94102", "REMARKS": "FINALIZED", "MAP_STATUS": "COMPLETED", "BLK_C_2001": "230005", "BLK_C_2011": "01349", "DIST_NAME": "BANKA", "code2011": 0.0, "Shape_Leng": 0.15688087456, "Shape_Area": 0.00085980538, "Area": 9.61222}, "geometry": {"type": "MultiPolygon", "coordinates": [[[[86.98074091500007, 24.956503741000063], [86.97958418800005, 24.952871015000028], [86.98052984600008, 24.952915462000078], [86.98234652100007, 24.95242216200006], [86.98369813800008, 24.95245274900003], [86.98402521000008, 24.952718797000045], [86.98443212300003, 24.953779326000074], [86.98502149700005, 24.954009083000074], [86.98569423800006, 24.953322498000034], [86.98630240500006, 24.95241928400003], [86.98602429300007, 24.951444455000058], [86.98702877700003, 24.950902031000055], [86.98893930300005, 24.950282188000074], [86.99010718800008, 24.949703589000023], [86.99146862900005, 24.949571628000058], [86.99486857600004, 24.94816958100006], [86.99703780800007, 24.943974531000038], [86.99319127900003, 24.939039528000023], [86.99306655200007, 24.93798789400006], [86.99226863200005, 24.937135418000025], [86.99152116300007, 24.937117928000077], [86.99101489100008, 24.935755166000035], [86.98600030700004, 24.935948497000027], [86.98529662600004, 24.935145551000062], [86.98475113300003, 24.934089721000078], [86.98437179900003, 24.930564693000065], [86.98449811500006, 24.927937566000026], [86.98459080300006, 24.926384727000027], [86.98520901400008, 24.925801985000078], [86.98695555500007, 24.92487986900005], [86.98657330400005, 24.923706603000028], [86.98431880800007, 24.92110377800003], [86.98395671000009, 24.920246383000062], [86.98418368400007, 24.919393123000077], [86.98324159100008, 24.91756117600005], [86.98269107500005, 24.91628868400005], [86.98236750300003, 24.914253168000073], [86.98248040200008, 24.91309758600005], [86.98262785700007, 24.911910301000034], [86.98187740300006, 24.908421659000055], [86.98159435600007, 24.907361131000073], [86.98159337200008, 24.906164888000035], [86.98108271500007, 24.905226456000037], [86.97961777400008, 24.905245511000032], [86.97954533300003, 24.90734447600005], [86.97956650500004, 24.908919825000055], [86.97894872000006, 24.90999454000007], [86.97805828600008, 24.91049168400008], [86.97588534700003, 24.910362234000047], [86.97336709600006, 24.911514960000034], [86.97207071200006, 24.91195362700006], [86.97130348500008, 24.911936108000077], [86.96954699800006, 24.912591762000034], [86.96815148800005, 24.912917631000028], [86.96781702700008, 24.915775073000077], [86.96681722700004, 24.915725999000074], [86.96453984800007, 24.91496005500005], [86.96301515400006, 24.914667620000046], [86.96302529400003, 24.914766709000048], [86.96329962600004, 24.918007657000032], [86.96328069600008, 24.919104503000028], [86.96370778300007, 24.921108460000028], [86.96477801400005, 24.922538677000034], [86.96527465300005, 24.924786229000063], [86.96542407800007, 24.926090694000038], [86.96571781200004, 24.92835191200004], [86.96570400800005, 24.92977379000007], [86.96582299600004, 24.929936171000065], [86.96738237000005, 24.93003908600008], [86.96789818900004, 24.93139291400007], [86.96901832200007, 24.93322031300005], [86.96987127900007, 24.935169723000058], [86.97003142800008, 24.93743557600004], [86.97044954300009, 24.940337733000035], [86.97059874000007, 24.941123008000034], [86.97138758200003, 24.943379460000074], [86.97196317900006, 24.944949842000028], [86.97232632200007, 24.947179423000023], [86.97349434200004, 24.952911207000056], [86.97356413000006, 24.953412220000075], [86.97533933700004, 24.956719711000062], [86.97654953700004, 24.95925111500003], [86.97742593300006, 24.959300186000064], [86.97888116500008, 24.958752939000078], [86.98030656400005, 24.958110986000065], [86.98074091500007, 24.956503741000063]]]]}}, {"type": "Feature", "properties": {"OBJECTID": 1218, "GPCODE": "91538", "GPNAME_1": "KHARHARA", "DIST_CEN_C": null, "BLK_NAME": "BARAHAT", "ST_NAME": "BIHAR", "ST_CODE_1": null, "GPCODE2011": "94098", "REMARKS": "FINALIZED", "MAP_STATUS": "COMPLETED", "BLK_C_2001": "230005", "BLK_C_2011": "01349", "DIST_NAME": "BANKA", "code2011": 0.0, "Shape_Leng": 0.16131254964, "Shape_Area": 0.00083860996, "Area": 9.376}, "geometry": {"type": "MultiPolygon", "coordinates": [[[[87.00422484300003, 24.93630896700006], [87.00585469500004, 24.935689555000067], [87.00771120400003, 24.935333769000067], [87.00765577500005, 24.933872429000075], [87.00766072800008, 24.931778544000053], [87.00623025600004, 24.93109595900006], [87.00583049400007, 24.92874070000005], [87.00613737800006, 24.927342735000025], [87.00671105300006, 24.926604956000062], [87.00758001400004, 24.926093877000028], [87.00778888300005, 24.925459661000048], [87.00825079600008, 24.924524632000043], [87.00801329600006, 24.92313302900004], [87.00726041200005, 24.92171154300007], [87.01130808400006, 24.921596067000053], [87.01162775000006, 24.921095898000033], [87.01106576700005, 24.919870655000068], [87.01215630800004, 24.919627656000046], [87.01283619800006, 24.919055542000024], [87.01360386000005, 24.919078090000028], [87.01516745100008, 24.921121737000078], [87.01712382200003, 24.920498414000065], [87.01813970300003, 24.920224663000056], [87.01996356700005, 24.92003611000007], [87.02105214400007, 24.91965764400004], [87.02071679200003, 24.919047971000055], [87.01990546600007, 24.918389707000074], [87.01862567800003, 24.91820640700007], [87.01781922600009, 24.91788655000005], [87.01718198800006, 24.916594512000074], [87.01666796400008, 24.916302742000028], [87.01675934700006, 24.915069754000058], [87.01635462700006, 24.914808316000062], [87.01452991000008, 24.914933732000065], [87.01397834700003, 24.91443931400005], [87.01337922900007, 24.913381488000027], [87.01354809400004, 24.912382233000073], [87.01394330100004, 24.91197595600005], [87.01381934500006, 24.910917004000055], [87.01221392500008, 24.910800619000042], [87.01063192400005, 24.90988973900005], [87.00997370900006, 24.909897510000064], [87.00865744000004, 24.909579097000062], [87.00812746800005, 24.90815938000003], [87.00742759400003, 24.907666696000035], [87.00708961900006, 24.90687203300007], [87.00773509000004, 24.905966453000076], [87.00761281000007, 24.905372242000055], [87.00619204500003, 24.90535285900006], [87.00489377400004, 24.906302252000046], [87.00368886600006, 24.906149447000075], [87.00306467000007, 24.90575967700005], [87.00276380100007, 24.905131443000073], [87.00308331400004, 24.90462677800008], [87.00267687500008, 24.90423450000003], [87.00263797000008, 24.903932559000054], [87.00306310000008, 24.903196544000025], [87.00186015100007, 24.90317913000007], [87.00103457000006, 24.903951370000073], [86.99759901200008, 24.905665775000045], [86.99759560700005, 24.905666481000026], [86.99596603700007, 24.906397714000036], [86.99577907400004, 24.90742698500003], [86.99506682400005, 24.90796924700004], [86.99404767200008, 24.90829507500007], [86.99134077700006, 24.908689879000065], [86.99136717000005, 24.91051800500003], [86.99110535000005, 24.91103274900007], [86.99109052500006, 24.91104632400004], [86.99075935700006, 24.911281423000048], [86.99054148100004, 24.911434988000053], [86.98949764200006, 24.91191877600005], [86.98667214400007, 24.912652154000057], [86.98484598800007, 24.912825029000032], [86.98424736500004, 24.913168536000057], [86.98248040200008, 24.91309758600005], [86.98236750300003, 24.914253168000073], [86.98269107500005, 24.91628868400005], [86.98324159100008, 24.91756117600005], [86.98418368400007, 24.919393123000077], [86.98395671000009, 24.920246383000062], [86.98431880800007, 24.92110377800003], [86.98657330400005, 24.923706603000028], [86.98695555500007, 24.92487986900005], [86.98520901400008, 24.925801985000078], [86.98459080300006, 24.926384727000027], [86.98449811500006, 24.927937566000026], [86.98437179900003, 24.930564693000065], [86.98475113300003, 24.934089721000078], [86.98529662600004, 24.935145551000062], [86.98600030700004, 24.935948497000027], [86.99101489100008, 24.935755166000035], [86.99152116300007, 24.937117928000077], [86.99226863200005, 24.937135418000025], [86.99306655200007, 24.93798789400006], [86.99319127900003, 24.939039528000023], [86.99703780800007, 24.943974531000038], [86.99486857600004, 24.94816958100006], [86.99594932000008, 24.949717001000067], [86.99647446900008, 24.950037002000045], [86.99758545000003, 24.948784397000054], [86.99798826700004, 24.94833119200007], [86.99866426600005, 24.947118475000025], [87.00007468500007, 24.94637082500003], [87.00373851200004, 24.944964997000056], [87.00392123600005, 24.94318952800006], [87.00382486700005, 24.941629309000064], [87.00388366900006, 24.94053211800008], [87.00367926300004, 24.939040856000076], [87.00358859800008, 24.937877721000064], [87.00375711700008, 24.936842376000072], [87.00422484300003, 24.93630896700006]]]]}}, {"type": "Feature", "properties": {"OBJECTID": 1234, "GPCODE": "91547", "GPNAME_1": "SONDIHA NORTH", "DIST_CEN_C": null, "BLK_NAME": "BARAHAT", "ST_NAME": "BIHAR", "ST_CODE_1": null, "GPCODE2011": "94107", "REMARKS": "FINALIZED", "MAP_STATUS": "COMPLETED", "BLK_C_2001": "230005", "BLK_C_2011": "01349", "DIST_NAME": "BANKA", "code2011": 0.0, "Shape_Leng": 0.19314796472, "Shape_Area": 0.00116720144, "Area": 13.053}, "geometry": {"type": "MultiPolygon", "coordinates": [[[[87.02948287100008, 24.917626040000073], [87.02813269100005, 24.91494816000005], [87.02723141800004, 24.913199114000065], [87.02633922200005, 24.91207706600005], [87.02453752100007, 24.908276493000074], [87.02348839000007, 24.906560699000067], [87.02309718900005, 24.904471623000063], [87.02407053600007, 24.90366128900007], [87.02405671800005, 24.902695765000033], [87.02488256700008, 24.901954998000065], [87.02568856700003, 24.902247739000074], [87.02655867500005, 24.901835755000036], [87.02694057600007, 24.900504540000043], [87.02636983100007, 24.89901317600004], [87.02563283600006, 24.89835413800006], [87.02464788700007, 24.898356844000034], [87.02362144600005, 24.89787264100005], [87.02360958200006, 24.89704252000007], [87.02319921000003, 24.89637957700006], [87.02202284700007, 24.89579784600005], [87.02165402100007, 24.89526979200008], [87.02152566500007, 24.89390400900004], [87.02125501700004, 24.892977726000026], [87.02024712700006, 24.891360684000063], [87.02030760600007, 24.890398783000023], [87.02128471100008, 24.889854666000076], [87.02191416900007, 24.88818664100006], [87.02323359200005, 24.88597795900006], [87.02357889700005, 24.88451180900006], [87.02325990600008, 24.88262036800006], [87.02121378600003, 24.879684473000054], [87.02138208600007, 24.878649084000074], [87.02108688400006, 24.87842249600004], [87.02046605400005, 24.87826289000003], [87.01859908500006, 24.87782021000004], [87.01819171200003, 24.87736026600004], [87.01646945800007, 24.876649576000034], [87.01594997400008, 24.875960880000036], [87.01481971400005, 24.87617273400008], [87.01427363100004, 24.876043811000045], [87.01368862000004, 24.87562206900003], [87.00942474800007, 24.87573551400004], [87.00886424200007, 24.874947913000028], [87.00741152200004, 24.875095919000046], [87.00617443800007, 24.875444368000046], [87.00406422000003, 24.875636109000027], [87.00304119000003, 24.875381869000023], [87.00242365100007, 24.875452291000045], [87.00192347400008, 24.876126002000035], [87.00160466200003, 24.877027721000047], [87.00161963800008, 24.87808804200006], [87.00009923800008, 24.87870599400003], [86.99969425800003, 24.878412912000044], [87.00015258400003, 24.87757722500004], [87.00072466000006, 24.876735730000064], [87.00022351500007, 24.874882472000024], [87.00076276400006, 24.874176669000065], [87.00096549200003, 24.873113844000045], [87.00107882700007, 24.870617177000042], [87.00073375000005, 24.869660039000053], [86.99999284400008, 24.86870306700007], [86.99894785600009, 24.86828204300008], [86.99760143700007, 24.868243650000068], [86.99758627900007, 24.868243600000028], [86.99553274800007, 24.868242414000065], [86.99307544400006, 24.870045438000034], [86.99312078800006, 24.870866947000025], [86.99180596900004, 24.872222102000023], [86.99232186500006, 24.873643625000057], [86.99087297300008, 24.87454296800007], [86.99128456800008, 24.875449918000072], [86.99208235300006, 24.876704188000076], [86.99321263300004, 24.87888345400006], [86.99357029200007, 24.88034117500007], [86.99310557800004, 24.880743273000064], [86.99151262500004, 24.881182384000056], [86.98988521800004, 24.88177945500007], [86.98902991000006, 24.88252035800008], [86.98786863500004, 24.88422300700006], [86.98628609000008, 24.885339145000046], [86.98263560700008, 24.886867476000077], [86.98198301500008, 24.887576582000065], [86.98283004300004, 24.888573534000045], [86.98420133300004, 24.889163877000044], [86.98478083600008, 24.88973216000005], [86.98448011500005, 24.891032394000035], [86.98722851500008, 24.893174497000075], [86.98774949000006, 24.894595887000037], [86.98735637100003, 24.89773332200008], [86.98769821400003, 24.898067085000037], [86.99091932600004, 24.897450783000068], [86.99234921000004, 24.897097608000024], [86.99400296100004, 24.897926793000067], [86.99486908500006, 24.897980269000072], [86.99626423700005, 24.897568352000064], [86.99705166900009, 24.898154541000054], [86.99726522500004, 24.898854029000063], [86.99758602500003, 24.899229465000076], [86.99773571200006, 24.89921134100007], [86.99852006400005, 24.89903070200006], [86.99918623500008, 24.899586984000052], [87.00009297300005, 24.89931009000003], [87.00057691500007, 24.89993620200005], [87.00179536300004, 24.90104995100006], [87.00186015100007, 24.90317913000007], [87.00306310000008, 24.903196544000025], [87.00263797000008, 24.903932559000054], [87.00267687500008, 24.90423450000003], [87.00308331400004, 24.90462677800008], [87.00276380100007, 24.905131443000073], [87.00306467000007, 24.90575967700005], [87.00368886600006, 24.906149447000075], [87.00489377400004, 24.906302252000046], [87.00619204500003, 24.90535285900006], [87.00761281000007, 24.905372242000055], [87.00773509000004, 24.905966453000076], [87.00708961900006, 24.90687203300007], [87.00742759400003, 24.907666696000035], [87.00812746800005, 24.90815938000003], [87.00865744000004, 24.909579097000062], [87.00997370900006, 24.909897510000064], [87.01063192400005, 24.90988973900005], [87.01221392500008, 24.910800619000042], [87.01381934500006, 24.910917004000055], [87.01394330100004, 24.91197595600005], [87.01354809400004, 24.912382233000073], [87.01337922900007, 24.913381488000027], [87.01397834700003, 24.91443931400005], [87.01452991000008, 24.914933732000065], [87.01635462700006, 24.914808316000062], [87.01675934700006, 24.915069754000058], [87.01666796400008, 24.916302742000028], [87.01718198800006, 24.916594512000074], [87.01781922600009, 24.91788655000005], [87.01862567800003, 24.91820640700007], [87.01990546600007, 24.918389707000074], [87.02071679200003, 24.919047971000055], [87.02105214400007, 24.91965764400004], [87.02279133600007, 24.918734519000054], [87.02580060800005, 24.91766988200004], [87.02671889100003, 24.918191442000023], [87.02733709500006, 24.918148002000066], [87.02948287100008, 24.917626040000073]]]]}}, {"type": "Feature", "properties": {"OBJECTID": 1235, "GPCODE": "91535", "GPNAME_1": "BHABHANGAMA", "DIST_CEN_C": null, "BLK_NAME": "BARAHAT", "ST_NAME": "BIHAR", "ST_CODE_1": null, "GPCODE2011": "94095", "REMARKS": "FINALIZED", "MAP_STATUS": "COMPLETED", "BLK_C_2001": "230005", "BLK_C_2011": "01349", "DIST_NAME": "BANKA", "code2011": 0.0, "Shape_Leng": 0.0915047672, "Shape_Area": 0.00042595266, "Area": 4.76298}, "geometry": {"type": "MultiPolygon", "coordinates": [[[[87.04151709100006, 24.918348369000057], [87.04271419300005, 24.917950418000032], [87.04438459400006, 24.917415922000032], [87.04548827600007, 24.91672126800006], [87.04484305800008, 24.915235487000075], [87.04394190300007, 24.91317055500008], [87.04310737900005, 24.912282665000077], [87.04273585400006, 24.91192161600003], [87.04264765900007, 24.91095699600004], [87.04282477900006, 24.910539760000063], [87.04218789200007, 24.909283927000047], [87.04243317300006, 24.90878458900005], [87.04295689500003, 24.908381219000034], [87.04334164300008, 24.908290847000046], [87.04405463700004, 24.908647836000057], [87.04450881400004, 24.908561113000076], [87.04494228200008, 24.908073092000052], [87.04601422100006, 24.90792480400006], [87.04617170900008, 24.907525787000054], [87.04590632000009, 24.90663101100006], [87.04426498800007, 24.90505335200004], [87.04347504200007, 24.904846247000023], [87.04321323200008, 24.904204134000054], [87.04320625000008, 24.903721373000053], [87.04366270000008, 24.90276830600004], [87.04357608200007, 24.901569030000076], [87.04298505000008, 24.89971704900006], [87.04259553600008, 24.898106305000056], [87.04135322000008, 24.895364142000062], [87.04114470600007, 24.894635622000067], [87.04026924700008, 24.892272598000034], [87.03992638800008, 24.89114860500007], [87.03825701500006, 24.891723583000044], [87.03576521600007, 24.89327859900004], [87.03339454800005, 24.893275396000035], [87.03205623200006, 24.893823788000077], [87.02962472700005, 24.894750834000035], [87.02684609800008, 24.89667915600006], [87.02675338800003, 24.897808346000033], [87.02563283600006, 24.89835413800006], [87.02636983100007, 24.89901317600004], [87.02694057600007, 24.900504540000043], [87.02655867500005, 24.901835755000036], [87.02568856700003, 24.902247739000074], [87.02488256700008, 24.901954998000065], [87.02405671800005, 24.902695765000033], [87.02407053600007, 24.90366128900007], [87.02309718900005, 24.904471623000063], [87.02348839000007, 24.906560699000067], [87.02453752100007, 24.908276493000074], [87.02633922200005, 24.91207706600005], [87.02723141800004, 24.913199114000065], [87.02813269100005, 24.91494816000005], [87.02948287100008, 24.917626040000073], [87.03071135500005, 24.919754759000057], [87.03176581900004, 24.919412796000074], [87.03463620900004, 24.918679034000036], [87.03651199800004, 24.91762776400003], [87.03807232100007, 24.917013463000046], [87.04014478800008, 24.916902832000062], [87.04151709100006, 24.918348369000057]]]]}}, {"type": "Feature", "properties": {"OBJECTID": 1240, "GPCODE": "91537", "GPNAME_1": "GHODGHAWAR", "DIST_CEN_C": null, "BLK_NAME": "BARAHAT", "ST_NAME": "BIHAR", "ST_CODE_1": null, "GPCODE2011": "94097", "REMARKS": "FINALIZED", "MAP_STATUS": "COMPLETED", "BLK_C_2001": "230005", "BLK_C_2011": "01349", "DIST_NAME": "BANKA", "code2011": 0.0, "Shape_Leng": 0.15922917411, "Shape_Area": 0.00101392982, "Area": 11.3349}, "geometry": {"type": "MultiPolygon", "coordinates": [[[[87.02411955600007, 24.953739709000047], [87.02523276000005, 24.953676810000047], [87.02620199400008, 24.95393143800004], [87.02720686600009, 24.954253381000058], [87.02993086000004, 24.95430221600003], [87.03169421900003, 24.95345838700007], [87.03408176200008, 24.951998884000034], [87.03374132700003, 24.950288398000055], [87.03262960100005, 24.948012730000073], [87.03336798000004, 24.947979100000055], [87.03499660300008, 24.94767982700006], [87.03715847800004, 24.948106600000074], [87.03942308700005, 24.948903890000054], [87.04265984500006, 24.949431637000032], [87.04099009800007, 24.947481674000073], [87.04037465900007, 24.94675925400003], [87.03975926300006, 24.94603687600005], [87.03612638600003, 24.942716912000037], [87.03469292900007, 24.943641263000075], [87.03247371200007, 24.94216650100003], [87.03073506200008, 24.93861643500003], [87.03267178400006, 24.937645600000053], [87.03493756200004, 24.936837913000033], [87.03683864200008, 24.935804310000037], [87.03804880600006, 24.93492799300003], [87.03737437900008, 24.93245424400004], [87.03654024200006, 24.92919269500004], [87.03606642800008, 24.927921394000066], [87.03575810900008, 24.926792421000073], [87.03548966600005, 24.92603308300005], [87.03548369400005, 24.92561802800003], [87.03585645700008, 24.92503141700007], [87.03569803600004, 24.924000042000046], [87.03547003200003, 24.923637228000075], [87.03501136600005, 24.923412583000072], [87.03401655600004, 24.923771943000077], [87.03313071000008, 24.92448193100006], [87.03251612800005, 24.92476911500006], [87.03221953300005, 24.924456706000058], [87.03209750900004, 24.923546720000047], [87.03228589200006, 24.921500308000077], [87.03073571700008, 24.92007035300003], [87.03071135500005, 24.919754759000057], [87.02948287100008, 24.917626040000073], [87.02733709500006, 24.918148002000066], [87.02671889100003, 24.918191442000023], [87.02580060800005, 24.91766988200004], [87.02279133600007, 24.918734519000054], [87.02105214400007, 24.91965764400004], [87.01996356700005, 24.92003611000007], [87.01813970300003, 24.920224663000056], [87.01712382200003, 24.920498414000065], [87.01516745100008, 24.921121737000078], [87.01360386000005, 24.919078090000028], [87.01283619800006, 24.919055542000024], [87.01215630800004, 24.919627656000046], [87.01106576700005, 24.919870655000068], [87.01162775000006, 24.921095898000033], [87.01130808400006, 24.921596067000053], [87.00726041200005, 24.92171154300007], [87.00801329600006, 24.92313302900004], [87.00825079600008, 24.924524632000043], [87.00778888300005, 24.925459661000048], [87.00758001400004, 24.926093877000028], [87.00671105300006, 24.926604956000062], [87.00613737800006, 24.927342735000025], [87.00583049400007, 24.92874070000005], [87.00623025600004, 24.93109595900006], [87.00766072800008, 24.931778544000053], [87.00765577500005, 24.933872429000075], [87.00771120400003, 24.935333769000067], [87.00585469500004, 24.935689555000067], [87.00422484300003, 24.93630896700006], [87.00375711700008, 24.936842376000072], [87.00358859800008, 24.937877721000064], [87.00367926300004, 24.939040856000076], [87.00388366900006, 24.94053211800008], [87.00382486700005, 24.941629309000064], [87.00392123600005, 24.94318952800006], [87.00373851200004, 24.944964997000056], [87.00427741300007, 24.944909030000076], [87.00441144400008, 24.945286563000025], [87.00452185100005, 24.94678337600004], [87.00493784500009, 24.947838932000025], [87.00509976100005, 24.948784626000077], [87.00555221600007, 24.949961574000042], [87.00585858200003, 24.950964218000024], [87.00635570300005, 24.951107292000074], [87.00873112200009, 24.95136347500005], [87.01008122800005, 24.95159575200006], [87.01027195100005, 24.952126013000054], [87.01053950900007, 24.952835742000048], [87.01112747800005, 24.955179847000068], [87.01252914300005, 24.957640556000058], [87.01352913800008, 24.95727227100008], [87.01469935100005, 24.956694394000067], [87.01619162500003, 24.956130633000043], [87.01968945500005, 24.954879821000077], [87.02244730900009, 24.954174678000072], [87.02411955600007, 24.953739709000047]]]]}}]}