{"type": "FeatureCollection", "features": [{"type": "Feature", "properties": {"OBJECTID": 1208, "GPCODE": "91616", "GPNAME_1": "RANGAON", "DIST_CEN_C": null, "BLK_NAME": "DHURAIYA", "ST_NAME": "BIHAR", "ST_CODE_1": null, "GPCODE2011": "94176", "REMARKS": "FINALIZED", "MAP_STATUS": "COMPLETED", "BLK_C_2001": "230004", "BLK_C_2011": "01348", "DIST_NAME": "BANKA", "code2011": 0.0, "Shape_Leng": 0.19850308932, "Shape_Area": 0.0012865556, "Area": 14.3903}, "geometry": {"type": "MultiPolygon", "coordinates": [[[[87.11428025400005, 24.881538977000048], [87.11629032200005, 24.88127015200007], [87.11710417200004, 24.881751850000057], [87.11821238300007, 24.883700873000066], [87.12011931600006, 24.88545477300005], [87.12166688400004, 24.88503383500006], [87.12399690000007, 24.88464810800008], [87.12544667600008, 24.883650748000036], [87.12710026700006, 24.88336376700005], [87.12917721100007, 24.882926690000033], [87.12933490600005, 24.882893504000037], [87.13166446300005, 24.88215123200007], [87.13340336900006, 24.88097414300006], [87.13650012400007, 24.879599391000056], [87.13808564400006, 24.881357252000043], [87.14085750900006, 24.883988892000048], [87.14312324600007, 24.885562029000027], [87.14589350200004, 24.886781321000058], [87.14780665800004, 24.885678591000044], [87.14858086900006, 24.885492759000044], [87.15032228900003, 24.884491419000028], [87.15244159000008, 24.88295284800006], [87.15516457700005, 24.88238573800004], [87.15712777400006, 24.88293367800003], [87.15673176800004, 24.880994005000048], [87.15594280000005, 24.879569115000038], [87.15382403300003, 24.87854932600004], [87.15180604800008, 24.876359528000023], [87.14970486000004, 24.87357062500007], [87.14926560000004, 24.871383227000024], [87.14887410800009, 24.87069786400008], [87.14735645100006, 24.86917395200004], [87.14585348100007, 24.867315938000047], [87.14325030000003, 24.86533647400006], [87.14228527900008, 24.86467635400004], [87.14117504200004, 24.864555091000057], [87.14086782700008, 24.863552680000055], [87.14099884200004, 24.862409419000073], [87.14149800800004, 24.86139687900004], [87.14208877800007, 24.861524763000034], [87.14232795400005, 24.862929544000053], [87.14284650100007, 24.863193781000064], [87.14372596600003, 24.862781037000047], [87.14427377100003, 24.862363456000026], [87.14399626900007, 24.861365205000027], [87.14353861200004, 24.860233984000047], [87.14308707800006, 24.859499674000062], [87.14264176600005, 24.859171395000033], [87.14205140000007, 24.859070596000038], [87.14073241500006, 24.859529483000074], [87.13999220900007, 24.859335782000073], [87.13887475300004, 24.85841132400003], [87.13806028400006, 24.857884692000027], [87.13658516600003, 24.857835585000032], [87.13497474800005, 24.858329749000063], [87.13411252000003, 24.85857075000007], [87.13359998700008, 24.859687214000076], [87.13338851600008, 24.86042537900005], [87.13258627700003, 24.86070627500004], [87.13195949700008, 24.86064648000007], [87.13133271700008, 24.860586683000065], [87.13037078100007, 24.860129508000057], [87.12924236600008, 24.858798987000057], [87.12849209700005, 24.85793759300003], [87.12763187800005, 24.85700080400005], [87.12684205600004, 24.855810404000067], [87.12602868200008, 24.855351411000072], [87.12500076600008, 24.855431974000055], [87.12367501300008, 24.85544857600007], [87.12264002000006, 24.85505547300005], [87.12151467700005, 24.853594049000037], [87.12054695500007, 24.85306914800003], [87.11935564000004, 24.852813301000026], [87.11807115700003, 24.851620058000037], [87.11530350500004, 24.852146479000055], [87.11367448500005, 24.852058534000037], [87.11262649400004, 24.851962051000044], [87.11155898600003, 24.85186376400003], [87.10937918900004, 24.851669807000064], [87.10894558300004, 24.850795299000026], [87.10854799300006, 24.85200049100007], [87.10847257000006, 24.853242366000075], [87.10780348000009, 24.85448707000006], [87.10703346200006, 24.854943329000037], [87.10587660900006, 24.855666093000025], [87.10478427600003, 24.855738334000023], [87.10336912500009, 24.856058268000027], [87.10248006800003, 24.85649795300003], [87.10160876900005, 24.856793019000065], [87.10179557200007, 24.859367212000052], [87.10210817900008, 24.859760429000062], [87.10354005700003, 24.86055489200004], [87.10477407100007, 24.86135181700007], [87.10497843700006, 24.86178245800005], [87.10596365400005, 24.86281712400006], [87.10680838600007, 24.863388706000023], [87.10533099300005, 24.864517051000064], [87.10517320600007, 24.864884543000073], [87.10539581800003, 24.865215715000033], [87.10545744600006, 24.865697725000075], [87.10391423800007, 24.86606438900003], [87.10167473400008, 24.866859258000034], [87.10176326300007, 24.868153119000056], [87.10215534100007, 24.868563418000065], [87.10115991500004, 24.86917141300006], [87.09940315700004, 24.86982484500004], [87.09817442500008, 24.870719989000065], [87.09829691400006, 24.871634456000038], [87.09797438600003, 24.87190471200006], [87.09611514400007, 24.871995382000023], [87.09566296200006, 24.872199513000055], [87.09536107600007, 24.872532600000056], [87.09650802800007, 24.87345701600003], [87.09754375600005, 24.874558817000036], [87.09911819300004, 24.874615995000056], [87.10121208800007, 24.87532555000007], [87.10183763000003, 24.876788817000033], [87.10266604200007, 24.878249565000033], [87.10341825900008, 24.878917139000066], [87.10385195900005, 24.881118248000064], [87.10448797300006, 24.882946867000044], [87.10419930400008, 24.88589300600006], [87.10393778900004, 24.88732761400007], [87.10661950700006, 24.886939005000045], [87.10918917700008, 24.886062054000035], [87.11075979800006, 24.884624177000035], [87.11058848000005, 24.883045966000054], [87.10996004000003, 24.88201347200004], [87.11065319600004, 24.881891044000042], [87.11213070800005, 24.881750785000065], [87.11428025400005, 24.881538977000048]]]]}}, {"type": "Feature", "properties": {"OBJECTID": 1216, "GPCODE": "91615", "GPNAME_1": "PAIR", "DIST_CEN_C": null, "BLK_NAME": "DHURAIYA", "ST_NAME": "BIHAR", "ST_CODE_1": null, "GPCODE2011": "94175", "REMARKS": "FINALIZED", "MAP_STATUS": "COMPLETED", "BLK_C_2001": "230004", "BLK_C_2011": "01348", "DIST_NAME": "BANKA", "code2011": 0.0, "Shape_Leng": 0.19376467441, "Shape_Area": 0.00159009615, "Area": 17.7813}, "geometry": {"type": "MultiPolygon", "coordinates": [[[[87.14811319500006, 24.92323609500005], [87.14875309900003, 24.92324453300006], [87.14875316200005, 24.92324453300006], [87.14601540100006, 24.92129391800006], [87.14497875700005, 24.91922241000003], [87.14539556100004, 24.915724675000035], [87.14569414400006, 24.91291423200005], [87.14632359600006, 24.910379375000048], [87.14707779500003, 24.909203314000024], [87.14783188400008, 24.90802734600004], [87.14910145400006, 24.906892206000066], [87.15031726300003, 24.903217315000063], [87.15313352000004, 24.902567779000037], [87.15450261400008, 24.90276684400004], [87.15622498700003, 24.901152068000044], [87.15700612600006, 24.899810993000074], [87.15791029400003, 24.896812392000072], [87.15725362300003, 24.89594983300003], [87.15671638100008, 24.89448119900004], [87.15696988900004, 24.891657853000027], [87.15735156900007, 24.887831108000057], [87.15732263900009, 24.885954425000023], [87.15712777400006, 24.88293367800003], [87.15516457700005, 24.88238573800004], [87.15244159000008, 24.88295284800006], [87.15032228900003, 24.884491419000028], [87.14858086900006, 24.885492759000044], [87.14780665800004, 24.885678591000044], [87.14589350200004, 24.886781321000058], [87.14312324600007, 24.885562029000027], [87.14085750900006, 24.883988892000048], [87.13808564400006, 24.881357252000043], [87.13650012400007, 24.879599391000056], [87.13340336900006, 24.88097414300006], [87.13166446300005, 24.88215123200007], [87.12933490600005, 24.882893504000037], [87.12917721100007, 24.882926690000033], [87.12710026700006, 24.88336376700005], [87.12544667600008, 24.883650748000036], [87.12399690000007, 24.88464810800008], [87.12166688400004, 24.88503383500006], [87.12011931600006, 24.88545477300005], [87.11821238300007, 24.883700873000066], [87.11710417200004, 24.881751850000057], [87.11629032200005, 24.88127015200007], [87.11428025400005, 24.881538977000048], [87.11213070800005, 24.881750785000065], [87.11065319600004, 24.881891044000042], [87.10996004000003, 24.88201347200004], [87.11058848000005, 24.883045966000054], [87.11075979800006, 24.884624177000035], [87.10918917700008, 24.886062054000035], [87.10661950700006, 24.886939005000045], [87.10393778900004, 24.88732761400007], [87.10331617400004, 24.890737573000024], [87.10227379900005, 24.897165649000044], [87.10316454000008, 24.898400641000023], [87.10387956900007, 24.900919789000056], [87.10447527900004, 24.90276887300007], [87.10611175000008, 24.90261851100007], [87.10949074200005, 24.901261958000077], [87.11128063300004, 24.903881625000054], [87.11215048300005, 24.910600077000026], [87.11247447700003, 24.910510060000036], [87.11382699500007, 24.915625945000045], [87.11590662900005, 24.91605540000006], [87.11880960500008, 24.91502100400004], [87.12271865700006, 24.915816267000025], [87.12627372000009, 24.914676607000047], [87.12714681500006, 24.91411099100003], [87.12820170500004, 24.916839252000045], [87.12724004700004, 24.92025902100005], [87.12858179000006, 24.920722099000045], [87.13142006100009, 24.919990948000077], [87.13243781100005, 24.920543990000056], [87.13387521800007, 24.922727850000058], [87.13730431200008, 24.922269319000065], [87.13958611100009, 24.923363933000076], [87.14237135000008, 24.923160066000037], [87.14811319500006, 24.92323609500005]]]]}}, {"type": "Feature", "properties": {"OBJECTID": 1219, "GPCODE": "91603", "GPNAME_1": "CHALNA", "DIST_CEN_C": null, "BLK_NAME": "DHURAIYA", "ST_NAME": "BIHAR", "ST_CODE_1": null, "GPCODE2011": "94163", "REMARKS": "FINALIZED", "MAP_STATUS": "COMPLETED", "BLK_C_2001": "230004", "BLK_C_2011": "01348", "DIST_NAME": "BANKA", "code2011": 0.0, "Shape_Leng": 0.18012866451, "Shape_Area": 0.00091210915, "Area": 10.1977}, "geometry": {"type": "MultiPolygon", "coordinates": [[[[87.09550903700006, 24.951237924000054], [87.09713882400007, 24.950845765000054], [87.09785430500006, 24.95120940700008], [87.09813629700005, 24.95159295600007], [87.10067177900004, 24.950286814000037], [87.10185498900006, 24.949677333000068], [87.10294212700006, 24.94937624800008], [87.10187297100003, 24.944921928000042], [87.10657836500008, 24.943729682000026], [87.11036042900008, 24.942204296000057], [87.10885261900006, 24.93874595500006], [87.10753711900009, 24.934302991000038], [87.10622430600006, 24.934363422000047], [87.10362768100003, 24.935008306000043], [87.10259749100004, 24.934230100000036], [87.10248768600007, 24.93213266500004], [87.10377778600008, 24.928696329000047], [87.10292768600004, 24.926709178000067], [87.10117448900007, 24.923262693000027], [87.09967640800005, 24.921455481000066], [87.09945367000006, 24.91891415500004], [87.10172557400006, 24.918359476000035], [87.10431308300008, 24.917564963000075], [87.10494768600006, 24.915659635000054], [87.10471322400008, 24.914394636000054], [87.10468836500007, 24.91394550700005], [87.10831390400006, 24.91407881300006], [87.11110176200003, 24.912449527000035], [87.11021105900005, 24.911214762000043], [87.11182659200006, 24.91069006400005], [87.11215048300005, 24.910600077000026], [87.11128063300004, 24.903881625000054], [87.10949074200005, 24.901261958000077], [87.10611175000008, 24.90261851100007], [87.10447527900004, 24.90276887300007], [87.10283880400004, 24.902919218000022], [87.09915237600006, 24.90466509500004], [87.09640875400004, 24.90561686500007], [87.09454685000009, 24.906152819000056], [87.09427320000003, 24.908642405000023], [87.09378729400004, 24.908777305000058], [87.09330119300006, 24.908912257000054], [87.09170119300006, 24.908235196000078], [87.08880933000006, 24.90799269400003], [87.08556100700008, 24.908742352000047], [87.08336607200005, 24.907717181000066], [87.08298836100005, 24.90683378600005], [87.07954298000004, 24.90699184400006], [87.07985820800008, 24.905251056000054], [87.07647466800006, 24.906532025000047], [87.07697664800008, 24.91116269300005], [87.07860973900006, 24.91243889900005], [87.07833576700006, 24.914928450000048], [87.07928308300006, 24.917852913000047], [87.07942417300006, 24.920411084000023], [87.08074061700006, 24.920745212000043], [87.08145786900008, 24.92002183900007], [87.08210513400007, 24.919992146000027], [87.08226197000005, 24.920872676000045], [87.08349688500005, 24.919731040000045], [87.08373445700005, 24.920114643000034], [87.08438172300004, 24.920084941000027], [87.08436616400007, 24.921762572000034], [87.08557475600009, 24.922101609000038], [87.08563993500007, 24.923282313000072], [87.08571054500004, 24.924561393000033], [87.08691983600005, 24.926873181000076], [87.08708824900003, 24.929923217000066], [87.08670560300004, 24.930828597000072], [87.08766659200006, 24.932559928000046], [87.08877897600007, 24.935073491000026], [87.08886592600004, 24.936647691000076], [87.09003756800007, 24.939008649000073], [87.09295374300007, 24.952187897000044], [87.09350244800004, 24.952678237000043], [87.09550903700006, 24.951237924000054]]]]}}, {"type": "Feature", "properties": {"OBJECTID": 1230, "GPCODE": "91602", "GPNAME_1": "BHELAI", "DIST_CEN_C": null, "BLK_NAME": "DHURAIYA", "ST_NAME": "BIHAR", "ST_CODE_1": null, "GPCODE2011": "94162", "REMARKS": "FINALIZED", "MAP_STATUS": "COMPLETED", "BLK_C_2001": "230004", "BLK_C_2011": "01348", "DIST_NAME": "BANKA", "code2011": 0.0, "Shape_Leng": 0.19621261693, "Shape_Area": 0.00118223484, "Area": 13.2204}, "geometry": {"type": "MultiPolygon", "coordinates": [[[[87.06852115200007, 24.920407057000034], [87.06894738900007, 24.91918661400007], [87.07042832200005, 24.919193823000057], [87.07073587200006, 24.918804499000032], [87.07017346100008, 24.91755420900006], [87.07037007100007, 24.916644485000063], [87.07337259200006, 24.915906518000043], [87.07833576700006, 24.914928450000048], [87.07860973900006, 24.91243889900005], [87.07697664800008, 24.91116269300005], [87.07647466800006, 24.906532025000047], [87.07985820800008, 24.905251056000054], [87.07954298000004, 24.90699184400006], [87.08298836100005, 24.90683378600005], [87.08336607200005, 24.907717181000066], [87.08556100700008, 24.908742352000047], [87.08880933000006, 24.90799269400003], [87.09170119300006, 24.908235196000078], [87.09330119300006, 24.908912257000054], [87.09378729400004, 24.908777305000058], [87.09427320000003, 24.908642405000023], [87.09454685000009, 24.906152819000056], [87.09640875400004, 24.90561686500007], [87.09915237600006, 24.90466509500004], [87.10283880400004, 24.902919218000022], [87.10447527900004, 24.90276887300007], [87.10387956900007, 24.900919789000056], [87.10316454000008, 24.898400641000023], [87.10227379900005, 24.897165649000044], [87.10331617400004, 24.890737573000024], [87.10393778900004, 24.88732761400007], [87.10419930400008, 24.88589300600006], [87.10448797300006, 24.882946867000044], [87.10385195900005, 24.881118248000064], [87.10341825900008, 24.878917139000066], [87.10266604200007, 24.878249565000033], [87.10183763000003, 24.876788817000033], [87.10121208800007, 24.87532555000007], [87.09911819300004, 24.874615995000056], [87.09754375600005, 24.874558817000036], [87.09744922200008, 24.87552105700007], [87.09587091100008, 24.876203936000024], [87.09463457500004, 24.876255249000053], [87.09456652000006, 24.876671233000025], [87.09493881100008, 24.877081813000075], [87.09510950000004, 24.877576047000048], [87.09550294100006, 24.878415008000047], [87.09593199100004, 24.879307636000078], [87.09658137900004, 24.881045889000063], [87.09710753200005, 24.88215388800006], [87.09704044900008, 24.882633060000046], [87.09583547600005, 24.88280138300007], [87.09383301800005, 24.882925426000043], [87.09295081000005, 24.88350031600004], [87.09220564500004, 24.88364038000003], [87.09091971400005, 24.884355666000033], [87.09025466500003, 24.884896320000053], [87.08951836900007, 24.885636392000038], [87.08830031300005, 24.88692831900005], [87.08585228400005, 24.889052178000043], [87.08532845200006, 24.889153629000077], [87.08526182000008, 24.888610484000026], [87.08521906700008, 24.88806280700004], [87.08464931300006, 24.888020108000035], [87.08389658700008, 24.88866107900003], [87.08347628600006, 24.88868433300007], [87.08288925000005, 24.88847493800006], [87.08189859500004, 24.888085518000025], [87.08115128600008, 24.88808109400003], [87.08065013800007, 24.888664879000032], [87.08010938100006, 24.888906113000075], [87.07970733500008, 24.888829801000043], [87.07914897400008, 24.88821848500004], [87.07853192100004, 24.886980581000046], [87.07853669500008, 24.886299190000045], [87.07836090300003, 24.885452975000078], [87.07807826900006, 24.88474356300003], [87.07709147300005, 24.884606680000047], [87.07629114100007, 24.884697669000047], [87.07526543800003, 24.88494941600004], [87.07583182600007, 24.88610669800005], [87.07358475400008, 24.887099744000068], [87.07309856400008, 24.887353938000047], [87.07277317600006, 24.888788248000026], [87.07231752400008, 24.89010694600006], [87.07105163500006, 24.890853400000026], [87.06891397200008, 24.89189021100003], [87.06780797900007, 24.892070644000057], [87.06574023600007, 24.892808787000035], [87.06376837400006, 24.893681052000034], [87.06222924500008, 24.894363060000046], [87.06094304000004, 24.89507809400004], [87.05908110900003, 24.896030250000024], [87.05840377700008, 24.895740646000036], [87.05767688000003, 24.895780983000066], [87.05666722900008, 24.896461119000037], [87.05654701000003, 24.89704463700008], [87.05687026300006, 24.89918414300007], [87.05479884400006, 24.899687440000037], [87.05337987900003, 24.89979035700003], [87.05300933200004, 24.901198188000023], [87.05312850600006, 24.902929567000058], [87.05323774600004, 24.903970559000072], [87.05201063400006, 24.904680320000068], [87.05202325100004, 24.905546542000025], [87.05232763300006, 24.907111748000034], [87.05373893000007, 24.908848698000043], [87.05582664700006, 24.907927594000057], [87.05702834400006, 24.907347272000038], [87.05712712700006, 24.909144192000042], [87.05808750300008, 24.91165228500006], [87.05855150800005, 24.914107948000037], [87.05857292000007, 24.91898578400003], [87.06050939000005, 24.919797944000038], [87.06416871900007, 24.920531254000025], [87.06852115200007, 24.920407057000034]]]]}}, {"type": "Feature", "properties": {"OBJECTID": 1243, "GPCODE": "91600", "GPNAME_1": "AHIRO", "DIST_CEN_C": null, "BLK_NAME": "DHURAIYA", "ST_NAME": "BIHAR", "ST_CODE_1": null, "GPCODE2011": "94160", "REMARKS": "FINALIZED", "MAP_STATUS": "COMPLETED", "BLK_C_2001": "230004", "BLK_C_2011": "01348", "DIST_NAME": "BANKA", "code2011": 0.0, "Shape_Leng": 0.20116385935, "Shape_Area": 0.00087479928, "Area": 9.78027}, "geometry": {"type": "MultiPolygon", "coordinates": [[[[87.14269618500003, 24.933431077000023], [87.14719635000006, 24.932997631000035], [87.15002362900003, 24.933096514000056], [87.14876349600007, 24.931113457000038], [87.14811306500008, 24.929212404000054], [87.14793927200003, 24.92717903700003], [87.14747329100004, 24.923227654000073], [87.14811319500006, 24.92323609500005], [87.14237135000008, 24.923160066000037], [87.13958611100009, 24.923363933000076], [87.13730431200008, 24.922269319000065], [87.13387521800007, 24.922727850000058], [87.13243781100005, 24.920543990000056], [87.13142006100009, 24.919990948000077], [87.12858179000006, 24.920722099000045], [87.12724004700004, 24.92025902100005], [87.12820170500004, 24.916839252000045], [87.12714681500006, 24.91411099100003], [87.12627372000009, 24.914676607000047], [87.12271865700006, 24.915816267000025], [87.11880960500008, 24.91502100400004], [87.11590662900005, 24.91605540000006], [87.11382699500007, 24.915625945000045], [87.11247447700003, 24.910510060000036], [87.11215048300005, 24.910600077000026], [87.11182659200006, 24.91069006400005], [87.11021105900005, 24.911214762000043], [87.11110176200003, 24.912449527000035], [87.10831390400006, 24.91407881300006], [87.10468836500007, 24.91394550700005], [87.10471322400008, 24.914394636000054], [87.10494768600006, 24.915659635000054], [87.10431308300008, 24.917564963000075], [87.10172557400006, 24.918359476000035], [87.09945367000006, 24.91891415500004], [87.09967640800005, 24.921455481000066], [87.10117448900007, 24.923262693000027], [87.10292768600004, 24.926709178000067], [87.10377778600008, 24.928696329000047], [87.10248768600007, 24.93213266500004], [87.10259749100004, 24.934230100000036], [87.10362768100003, 24.935008306000043], [87.10622430600006, 24.934363422000047], [87.10753711900009, 24.934302991000038], [87.10885261900006, 24.93874595500006], [87.11036042900008, 24.942204296000057], [87.11143311800004, 24.945232392000037], [87.11699961000005, 24.943249499000046], [87.11956310400006, 24.942005410000036], [87.11895028400005, 24.939856974000065], [87.11755022200003, 24.938345250000054], [87.11596123100009, 24.936391859000025], [87.11844667800005, 24.935226498000077], [87.11881543200008, 24.934458920000054], [87.12016047300006, 24.933496167000044], [87.12104638200003, 24.933155096000064], [87.12025706700007, 24.930789524000033], [87.11953008200004, 24.929547077000052], [87.12180977400004, 24.92764046900004], [87.12370927400008, 24.927778015000058], [87.12561709400006, 24.928065307000054], [87.12557553000005, 24.927316645000076], [87.12693266200006, 24.92657384100005], [87.12849678700007, 24.928076805000046], [87.12708637600008, 24.92934204000005], [87.12863391500008, 24.930545739000024], [87.12889769500003, 24.932333734000053], [87.12814373900005, 24.933568661000038], [87.13044740100008, 24.936537604000023], [87.13183314500003, 24.940748937000023], [87.13376696300008, 24.94150004900007], [87.13399054100006, 24.944041664000054], [87.13474688800005, 24.945808175000025], [87.13597067800004, 24.947102716000074], [87.13890515800006, 24.94809298200005], [87.13930165900007, 24.94634822000006], [87.13820869400007, 24.944447230000037], [87.13965954600008, 24.942428626000037], [87.14067912700006, 24.940054614000076], [87.14057915000006, 24.938257770000064], [87.14057118600005, 24.933679527000038], [87.14269618500003, 24.933431077000023]]]]}}, {"type": "Feature", "properties": {"OBJECTID": 1244, "GPCODE": "91612", "GPNAME_1": "LOGAIN", "DIST_CEN_C": null, "BLK_NAME": "DHURAIYA", "ST_NAME": "BIHAR", "ST_CODE_1": null, "GPCODE2011": "94172", "REMARKS": "FINALIZED", "MAP_STATUS": "COMPLETED", "BLK_C_2001": "230004", "BLK_C_2011": "01348", "DIST_NAME": "BANKA", "code2011": 0.0, "Shape_Leng": 0.24923514696, "Shape_Area": 0.00145108284, "Area": 16.2233}, "geometry": {"type": "MultiPolygon", "coordinates": [[[[87.05528186800007, 24.94205721800006], [87.05796399000008, 24.941897488000052], [87.06132756800008, 24.940599473000077], [87.06260003100004, 24.939944273000037], [87.06419086800008, 24.94012017800003], [87.06598555600004, 24.940038057000038], [87.06865298600007, 24.93897082500007], [87.06925692600004, 24.940037631000052], [87.06858033500004, 24.941610746000038], [87.06842285600004, 24.94271241100006], [87.06912468300004, 24.94357573600007], [87.06990010900006, 24.944783915000073], [87.07087048800008, 24.94491553000006], [87.07512388900005, 24.94299466800004], [87.07685696600004, 24.946355681000057], [87.07805695300004, 24.948340365000035], [87.07912118400003, 24.950828718000025], [87.07971511200003, 24.95368685400007], [87.08504407700008, 24.95219424000004], [87.08689179600003, 24.95417135100007], [87.08795407900004, 24.95451912200008], [87.09035991300004, 24.954012146000025], [87.09064125900005, 24.95280964600005], [87.09171157900005, 24.951729541000077], [87.09240518900003, 24.951697685000056], [87.09295374300007, 24.952187897000044], [87.09003756800007, 24.939008649000073], [87.08886592600004, 24.936647691000076], [87.08877897600007, 24.935073491000026], [87.08766659200006, 24.932559928000046], [87.08670560300004, 24.930828597000072], [87.08708824900003, 24.929923217000066], [87.08691983600005, 24.926873181000076], [87.08571054500004, 24.924561393000033], [87.08563993500007, 24.923282313000072], [87.08557475600009, 24.922101609000038], [87.08436616400007, 24.921762572000034], [87.08438172300004, 24.920084941000027], [87.08373445700005, 24.920114643000034], [87.08349688500005, 24.919731040000045], [87.08226197000005, 24.920872676000045], [87.08210513400007, 24.919992146000027], [87.08145786900008, 24.92002183900007], [87.08074061700006, 24.920745212000043], [87.07942417300006, 24.920411084000023], [87.07928308300006, 24.917852913000047], [87.07833576700006, 24.914928450000048], [87.07337259200006, 24.915906518000043], [87.07037007100007, 24.916644485000063], [87.07017346100008, 24.91755420900006], [87.07073587200006, 24.918804499000032], [87.07042832200005, 24.919193823000057], [87.06894738900007, 24.91918661400007], [87.06852115200007, 24.920407057000034], [87.06416871900007, 24.920531254000025], [87.06050939000005, 24.919797944000038], [87.05857292000007, 24.91898578400003], [87.05855150800005, 24.914107948000037], [87.05808750300008, 24.91165228500006], [87.05712712700006, 24.909144192000042], [87.05702834400006, 24.907347272000038], [87.05582664700006, 24.907927594000057], [87.05373893000007, 24.908848698000043], [87.05232763300006, 24.907111748000034], [87.05202325100004, 24.905546542000025], [87.05201063400006, 24.904680320000068], [87.05323774600004, 24.903970559000072], [87.05312850600006, 24.902929567000058], [87.05300933200004, 24.901198188000023], [87.05337987900003, 24.89979035700003], [87.05329349400006, 24.898961147000023], [87.05266519600008, 24.897272018000024], [87.05209306800003, 24.89400746700005], [87.05195598900008, 24.893427044000077], [87.05143384600007, 24.892571470000064], [87.05079573500007, 24.89123442300007], [87.05027514700004, 24.889462842000057], [87.04845140300006, 24.889286304000052], [87.04716811200007, 24.887821641000073], [87.04578642000007, 24.887752547000048], [87.04464572400008, 24.888267146000032], [87.04509217600008, 24.889024345000053], [87.04493348300008, 24.889342122000073], [87.04364014800007, 24.889574254000024], [87.04303861400007, 24.88938297800007], [87.04313089200008, 24.888235721000058], [87.04212810400008, 24.888365082000064], [87.04146236500009, 24.888869413000066], [87.04110597300007, 24.889555037000036], [87.04047561000004, 24.890113147000022], [87.03992638800008, 24.89114860500007], [87.04026924700008, 24.892272598000034], [87.04114470600007, 24.894635622000067], [87.04135322000008, 24.895364142000062], [87.04259553600008, 24.898106305000056], [87.04298505000008, 24.89971704900006], [87.04357608200007, 24.901569030000076], [87.04366270000008, 24.90276830600004], [87.04320625000008, 24.903721373000053], [87.04321323200008, 24.904204134000054], [87.04347504200007, 24.904846247000023], [87.04426498800007, 24.90505335200004], [87.04590632000009, 24.90663101100006], [87.04617170900008, 24.907525787000054], [87.04601422100006, 24.90792480400006], [87.04494228200008, 24.908073092000052], [87.04450881400004, 24.908561113000076], [87.04405463700004, 24.908647836000057], [87.04334164300008, 24.908290847000046], [87.04295689500003, 24.908381219000034], [87.04243317300006, 24.90878458900005], [87.04218789200007, 24.909283927000047], [87.04282477900006, 24.910539760000063], [87.04264765900007, 24.91095699600004], [87.04273585400006, 24.91192161600003], [87.04310737900005, 24.912282665000077], [87.04394190300007, 24.91317055500008], [87.04484305800008, 24.915235487000075], [87.04548827600007, 24.91672126800006], [87.04438459400006, 24.917415922000032], [87.04271419300005, 24.917950418000032], [87.04151709100006, 24.918348369000057], [87.04162351300005, 24.919890353000028], [87.04169675400004, 24.92050318500003], [87.04184634800004, 24.92160685400006], [87.04273486300008, 24.92245357400003], [87.04275163000005, 24.92361759100004], [87.04365174100008, 24.925262819000068], [87.04500812300006, 24.926288838000062], [87.04544420700006, 24.928368345000024], [87.04769281100005, 24.930484669000066], [87.04905691000005, 24.931695569000055], [87.04934380400005, 24.933041272000025], [87.04896431000003, 24.93451694600003], [87.04762855000007, 24.935264054000072], [87.04522451400004, 24.93642783000007], [87.04522452300006, 24.936427861000027], [87.04556863800008, 24.93758825900005], [87.04838031100007, 24.937161478000064], [87.05076266300006, 24.938843606000034], [87.05374617100006, 24.941543006000074], [87.05437717200004, 24.94211108500008], [87.05528186800007, 24.94205721800006]]]]}}, {"type": "Feature", "properties": {"OBJECTID": 1245, "GPCODE": "91604", "GPNAME_1": "CHANDADIH", "DIST_CEN_C": null, "BLK_NAME": "DHURAIYA", "ST_NAME": "BIHAR", "ST_CODE_1": null, "GPCODE2011": "94164", "REMARKS": "FINALIZED", "MAP_STATUS": "COMPLETED", "BLK_C_2001": "230004", "BLK_C_2011": "01348", "DIST_NAME": "BANKA", "code2011": 0.0, "Shape_Leng": 0.23205675587, "Shape_Area": 0.00128028815, "Area": 14.3111}, "geometry": {"type": "MultiPolygon", "coordinates": [[[[87.05263542100005, 24.968954737000047], [87.05637504600008, 24.96754025300004], [87.05779542600004, 24.970559667000032], [87.05857340300008, 24.970822562000023], [87.06040114800004, 24.970341113000075], [87.06076004900007, 24.969926711000028], [87.06186987700005, 24.97027396200008], [87.06460871800004, 24.96950193600003], [87.06593318600005, 24.968794670000023], [87.06580220400008, 24.96740767800003], [87.06541844600008, 24.966380565000065], [87.06629401500004, 24.965445059000047], [87.06710457500003, 24.965308424000057], [87.06802407000004, 24.96616188200005], [87.06832310400006, 24.965650654000058], [87.06883705200005, 24.965079907000074], [87.06974288500004, 24.96568521000006], [87.07075217900007, 24.966186225000058], [87.07144834700006, 24.965955351000048], [87.07176104200005, 24.96569226200006], [87.07198655900004, 24.964836260000027], [87.07099891500008, 24.963737265000077], [87.07092508600005, 24.962397519000035], [87.07106912100005, 24.962042607000058], [87.07146601900007, 24.961327984000036], [87.07231449900007, 24.96089113000005], [87.07222174900005, 24.96019892700008], [87.07181642200004, 24.959769811000058], [87.07020367800004, 24.96019188200006], [87.07024414300008, 24.958946355000023], [87.06969205200005, 24.958822405000035], [87.06903135500005, 24.95969832700007], [87.06797595800003, 24.959348637000062], [87.06801644500007, 24.958103110000025], [87.06797271500005, 24.957309208000027], [87.06861700300004, 24.95613549600006], [87.06835836900007, 24.95540111100007], [87.06782785300004, 24.954679170000077], [87.06611161800004, 24.954210488000058], [87.06600261000006, 24.953220480000027], [87.06518667600005, 24.95222982100006], [87.06573214400004, 24.95167957500007], [87.06537882000003, 24.949744552000027], [87.06818861200009, 24.948490355000047], [87.06978828900003, 24.947666655000035], [87.07125274700007, 24.947374420000074], [87.07082552000008, 24.945592936000025], [87.07087048800008, 24.94491553000006], [87.06990010900006, 24.944783915000073], [87.06912468300004, 24.94357573600007], [87.06842285600004, 24.94271241100006], [87.06858033500004, 24.941610746000038], [87.06925692600004, 24.940037631000052], [87.06865298600007, 24.93897082500007], [87.06598555600004, 24.940038057000038], [87.06419086800008, 24.94012017800003], [87.06260003100004, 24.939944273000037], [87.06132756800008, 24.940599473000077], [87.05796399000008, 24.941897488000052], [87.05528186800007, 24.94205721800006], [87.05437717200004, 24.94211108500008], [87.05374617100006, 24.941543006000074], [87.05076266300006, 24.938843606000034], [87.04838031100007, 24.937161478000064], [87.04556863800008, 24.93758825900005], [87.04522452300006, 24.936427861000027], [87.04522451400004, 24.93642783000007], [87.04762855000007, 24.935264054000072], [87.04896431000003, 24.93451694600003], [87.04934380400005, 24.933041272000025], [87.04905691000005, 24.931695569000055], [87.04769281100005, 24.930484669000066], [87.04544420700006, 24.928368345000024], [87.04500812300006, 24.926288838000062], [87.04365174100008, 24.925262819000068], [87.04275163000005, 24.92361759100004], [87.04273486300008, 24.92245357400003], [87.04184634800004, 24.92160685400006], [87.04169675400004, 24.92050318500003], [87.04162351300005, 24.919890353000028], [87.04151709100006, 24.918348369000057], [87.04014478800008, 24.916902832000062], [87.03807232100007, 24.917013463000046], [87.03651199800004, 24.91762776400003], [87.03463620900004, 24.918679034000036], [87.03176581900004, 24.919412796000074], [87.03071135500005, 24.919754759000057], [87.03073571700008, 24.92007035300003], [87.03228589200006, 24.921500308000077], [87.03209750900004, 24.923546720000047], [87.03221953300005, 24.924456706000058], [87.03251612800005, 24.92476911500006], [87.03313071000008, 24.92448193100006], [87.03401655600004, 24.923771943000077], [87.03501136600005, 24.923412583000072], [87.03547003200003, 24.923637228000075], [87.03569803600004, 24.924000042000046], [87.03585645700008, 24.92503141700007], [87.03548369400005, 24.92561802800003], [87.03548966600005, 24.92603308300005], [87.03575810900008, 24.926792421000073], [87.03606642800008, 24.927921394000066], [87.03654024200006, 24.92919269500004], [87.03737437900008, 24.93245424400004], [87.03804880600006, 24.93492799300003], [87.03683864200008, 24.935804310000037], [87.03493756200004, 24.936837913000033], [87.03267178400006, 24.937645600000053], [87.03073506200008, 24.93861643500003], [87.03247371200007, 24.94216650100003], [87.03469292900007, 24.943641263000075], [87.03612638600003, 24.942716912000037], [87.03975926300006, 24.94603687600005], [87.04037465900007, 24.94675925400003], [87.04099009800007, 24.947481674000073], [87.04265984500006, 24.949431637000032], [87.03942308700005, 24.948903890000054], [87.03715847800004, 24.948106600000074], [87.03499660300008, 24.94767982700006], [87.03336798000004, 24.947979100000055], [87.03262960100005, 24.948012730000073], [87.03374132700003, 24.950288398000055], [87.03408176200008, 24.951998884000034], [87.03169421900003, 24.95345838700007], [87.02993086000004, 24.95430221600003], [87.03141099200008, 24.961801020000053], [87.03269511700006, 24.964218983000023], [87.03299060300003, 24.966606841000043], [87.03416420800005, 24.967260061000047], [87.03560576100006, 24.967691839000054], [87.03571182400003, 24.968632214000024], [87.03678084400008, 24.971220041000038], [87.03758600300006, 24.97197933700005], [87.04357539600005, 24.970810862000064], [87.04738993200004, 24.970029450000027], [87.05263542100005, 24.968954737000047]]]]}}, {"type": "Feature", "properties": {"OBJECTID": 1247, "GPCODE": "91610", "GPNAME_1": "KHAROUNDHA JHOTHA", "DIST_CEN_C": null, "BLK_NAME": "DHURAIYA", "ST_NAME": "BIHAR", "ST_CODE_1": null, "GPCODE2011": "94170", "REMARKS": "FINALIZED", "MAP_STATUS": "COMPLETED", "BLK_C_2001": "230004", "BLK_C_2011": "01348", "DIST_NAME": "BANKA", "code2011": 0.0, "Shape_Leng": 0.25603027003, "Shape_Area": 0.0013039476, "Area": 14.5726}, "geometry": {"type": "MultiPolygon", "coordinates": [[[[87.06282008200003, 25.001166999000077], [87.06424314600008, 25.00050116500006], [87.06622685400004, 24.999872994000043], [87.06764123500005, 24.998813313000028], [87.06785043500008, 24.99765963300007], [87.06764893300004, 24.996972414000027], [87.06694408900006, 24.99605945600007], [87.06910134000003, 24.995612529000027], [87.07016765200007, 24.995165736000047], [87.07079352100004, 24.995634532000054], [87.07256709300003, 24.995155346000047], [87.07271151200007, 24.99579549400005], [87.07334833800007, 24.996462775000055], [87.07358016900008, 24.997925042000077], [87.07501671200004, 24.998256970000057], [87.07852367400005, 24.99854370500003], [87.07972037900004, 24.997494620000055], [87.08001362700008, 24.995890406000058], [87.08081615800006, 24.99560503600003], [87.08124077700006, 24.996381005000046], [87.08286841600005, 24.995568925000043], [87.08209797400008, 24.994642078000027], [87.08205222200007, 24.99381334800006], [87.08267766700004, 24.99211416600008], [87.08379906200008, 24.991581979000046], [87.08381285400003, 24.990095550000035], [87.08475500700007, 24.989790112000037], [87.08610832500005, 24.989116202000048], [87.08729968400007, 24.989061540000023], [87.08859537900008, 24.989002086000028], [87.09184283800005, 24.988765641000043], [87.09323418500009, 24.98691473300005], [87.09232318800008, 24.986164168000073], [87.09116952700003, 24.98574162400007], [87.09131990200007, 24.982168603000048], [87.09041705500005, 24.97999111200005], [87.08983989500007, 24.978987404000065], [87.08892084800004, 24.979663638000034], [87.08753391300007, 24.981312179000042], [87.08654070600005, 24.980644529000074], [87.08486237800008, 24.98016683700007], [87.08448057600003, 24.979550394000057], [87.08427161400004, 24.977341041000045], [87.08304465800006, 24.975588909000066], [87.08314390600003, 24.97423625500005], [87.08398918400007, 24.97380096300003], [87.08400604600007, 24.97253135400007], [87.08457808600008, 24.971870696000053], [87.08540160800004, 24.971039962000077], [87.08581772900004, 24.970703615000048], [87.08522750200007, 24.969461856000066], [87.08420817000007, 24.968319138000027], [87.08365727200004, 24.96778925600006], [87.08354433400007, 24.967318645000034], [87.08670182700007, 24.96647189600003], [87.08701307700005, 24.964237186000048], [87.08757195800007, 24.963339219000034], [87.08892871100005, 24.962721791000035], [87.08996057900004, 24.962515884000027], [87.09107032700007, 24.96214767300006], [87.09143831600005, 24.960941198000057], [87.09153299300004, 24.959509467000032], [87.09253411700007, 24.95874970500006], [87.09380053000007, 24.959643217000064], [87.09653148800004, 24.95872468700003], [87.09656572400007, 24.957771523000076], [87.09517321900006, 24.956170132000068], [87.09666832000005, 24.954911847000062], [87.09836310500003, 24.954120255000078], [87.09927742500008, 24.95336452600003], [87.09923803600003, 24.95265254900005], [87.09841831700004, 24.951976538000054], [87.09813629700005, 24.95159295600007], [87.09785430500006, 24.95120940700008], [87.09713882400007, 24.950845765000054], [87.09550903700006, 24.951237924000054], [87.09350244800004, 24.952678237000043], [87.09295374300007, 24.952187897000044], [87.09240518900003, 24.951697685000056], [87.09171157900005, 24.951729541000077], [87.09064125900005, 24.95280964600005], [87.09035991300004, 24.954012146000025], [87.08795407900004, 24.95451912200008], [87.08689179600003, 24.95417135100007], [87.08504407700008, 24.95219424000004], [87.07971511200003, 24.95368685400007], [87.07912118400003, 24.950828718000025], [87.07805695300004, 24.948340365000035], [87.07685696600004, 24.946355681000057], [87.07512388900005, 24.94299466800004], [87.07087048800008, 24.94491553000006], [87.07082552000008, 24.945592936000025], [87.07125274700007, 24.947374420000074], [87.06978828900003, 24.947666655000035], [87.06818861200009, 24.948490355000047], [87.06537882000003, 24.949744552000027], [87.06573214400004, 24.95167957500007], [87.06518667600005, 24.95222982100006], [87.06600261000006, 24.953220480000027], [87.06611161800004, 24.954210488000058], [87.06782785300004, 24.954679170000077], [87.06835836900007, 24.95540111100007], [87.06861700300004, 24.95613549600006], [87.06797271500005, 24.957309208000027], [87.06801644500007, 24.958103110000025], [87.06797595800003, 24.959348637000062], [87.06903135500005, 24.95969832700007], [87.06969205200005, 24.958822405000035], [87.07024414300008, 24.958946355000023], [87.07020367800004, 24.96019188200006], [87.07181642200004, 24.959769811000058], [87.07222174900005, 24.96019892700008], [87.07231449900007, 24.96089113000005], [87.07146601900007, 24.961327984000036], [87.07106912100005, 24.962042607000058], [87.07092508600005, 24.962397519000035], [87.07099891500008, 24.963737265000077], [87.07198655900004, 24.964836260000027], [87.07176104200005, 24.96569226200006], [87.07144834700006, 24.965955351000048], [87.07075217900007, 24.966186225000058], [87.06974288500004, 24.96568521000006], [87.06883705200005, 24.965079907000074], [87.06832310400006, 24.965650654000058], [87.06802407000004, 24.96616188200005], [87.06710457500003, 24.965308424000057], [87.06629401500004, 24.965445059000047], [87.06541844600008, 24.966380565000065], [87.06580220400008, 24.96740767800003], [87.06593318600005, 24.968794670000023], [87.06460871800004, 24.96950193600003], [87.06186987700005, 24.97027396200008], [87.06076004900007, 24.969926711000028], [87.06040114800004, 24.970341113000075], [87.05857340300008, 24.970822562000023], [87.05779542600004, 24.970559667000032], [87.05987133500008, 24.97606583000004], [87.06050566200008, 24.978673379000043], [87.06056599300007, 24.980760038000028], [87.06049851700004, 24.98349920800007], [87.06000133100008, 24.98635746700006], [87.06104939200009, 24.98954308100008], [87.06089998700008, 24.99079365600005], [87.05896921300007, 24.990902181000024], [87.05594689700007, 24.991488031000074], [87.05466296900005, 24.991944572000023], [87.05413277800005, 24.994207410000058], [87.05270196500004, 24.994969179000066], [87.05243826300006, 24.996125414000062], [87.05276490600005, 24.997105474000023], [87.05298269600007, 24.99809041000003], [87.05325487100004, 24.99907295500003], [87.05426971900005, 24.999673277000056], [87.05394527800007, 25.000501029000077], [87.05390417500007, 25.00059959200007], [87.05342366700006, 25.000577476000046], [87.05448633500004, 25.00082048400003], [87.05489139100007, 25.00147510100004], [87.05481795000009, 25.00237591000007], [87.05565863900006, 25.003122801000075], [87.05695344200007, 25.004297717000043], [87.05836478700007, 25.005355035000036], [87.05937116500007, 25.005757824000057], [87.06016597500007, 25.006111592000025], [87.06090437000006, 25.006626322000045], [87.06190404100005, 25.007179267000026], [87.06373474900005, 25.006455912000035], [87.06306172300003, 25.00414114800003], [87.06240852700006, 25.003602416000035], [87.06229571500006, 25.002967915000056], [87.06184845400008, 25.001922233000073], [87.06182503400004, 25.001496834000022], [87.06282008200003, 25.001166999000077]]]]}}, {"type": "Feature", "properties": {"OBJECTID": 1252, "GPCODE": "91611", "GPNAME_1": "KURMA", "DIST_CEN_C": null, "BLK_NAME": "DHURAIYA", "ST_NAME": "BIHAR", "ST_CODE_1": null, "GPCODE2011": "94171", "REMARKS": "FINALIZED", "MAP_STATUS": "COMPLETED", "BLK_C_2001": "230004", "BLK_C_2011": "01348", "DIST_NAME": "BANKA", "code2011": 0.0, "Shape_Leng": 0.13672970363, "Shape_Area": 0.00071445333, "Area": 7.98408}, "geometry": {"type": "MultiPolygon", "coordinates": [[[[87.15164445200008, 24.996679871000026], [87.15153533300008, 24.99442511600006], [87.15174180500009, 24.99335759300004], [87.15259589500005, 24.99188475300008], [87.15308550100008, 24.99055192900005], [87.15291539000003, 24.989155269000037], [87.15289597800006, 24.987896619000026], [87.15316868000008, 24.986629785000048], [87.15278669300005, 24.985303586000043], [87.15315667000004, 24.98359773900006], [87.15312832000006, 24.981761663000043], [87.15441264300006, 24.97800462400005], [87.15423926300008, 24.975430403000075], [87.15364284200007, 24.97401209700007], [87.15319298900005, 24.973417764000033], [87.15244708400007, 24.972578961000067], [87.15243482700004, 24.971780472000034], [87.15282286700005, 24.970611431000066], [87.15237446700007, 24.968825769000034], [87.15154484800007, 24.967045040000073], [87.15059569500005, 24.965865931000053], [87.14988468600006, 24.963420378000023], [87.14673959700008, 24.96431165000007], [87.14346748100007, 24.96424238000003], [87.14044291400006, 24.967385678000028], [87.14032895600008, 24.969963206000045], [87.13846789000007, 24.972301876000074], [87.13509006300006, 24.972018219000063], [87.13332639200007, 24.97359855800005], [87.13453679100007, 24.976066681000077], [87.13429591100004, 24.977654063000045], [87.13322946700004, 24.978453917000024], [87.13216307400006, 24.97925370100006], [87.13170924100007, 24.981451416000027], [87.12856517900008, 24.981146203000037], [87.12285599100005, 24.980583917000047], [87.12262317200003, 24.982321048000074], [87.12333586300008, 24.983531405000065], [87.12405804500008, 24.984546376000026], [87.12524471300009, 24.986553539000056], [87.12660796000006, 24.987391356000046], [87.12808552400008, 24.98732317500003], [87.12979683100008, 24.987019013000065], [87.13020838600005, 24.98850114000004], [87.13106359900007, 24.990563287000043], [87.13203737700007, 24.99179427300004], [87.13147225100005, 24.993471729000078], [87.13088213400005, 24.994699887000024], [87.12961143200005, 24.997010313000033], [87.13062860100007, 25.00050222400006], [87.13083016100006, 25.002022977000024], [87.13296748100004, 25.00121346900005], [87.13439406700007, 25.00050229200008], [87.13513705600008, 25.00016426700006], [87.13633071100008, 24.999371564000057], [87.13814617500003, 24.998202997000078], [87.13969238400006, 24.99732890100006], [87.14128598400004, 24.99645259600004], [87.14217049700005, 24.995505551000065], [87.14325742900007, 24.996290376000047], [87.14415469000005, 24.99762815400004], [87.14405349000003, 24.998366161000035], [87.14493278700007, 24.999210351000045], [87.14716756500007, 25.00050255600007], [87.14823070900007, 25.003777571000057], [87.15172236600006, 25.00050273200003], [87.15170275600008, 25.00046483600005], [87.15073547700007, 24.99941681300004], [87.15108250400004, 24.99814894800005], [87.15136348000004, 24.997414410000033], [87.15164445200008, 24.996679871000026]]]]}}, {"type": "Feature", "properties": {"OBJECTID": 1254, "GPCODE": "91607", "GPNAME_1": "JAIPUR", "DIST_CEN_C": null, "BLK_NAME": "DHURAIYA", "ST_NAME": "BIHAR", "ST_CODE_1": null, "GPCODE2011": "94167", "REMARKS": "FINALIZED", "MAP_STATUS": "COMPLETED", "BLK_C_2001": "230004", "BLK_C_2011": "01348", "DIST_NAME": "BANKA", "code2011": 0.0, "Shape_Leng": 0.17641354817, "Shape_Area": 0.00117216492, "Area": 13.0996}, "geometry": {"type": "MultiPolygon", "coordinates": [[[[87.11104626700006, 24.99755968900007], [87.11339646300007, 24.997017352000057], [87.11521530500005, 24.997194062000062], [87.11755586100008, 24.996478361000072], [87.12279724100006, 24.994847454000023], [87.13147225100005, 24.993471729000078], [87.13203737700007, 24.99179427300004], [87.13106359900007, 24.990563287000043], [87.13020838600005, 24.98850114000004], [87.12979683100008, 24.987019013000065], [87.12808552400008, 24.98732317500003], [87.12660796000006, 24.987391356000046], [87.12524471300009, 24.986553539000056], [87.12405804500008, 24.984546376000026], [87.12333586300008, 24.983531405000065], [87.12262317200003, 24.982321048000074], [87.12285599100005, 24.980583917000047], [87.12127045500006, 24.97870554900004], [87.11715846600003, 24.972815376000028], [87.11433177000004, 24.967841727000064], [87.11155292100005, 24.966693673000066], [87.10948364400008, 24.964987522000058], [87.10624550900008, 24.96446111800003], [87.10621565000008, 24.962435888000073], [87.10497216600004, 24.954837214000065], [87.10294212700006, 24.94937624800008], [87.10185498900006, 24.949677333000068], [87.10067177900004, 24.950286814000037], [87.09813629700005, 24.95159295600007], [87.09841831700004, 24.951976538000054], [87.09923803600003, 24.95265254900005], [87.09927742500008, 24.95336452600003], [87.09836310500003, 24.954120255000078], [87.09666832000005, 24.954911847000062], [87.09517321900006, 24.956170132000068], [87.09656572400007, 24.957771523000076], [87.09653148800004, 24.95872468700003], [87.09380053000007, 24.959643217000064], [87.09253411700007, 24.95874970500006], [87.09153299300004, 24.959509467000032], [87.09143831600005, 24.960941198000057], [87.09107032700007, 24.96214767300006], [87.08996057900004, 24.962515884000027], [87.08892871100005, 24.962721791000035], [87.08757195800007, 24.963339219000034], [87.08701307700005, 24.964237186000048], [87.08670182700007, 24.96647189600003], [87.08354433400007, 24.967318645000034], [87.08365727200004, 24.96778925600006], [87.08420817000007, 24.968319138000027], [87.08522750200007, 24.969461856000066], [87.08581772900004, 24.970703615000048], [87.08540160800004, 24.971039962000077], [87.08457808600008, 24.971870696000053], [87.08400604600007, 24.97253135400007], [87.08398918400007, 24.97380096300003], [87.08314390600003, 24.97423625500005], [87.08304465800006, 24.975588909000066], [87.08427161400004, 24.977341041000045], [87.08448057600003, 24.979550394000057], [87.08486237800008, 24.98016683700007], [87.08654070600005, 24.980644529000074], [87.08753391300007, 24.981312179000042], [87.08892084800004, 24.979663638000034], [87.08983989500007, 24.978987404000065], [87.09041705500005, 24.97999111200005], [87.09131990200007, 24.982168603000048], [87.09116952700003, 24.98574162400007], [87.09232318800008, 24.986164168000073], [87.09323418500009, 24.98691473300005], [87.09184283800005, 24.988765641000043], [87.09368438300004, 24.989118063000035], [87.09386625800005, 24.989371954000035], [87.09404811200005, 24.989625814000078], [87.09414453400007, 24.991369416000055], [87.09454644100003, 24.99170056300005], [87.09576110400008, 24.991120314000057], [87.09666979000008, 24.991078568000034], [87.09687194500003, 24.993866221000076], [87.09881611900005, 24.993470969000043], [87.09991859700006, 24.99346398800003], [87.10145145400008, 24.992791184000055], [87.10477053800008, 24.99255173100005], [87.10595630200004, 24.99848852300005], [87.11104626700006, 24.99755968900007]]]]}}, {"type": "Feature", "properties": {"OBJECTID": 1262, "GPCODE": "91613", "GPNAME_1": "MAHILA BISANPUR", "DIST_CEN_C": null, "BLK_NAME": "DHURAIYA", "ST_NAME": "BIHAR", "ST_CODE_1": null, "GPCODE2011": "94173", "REMARKS": "FINALIZED", "MAP_STATUS": "COMPLETED", "BLK_C_2001": "230004", "BLK_C_2011": "01348", "DIST_NAME": "BANKA", "code2011": 0.0, "Shape_Leng": 0.1560499619, "Shape_Area": 0.00062964983, "Area": 7.03445}, "geometry": {"type": "MultiPolygon", "coordinates": [[[[87.12026494500003, 25.033535485000073], [87.11933082900003, 25.03215698100007], [87.11976201800007, 25.028689841000073], [87.12004545200006, 25.028179243000068], [87.12084963600006, 25.027218171000072], [87.12188604800008, 25.024824839000075], [87.12238700100005, 25.02401995300005], [87.12234368900005, 25.02324006400005], [87.12224822200005, 25.02292460900003], [87.12215276900008, 25.022609198000055], [87.12338648200006, 25.021663886000056], [87.12300703300008, 25.021148262000054], [87.12175902200005, 25.02113473000003], [87.12069808600006, 25.02168117000008], [87.12024241400007, 25.020493900000076], [87.11899441000008, 25.020480346000056], [87.11914806100003, 25.01763015800003], [87.11854470600008, 25.016591816000073], [87.11640428100009, 25.015944022000042], [87.11498021100005, 25.014161673000046], [87.11368125200005, 25.013226410000073], [87.11260666000004, 25.01071703200006], [87.11247150200006, 25.008981910000045], [87.11281941800007, 25.00893036000008], [87.11277915900007, 25.006799923000074], [87.11306958500006, 25.005009579000046], [87.11371035100007, 25.003913926000052], [87.11549843400007, 25.00383157600004], [87.11713488400005, 25.003827255000033], [87.11886495700008, 25.00410295200004], [87.11968857600004, 25.00349638800003], [87.11945834600004, 25.002156499000023], [87.11973395500007, 25.001504124000064], [87.12144028500006, 25.001354407000065], [87.12049282300006, 25.00050217200004], [87.11755586100008, 24.996478361000072], [87.11521530500005, 24.997194062000062], [87.11339646300007, 24.997017352000057], [87.11104626700006, 24.99755968900007], [87.10595630200004, 24.99848852300005], [87.10190685400005, 25.000501859000053], [87.10156135400007, 25.001274468000076], [87.10055926300004, 25.00288421600004], [87.10066522800008, 25.00479843900007], [87.10182506500007, 25.007446010000024], [87.10210935200007, 25.008356955000068], [87.10132084200006, 25.009601470000064], [87.10043974600006, 25.011987531000045], [87.10088022100007, 25.014312845000063], [87.10111109100006, 25.017074172000036], [87.10138745400008, 25.017843536000044], [87.10239110700007, 25.019076728000073], [87.10175027000008, 25.020172321000075], [87.10193716000003, 25.020732330000044], [87.10245475600004, 25.021632546000035], [87.10343685400005, 25.02247582600006], [87.10434716300006, 25.02342904300008], [87.10417671500005, 25.024574078000057], [87.10398270500008, 25.025293816000044], [87.10284386300003, 25.02584370900007], [87.10346667000005, 25.027236618000074], [87.10326086800006, 25.02774361400003], [87.10298914600008, 25.028466829000024], [87.10379813300005, 25.028998235000074], [87.10415232600008, 25.029763830000036], [87.10488831400005, 25.031791189000046], [87.10025024000004, 25.032501918000037], [87.09786958400008, 25.033305273000053], [87.09500800500007, 25.034270837000065], [87.09577574700006, 25.034685146000072], [87.09540390500007, 25.035457550000046], [87.09528030100006, 25.036434325000073], [87.09530114700004, 25.036811078000028], [87.09588475600003, 25.038139724000075], [87.09903775500004, 25.037355155000057], [87.10560434900003, 25.036271551000027], [87.10808053800008, 25.035233637000033], [87.11055664200006, 25.034195732000057], [87.11201055700008, 25.033702348000077], [87.11359232900008, 25.032705529000054], [87.11422229400006, 25.032818744000053], [87.11488765300004, 25.033569897000064], [87.11580993200005, 25.034735780000062], [87.11671638500007, 25.035618042000067], [87.11754121100006, 25.036432902000058], [87.11810620500006, 25.03818382700007], [87.11959556000005, 25.038328403000037], [87.12051585000006, 25.036651266000035], [87.12181714200005, 25.03481434100007], [87.12026494500003, 25.033535485000073]]]]}}, {"type": "Feature", "properties": {"OBJECTID": 1265, "GPCODE": "91617", "GPNAME_1": "SAINCHAK", "DIST_CEN_C": null, "BLK_NAME": "DHURAIYA", "ST_NAME": "BIHAR", "ST_CODE_1": null, "GPCODE2011": "94177", "REMARKS": "FINALIZED", "MAP_STATUS": "COMPLETED", "BLK_C_2001": "230004", "BLK_C_2011": "01348", "DIST_NAME": "BANKA", "code2011": 0.0, "Shape_Leng": 0.24663317484, "Shape_Area": 0.00143679133, "Area": 16.0527}, "geometry": {"type": "MultiPolygon", "coordinates": [[[[87.10298914600008, 25.028466829000024], [87.10326086800006, 25.02774361400003], [87.10346667000005, 25.027236618000074], [87.10284386300003, 25.02584370900007], [87.10398270500008, 25.025293816000044], [87.10417671500005, 25.024574078000057], [87.10434716300006, 25.02342904300008], [87.10343685400005, 25.02247582600006], [87.10245475600004, 25.021632546000035], [87.10193716000003, 25.020732330000044], [87.10175027000008, 25.020172321000075], [87.10239110700007, 25.019076728000073], [87.10138745400008, 25.017843536000044], [87.10111109100006, 25.017074172000036], [87.10088022100007, 25.014312845000063], [87.10043974600006, 25.011987531000045], [87.10132084200006, 25.009601470000064], [87.10210935200007, 25.008356955000068], [87.10182506500007, 25.007446010000024], [87.10066522800008, 25.00479843900007], [87.10055926300004, 25.00288421600004], [87.10156135400007, 25.001274468000076], [87.10190685400005, 25.000501859000053], [87.10595630200004, 24.99848852300005], [87.10477053800008, 24.99255173100005], [87.10145145400008, 24.992791184000055], [87.09991859700006, 24.99346398800003], [87.09881611900005, 24.993470969000043], [87.09687194500003, 24.993866221000076], [87.09666979000008, 24.991078568000034], [87.09576110400008, 24.991120314000057], [87.09454644100003, 24.99170056300005], [87.09414453400007, 24.991369416000055], [87.09404811200005, 24.989625814000078], [87.09386625800005, 24.989371954000035], [87.09368438300004, 24.989118063000035], [87.09184283800005, 24.988765641000043], [87.08859537900008, 24.989002086000028], [87.08729968400007, 24.989061540000023], [87.08610832500005, 24.989116202000048], [87.08475500700007, 24.989790112000037], [87.08381285400003, 24.990095550000035], [87.08379906200008, 24.991581979000046], [87.08267766700004, 24.99211416600008], [87.08205222200007, 24.99381334800006], [87.08209797400008, 24.994642078000027], [87.08286841600005, 24.995568925000043], [87.08124077700006, 24.996381005000046], [87.08081615800006, 24.99560503600003], [87.08001362700008, 24.995890406000058], [87.07972037900004, 24.997494620000055], [87.07852367400005, 24.99854370500003], [87.07501671200004, 24.998256970000057], [87.07358016900008, 24.997925042000077], [87.07334833800007, 24.996462775000055], [87.07271151200007, 24.99579549400005], [87.07256709300003, 24.995155346000047], [87.07079352100004, 24.995634532000054], [87.07016765200007, 24.995165736000047], [87.06910134000003, 24.995612529000027], [87.06694408900006, 24.99605945600007], [87.06764893300004, 24.996972414000027], [87.06785043500008, 24.99765963300007], [87.06764123500005, 24.998813313000028], [87.06622685400004, 24.999872994000043], [87.06424314600008, 25.00050116500006], [87.06282008200003, 25.001166999000077], [87.06182503400004, 25.001496834000022], [87.06184845400008, 25.001922233000073], [87.06229571500006, 25.002967915000056], [87.06240852700006, 25.003602416000035], [87.06306172300003, 25.00414114800003], [87.06373474900005, 25.006455912000035], [87.06190404100005, 25.007179267000026], [87.06090437000006, 25.006626322000045], [87.06016597500007, 25.006111592000025], [87.05937116500007, 25.005757824000057], [87.05940195500006, 25.00631726900008], [87.05880990300005, 25.006736965000073], [87.05811364100003, 25.00749802300004], [87.05838065800003, 25.007878465000033], [87.05891151500003, 25.00858336300007], [87.06023053500007, 25.007962237000072], [87.06088700600003, 25.007595631000072], [87.06144225800006, 25.00762638300006], [87.06189946900008, 25.00811029700003], [87.06705128800007, 25.01118415800005], [87.06750544700003, 25.011612064000076], [87.06709752700004, 25.01202336700004], [87.06580584200003, 25.012026409000043], [87.06433917800007, 25.011083764000034], [87.06271306200006, 25.010597260000054], [87.06206581900005, 25.011131660000046], [87.06153392200008, 25.012642390000053], [87.05898485300008, 25.014385576000052], [87.05806154300006, 25.015493513000024], [87.05969411400008, 25.017213824000066], [87.05973556600009, 25.017408251000063], [87.05977701800003, 25.01760267700007], [87.05891489900006, 25.017586030000075], [87.05846382300007, 25.017213998000045], [87.05630984300007, 25.016078338000057], [87.05507648300005, 25.016022493000037], [87.05323879900004, 25.016162438000038], [87.05090400100005, 25.016212971000073], [87.05152423800007, 25.019662287000074], [87.05188952600008, 25.020711363000032], [87.05232829000005, 25.02085963600007], [87.05266271700003, 25.021349179000026], [87.05298042200008, 25.02209193500005], [87.05329813100008, 25.022834690000025], [87.05422163300005, 25.02284856800003], [87.05505979700007, 25.025783200000035], [87.05563513000004, 25.026177587000063], [87.05588084400006, 25.02728815100005], [87.05691191300008, 25.02813850900003], [87.05740293600007, 25.028677021000078], [87.05789396400007, 25.029215531000034], [87.05931790900007, 25.030496604000064], [87.05993804300005, 25.031702317000054], [87.06101204500004, 25.03221418000004], [87.06335329300003, 25.032275382000023], [87.06677751500007, 25.031894477000037], [87.06860008900009, 25.03147460300005], [87.06969871000007, 25.029815625000026], [87.06829832400007, 25.027036648000035], [87.06844164300009, 25.025395380000077], [87.06845692000007, 25.024257499000043], [87.06784428100008, 25.02304179400005], [87.06815490900004, 25.02160605800003], [87.06995061000003, 25.020244496000032], [87.07192570800004, 25.020722698000043], [87.07370232300008, 25.020428180000067], [87.07436696600007, 25.019758093000064], [87.07664868700004, 25.01872959900004], [87.07741837800006, 25.018552125000042], [87.07801521400006, 25.018773552000027], [87.07861204500006, 25.018994973000076], [87.07928104200005, 25.019817259000035], [87.08073931800004, 25.02081656100006], [87.08224449800008, 25.02266663900008], [87.08247839100005, 25.02407745000005], [87.08328778500004, 25.02603047200006], [87.08343606300008, 25.02730298800003], [87.08639084300006, 25.027167500000076], [87.08683773800004, 25.02679168900005], [87.08964935600005, 25.02829742700004], [87.09026751600004, 25.028198], [87.09177829900005, 25.02873302200004], [87.09400587500005, 25.028133233000062], [87.09542858900005, 25.029528061000065], [87.09578052200004, 25.030537105000064], [87.09560429800007, 25.032703721000075], [87.09582616700004, 25.03350296600007], [87.09500793600006, 25.03427079900007], [87.09500800500007, 25.034270837000065], [87.09786958400008, 25.033305273000053], [87.10025024000004, 25.032501918000037], [87.10488831400005, 25.031791189000046], [87.10415232600008, 25.029763830000036], [87.10379813300005, 25.028998235000074], [87.10298914600008, 25.028466829000024]]]]}}, {"type": "Feature", "properties": {"OBJECTID": 1275, "GPCODE": "91608", "GPNAME_1": "KARHARIYA", "DIST_CEN_C": null, "BLK_NAME": "DHURAIYA", "ST_NAME": "BIHAR", "ST_CODE_1": null, "GPCODE2011": "94168", "REMARKS": "FINALIZED", "MAP_STATUS": "COMPLETED", "BLK_C_2001": "230004", "BLK_C_2011": "01348", "DIST_NAME": "BANKA", "code2011": 0.0, "Shape_Leng": 0.16298671736, "Shape_Area": 0.00087564644, "Area": 9.78325}, "geometry": {"type": "MultiPolygon", "coordinates": [[[[87.14823070900007, 25.003777571000057], [87.14716756500007, 25.00050255600007], [87.14493278700007, 24.999210351000045], [87.14405349000003, 24.998366161000035], [87.14415469000005, 24.99762815400004], [87.14325742900007, 24.996290376000047], [87.14217049700005, 24.995505551000065], [87.14128598400004, 24.99645259600004], [87.13969238400006, 24.99732890100006], [87.13814617500003, 24.998202997000078], [87.13633071100008, 24.999371564000057], [87.13513705600008, 25.00016426700006], [87.13439406700007, 25.00050229200008], [87.13296748100004, 25.00121346900005], [87.13083016100006, 25.002022977000024], [87.13062860100007, 25.00050222400006], [87.12961143200005, 24.997010313000033], [87.13088213400005, 24.994699887000024], [87.13147225100005, 24.993471729000078], [87.12279724100006, 24.994847454000023], [87.11755586100008, 24.996478361000072], [87.12049282300006, 25.00050217200004], [87.12144028500006, 25.001354407000065], [87.11973395500007, 25.001504124000064], [87.11945834600004, 25.002156499000023], [87.11968857600004, 25.00349638800003], [87.11886495700008, 25.00410295200004], [87.11713488400005, 25.003827255000033], [87.11549843400007, 25.00383157600004], [87.11371035100007, 25.003913926000052], [87.11306958500006, 25.005009579000046], [87.11277915900007, 25.006799923000074], [87.11281941800007, 25.00893036000008], [87.11247150200006, 25.008981910000045], [87.11260666000004, 25.01071703200006], [87.11368125200005, 25.013226410000073], [87.11498021100005, 25.014161673000046], [87.11640428100009, 25.015944022000042], [87.11854470600008, 25.016591816000073], [87.11914806100003, 25.01763015800003], [87.11899441000008, 25.020480346000056], [87.12024241400007, 25.020493900000076], [87.12069808600006, 25.02168117000008], [87.12175902200005, 25.02113473000003], [87.12300703300008, 25.021148262000054], [87.12338648200006, 25.021663886000056], [87.12376582900004, 25.022179421000033], [87.12514570700006, 25.02176047200004], [87.12525894800007, 25.022394917000042], [87.12562506500007, 25.02337311200006], [87.12672155000007, 25.02346466700004], [87.12715255200004, 25.022805118000065], [87.12800393500004, 25.022694778000073], [87.12832672600007, 25.02289307800004], [87.12835936800008, 25.02488173100005], [87.13475775500007, 25.023591318000058], [87.13640453600004, 25.02759283200004], [87.13824175600007, 25.027753048000022], [87.13813253600006, 25.028689669000073], [87.13884807000005, 25.02801924700003], [87.14151080000005, 25.027552951000075], [87.14235342600006, 25.028200403000028], [87.14400248600003, 25.027879081000037], [87.14425336300008, 25.02803904800004], [87.14450427200006, 25.028199033000078], [87.14454322000006, 25.02986415400005], [87.14542412400004, 25.031196220000027], [87.14611524700007, 25.031053929000052], [87.14680636800006, 25.030911634000063], [87.15068334500006, 25.029129177000073], [87.15456026900006, 25.02734659600003], [87.15170578800007, 25.02630208200003], [87.15034855500005, 25.026070778000076], [87.14957414400004, 25.023753192000072], [87.14816704500004, 25.021661108000046], [87.14665901100005, 25.020652276000078], [87.14578372700004, 25.019314699000063], [87.14619957000008, 25.019082179000065], [87.14667137300006, 25.01635943900004], [87.14685600800004, 25.01407636700003], [87.14631443400003, 25.01275100500004], [87.14535264400007, 25.010876374000077], [87.14544887100004, 25.009805766000056], [87.14625538300004, 25.007493923000027], [87.14873399700008, 25.005815538000036], [87.14892377600006, 25.005024856000034], [87.14823070900007, 25.003777571000057]]]]}}, {"type": "Feature", "properties": {"OBJECTID": 1280, "GPCODE": "91618", "GPNAME_1": "SIJHAT BALIYAS", "DIST_CEN_C": null, "BLK_NAME": "DHURAIYA", "ST_NAME": "BIHAR", "ST_CODE_1": null, "GPCODE2011": "94178", "REMARKS": "FINALIZED", "MAP_STATUS": "COMPLETED", "BLK_C_2001": "230004", "BLK_C_2011": "01348", "DIST_NAME": "BANKA", "code2011": 0.0, "Shape_Leng": 0.17515575837, "Shape_Area": 0.00103921123, "Area": 11.608}, "geometry": {"type": "MultiPolygon", "coordinates": [[[[87.08320290600005, 25.060314912000024], [87.08511269100006, 25.059835199000076], [87.08555546000008, 25.06006006800004], [87.08617803200008, 25.060619835000068], [87.08708463200009, 25.06048019800005], [87.08805844600005, 25.060582641000053], [87.08904078100005, 25.060224394000045], [87.08990370200007, 25.059909693000066], [87.09051392400005, 25.059759115000077], [87.09112414400005, 25.059608534000063], [87.09265954600005, 25.058540652000033], [87.09376554100004, 25.057771418000073], [87.09358520200004, 25.05645596900007], [87.09390841100009, 25.056465651000053], [87.09423162100006, 25.056475332000048], [87.09522932900006, 25.05603726000004], [87.09718718200008, 25.05545711800005], [87.09824930100007, 25.055212296000036], [87.10065260900006, 25.054905758000075], [87.10234497200008, 25.054386780000073], [87.10169923700005, 25.053411443000073], [87.10143002300003, 25.05146273300005], [87.10037981800008, 25.049625306000053], [87.10037980100003, 25.04962527600003], [87.10094340600006, 25.049244], [87.10923086200006, 25.04402987700007], [87.11254242800004, 25.041887362000068], [87.11387928800008, 25.040688631000023], [87.11537260000006, 25.04090412900007], [87.11690034100008, 25.040336241000034], [87.11766027200008, 25.039981409000063], [87.11842019900007, 25.039626574000067], [87.12013097300007, 25.039547755000058], [87.11959556000005, 25.038328403000037], [87.11810620500006, 25.03818382700007], [87.11754121100006, 25.036432902000058], [87.11671638500007, 25.035618042000067], [87.11580993200005, 25.034735780000062], [87.11488765300004, 25.033569897000064], [87.11422229400006, 25.032818744000053], [87.11359232900008, 25.032705529000054], [87.11201055700008, 25.033702348000077], [87.11055664200006, 25.034195732000057], [87.10808053800008, 25.035233637000033], [87.10560434900003, 25.036271551000027], [87.09903775500004, 25.037355155000057], [87.09588475600003, 25.038139724000075], [87.09530114700004, 25.036811078000028], [87.09528030100006, 25.036434325000073], [87.09540390500007, 25.035457550000046], [87.09577574700006, 25.034685146000072], [87.09500800500007, 25.034270837000065], [87.09500793600006, 25.03427079900007], [87.09582616700004, 25.03350296600007], [87.09560429800007, 25.032703721000075], [87.09578052200004, 25.030537105000064], [87.09542858900005, 25.029528061000065], [87.09400587500005, 25.028133233000062], [87.09177829900005, 25.02873302200004], [87.09026751600004, 25.028198], [87.08964935600005, 25.02829742700004], [87.08683773800004, 25.02679168900005], [87.08639084300006, 25.027167500000076], [87.08343606300008, 25.02730298800003], [87.08328778500004, 25.02603047200006], [87.08247839100005, 25.02407745000005], [87.08224449800008, 25.02266663900008], [87.08073931800004, 25.02081656100006], [87.07928104200005, 25.019817259000035], [87.07861204500006, 25.018994973000076], [87.07801521400006, 25.018773552000027], [87.07741837800006, 25.018552125000042], [87.07664868700004, 25.01872959900004], [87.07436696600007, 25.019758093000064], [87.07370232300008, 25.020428180000067], [87.07192570800004, 25.020722698000043], [87.06995061000003, 25.020244496000032], [87.06815490900004, 25.02160605800003], [87.06784428100008, 25.02304179400005], [87.06845692000007, 25.024257499000043], [87.06844164300009, 25.025395380000077], [87.06829832400007, 25.027036648000035], [87.06969871000007, 25.029815625000026], [87.06860008900009, 25.03147460300005], [87.06850822000007, 25.032039654000073], [87.06886124600004, 25.032864913000026], [87.06980652000004, 25.033270436000066], [87.07057062000007, 25.033740283000043], [87.07105891100008, 25.034783687000072], [87.07183572300005, 25.03659916400005], [87.07261538100005, 25.037348758000064], [87.07186230400004, 25.038196522000078], [87.07159862300006, 25.038993866000055], [87.07224005100005, 25.039469319000034], [87.07341537600007, 25.039583823000044], [87.07371470300006, 25.039990790000047], [87.07401408200008, 25.040397824000024], [87.07481566200005, 25.042660828000066], [87.07456443700005, 25.04368194400007], [87.07375759500007, 25.044672455000068], [87.07421817400007, 25.045212309000078], [87.07461102300005, 25.045643093000024], [87.07490595200005, 25.046527035000054], [87.07615505200005, 25.04686248200005], [87.07711578700008, 25.047547632000033], [87.07743853500006, 25.04893519500007], [87.07757246800008, 25.050247161000073], [87.07778475600009, 25.051864118000026], [87.07843244900005, 25.05245142900003], [87.07845097900008, 25.052787086000023], [87.07822092900005, 25.053078086000028], [87.07799086800009, 25.05336909600004], [87.07796347800007, 25.053987325000037], [87.07821562100008, 25.055209817000048], [87.07753156300004, 25.05619471700004], [87.07796820600004, 25.058530537000024], [87.07844419200006, 25.059350047000066], [87.07829706200005, 25.060029889000077], [87.07876379200007, 25.060681615000078], [87.07946682300008, 25.06115421800007], [87.08320290600005, 25.060314912000024]]]]}}, {"type": "Feature", "properties": {"OBJECTID": 1284, "GPCODE": "91606", "GPNAME_1": "GHASIYA", "DIST_CEN_C": null, "BLK_NAME": "DHURAIYA", "ST_NAME": "BIHAR", "ST_CODE_1": null, "GPCODE2011": "94166", "REMARKS": "FINALIZED", "MAP_STATUS": "COMPLETED", "BLK_C_2001": "230004", "BLK_C_2011": "01348", "DIST_NAME": "BANKA", "code2011": 0.0, "Shape_Leng": 0.18309301982, "Shape_Area": 0.00088659167, "Area": 9.91006}, "geometry": {"type": "MultiPolygon", "coordinates": [[[[87.12346771600005, 24.957512680000036], [87.12570317400008, 24.95628363900005], [87.12924549200005, 24.95784655400007], [87.12922885000006, 24.95754702000005], [87.12959955500008, 24.953852073000064], [87.13086679000008, 24.952967863000026], [87.13290994300007, 24.95272343700003], [87.13142343300007, 24.95114079700005], [87.13285355700003, 24.948747894000064], [87.13260616000008, 24.94725807800006], [87.13304030200004, 24.946187235000025], [87.13474688800005, 24.945808175000025], [87.13399054100006, 24.944041664000054], [87.13376696300008, 24.94150004900007], [87.13183314500003, 24.940748937000023], [87.13044740100008, 24.936537604000023], [87.12814373900005, 24.933568661000038], [87.12889769500003, 24.932333734000053], [87.12863391500008, 24.930545739000024], [87.12708637600008, 24.92934204000005], [87.12849678700007, 24.928076805000046], [87.12693266200006, 24.92657384100005], [87.12557553000005, 24.927316645000076], [87.12561709400006, 24.928065307000054], [87.12370927400008, 24.927778015000058], [87.12180977400004, 24.92764046900004], [87.11953008200004, 24.929547077000052], [87.12025706700007, 24.930789524000033], [87.12104638200003, 24.933155096000064], [87.12016047300006, 24.933496167000044], [87.11881543200008, 24.934458920000054], [87.11844667800005, 24.935226498000077], [87.11596123100009, 24.936391859000025], [87.11755022200003, 24.938345250000054], [87.11895028400005, 24.939856974000065], [87.11956310400006, 24.942005410000036], [87.11699961000005, 24.943249499000046], [87.11143311800004, 24.945232392000037], [87.11036042900008, 24.942204296000057], [87.10657836500008, 24.943729682000026], [87.10187297100003, 24.944921928000042], [87.10294212700006, 24.94937624800008], [87.10497216600004, 24.954837214000065], [87.10621565000008, 24.962435888000073], [87.10624550900008, 24.96446111800003], [87.10948364400008, 24.964987522000058], [87.11155292100005, 24.966693673000066], [87.11433177000004, 24.967841727000064], [87.11715846600003, 24.972815376000028], [87.12127045500006, 24.97870554900004], [87.12285599100005, 24.980583917000047], [87.12856517900008, 24.981146203000037], [87.13170924100007, 24.981451416000027], [87.13216307400006, 24.97925370100006], [87.13322946700004, 24.978453917000024], [87.13429591100004, 24.977654063000045], [87.13453679100007, 24.976066681000077], [87.13332639200007, 24.97359855800005], [87.13040875600007, 24.97137859000003], [87.12840986200007, 24.97094538600004], [87.12318105400004, 24.970135870000036], [87.12299920100008, 24.968342825000036], [87.12236238200006, 24.967246299000067], [87.12216147600003, 24.96690035900008], [87.12417527300005, 24.965811603000077], [87.12197498700004, 24.958782462000045], [87.12346771600005, 24.957512680000036]]]]}}, {"type": "Feature", "properties": {"OBJECTID": 1296, "GPCODE": "91619", "GPNAME_1": "TAHIRPUR GOURA", "DIST_CEN_C": null, "BLK_NAME": "DHURAIYA", "ST_NAME": "BIHAR", "ST_CODE_1": null, "GPCODE2011": "94179", "REMARKS": "FINALIZED", "MAP_STATUS": "COMPLETED", "BLK_C_2001": "230004", "BLK_C_2011": "01348", "DIST_NAME": "BANKA", "code2011": 0.0, "Shape_Leng": 0.19297385221, "Shape_Area": 0.00092333524, "Area": 10.3135}, "geometry": {"type": "MultiPolygon", "coordinates": [[[[87.13338566900006, 25.061180069000045], [87.13408309000005, 25.061147878000043], [87.13450218900005, 25.061912989000064], [87.13513230900008, 25.061638729000038], [87.13730202000005, 25.060999260000074], [87.13702398000004, 25.05890389700005], [87.13630133400005, 25.05751554400007], [87.13567499300007, 25.055926512000042], [87.13554520300005, 25.05455981500006], [87.13689369400004, 25.053664052000045], [87.13687579500004, 25.05152109100004], [87.13824058300008, 25.050918769000077], [87.13855349100004, 25.049776703000077], [87.13965010900006, 25.049186753000072], [87.13896065400007, 25.047429115000057], [87.13795696100004, 25.04678917700005], [87.13862631200004, 25.045287400000063], [87.13877279700006, 25.044054948000053], [87.13968661900003, 25.043081160000042], [87.14178869200003, 25.042199650000043], [87.14286878300004, 25.04131622700004], [87.14320341800004, 25.040565326000035], [87.14425987500005, 25.04022236900005], [87.14528181500003, 25.040224152000064], [87.14615005300004, 25.03939953400004], [87.14702192000004, 25.039604110000028], [87.14694385500007, 25.03627388900003], [87.14654672400007, 25.033007363000024], [87.14611524700007, 25.031053929000052], [87.14542412400004, 25.031196220000027], [87.14454322000006, 25.02986415400005], [87.14450427200006, 25.028199033000078], [87.14425336300008, 25.02803904800004], [87.14400248600003, 25.027879081000037], [87.14235342600006, 25.028200403000028], [87.14151080000005, 25.027552951000075], [87.13884807000005, 25.02801924700003], [87.13813253600006, 25.028689669000073], [87.13824175600007, 25.027753048000022], [87.13640453600004, 25.02759283200004], [87.13475775500007, 25.023591318000058], [87.12835936800008, 25.02488173100005], [87.12832672600007, 25.02289307800004], [87.12800393500004, 25.022694778000073], [87.12715255200004, 25.022805118000065], [87.12672155000007, 25.02346466700004], [87.12562506500007, 25.02337311200006], [87.12525894800007, 25.022394917000042], [87.12514570700006, 25.02176047200004], [87.12376582900004, 25.022179421000033], [87.12338648200006, 25.021663886000056], [87.12215276900008, 25.022609198000055], [87.12224822200005, 25.02292460900003], [87.12234368900005, 25.02324006400005], [87.12238700100005, 25.02401995300005], [87.12188604800008, 25.024824839000075], [87.12084963600006, 25.027218171000072], [87.12004545200006, 25.028179243000068], [87.11976201800007, 25.028689841000073], [87.11933082900003, 25.03215698100007], [87.12026494500003, 25.033535485000073], [87.12181714200005, 25.03481434100007], [87.12051585000006, 25.036651266000035], [87.11959556000005, 25.038328403000037], [87.12013097300007, 25.039547755000058], [87.11842019900007, 25.039626574000067], [87.11766027200008, 25.039981409000063], [87.11690034100008, 25.040336241000034], [87.11537260000006, 25.04090412900007], [87.11387928800008, 25.040688631000023], [87.11254242800004, 25.041887362000068], [87.10923086200006, 25.04402987700007], [87.10094340600006, 25.049244], [87.10037980100003, 25.04962527600003], [87.10037981800008, 25.049625306000053], [87.10143002300003, 25.05146273300005], [87.10169923700005, 25.053411443000073], [87.10234497200008, 25.054386780000073], [87.10317722700006, 25.055819271000075], [87.10369933900006, 25.056506081000066], [87.10481158900006, 25.057165944000076], [87.10653784600004, 25.05725819500003], [87.10802910200005, 25.056993572000067], [87.10864714800005, 25.056499231000032], [87.11044342000008, 25.054945761000056], [87.11132283200004, 25.054316982000046], [87.11268641300006, 25.053690431000064], [87.11398271500008, 25.054758365000055], [87.11542905700009, 25.05562324500005], [87.11771187900007, 25.055567159000077], [87.11788331400004, 25.05526515100007], [87.11823432200003, 25.054807768000046], [87.11961562300007, 25.054498969000065], [87.12125149600007, 25.053933348000044], [87.12105458300005, 25.052324475000034], [87.12179885200004, 25.050231105000023], [87.12236448500005, 25.049763728000073], [87.12382980700005, 25.04903431500003], [87.12522995700004, 25.049067834000027], [87.12585742200008, 25.048744787000032], [87.12608659000006, 25.048513565000064], [87.12631575700004, 25.04828234200005], [87.12649769600006, 25.047685630000046], [87.12753522600008, 25.047000424000032], [87.12803977000004, 25.047369428000025], [87.12882071200005, 25.047872693000045], [87.12940875500004, 25.048777037000036], [87.12891043200005, 25.049486416000036], [87.12792919800006, 25.05021806800005], [87.12735270700006, 25.05048983000006], [87.12732901900006, 25.051030209000032], [87.12762717000004, 25.05155574500003], [87.12848812900006, 25.05156506800006], [87.12942383900008, 25.050982617000045], [87.12965686800004, 25.052271095000037], [87.12954755900006, 25.053207608000037], [87.12804076600008, 25.05415964100007], [87.12699851600007, 25.055727497000078], [87.12714344600005, 25.063172912000027], [87.12796536900004, 25.06634628300003], [87.13111643500008, 25.06497526000004], [87.13211670900006, 25.064585958000066], [87.13269049900003, 25.06415374900007], [87.13291524700008, 25.063359013000024], [87.13314532900006, 25.06266200600004], [87.13314188400005, 25.061632538000026], [87.13338566900006, 25.061180069000045]]]]}}, {"type": "Feature", "properties": {"OBJECTID": 1297, "GPCODE": "91601", "GPNAME_1": "BATSAR", "DIST_CEN_C": null, "BLK_NAME": "DHURAIYA", "ST_NAME": "BIHAR", "ST_CODE_1": null, "GPCODE2011": "94161", "REMARKS": "FINALIZED", "MAP_STATUS": "COMPLETED", "BLK_C_2001": "230004", "BLK_C_2011": "01348", "DIST_NAME": "BANKA", "code2011": 0.0, "Shape_Leng": 0.13795640967, "Shape_Area": 0.00074914654, "Area": 8.3676}, "geometry": {"type": "MultiPolygon", "coordinates": [[[[87.15965949900004, 25.063427544000035], [87.16235422000005, 25.062619704000042], [87.16384432700005, 25.06246529200007], [87.16489491900006, 25.061989656000037], [87.16532166100006, 25.061244119000037], [87.16560345100004, 25.06041995100003], [87.16574418500005, 25.058748543000036], [87.16584619000008, 25.058060734000037], [87.16608898800007, 25.05789302900007], [87.16732997800005, 25.058632333000048], [87.16962463000004, 25.05946503000007], [87.17089681600004, 25.058765694000044], [87.17363384100008, 25.058297180000068], [87.17422905300003, 25.057888976000072], [87.17546959900005, 25.057953879000024], [87.17584094300008, 25.057893962000037], [87.17561701800008, 25.056846533000055], [87.17542609100008, 25.055503585000054], [87.17506665800005, 25.05393792700005], [87.17400926400006, 25.052582458000074], [87.17285713500007, 25.051632466000058], [87.17301592700005, 25.04966534500005], [87.17245112200004, 25.048221700000056], [87.17198375600003, 25.04755754200005], [87.17131540800005, 25.047147610000025], [87.16827421700003, 25.047582645000034], [87.16718497800008, 25.04733923300006], [87.16655121400004, 25.046584707000022], [87.16637019700005, 25.045270256000038], [87.16761292200005, 25.043448824000052], [87.16803559600004, 25.042351362000034], [87.16768815200004, 25.04094665100007], [87.16597423200005, 25.039148236000074], [87.16396229500003, 25.038751172000048], [87.16303481300008, 25.036587946000054], [87.16236633100004, 25.03328498600007], [87.16066706900006, 25.03174585100004], [87.16004158200008, 25.031137468000054], [87.15919247000005, 25.029411813000024], [87.15814377700008, 25.02796509500007], [87.15456026900006, 25.02734659600003], [87.15068334500006, 25.029129177000073], [87.14680636800006, 25.030911634000063], [87.14611524700007, 25.031053929000052], [87.14654672400007, 25.033007363000024], [87.14694385500007, 25.03627388900003], [87.14702192000004, 25.039604110000028], [87.14615005300004, 25.03939953400004], [87.14528181500003, 25.040224152000064], [87.14425987500005, 25.04022236900005], [87.14320341800004, 25.040565326000035], [87.14286878300004, 25.04131622700004], [87.14178869200003, 25.042199650000043], [87.13968661900003, 25.043081160000042], [87.13877279700006, 25.044054948000053], [87.13862631200004, 25.045287400000063], [87.13795696100004, 25.04678917700005], [87.13896065400007, 25.047429115000057], [87.13965010900006, 25.049186753000072], [87.14030739200007, 25.049401559000046], [87.14089834800006, 25.05035476200004], [87.14122923600007, 25.05146708600006], [87.14135636600008, 25.05278496300008], [87.14207008000005, 25.05304609600006], [87.14319531500007, 25.052969572000052], [87.14455009900007, 25.05315211900006], [87.14513020100009, 25.053909671000042], [87.14581477100006, 25.054613447000065], [87.14641669600007, 25.05576226200003], [87.14703133800003, 25.056175151000048], [87.14792420800006, 25.055790614000045], [87.14887810600004, 25.054569843000024], [87.14927451100004, 25.05396318100003], [87.14888628500006, 25.051823886000022], [87.14958092900008, 25.05174280800003], [87.15051476900004, 25.05209178900003], [87.15191319400003, 25.053056625000067], [87.15214225900007, 25.054271710000023], [87.15204958300006, 25.055501685000024], [87.15194589600009, 25.05653612100008], [87.15167127900008, 25.05836283700006], [87.15256326100007, 25.059890393000046], [87.15306247100006, 25.060161496000035], [87.15363992600004, 25.06087010500005], [87.15348265500006, 25.061907020000035], [87.15257945500008, 25.063285845000053], [87.15331506400008, 25.063038334000055], [87.15440609500007, 25.063286650000066], [87.15639816800007, 25.06289560600004], [87.15747018800005, 25.062803289000044], [87.15840211200003, 25.062717361000068], [87.15852648500004, 25.06326665100005], [87.15965949900004, 25.063427544000035]]]]}}, {"type": "Feature", "properties": {"OBJECTID": 1310, "GPCODE": "91609", "GPNAME_1": "KATHBANGAON BIRBALPUR", "DIST_CEN_C": null, "BLK_NAME": "DHURAIYA", "ST_NAME": "BIHAR", "ST_CODE_1": null, "GPCODE2011": "94169", "REMARKS": "FINALIZED", "MAP_STATUS": "COMPLETED", "BLK_C_2001": "230004", "BLK_C_2011": "01348", "DIST_NAME": "BANKA", "code2011": 0.0, "Shape_Leng": 0.21983662999, "Shape_Area": 0.00101129516, "Area": 11.2936}, "geometry": {"type": "MultiPolygon", "coordinates": [[[[87.12468141600004, 25.087583616000074], [87.12575839800007, 25.087576650000074], [87.12622806300004, 25.08759767300006], [87.12735827900008, 25.086862600000075], [87.12818745000004, 25.086610905000043], [87.12899592800005, 25.086829759000068], [87.13018059400008, 25.087073932000067], [87.13113813500007, 25.086602838000033], [87.13212809600003, 25.085874197000066], [87.13321599000005, 25.084799545000067], [87.13413140000006, 25.084415723000063], [87.13451574100003, 25.082903928000064], [87.13482384400004, 25.082548130000077], [87.13594685200007, 25.081685205000042], [87.13652579300003, 25.08114620200007], [87.13692252400006, 25.080701050000073], [87.13698281100005, 25.080100643000037], [87.13692445900006, 25.077371167000024], [87.13687230800008, 25.076434463000055], [87.13767937300008, 25.07494571500007], [87.13788079700004, 25.074146707000068], [87.13808222100005, 25.073347698000077], [87.13856053000006, 25.072685215000035], [87.13927715000005, 25.07209716400007], [87.14011105000003, 25.071930621000035], [87.14041189700004, 25.071447120000073], [87.14052126700005, 25.070887114000072], [87.14026328500006, 25.06961833500003], [87.14009225600006, 25.069071283000028], [87.14043518800008, 25.06850048700005], [87.14062369000004, 25.067680685000028], [87.14070696700009, 25.06665227800005], [87.14123828300006, 25.065261681000038], [87.14168581200005, 25.06404565100007], [87.14223886200006, 25.063465140000062], [87.14337826000008, 25.062900201000048], [87.14449237700006, 25.06272067900005], [87.14720411300004, 25.062637976000076], [87.14989771200004, 25.06306834700007], [87.15063884400007, 25.063759808000043], [87.15122554000004, 25.064202270000067], [87.15173700500009, 25.06413592900003], [87.15226669400005, 25.06355646000003], [87.15257945500008, 25.063285845000053], [87.15348265500006, 25.061907020000035], [87.15363992600004, 25.06087010500005], [87.15306247100006, 25.060161496000035], [87.15256326100007, 25.059890393000046], [87.15167127900008, 25.05836283700006], [87.15194589600009, 25.05653612100008], [87.15204958300006, 25.055501685000024], [87.15214225900007, 25.054271710000023], [87.15191319400003, 25.053056625000067], [87.15051476900004, 25.05209178900003], [87.14958092900008, 25.05174280800003], [87.14888628500006, 25.051823886000022], [87.14927451100004, 25.05396318100003], [87.14887810600004, 25.054569843000024], [87.14792420800006, 25.055790614000045], [87.14703133800003, 25.056175151000048], [87.14641669600007, 25.05576226200003], [87.14581477100006, 25.054613447000065], [87.14513020100009, 25.053909671000042], [87.14455009900007, 25.05315211900006], [87.14319531500007, 25.052969572000052], [87.14207008000005, 25.05304609600006], [87.14135636600008, 25.05278496300008], [87.14122923600007, 25.05146708600006], [87.14089834800006, 25.05035476200004], [87.14030739200007, 25.049401559000046], [87.13965010900006, 25.049186753000072], [87.13855349100004, 25.049776703000077], [87.13824058300008, 25.050918769000077], [87.13687579500004, 25.05152109100004], [87.13689369400004, 25.053664052000045], [87.13554520300005, 25.05455981500006], [87.13567499300007, 25.055926512000042], [87.13630133400005, 25.05751554400007], [87.13702398000004, 25.05890389700005], [87.13730202000005, 25.060999260000074], [87.13513230900008, 25.061638729000038], [87.13450218900005, 25.061912989000064], [87.13408309000005, 25.061147878000043], [87.13338566900006, 25.061180069000045], [87.13314188400005, 25.061632538000026], [87.13314532900006, 25.06266200600004], [87.13291524700008, 25.063359013000024], [87.13269049900003, 25.06415374900007], [87.13211670900006, 25.064585958000066], [87.13111643500008, 25.06497526000004], [87.12796536900004, 25.06634628300003], [87.12714344600005, 25.063172912000027], [87.12699851600007, 25.055727497000078], [87.12804076600008, 25.05415964100007], [87.12954755900006, 25.053207608000037], [87.12965686800004, 25.052271095000037], [87.12942383900008, 25.050982617000045], [87.12848812900006, 25.05156506800006], [87.12762717000004, 25.05155574500003], [87.12732901900006, 25.051030209000032], [87.12735270700006, 25.05048983000006], [87.12792919800006, 25.05021806800005], [87.12891043200005, 25.049486416000036], [87.12940875500004, 25.048777037000036], [87.12882071200005, 25.047872693000045], [87.12803977000004, 25.047369428000025], [87.12753522600008, 25.047000424000032], [87.12649769600006, 25.047685630000046], [87.12631575700004, 25.04828234200005], [87.12608659000006, 25.048513565000064], [87.12585742200008, 25.048744787000032], [87.12522995700004, 25.049067834000027], [87.12382980700005, 25.04903431500003], [87.12236448500005, 25.049763728000073], [87.12179885200004, 25.050231105000023], [87.12105458300005, 25.052324475000034], [87.12125149600007, 25.053933348000044], [87.11961562300007, 25.054498969000065], [87.11823432200003, 25.054807768000046], [87.11788331400004, 25.05526515100007], [87.11771187900007, 25.055567159000077], [87.11542905700009, 25.05562324500005], [87.11398271500008, 25.054758365000055], [87.11268641300006, 25.053690431000064], [87.11132283200004, 25.054316982000046], [87.11044342000008, 25.054945761000056], [87.10864714800005, 25.056499231000032], [87.11194034400006, 25.059632446000023], [87.11147387900007, 25.059948114000065], [87.11435978400004, 25.063492291000045], [87.11327106900006, 25.06422878400008], [87.11361845300007, 25.065605653000034], [87.11083834600004, 25.066160601000036], [87.11030600200007, 25.06669745800008], [87.11082992500008, 25.067698180000036], [87.11012009000007, 25.068413989000078], [87.11104623500006, 25.06990857200003], [87.10689962000004, 25.07116678500006], [87.10720644600008, 25.072476391000066], [87.10751326300004, 25.07378592200007], [87.10771063500005, 25.075655606000055], [87.10800621200008, 25.077606212000035], [87.10941293600007, 25.077626958000053], [87.10965522400005, 25.07939899400003], [87.10998914300006, 25.080100611000034], [87.11074208300005, 25.080379625000035], [87.11134299100007, 25.080576043000065], [87.11136778800005, 25.081023024000046], [87.11120441600008, 25.08250928600006], [87.11161716200007, 25.083744890000048], [87.11240549200005, 25.085545899000067], [87.11597334300006, 25.085157640000034], [87.11714543800008, 25.085014001000047], [87.11860538600007, 25.08454824100005], [87.11801253100003, 25.085685708000028], [87.11619038700007, 25.090319557000043], [87.11781363400007, 25.090701069000033], [87.12015057100007, 25.090715113000044], [87.12214765800007, 25.090880636000065], [87.12296800200005, 25.08962622000007], [87.12388063000003, 25.088346254000044], [87.12445254800008, 25.087679512000022], [87.12468141600004, 25.087583616000074]]]]}}, {"type": "Feature", "properties": {"OBJECTID": 1311, "GPCODE": "91614", "GPNAME_1": "MAKAITA BABURA", "DIST_CEN_C": null, "BLK_NAME": "DHURAIYA", "ST_NAME": "BIHAR", "ST_CODE_1": null, "GPCODE2011": "94174", "REMARKS": "FINALIZED", "MAP_STATUS": "COMPLETED", "BLK_C_2001": "230004", "BLK_C_2011": "01348", "DIST_NAME": "BANKA", "code2011": 0.0, "Shape_Leng": 0.18411690535, "Shape_Area": 0.00127905022, "Area": 14.2829}, "geometry": {"type": "MultiPolygon", "coordinates": [[[[87.09442568100008, 25.095060792000027], [87.09554081900006, 25.09470546400007], [87.09792093700008, 25.09429205300006], [87.09979192100008, 25.094327801000077], [87.10123050800007, 25.094991692000065], [87.10144434800009, 25.096441706000064], [87.10474316700004, 25.095742667000025], [87.10894591800007, 25.09509323700007], [87.10911128500004, 25.093260808000025], [87.10876411500004, 25.08880599500003], [87.11456724300007, 25.089938046000043], [87.11619038700007, 25.090319557000043], [87.11801253100003, 25.085685708000028], [87.11860538600007, 25.08454824100005], [87.11714543800008, 25.085014001000047], [87.11597334300006, 25.085157640000034], [87.11240549200005, 25.085545899000067], [87.11161716200007, 25.083744890000048], [87.11120441600008, 25.08250928600006], [87.11136778800005, 25.081023024000046], [87.11134299100007, 25.080576043000065], [87.11074208300005, 25.080379625000035], [87.10998914300006, 25.080100611000034], [87.10965522400005, 25.07939899400003], [87.10941293600007, 25.077626958000053], [87.10800621200008, 25.077606212000035], [87.10771063500005, 25.075655606000055], [87.10751326300004, 25.07378592200007], [87.10720644600008, 25.072476391000066], [87.10689962000004, 25.07116678500006], [87.11104623500006, 25.06990857200003], [87.11012009000007, 25.068413989000078], [87.11082992500008, 25.067698180000036], [87.11030600200007, 25.06669745800008], [87.11083834600004, 25.066160601000036], [87.11361845300007, 25.065605653000034], [87.11327106900006, 25.06422878400008], [87.11435978400004, 25.063492291000045], [87.11147387900007, 25.059948114000065], [87.11194034400006, 25.059632446000023], [87.10864714800005, 25.056499231000032], [87.10802910200005, 25.056993572000067], [87.10653784600004, 25.05725819500003], [87.10481158900006, 25.057165944000076], [87.10369933900006, 25.056506081000066], [87.10317722700006, 25.055819271000075], [87.10234497200008, 25.054386780000073], [87.10065260900006, 25.054905758000075], [87.09824930100007, 25.055212296000036], [87.09718718200008, 25.05545711800005], [87.09522932900006, 25.05603726000004], [87.09423162100006, 25.056475332000048], [87.09390841100009, 25.056465651000053], [87.09358520200004, 25.05645596900007], [87.09376554100004, 25.057771418000073], [87.09265954600005, 25.058540652000033], [87.09112414400005, 25.059608534000063], [87.09051392400005, 25.059759115000077], [87.08990370200007, 25.059909693000066], [87.08904078100005, 25.060224394000045], [87.08805844600005, 25.060582641000053], [87.08708463200009, 25.06048019800005], [87.08617803200008, 25.060619835000068], [87.08555546000008, 25.06006006800004], [87.08511269100006, 25.059835199000076], [87.08320290600005, 25.060314912000024], [87.07946682300008, 25.06115421800007], [87.07931043200006, 25.061666278000075], [87.07897611300007, 25.06229856300007], [87.07842257900006, 25.063417671000025], [87.07807630400004, 25.064947939000035], [87.07766556700005, 25.06642511800004], [87.07758328800008, 25.068279889000053], [87.07672122200006, 25.06938509500003], [87.07582208400004, 25.069818892000058], [87.07455461500007, 25.07026954300005], [87.07414035700003, 25.070568969000078], [87.07372609800007, 25.07086839400006], [87.07256628400006, 25.07215549600005], [87.07215818800006, 25.07256680100005], [87.07227511600007, 25.073571051000044], [87.07232758900005, 25.074522212000034], [87.07130863700007, 25.075017500000058], [87.07054453500007, 25.075669512000047], [87.07012595900005, 25.07700673900007], [87.07008463800008, 25.077373150000028], [87.07004332300005, 25.077739652000048], [87.06985944000007, 25.078869918000066], [87.07153001300009, 25.08126145700004], [87.07292380400008, 25.081982951000043], [87.07240527100004, 25.082623641000055], [87.07299789600006, 25.08332575000003], [87.07298591200004, 25.08422372700005], [87.07326393400007, 25.084799859000043], [87.07452266700005, 25.085303186000033], [87.07474086800005, 25.08591016500003], [87.07475785100007, 25.08621787000004], [87.07610568300004, 25.08722199600004], [87.07655675700005, 25.086472124000068], [87.07699886600005, 25.086676311000076], [87.07772355600008, 25.087540562000072], [87.07895803400004, 25.08871805900003], [87.07966121900006, 25.08919065500004], [87.08048716900004, 25.08965762500003], [87.08157410100006, 25.09039309900004], [87.08328969900003, 25.089136608000047], [87.08403263800005, 25.089214732000073], [87.08518406000007, 25.090003357000057], [87.08559573900004, 25.09076975100004], [87.08596150800008, 25.091818712000077], [87.08472168900005, 25.092772963000073], [87.08453790800007, 25.09390314700005], [87.08446818100003, 25.095981661000053], [87.08446246500006, 25.096991608000053], [87.08409233100008, 25.09707897800007], [87.08452814100008, 25.097269707000066], [87.08694454000005, 25.096035721000078], [87.08974435500005, 25.093694054000025], [87.09209761500006, 25.092795323000075], [87.09344265000004, 25.092976934000035], [87.09442568100008, 25.095060792000027]]]]}}, {"type": "Feature", "properties": {"OBJECTID": 1326, "GPCODE": "91605", "GPNAME_1": "GACHIYA BASBITTA", "DIST_CEN_C": null, "BLK_NAME": "DHURAIYA", "ST_NAME": "BIHAR", "ST_CODE_1": null, "GPCODE2011": "94165", "REMARKS": "FINALIZED", "MAP_STATUS": "COMPLETED", "BLK_C_2001": "230004", "BLK_C_2011": "01348", "DIST_NAME": "BANKA", "code2011": 0.0, "Shape_Leng": 0.16178157884, "Shape_Area": 0.00068405741, "Area": 7.64621}, "geometry": {"type": "MultiPolygon", "coordinates": [[[[87.13332639200007, 24.97359855800005], [87.13509006300006, 24.972018219000063], [87.13846789000007, 24.972301876000074], [87.14032895600008, 24.969963206000045], [87.14044291400006, 24.967385678000028], [87.14346748100007, 24.96424238000003], [87.14673959700008, 24.96431165000007], [87.14988468600006, 24.963420378000023], [87.15199410000008, 24.96051460500007], [87.15156570200008, 24.958742296000025], [87.15036757000007, 24.956501527000057], [87.15026172400007, 24.956078004000062], [87.14990331200005, 24.954643860000033], [87.15008348700007, 24.94993534300005], [87.14998410000004, 24.94797376300005], [87.14704627400005, 24.944636071000048], [87.14619427900004, 24.941704983000022], [87.14703645900005, 24.93979457000006], [87.14877232500004, 24.936442447000047], [87.15273786600005, 24.935146501000077], [87.15402714300006, 24.933668091000072], [87.15444821200003, 24.932399322000038], [87.15362433200005, 24.930329718000053], [87.15253299400007, 24.92664366200006], [87.15149087500004, 24.925195005000035], [87.14875316200005, 24.92324453300006], [87.14875309900003, 24.92324453300006], [87.14811319500006, 24.92323609500005], [87.14747329100004, 24.923227654000073], [87.14793927200003, 24.92717903700003], [87.14811306500008, 24.929212404000054], [87.14876349600007, 24.931113457000038], [87.15002362900003, 24.933096514000056], [87.14719635000006, 24.932997631000035], [87.14269618500003, 24.933431077000023], [87.14057118600005, 24.933679527000038], [87.14057915000006, 24.938257770000064], [87.14067912700006, 24.940054614000076], [87.13965954600008, 24.942428626000037], [87.13820869400007, 24.944447230000037], [87.13930165900007, 24.94634822000006], [87.13890515800006, 24.94809298200005], [87.13597067800004, 24.947102716000074], [87.13474688800005, 24.945808175000025], [87.13304030200004, 24.946187235000025], [87.13260616000008, 24.94725807800006], [87.13285355700003, 24.948747894000064], [87.13142343300007, 24.95114079700005], [87.13290994300007, 24.95272343700003], [87.13086679000008, 24.952967863000026], [87.12959955500008, 24.953852073000064], [87.12922885000006, 24.95754702000005], [87.12924549200005, 24.95784655400007], [87.12570317400008, 24.95628363900005], [87.12346771600005, 24.957512680000036], [87.12197498700004, 24.958782462000045], [87.12417527300005, 24.965811603000077], [87.12216147600003, 24.96690035900008], [87.12236238200006, 24.967246299000067], [87.12299920100008, 24.968342825000036], [87.12318105400004, 24.970135870000036], [87.12840986200007, 24.97094538600004], [87.13040875600007, 24.97137859000003], [87.13332639200007, 24.97359855800005]]]]}}]}