{"type": "FeatureCollection", "features": [{"type": "Feature", "properties": {"OBJECTID": 1765, "GPCODE": "091842", "GPNAME_1": "BANK", "DIST_CEN_C": null, "BLK_NAME": "DANDARI", "ST_NAME": "BIHAR", "ST_CODE_1": null, "GPCODE2011": "94398", "REMARKS": null, "MAP_STATUS": null, "BLK_C_2001": "200014", "BLK_C_2011": "01317", "DIST_NAME": "BEGUSARAI", "code2011": 0.0, "Shape_Leng": 0.17721651592, "Shape_Area": 0.0008927515, "Area": 9.93721}, "geometry": {"type": "MultiPolygon", "coordinates": [[[[86.29723918700006, 25.505058602000076], [86.29676653300004, 25.503319909000027], [86.29718191000006, 25.501322237000068], [86.29674409900008, 25.50045498700007], [86.29723193000007, 25.500211699000033], [86.29947922800005, 25.500127932000055], [86.30150093300006, 25.500415797000073], [86.30210302100005, 25.500447629000064], [86.30253435800006, 25.500300123000045], [86.30330018500007, 25.499716921000072], [86.30376177000005, 25.49903663500004], [86.30634959000008, 25.49985902700007], [86.31008458900004, 25.50159619300007], [86.31441029000007, 25.502051275000042], [86.31810662300006, 25.502638800000057], [86.32261347600007, 25.504699352000046], [86.32454836400007, 25.50568092800006], [86.32623765800008, 25.507524899000032], [86.32705107000004, 25.508385416000067], [86.32933530800005, 25.50796245400005], [86.33108916700007, 25.50775548000007], [86.33175452000006, 25.507633166000062], [86.33318541500006, 25.507460167000033], [86.33419081600005, 25.507534003000046], [86.33488464800007, 25.502835305000076], [86.33499621000004, 25.50203311100006], [86.33271855000004, 25.50045012700008], [86.33226922500006, 25.500137835000032], [86.32928350700007, 25.49883755700006], [86.32845170700006, 25.498699217000024], [86.32814047200003, 25.498940746000073], [86.32780190700004, 25.50045045400003], [86.32764085300005, 25.500356976000035], [86.32729590200006, 25.500147369000047], [86.32658469400008, 25.499593047000076], [86.32619677200006, 25.499036227000033], [86.32594783200005, 25.497887281000033], [86.32588324100004, 25.49733717400005], [86.32564430300005, 25.496761196000023], [86.32531807600003, 25.496425165000062], [86.32481997600007, 25.495778958000074], [86.32440187400005, 25.49518623700004], [86.32371472500006, 25.493972791000033], [86.32331416900007, 25.493104732000063], [86.32320676900008, 25.492216432000077], [86.32314140100004, 25.491580587000044], [86.32327833000005, 25.49075823800007], [86.32347421300005, 25.490409304000025], [86.32385165000005, 25.48979732600003], [86.32439326800005, 25.48918860300006], [86.32473110500007, 25.488594910000074], [86.32484026500003, 25.488007408000044], [86.32486868900008, 25.486730056000056], [86.32476894000007, 25.486144069000034], [86.32432413600003, 25.484775369000033], [86.32406923200006, 25.483509105000053], [86.32384932400004, 25.482824744000027], [86.32355367200006, 25.482578664000073], [86.32331419100007, 25.482481101000076], [86.32313507800006, 25.482473386000038], [86.32284698400008, 25.482507147000035], [86.32257450700007, 25.482630920000076], [86.32173316400008, 25.483074884000075], [86.32110424900009, 25.482813177000025], [86.32038758500005, 25.48219115300003], [86.32001768300006, 25.481404007000037], [86.31984092100004, 25.48053879300005], [86.31983337000008, 25.479690453000046], [86.32012192200006, 25.478582603000064], [86.32043906700005, 25.47733475600006], [86.32036836900005, 25.47609414200008], [86.32030613200004, 25.47524618500006], [86.32000031000007, 25.474399953000045], [86.31965672900003, 25.47377516000006], [86.31904386300005, 25.47307556900006], [86.31857118600004, 25.472483302000057], [86.31746216800008, 25.471336106000024], [86.31642182900003, 25.470070949000046], [86.31639388100007, 25.470037943000023], [86.31576860800004, 25.469299473000035], [86.31493856000003, 25.46877748000003], [86.31377420400008, 25.468108980000068], [86.31264730700008, 25.467742497000074], [86.31178413700007, 25.467410323000024], [86.31092365900008, 25.46736684600006], [86.30954691800008, 25.466862370000058], [86.30875287000003, 25.467599145000065], [86.30817340600004, 25.467856064000046], [86.30731531200007, 25.46810146400003], [86.30610488400004, 25.468417103000036], [86.30545050300003, 25.468642879000072], [86.30493164000006, 25.469003172000043], [86.30410717100006, 25.469681553000044], [86.30332814900004, 25.47043178100006], [86.30273348300005, 25.471234856000024], [86.30182852300004, 25.472378587000037], [86.30124138000008, 25.473470433000045], [86.30046537400005, 25.475723522000067], [86.30005165800009, 25.47732402500003], [86.29988303900006, 25.47852120400006], [86.29988723500009, 25.478999524000074], [86.29970916700006, 25.479677784000046], [86.29945282600005, 25.480510028000026], [86.29929165400006, 25.481413764000024], [86.29916159900006, 25.482475240000042], [86.29907463900008, 25.48334242800007], [86.29908127700008, 25.48410503200006], [86.29920047200005, 25.484663803000046], [86.29929884800003, 25.486251698000046], [86.29947416400006, 25.48754112100005], [86.29948301600007, 25.48855651100007], [86.29938998500006, 25.489874977000056], [86.29936709300006, 25.49124706500004], [86.29928311100008, 25.492452679000053], [86.29927841800009, 25.493057472000032], [86.29799219800003, 25.49326970900006], [86.29705882300004, 25.493443385000035], [86.29675587500003, 25.49349971600003], [86.29605316500005, 25.49389285700005], [86.29569932900006, 25.494387267000036], [86.29546615400005, 25.49559395500006], [86.29530618100006, 25.49664659000007], [86.29517964800004, 25.49811426100007], [86.29503939800009, 25.499153197000055], [86.29487422900007, 25.499610192000034], [86.29472710500005, 25.49985042900005], [86.29435623900008, 25.500092280000047], [86.29325377800006, 25.500455100000067], [86.28961846700008, 25.500897672000065], [86.28918499500008, 25.501383592000025], [86.28863075200007, 25.50169891400003], [86.28801216300008, 25.502059862000067], [86.28818858100004, 25.502911566000023], [86.28819683000006, 25.50387731400008], [86.28852507300007, 25.50444364200007], [86.28897310400004, 25.505067757000063], [86.28943234700006, 25.50527207700003], [86.29006598800004, 25.504915581000034], [86.29170747600006, 25.50436234600005], [86.29321059800003, 25.50391843500006], [86.29442297800006, 25.503783397000063], [86.29629836100008, 25.50611685100006], [86.29823898900008, 25.508503920000067], [86.29860980600006, 25.50939930900006], [86.29926299300007, 25.509575184000028], [86.30087848400007, 25.50889569000003], [86.30041158200004, 25.507820423000055], [86.29974891500007, 25.507116617000065], [86.29845813000009, 25.50625489300006], [86.29723918700006, 25.505058602000076]]]]}}, {"type": "Feature", "properties": {"OBJECTID": 1766, "GPCODE": "091843", "GPNAME_1": "DANDARI", "DIST_CEN_C": null, "BLK_NAME": "DANDARI", "ST_NAME": "BIHAR", "ST_CODE_1": null, "GPCODE2011": "94399", "REMARKS": null, "MAP_STATUS": null, "BLK_C_2001": "200014", "BLK_C_2011": "01317", "DIST_NAME": "BEGUSARAI", "code2011": 0.0, "Shape_Leng": 0.30614551503, "Shape_Area": 0.00177687412, "Area": 19.7776}, "geometry": {"type": "MultiPolygon", "coordinates": [[[[86.26318311600005, 25.55516221000005], [86.26293296400007, 25.553223354000068], [86.26213372000007, 25.549293582000075], [86.26237154600005, 25.54740098800005], [86.26309792500007, 25.54681371600003], [86.26410147500007, 25.54663982900007], [86.26517597100008, 25.546614332000047], [86.26660113400004, 25.546875254000042], [86.26728522500008, 25.54657717200007], [86.26778001600007, 25.545662072000027], [86.26843114000008, 25.543829782000046], [86.26844040700007, 25.539632638000057], [86.26814629800003, 25.537206668000067], [86.26655893700007, 25.533625321000045], [86.26611892900007, 25.532775413000024], [86.26603015300003, 25.53051045500007], [86.26677160100007, 25.528763310000045], [86.26869103600006, 25.525735275000045], [86.27025020700006, 25.52363034700005], [86.27155470500009, 25.520836773000042], [86.27148837700008, 25.518300887000066], [86.27151086100008, 25.51784839800007], [86.27156487500008, 25.516761406000057], [86.27223635600006, 25.51499216900004], [86.27334958300008, 25.513716247000048], [86.27480392400008, 25.512771883000028], [86.27532991400005, 25.512623761000043], [86.27519108400008, 25.512083190000055], [86.27523015400004, 25.511419535000073], [86.27506906800005, 25.51119049600004], [86.27451644800004, 25.51113113200006], [86.27381145200007, 25.511280502000034], [86.27383108300006, 25.510084436000056], [86.27410412100005, 25.50943260100007], [86.27430443600008, 25.509011521000048], [86.27492770000003, 25.50861000200007], [86.27571195100006, 25.508414953000056], [86.27631089800008, 25.50807235600007], [86.27672830700004, 25.508028756000044], [86.27744320900007, 25.507874826000034], [86.27811261600004, 25.507640008000067], [86.27891637300007, 25.507404173000054], [86.27951586900008, 25.507124643000054], [86.27993017100005, 25.506724650000024], [86.28030046000003, 25.506406122000044], [86.28062018600008, 25.505984160000025], [86.28096316800008, 25.505372499000032], [86.28097816600007, 25.504808292000064], [86.28080393300007, 25.503035830000044], [86.28135837700006, 25.50273858500003], [86.28167855700008, 25.50237979700006], [86.28250259200007, 25.501615814000047], [86.28328480900007, 25.501190594000036], [86.28372228200004, 25.501169468000057], [86.28405134000008, 25.501839593000057], [86.28482131900006, 25.502317103000053], [86.28525897400004, 25.502314022000064], [86.28570016400005, 25.502139357000033], [86.28611258300003, 25.502095841000028], [86.28687820200008, 25.502067860000068], [86.28731624900007, 25.502109897000025], [86.28801216300008, 25.502059862000067], [86.28863075200007, 25.50169891400003], [86.28918499500008, 25.501383592000025], [86.28961846700008, 25.500897672000065], [86.29325377800006, 25.500455100000067], [86.29435623900008, 25.500092280000047], [86.29472710500005, 25.49985042900005], [86.29487422900007, 25.499610192000034], [86.29503939800009, 25.499153197000055], [86.29517964800004, 25.49811426100007], [86.29530618100006, 25.49664659000007], [86.29546615400005, 25.49559395500006], [86.29569932900006, 25.494387267000036], [86.29605316500005, 25.49389285700005], [86.29675587500003, 25.49349971600003], [86.29705882300004, 25.493443385000035], [86.29799219800003, 25.49326970900006], [86.29927841800009, 25.493057472000032], [86.29928311100008, 25.492452679000053], [86.29936709300006, 25.49124706500004], [86.29938998500006, 25.489874977000056], [86.29948301600007, 25.48855651100007], [86.29947416400006, 25.48754112100005], [86.29929884800003, 25.486251698000046], [86.29920047200005, 25.484663803000046], [86.29908127700008, 25.48410503200006], [86.29907463900008, 25.48334242800007], [86.29916159900006, 25.482475240000042], [86.29929165400006, 25.481413764000024], [86.29945282600005, 25.480510028000026], [86.29970916700006, 25.479677784000046], [86.29988723500009, 25.478999524000074], [86.29988303900006, 25.47852120400006], [86.30005165800009, 25.47732402500003], [86.30046537400005, 25.475723522000067], [86.30124138000008, 25.473470433000045], [86.30182852300004, 25.472378587000037], [86.30273348300005, 25.471234856000024], [86.30332814900004, 25.47043178100006], [86.30410717100006, 25.469681553000044], [86.30493164000006, 25.469003172000043], [86.30545050300003, 25.468642879000072], [86.30610488400004, 25.468417103000036], [86.30731531200007, 25.46810146400003], [86.30817340600004, 25.467856064000046], [86.30875287000003, 25.467599145000065], [86.30954691800008, 25.466862370000058], [86.30931955100004, 25.465311488000054], [86.30929200400004, 25.46444516300005], [86.30892121900007, 25.46241249700006], [86.30870529400005, 25.461037565000026], [86.30734996500007, 25.461259433000066], [86.30519112200005, 25.462276932000066], [86.30302984100007, 25.463023468000074], [86.30136821500008, 25.46347772300004], [86.29975349600005, 25.463615633000074], [86.29849947100007, 25.463484709000056], [86.29544514300005, 25.462725698000042], [86.29367673900003, 25.462341173000027], [86.29190269000009, 25.462439497000048], [86.29022096800009, 25.462875653000026], [86.28873427000008, 25.463445754000077], [86.28730793800008, 25.464092160000064], [86.28608105200004, 25.464813932000027], [86.28482012000006, 25.465621644000066], [86.28398161200005, 25.466408269000055], [86.28308785200005, 25.467714310000076], [86.28211213600008, 25.46931882800004], [86.28161194600006, 25.470134665000046], [86.28117560500004, 25.471446486000048], [86.28050825200006, 25.471907041000065], [86.27970503200004, 25.472169870000073], [86.27931105200008, 25.47203731600007], [86.27904547700007, 25.471799978000035], [86.27882633500008, 25.471165091000046], [86.27876478500008, 25.470366753000064], [86.27881368800007, 25.46968490200004], [86.27862284000008, 25.468873925000025], [86.27781456600007, 25.467376744000035], [86.27689878900009, 25.465514770000027], [86.27610868700003, 25.463814355000068], [86.27429747800005, 25.464233189000026], [86.27267508700004, 25.46463708700003], [86.27037621600005, 25.46500963400007], [86.26883581000004, 25.465124133000074], [86.26818189200003, 25.46539947800005], [86.26755014300005, 25.46596346800004], [86.26700852800008, 25.466590050000036], [86.26849241000008, 25.469802032000075], [86.26890766900004, 25.470106023000028], [86.27028896200005, 25.469992615000024], [86.27178528800005, 25.469950637000068], [86.27223558400004, 25.470285998000065], [86.27250137400006, 25.47055493700003], [86.27265541500003, 25.471131571000058], [86.27226885100004, 25.47186530400006], [86.27163936400007, 25.47268660900005], [86.26993109900008, 25.47412461600004], [86.26881850100006, 25.475454607000074], [86.26867449200006, 25.476064937000046], [86.26890484400008, 25.47684852900005], [86.26955734200004, 25.478744025000026], [86.26937216900006, 25.479187618000026], [86.26909524200005, 25.47937458000007], [86.26767801700004, 25.479957592000062], [86.26685722600007, 25.48050931100005], [86.26663804900005, 25.481052384000066], [86.26671856200005, 25.48176492300007], [86.26725341500008, 25.48267734600006], [86.26857181800005, 25.483927333000054], [86.26981356300007, 25.484934165000027], [86.27071379200004, 25.485541715000068], [86.27079508100007, 25.485744230000023], [86.27075671800003, 25.48591593100008], [86.27029202500006, 25.486239639000075], [86.27010673700005, 25.48668314300005], [86.26977871800005, 25.487876948000064], [86.26964472100008, 25.48967404800004], [86.26949930400008, 25.49011732100007], [86.26905339100006, 25.49032354600007], [86.26819259900003, 25.49026178400004], [86.26661949100009, 25.49006960400004], [86.26605957100008, 25.49031266800006], [86.264682, 25.490899846000048], [86.26423758100003, 25.491277527000022], [86.26409237300004, 25.491752383000062], [86.26394867200008, 25.492398800000046], [86.26339210000003, 25.49304797600007], [86.26254207600005, 25.49427683300007], [86.26204558600006, 25.495561980000048], [86.26264892000006, 25.496338625000078], [86.26289188100003, 25.498033803000055], [86.26307931100007, 25.498438665000037], [86.26406493900004, 25.49972266000003], [86.26425493500005, 25.500434366000036], [86.26425553300004, 25.500452766000024], [86.26515276000003, 25.501931014000036], [86.26524265000006, 25.503153428000076], [86.26480907700005, 25.503639279000026], [86.26430365100003, 25.503872947000048], [86.26404629100006, 25.504019216000074], [86.26372763500007, 25.504567489000067], [86.26345372500003, 25.505115428000067], [86.26308956200006, 25.505578298000046], [86.26256139800006, 25.506064828000035], [86.26201569800008, 25.507413487000065], [86.26160659400006, 25.507858544000044], [86.26119426600008, 25.50851127800007], [86.26046269300008, 25.509649102000026], [86.26039789700008, 25.510218167000062], [86.26041102300007, 25.51179317900005], [86.26047019800006, 25.512907478000045], [86.26080201600007, 25.51393413200003], [86.26108548400003, 25.514518899000052], [86.26162156200007, 25.514980071000025], [86.26199796700007, 25.51596125800006], [86.26209894300007, 25.51674131200008], [86.26203284200005, 25.517161470000076], [86.26168965100004, 25.517750611000054], [86.26139413900006, 25.518109184000025], [86.26093425600004, 25.518428236000034], [86.26058643900006, 25.51847570900003], [86.26028889300005, 25.51858158400006], [86.25963817600007, 25.51868991300006], [86.25927397400005, 25.519157191000033], [86.25893814600005, 25.52062632800005], [86.25878187500007, 25.52157059800004], [86.25837392300008, 25.522164644000043], [86.25788758400006, 25.52229434000003], [86.25745196800005, 25.522545523000076], [86.25687584000008, 25.52265783300004], [86.25664237300003, 25.522700041000064], [86.25648352300004, 25.523332954000068], [86.25555778400008, 25.52327612700003], [86.25528388300006, 25.523232817000064], [86.25470388700006, 25.523471479000023], [86.25427010800007, 25.523957392000057], [86.25456252800006, 25.526211845000034], [86.25482582600006, 25.527365442000075], [86.25580342900008, 25.527670104000038], [86.25670903900004, 25.528295752000076], [86.25761501900007, 25.528961912000057], [86.25878035300008, 25.529707608000024], [86.25994111100005, 25.530498436000073], [86.26080420200003, 25.531395041000053], [86.26106063700007, 25.531709233000072], [86.26106478100007, 25.532210104000058], [86.26102504000005, 25.53280164100005], [86.26119049300007, 25.53414083200005], [86.26130941300005, 25.53468608000003], [86.26110719200005, 25.535486281000033], [86.26083541700007, 25.535700276000057], [86.25960952100007, 25.536042664000036], [86.25918912000003, 25.536934660000043], [86.25867349700007, 25.539524198000038], [86.25849025600007, 25.540811673000064], [86.25839142100006, 25.541480205000028], [86.25900472500007, 25.54343013600004], [86.25922676900007, 25.544985636000035], [86.25895645700007, 25.545975852000026], [86.25770702900007, 25.547694867000075], [86.25719368800009, 25.54995938600007], [86.25749716800004, 25.55055752800007], [86.25775964900004, 25.552198537000038], [86.25742659400004, 25.55342378100005], [86.25697291200004, 25.553905332000056], [86.25622066900007, 25.55438887400004], [86.25606441600007, 25.55474190500007], [86.25643710800006, 25.555280974000027], [86.25852999400007, 25.55624141000004], [86.26035827000004, 25.556499587000076], [86.26134144200006, 25.556262615000037], [86.26186172600006, 25.556010779000076], [86.26261451600004, 25.55559038000007], [86.26318311600005, 25.55516221000005]]]]}}, {"type": "Feature", "properties": {"OBJECTID": 1767, "GPCODE": "091844", "GPNAME_1": "KATAHRI", "DIST_CEN_C": null, "BLK_NAME": "DANDARI", "ST_NAME": "BIHAR", "ST_CODE_1": null, "GPCODE2011": "94400", "REMARKS": null, "MAP_STATUS": null, "BLK_C_2001": "200014", "BLK_C_2011": "01317", "DIST_NAME": "BEGUSARAI", "code2011": 0.0, "Shape_Leng": 0.04312507796, "Shape_Area": 5.701504e-05, "Area": 0.634742}, "geometry": {"type": "MultiPolygon", "coordinates": [[[[86.34290397400008, 25.467885971000044], [86.34293002600003, 25.466378469000063], [86.34277256600006, 25.466005074000066], [86.34258268500008, 25.465902657000072], [86.34156533600003, 25.465567277000048], [86.33884895200003, 25.46538434200005], [86.33798332700007, 25.46532307600006], [86.33741469100005, 25.46511968300007], [86.33661742100008, 25.464371861000075], [86.33509651000008, 25.464983334000067], [86.33445791700007, 25.46529500400004], [86.33363257200006, 25.465301071000056], [86.33201639500004, 25.465827501000035], [86.33021315200006, 25.46655832700003], [86.32938715800003, 25.467047318000027], [86.32912297000007, 25.46697702800003], [86.32897235700005, 25.466806662000067], [86.32869757800006, 25.46554498000006], [86.32839426200007, 25.465547222000055], [86.32587747000008, 25.466558518000056], [86.32588176900003, 25.46703693300003], [86.32692325100004, 25.469524943000067], [86.32765716400007, 25.47154137600006], [86.32783066400003, 25.472036563000074], [86.32816942600004, 25.472106300000064], [86.32880682400008, 25.471654770000043], [86.32966336000004, 25.47069175300004], [86.33000361600006, 25.470377817000042], [86.33188096500004, 25.46957874700007], [86.33492007400008, 25.468599549000032], [86.33676442200004, 25.468003796000062], [86.33883578900009, 25.46778078600005], [86.34060607800006, 25.467803779000064], [86.34290397400008, 25.467885971000044]]]]}}, {"type": "Feature", "properties": {"OBJECTID": 1768, "GPCODE": "091845", "GPNAME_1": "KATARMALA SOUTH", "DIST_CEN_C": null, "BLK_NAME": "DANDARI", "ST_NAME": "BIHAR", "ST_CODE_1": null, "GPCODE2011": "94401", "REMARKS": null, "MAP_STATUS": null, "BLK_C_2001": "200014", "BLK_C_2011": "01317", "DIST_NAME": "BEGUSARAI", "code2011": 0.0, "Shape_Leng": 0.22227235117, "Shape_Area": 0.00146775894, "Area": 16.337}, "geometry": {"type": "MultiPolygon", "coordinates": [[[[86.24990486700005, 25.523025888000063], [86.24816144100004, 25.522746839000035], [86.24574690700007, 25.522582795000062], [86.24394668300005, 25.521826673000078], [86.24327130500006, 25.520579591000057], [86.24451897900008, 25.519970235000073], [86.24679914500007, 25.51990787400007], [86.24897556700006, 25.520538616000067], [86.25039194800007, 25.521190141000034], [86.25143032600005, 25.522825987000033], [86.25199225800003, 25.523408853000035], [86.25236478400006, 25.523934311000062], [86.25280941100004, 25.524161435000053], [86.25347967600004, 25.52400794600004], [86.25427010800007, 25.523957392000057], [86.25470388700006, 25.523471479000023], [86.25528388300006, 25.523232817000064], [86.25555778400008, 25.52327612700003], [86.25648352300004, 25.523332954000068], [86.25664237300003, 25.522700041000064], [86.25687584000008, 25.52265783300004], [86.25745196800005, 25.522545523000076], [86.25788758400006, 25.52229434000003], [86.25837392300008, 25.522164644000043], [86.25878187500007, 25.52157059800004], [86.25893814600005, 25.52062632800005], [86.25927397400005, 25.519157191000033], [86.25963817600007, 25.51868991300006], [86.26028889300005, 25.51858158400006], [86.26058643900006, 25.51847570900003], [86.26093425600004, 25.518428236000034], [86.26139413900006, 25.518109184000025], [86.26168965100004, 25.517750611000054], [86.26203284200005, 25.517161470000076], [86.26209894300007, 25.51674131200008], [86.26199796700007, 25.51596125800006], [86.26162156200007, 25.514980071000025], [86.26108548400003, 25.514518899000052], [86.26080201600007, 25.51393413200003], [86.26047019800006, 25.512907478000045], [86.26041102300007, 25.51179317900005], [86.26039789700008, 25.510218167000062], [86.26046269300008, 25.509649102000026], [86.26119426600008, 25.50851127800007], [86.26160659400006, 25.507858544000044], [86.26201569800008, 25.507413487000065], [86.26256139800006, 25.506064828000035], [86.26308956200006, 25.505578298000046], [86.26345372500003, 25.505115428000067], [86.26372763500007, 25.504567489000067], [86.26404629100006, 25.504019216000074], [86.26430365100003, 25.503872947000048], [86.26480907700005, 25.503639279000026], [86.26524265000006, 25.503153428000076], [86.26515276000003, 25.501931014000036], [86.26425553300004, 25.500452766000024], [86.26425493500005, 25.500434366000036], [86.26406493900004, 25.49972266000003], [86.26307931100007, 25.498438665000037], [86.26289188100003, 25.498033803000055], [86.26264892000006, 25.496338625000078], [86.26204558600006, 25.495561980000048], [86.26254207600005, 25.49427683300007], [86.26339210000003, 25.49304797600007], [86.26394867200008, 25.492398800000046], [86.26409237300004, 25.491752383000062], [86.26423758100003, 25.491277527000022], [86.264682, 25.490899846000048], [86.26605957100008, 25.49031266800006], [86.26661949100009, 25.49006960400004], [86.26819259900003, 25.49026178400004], [86.26905339100006, 25.49032354600007], [86.26949930400008, 25.49011732100007], [86.26964472100008, 25.48967404800004], [86.26977871800005, 25.487876948000064], [86.27010673700005, 25.48668314300005], [86.27029202500006, 25.486239639000075], [86.27075671800003, 25.48591593100008], [86.27079508100007, 25.485744230000023], [86.27071379200004, 25.485541715000068], [86.26981356300007, 25.484934165000027], [86.26857181800005, 25.483927333000054], [86.26725341500008, 25.48267734600006], [86.26671856200005, 25.48176492300007], [86.26663804900005, 25.481052384000066], [86.26685722600007, 25.48050931100005], [86.26767801700004, 25.479957592000062], [86.26909524200005, 25.47937458000007], [86.26937216900006, 25.479187618000026], [86.26955734200004, 25.478744025000026], [86.26890484400008, 25.47684852900005], [86.26867449200006, 25.476064937000046], [86.26881850100006, 25.475454607000074], [86.26993109900008, 25.47412461600004], [86.27163936400007, 25.47268660900005], [86.27226885100004, 25.47186530400006], [86.27265541500003, 25.471131571000058], [86.27250137400006, 25.47055493700003], [86.27223558400004, 25.470285998000065], [86.27178528800005, 25.469950637000068], [86.27028896200005, 25.469992615000024], [86.26890766900004, 25.470106023000028], [86.26849241000008, 25.469802032000075], [86.26700852800008, 25.466590050000036], [86.26662182500007, 25.46671907800004], [86.26598709600006, 25.466926572000034], [86.26430424100005, 25.467245029000026], [86.262447, 25.467515142000025], [86.26082096100004, 25.468090500000073], [86.25923829700008, 25.468507481000074], [86.25770012400005, 25.46888819700007], [86.25686173200006, 25.469115016000046], [86.25605928600004, 25.469477090000055], [86.25469852800006, 25.470267199000034], [86.25304809100004, 25.471515030000035], [86.25146468700007, 25.473046734000036], [86.24984681200004, 25.474619328000074], [86.24865342400005, 25.475218666000046], [86.24767164200006, 25.47555475300004], [86.24603126300008, 25.476215830000058], [86.23966085400008, 25.479160784000044], [86.23617812200007, 25.48075478800007], [86.23208752600004, 25.482822130000045], [86.23149254200007, 25.48364748800003], [86.23110586900003, 25.48501305800005], [86.23118763400004, 25.48651079700005], [86.23168254500007, 25.488055504000044], [86.23372264200003, 25.488813596000057], [86.23621506600006, 25.489536991000023], [86.23824313000006, 25.490028817000052], [86.23970899100004, 25.490497262000076], [86.23991146000003, 25.49092918200006], [86.23999330300006, 25.49181320100007], [86.24000498900006, 25.49323922700006], [86.24055273500005, 25.494530843000064], [86.24149748100007, 25.496934414000066], [86.24144358300003, 25.497638820000077], [86.24119270800009, 25.49857472700006], [86.24132733600004, 25.500449068000023], [86.24050689400008, 25.500452283000072], [86.24052548100008, 25.502717704000077], [86.24002822500006, 25.50334385700006], [86.23909837800005, 25.50397294000004], [86.23935075500003, 25.504422473000034], [86.23954390300008, 25.504931225000064], [86.23935767600005, 25.505270900000028], [86.23805247400009, 25.505618165000044], [86.23832246400008, 25.50822039600007], [86.23792200700007, 25.508507421000047], [86.23667739500007, 25.508971624000026], [86.23580929900004, 25.50925726500003], [86.23313958100005, 25.51063367000006], [86.23002805600004, 25.51150295800005], [86.22481919900008, 25.51258465500007], [86.22567001900006, 25.51385171100003], [86.22674256700003, 25.515460287000053], [86.22705822300009, 25.516360801000076], [86.22736217900007, 25.517658449000066], [86.22851524500004, 25.51753801500007], [86.22991974100006, 25.51775421700006], [86.23153830100006, 25.51800068400007], [86.23269406700007, 25.51821855700007], [86.23397540400003, 25.518575545000033], [86.23432187000003, 25.518970361000072], [86.23456666000004, 25.520327119000058], [86.23476584700006, 25.52156687400003], [86.23507751600005, 25.52196198000007], [86.23576535200004, 25.52212880600007], [86.23725660800005, 25.522005958000022], [86.23868890300008, 25.521964688000025], [86.23937644100005, 25.522104519000038], [86.24003516900007, 25.52235282500004], [86.24088084600004, 25.522969826000065], [86.24159821100005, 25.524914634000027], [86.24384390000006, 25.52518374600004], [86.24767490200009, 25.525261517000047], [86.24822777800006, 25.525348051000037], [86.24890682300008, 25.525050062000048], [86.24954427400007, 25.523931024000035], [86.24990486700005, 25.523025888000063]]]]}}, {"type": "Feature", "properties": {"OBJECTID": 1769, "GPCODE": "091846", "GPNAME_1": "KATERMALA NORTH", "DIST_CEN_C": null, "BLK_NAME": "DANDARI", "ST_NAME": "BIHAR", "ST_CODE_1": null, "GPCODE2011": "94405", "REMARKS": null, "MAP_STATUS": null, "BLK_C_2001": "200014", "BLK_C_2011": "01317", "DIST_NAME": "BEGUSARAI", "code2011": 0.0, "Shape_Leng": 0.05248415354, "Shape_Area": 8.384067e-05, "Area": 0.93293}, "geometry": {"type": "MultiPolygon", "coordinates": [[[[86.25063785600008, 25.522641796000073], [86.25076218400005, 25.52264102600003], [86.25143032600005, 25.522825987000033], [86.25039194800007, 25.521190141000034], [86.24897556700006, 25.520538616000067], [86.24679914500007, 25.51990787400007], [86.24451897900008, 25.519970235000073], [86.24327130500006, 25.520579591000057], [86.24394668300005, 25.521826673000078], [86.24574690700007, 25.522582795000062], [86.24816144100004, 25.522746839000035], [86.24990486700005, 25.523025888000063], [86.25043386200008, 25.522643196000047], [86.25063785600008, 25.522641796000073]]], [[[86.25778347300007, 25.53601460300007], [86.25828893600004, 25.53578096500007], [86.25893576700008, 25.53579458400003], [86.25960952100007, 25.536042664000036], [86.26083541700007, 25.535700276000057], [86.26110719200005, 25.535486281000033], [86.26130941300005, 25.53468608000003], [86.26119049300007, 25.53414083200005], [86.26102504000005, 25.53280164100005], [86.26106478100007, 25.532210104000058], [86.26106063700007, 25.531709233000072], [86.26080420200003, 25.531395041000053], [86.25994111100005, 25.530498436000073], [86.25878035300008, 25.529707608000024], [86.25761501900007, 25.528961912000057], [86.25670903900004, 25.528295752000076], [86.25580342900008, 25.527670104000038], [86.25482582600006, 25.527365442000075], [86.25502465800008, 25.52912861200008], [86.25462088900008, 25.53022360500006], [86.25404442200005, 25.53089996400007], [86.25301463900007, 25.532084937000036], [86.25210083600007, 25.533472130000064], [86.25148417400004, 25.534694889000036], [86.25128878800007, 25.53572518900006], [86.25124702500005, 25.536691266000048], [86.25197194800006, 25.537715262000063], [86.25278272800006, 25.53829638900004], [86.25468056000005, 25.538576787000068], [86.25567290800007, 25.53825407900007], [86.25656789700008, 25.537598040000034], [86.25727634700007, 25.536645432000057], [86.25778347300007, 25.53601460300007]]]]}}, {"type": "Feature", "properties": {"OBJECTID": 1770, "GPCODE": "091847", "GPNAME_1": "MAHIPA TOL", "DIST_CEN_C": null, "BLK_NAME": "DANDARI", "ST_NAME": "BIHAR", "ST_CODE_1": null, "GPCODE2011": "94403", "REMARKS": null, "MAP_STATUS": null, "BLK_C_2001": "200014", "BLK_C_2011": "01317", "DIST_NAME": "BEGUSARAI", "code2011": 0.0, "Shape_Leng": 0.3248170584, "Shape_Area": 0.00116845753, "Area": 13.0071}, "geometry": {"type": "MultiPolygon", "coordinates": [[[[86.32160932000005, 25.45286122500005], [86.32295347600007, 25.45250388900007], [86.32446253800003, 25.452253683000038], [86.32549489800004, 25.45206104700003], [86.32558021700004, 25.451031469000043], [86.32560241400006, 25.449614220000058], [86.32548772100006, 25.44901482800003], [86.32488047500004, 25.44893355800008], [86.32271728300003, 25.448863585000026], [86.32147534900008, 25.448958434000076], [86.32078074900005, 25.449121434000062], [86.32078980300008, 25.45014578000007], [86.32119379800008, 25.451406546000044], [86.32138868200008, 25.45209101900008], [86.32160932000005, 25.45286122500005]]], [[[86.32160932000005, 25.45286122500005], [86.32085701900007, 25.45323671400007], [86.32008530400003, 25.45367112200006], [86.31934754400004, 25.454010450000055], [86.31847028500005, 25.45432367500007], [86.31803439300006, 25.454502836000074], [86.31707734400004, 25.454780610000057], [86.31612402700006, 25.454918380000038], [86.31519538300006, 25.455038004000073], [86.31368733700003, 25.45541447100004], [86.31257148000003, 25.455729451000025], [86.31194120400005, 25.45586031000005], [86.31030491600006, 25.45635057900006], [86.30909478300003, 25.45668420100003], [86.30825786800006, 25.45706933200006], [86.30784919100006, 25.457514612000068], [86.30771290000007, 25.457849502000045], [86.30769590200003, 25.458183593000058], [86.30777963600008, 25.45865684200004], [86.30802866000005, 25.45927786200008], [86.30829714700008, 25.459849080000026], [86.30854699700006, 25.46056486200007], [86.30870529400005, 25.461037565000026], [86.30892121900007, 25.46241249700006], [86.30929200400004, 25.46444516300005], [86.30931955100004, 25.465311488000054], [86.30954691800008, 25.466862370000058], [86.31092365900008, 25.46736684600006], [86.31178413700007, 25.467410323000024], [86.31264730700008, 25.467742497000074], [86.31377420400008, 25.468108980000068], [86.31493856000003, 25.46877748000003], [86.31576860800004, 25.469299473000035], [86.31639388100007, 25.470037943000023], [86.31642182900003, 25.470070949000046], [86.31746216800008, 25.471336106000024], [86.31857118600004, 25.472483302000057], [86.31904386300005, 25.47307556900006], [86.31965672900003, 25.47377516000006], [86.32000031000007, 25.474399953000045], [86.32030613200004, 25.47524618500006], [86.32036836900005, 25.47609414200008], [86.32043906700005, 25.47733475600006], [86.32012192200006, 25.478582603000064], [86.31983337000008, 25.479690453000046], [86.31984092100004, 25.48053879300005], [86.32001768300006, 25.481404007000037], [86.32038758500005, 25.48219115300003], [86.32110424900009, 25.482813177000025], [86.32173316400008, 25.483074884000075], [86.32257450700007, 25.482630920000076], [86.32284698400008, 25.482507147000035], [86.32313507800006, 25.482473386000038], [86.32331419100007, 25.482481101000076], [86.32355367200006, 25.482578664000073], [86.32384932400004, 25.482824744000027], [86.32406923200006, 25.483509105000053], [86.32432413600003, 25.484775369000033], [86.32476894000007, 25.486144069000034], [86.32486868900008, 25.486730056000056], [86.32484026500003, 25.488007408000044], [86.32473110500007, 25.488594910000074], [86.32439326800005, 25.48918860300006], [86.32385165000005, 25.48979732600003], [86.32347421300005, 25.490409304000025], [86.32327833000005, 25.49075823800007], [86.32314140100004, 25.491580587000044], [86.32320676900008, 25.492216432000077], [86.32331416900007, 25.493104732000063], [86.32371472500006, 25.493972791000033], [86.32440187400005, 25.49518623700004], [86.32481997600007, 25.495778958000074], [86.32531807600003, 25.496425165000062], [86.32564430300005, 25.496761196000023], [86.32588324100004, 25.49733717400005], [86.32594783200005, 25.497887281000033], [86.32619677200006, 25.499036227000033], [86.32658469400008, 25.499593047000076], [86.32729590200006, 25.500147369000047], [86.32764085300005, 25.500356976000035], [86.32780190700004, 25.50045045400003], [86.32814047200003, 25.498940746000073], [86.32845170700006, 25.498699217000024], [86.32928350700007, 25.49883755700006], [86.33226922500006, 25.500137835000032], [86.33271855000004, 25.50045012700008], [86.33499621000004, 25.50203311100006], [86.33521174800006, 25.50048324000005], [86.33521636500006, 25.500450043000058], [86.33570977400007, 25.500017642000046], [86.33638305600005, 25.499114604000056], [86.33611512300007, 25.49864272700006], [86.33261094300008, 25.497201914000073], [86.33029768900008, 25.495467940000026], [86.32913674500008, 25.49410452400008], [86.32917951100006, 25.492777396000065], [86.32943050600005, 25.49192256500004], [86.33052100400005, 25.490971296000055], [86.33399874700007, 25.489478991000055], [86.33754597300003, 25.486880300000053], [86.33962629900003, 25.485962311000037], [86.34108200400004, 25.485811612000077], [86.34249389700005, 25.48632009100004], [86.34318801600006, 25.48773649800006], [86.34209371700007, 25.493755864000036], [86.34190457900007, 25.495937077000065], [86.34244387700005, 25.497828537000032], [86.34281676800003, 25.498913344000073], [86.34365651400003, 25.499380993000045], [86.35217163300007, 25.499672658000065], [86.35219304200007, 25.499673391000044], [86.35338761600008, 25.499714271000073], [86.35859944700007, 25.499674964000064], [86.36021963200005, 25.50008695500003], [86.36060270800004, 25.50045154000003], [86.36256109700008, 25.502140671000063], [86.36341718700004, 25.502738823000072], [86.36440757500003, 25.502817133000065], [86.36507362500004, 25.502766871000063], [86.36627020400005, 25.502550203000055], [86.36709468800007, 25.501891745000023], [86.36729712600004, 25.501730072000043], [86.36758967100008, 25.50110055600004], [86.36773628400005, 25.50045151000006], [86.36707160400005, 25.499398537000047], [86.36648222000008, 25.497507639000048], [86.36584206100008, 25.496045818000027], [86.36352837700008, 25.494312338000043], [86.35881681000006, 25.49193358900004], [86.35692445100005, 25.49057593200007], [86.35631560300004, 25.489799763000065], [86.35540799200004, 25.48734709200005], [86.35414551000008, 25.48579509900003], [86.35361997700005, 25.48541993400005], [86.35153195500004, 25.485480749000033], [86.35049356100006, 25.48558332600004], [86.34886947500007, 25.485266103000072], [86.34740697700005, 25.48465869100005], [86.34594243400005, 25.484389907000036], [86.34568348200008, 25.48434218500006], [86.34557558300008, 25.483963913000025], [86.34561798400006, 25.483160233000035], [86.34613583500004, 25.482682478000072], [86.34785454400009, 25.482480143000032], [86.34968456600006, 25.483035104000066], [86.35125267000006, 25.48321283100006], [86.35167037300005, 25.483209731000045], [86.35192588400008, 25.482873792000078], [86.35186967600004, 25.482165718000033], [86.35101701400004, 25.48027669000004], [86.35056436000008, 25.479169914000067], [86.35029268700004, 25.478273788000024], [86.35059766300003, 25.477368978000072], [86.35163361200006, 25.476463072000058], [86.35303521100008, 25.475838827000075], [86.35361281700006, 25.475929221000058], [86.35465540900003, 25.476300432000073], [86.35564754500007, 25.476577341000052], [86.35785318300003, 25.47797772800004], [86.36131666300008, 25.48041570500004], [86.36186396800008, 25.476665771000057], [86.36143489400007, 25.475437001000046], [86.36098241800005, 25.475440356000036], [86.36019887200007, 25.476200001000052], [86.35967426500008, 25.476479278000056], [86.35824299600006, 25.47655775800007], [86.35639450700006, 25.47616100500005], [86.35541246100007, 25.475893084000063], [86.35457815500007, 25.47545714900008], [86.35339742200006, 25.474130174000038], [86.35271433900004, 25.473381626000048], [86.35211059900007, 25.47314701700003], [86.35026410600005, 25.473503789000063], [86.34925571000008, 25.47416120300005], [86.34865603400004, 25.47491943400007], [86.34874050300004, 25.47601088600004], [86.34795553500004, 25.476635100000067], [86.34720692200005, 25.476879833000055], [86.34663759800009, 25.476608787000032], [86.34595491300007, 25.475896308000074], [86.34581377500007, 25.475134679000064], [86.34584791000003, 25.474516136000034], [86.34636871100008, 25.47383079000008], [86.34636379900007, 25.473280266000074], [86.34613813900006, 25.473078900000075], [86.34496912500003, 25.473019950000037], [86.34380134700007, 25.473096273000067], [86.34251577400005, 25.472799045000045], [86.34145771100003, 25.472360121000065], [86.34066650100004, 25.472298314000057], [86.33957366200008, 25.472410142000058], [86.33897197000005, 25.47241464900003], [86.33832811900004, 25.47214413300003], [86.33791242100006, 25.471804226000074], [86.33775176200004, 25.471087884000042], [86.33793368300007, 25.470301256000027], [86.33849698900008, 25.46991793600006], [86.34105689600005, 25.469831270000043], [86.34226238600007, 25.46951546500003], [86.34274401400006, 25.46889354700005], [86.34290397400008, 25.467885971000044], [86.34060607800006, 25.467803779000064], [86.33883578900009, 25.46778078600005], [86.33676442200004, 25.468003796000062], [86.33492007400008, 25.468599549000032], [86.33188096500004, 25.46957874700007], [86.33000361600006, 25.470377817000042], [86.32966336000004, 25.47069175300004], [86.32880682400008, 25.471654770000043], [86.32816942600004, 25.472106300000064], [86.32783066400003, 25.472036563000074], [86.32765716400007, 25.47154137600006], [86.32692325100004, 25.469524943000067], [86.32588176900003, 25.46703693300003], [86.32587747000008, 25.466558518000056], [86.32839426200007, 25.465547222000055], [86.32869757800006, 25.46554498000006], [86.32897235700005, 25.466806662000067], [86.32912297000007, 25.46697702800003], [86.32938715800003, 25.467047318000027], [86.33021315200006, 25.46655832700003], [86.33201639500004, 25.465827501000035], [86.33363257200006, 25.465301071000056], [86.33445791700007, 25.46529500400004], [86.33509651000008, 25.464983334000067], [86.33661742100008, 25.464371861000075], [86.33562200300008, 25.462601153000037], [86.33455364900004, 25.461002375000078], [86.33312620200007, 25.45928900100006], [86.33217304800007, 25.458334712000067], [86.33153302700003, 25.45792877100007], [86.32949202000003, 25.457636851000075], [86.32840366100004, 25.45768098700006], [86.32787172300004, 25.457684911000058], [86.32704616200004, 25.45765484100008], [86.32542268700007, 25.45735983700007], [86.32428923000003, 25.45736819700005], [86.32324203600007, 25.458129473000042], [86.32242250200005, 25.458785375000048], [86.32191656800006, 25.45891092900007], [86.32138922800004, 25.458878622000043], [86.32093264000008, 25.458403623000038], [86.32084613900008, 25.45761892400003], [86.32073067100004, 25.456933794000065], [86.32113267900007, 25.455734980000045], [86.32231049200004, 25.454562026000076], [86.32211922300007, 25.453737468000043], [86.32160932000005, 25.45286122500005]]]]}}, {"type": "Feature", "properties": {"OBJECTID": 1771, "GPCODE": "091848", "GPNAME_1": "RAJOPUR", "DIST_CEN_C": null, "BLK_NAME": "DANDARI", "ST_NAME": "BIHAR", "ST_CODE_1": null, "GPCODE2011": "94404", "REMARKS": null, "MAP_STATUS": null, "BLK_C_2001": "200014", "BLK_C_2011": "01317", "DIST_NAME": "BEGUSARAI", "code2011": 0.0, "Shape_Leng": 0.06061149309, "Shape_Area": 0.00018462288, "Area": 2.05493}, "geometry": {"type": "MultiPolygon", "coordinates": [[[[86.23168254500007, 25.488055504000044], [86.23023830200003, 25.48778979700006], [86.23012967900007, 25.48911738700008], [86.23025323500008, 25.490854157000058], [86.23034704300005, 25.492613584000026], [86.23049607100006, 25.49381309300003], [86.23060703300007, 25.49645701600008], [86.23094227500007, 25.497926050000046], [86.23134276200005, 25.498857518000023], [86.23196606800008, 25.499674741000035], [86.23171510200007, 25.500606119000054], [86.23165941000008, 25.50170772100006], [86.23048727400004, 25.503132638000068], [86.23035416400006, 25.50389171100005], [86.23070837700004, 25.505247776000033], [86.23112628500007, 25.506486038000048], [86.23201477000003, 25.508714115000032], [86.23313958100005, 25.51063367000006], [86.23580929900004, 25.50925726500003], [86.23667739500007, 25.508971624000026], [86.23792200700007, 25.508507421000047], [86.23832246400008, 25.50822039600007], [86.23805247400009, 25.505618165000044], [86.23935767600005, 25.505270900000028], [86.23954390300008, 25.504931225000064], [86.23935075500003, 25.504422473000034], [86.23909837800005, 25.50397294000004], [86.24002822500006, 25.50334385700006], [86.24052548100008, 25.502717704000077], [86.24050689400008, 25.500452283000072], [86.24132733600004, 25.500449068000023], [86.24119270800009, 25.49857472700006], [86.24144358300003, 25.497638820000077], [86.24149748100007, 25.496934414000066], [86.24055273500005, 25.494530843000064], [86.24000498900006, 25.49323922700006], [86.23999330300006, 25.49181320100007], [86.23991146000003, 25.49092918200006], [86.23970899100004, 25.490497262000076], [86.23824313000006, 25.490028817000052], [86.23621506600006, 25.489536991000023], [86.23372264200003, 25.488813596000057], [86.23168254500007, 25.488055504000044]]]]}}, {"type": "Feature", "properties": {"OBJECTID": 1772, "GPCODE": "091849", "GPNAME_1": "TETARI", "DIST_CEN_C": null, "BLK_NAME": "DANDARI", "ST_NAME": "BIHAR", "ST_CODE_1": null, "GPCODE2011": "94402", "REMARKS": null, "MAP_STATUS": null, "BLK_C_2001": "200014", "BLK_C_2011": "01317", "DIST_NAME": "BEGUSARAI", "code2011": 0.0, "Shape_Leng": 0.20908251202, "Shape_Area": 0.00060733765, "Area": 6.7591}, "geometry": {"type": "MultiPolygon", "coordinates": [[[[86.33419081600005, 25.507534003000046], [86.33318541500006, 25.507460167000033], [86.33175452000006, 25.507633166000062], [86.33108916700007, 25.50775548000007], [86.32933530800005, 25.50796245400005], [86.32705107000004, 25.508385416000067], [86.32702490500003, 25.50935137700003], [86.32670954000008, 25.511352889000023], [86.32647725500004, 25.513751007000053], [86.32659503000008, 25.51467986600005], [86.32752488200003, 25.51632023800005], [86.32841537700006, 25.51744641600004], [86.32911652400009, 25.517973778000055], [86.33036342300005, 25.51779762900003], [86.33163239700008, 25.516190736000055], [86.33307124600003, 25.513016521000054], [86.33406372300004, 25.509448441000075], [86.33419081600005, 25.507534003000046]]], [[[86.29755141700008, 25.512949622000065], [86.29810063500008, 25.512616236000042], [86.29825069700007, 25.51157266900003], [86.29854211600008, 25.51076278900007], [86.29869751900009, 25.51032387600003], [86.29926299300007, 25.509575184000028], [86.29860980600006, 25.50939930900006], [86.29823898900008, 25.508503920000067], [86.29629836100008, 25.50611685100006], [86.29442297800006, 25.503783397000063], [86.29321059800003, 25.50391843500006], [86.29170747600006, 25.50436234600005], [86.29006598800004, 25.504915581000034], [86.28943234700006, 25.50527207700003], [86.28897310400004, 25.505067757000063], [86.28852507300007, 25.50444364200007], [86.28819683000006, 25.50387731400008], [86.28818858100004, 25.502911566000023], [86.28801216300008, 25.502059862000067], [86.28731624900007, 25.502109897000025], [86.28687820200008, 25.502067860000068], [86.28611258300003, 25.502095841000028], [86.28570016400005, 25.502139357000033], [86.28525897400004, 25.502314022000064], [86.28482131900006, 25.502317103000053], [86.28405134000008, 25.501839593000057], [86.28372228200004, 25.501169468000057], [86.28328480900007, 25.501190594000036], [86.28250259200007, 25.501615814000047], [86.28167855700008, 25.50237979700006], [86.28135837700006, 25.50273858500003], [86.28080393300007, 25.503035830000044], [86.28097816600007, 25.504808292000064], [86.28096316800008, 25.505372499000032], [86.28062018600008, 25.505984160000025], [86.28030046000003, 25.506406122000044], [86.27993017100005, 25.506724650000024], [86.27951586900008, 25.507124643000054], [86.27891637300007, 25.507404173000054], [86.27811261600004, 25.507640008000067], [86.27744320900007, 25.507874826000034], [86.27672830700004, 25.508028756000044], [86.27631089800008, 25.50807235600007], [86.27571195100006, 25.508414953000056], [86.27492770000003, 25.50861000200007], [86.27430443600008, 25.509011521000048], [86.27410412100005, 25.50943260100007], [86.27383108300006, 25.510084436000056], [86.27381145200007, 25.511280502000034], [86.27451644800004, 25.51113113200006], [86.27506906800005, 25.51119049600004], [86.27523015400004, 25.511419535000073], [86.27519108400008, 25.512083190000055], [86.27532991400005, 25.512623761000043], [86.27663341100003, 25.512655331000076], [86.27748475900006, 25.512753085000043], [86.27785084800007, 25.513102613000058], [86.28169648200009, 25.513192942000046], [86.28513062800005, 25.51343498500006], [86.28871892600006, 25.513098171000024], [86.28999379800007, 25.51269652800005], [86.29052600600005, 25.513274941000077], [86.28998857900007, 25.514980154000057], [86.28945122200008, 25.51610766700003], [86.28908814500005, 25.516692430000035], [86.28886863900004, 25.517772604000072], [86.28914423700007, 25.51800085700006], [86.28981173600005, 25.51812248600004], [86.29060857100006, 25.51765647800005], [86.29137810900005, 25.516906366000057], [86.29225981500008, 25.51590269600007], [86.29271181200005, 25.515254164000055], [86.29350341700007, 25.514187996000032], [86.29393778100007, 25.513810275000026], [86.29491456300008, 25.513451358000054], [86.29616932700003, 25.51302717300007], [86.29755141700008, 25.512949622000065]]], [[[86.31539044500005, 25.524469069000077], [86.31626932300009, 25.524295762000065], [86.31685779700007, 25.52445844700003], [86.31748254000007, 25.524787867000043], [86.31836090700006, 25.52454676800005], [86.32146619700006, 25.51909952400007], [86.32369828400005, 25.514470912000036], [86.32372370200005, 25.513423733000025], [86.32409486300008, 25.50985571600006], [86.32427075000004, 25.508938283000077], [86.32517664400007, 25.50789823200006], [86.32579501400005, 25.507528114000024], [86.32623765800008, 25.507524899000032], [86.32454836400007, 25.50568092800006], [86.32261347600007, 25.504699352000046], [86.31810662300006, 25.502638800000057], [86.31441029000007, 25.502051275000042], [86.31008458900004, 25.50159619300007], [86.30634959000008, 25.49985902700007], [86.30376177000005, 25.49903663500004], [86.30330018500007, 25.499716921000072], [86.30253435800006, 25.500300123000045], [86.30210302100005, 25.500447629000064], [86.30397986500003, 25.50237467900007], [86.30431311000007, 25.503514143000075], [86.30372897700005, 25.504393786000037], [86.30239253900004, 25.505707665000045], [86.30041158200004, 25.507820423000055], [86.30267634800003, 25.507443008000052], [86.30482531000007, 25.508303530000035], [86.30662566300003, 25.509759216000077], [86.30693458800005, 25.512069954000026], [86.30698729200003, 25.51298120100006], [86.30742499600007, 25.513537606000057], [86.30792819500004, 25.51363783100004], [86.30870582900008, 25.51325762600004], [86.30893005200005, 25.512736956000026], [86.30928653200004, 25.51198981500005], [86.30949028000003, 25.511406135000072], [86.30976138100004, 25.511115336000046], [86.31021634300004, 25.510818718000053], [86.31057781200008, 25.510631104000026], [86.31110441400006, 25.510564085000055], [86.31158207500005, 25.510583164000025], [86.31211069100004, 25.510741851000034], [86.31259457300007, 25.51090530500005], [86.31296133200004, 25.511317831000042], [86.31349623600005, 25.512184955000066], [86.31370823100008, 25.513099578000038], [86.31410419400004, 25.51400828000004], [86.31427819400005, 25.515690351000046], [86.31403776400003, 25.516626329000076], [86.31337872900008, 25.517479570000035], [86.31194302200004, 25.51824814400004], [86.31061518200005, 25.518280317000062], [86.30933542500009, 25.518122595000023], [86.30853478200004, 25.518146396000077], [86.30801638700007, 25.518587913000033], [86.30765415000008, 25.519253938000077], [86.30762177900004, 25.52066674200006], [86.30793791500008, 25.522677249000026], [86.30761352300004, 25.523690505000047], [86.31007323600005, 25.524525723000068], [86.31191235200004, 25.52492756600003], [86.31400093600007, 25.524844720000033], [86.31539044500005, 25.524469069000077]]]]}}]}