{"type": "FeatureCollection", "features": [{"type": "Feature", "properties": {"OBJECTID": 1821, "GPCODE": "091900", "GPNAME_1": "BISHANPUR AHOK", "DIST_CEN_C": null, "BLK_NAME": "SAHEBPUR KAMAL", "ST_NAME": "BIHAR", "ST_CODE_1": null, "GPCODE2011": "94455", "REMARKS": null, "MAP_STATUS": null, "BLK_C_2001": "200015", "BLK_C_2011": "01318", "DIST_NAME": "BEGUSARAI", "code2011": 0.0, "Shape_Leng": 0.18505385334, "Shape_Area": 0.00067119837, "Area": 7.47123}, "geometry": {"type": "MultiPolygon", "coordinates": [[[[86.41297637700006, 25.498865783000042], [86.41300073700006, 25.498301518000062], [86.41465182200005, 25.496749479000073], [86.41525238100007, 25.496622847000026], [86.41620643900006, 25.49705305200007], [86.41675626200004, 25.49733303900007], [86.41727863600005, 25.497351415000026], [86.41800870900005, 25.49725083000004], [86.42019158200009, 25.496691867000038], [86.42089657000008, 25.49656890700004], [86.42152776500006, 25.49703777700006], [86.42237204800006, 25.49844801300003], [86.42327491800006, 25.49974508300005], [86.42432956100004, 25.499768207000045], [86.42580270600007, 25.498858348000056], [86.42636810200008, 25.49767137400005], [86.42663380400006, 25.495846122000046], [86.42780530300007, 25.494094722000057], [86.42806191400007, 25.49235966300006], [86.42736938500008, 25.492739820000054], [86.42617347300006, 25.493006689000026], [86.42497521500007, 25.493043329000045], [86.42455542200008, 25.49283002900006], [86.42399758300007, 25.491724395000062], [86.42319491100005, 25.488449914000057], [86.42263877200008, 25.484952313000065], [86.42203264200003, 25.48295346900005], [86.42038608300004, 25.47982113300003], [86.41963569600006, 25.47781433600005], [86.41978449800007, 25.47726711400003], [86.42025619800006, 25.477195632000075], [86.42111797700005, 25.477351217000034], [86.42282885900005, 25.477892663000034], [86.42392407200003, 25.478023827000072], [86.42663318900009, 25.47792994300005], [86.42991770000003, 25.477691383000035], [86.43179387200007, 25.476313403000063], [86.43584558500004, 25.475215685000023], [86.43709619700007, 25.474966453000036], [86.43740788100007, 25.47177325900003], [86.43770180500007, 25.469803245000037], [86.43790602000007, 25.469332285000064], [86.43695596600008, 25.469299395000064], [86.43499444900004, 25.469039912000028], [86.43326928700003, 25.469568338000045], [86.43218344200005, 25.470398395000075], [86.43128589100007, 25.47115476400006], [86.43057801900005, 25.47198184800004], [86.42948114900008, 25.47168377400004], [86.42778442500008, 25.471562009000024], [86.42679958600007, 25.471019281000054], [86.42494077200007, 25.47007744700005], [86.42391661800008, 25.470094716000062], [86.42225498100004, 25.47000414400003], [86.42184695300006, 25.470485822000057], [86.42120998600006, 25.470937638000066], [86.42001068500008, 25.471353398000076], [86.41922553000006, 25.471910191000063], [86.41922941200005, 25.472320827000033], [86.41926885400005, 25.47279890300007], [86.41958242500004, 25.473856908000073], [86.41966097900007, 25.474267032000057], [86.41947273700004, 25.474336180000023], [86.41932321400003, 25.47430127900003], [86.41909322600009, 25.47416772300005], [86.41848498300004, 25.473486552000054], [86.41757249300008, 25.472708612000076], [86.41663079800009, 25.47251301400007], [86.41553697900008, 25.47252168500006], [86.41463072100004, 25.47238900600007], [86.41404259200004, 25.471725781000032], [86.41278408800008, 25.47012910500007], [86.41081469500006, 25.469048051000073], [86.40880970800004, 25.468414064000058], [86.40670036700004, 25.46829530100007], [86.40312168200006, 25.468422718000056], [86.40029896600004, 25.468584731000078], [86.40007657900009, 25.46872187200006], [86.40008115500007, 25.469200284000067], [86.40057978300007, 25.47039228600005], [86.40161959000005, 25.47254126100006], [86.40187671100006, 25.473956314000077], [86.40226077900007, 25.474603131000038], [86.40287771700008, 25.476204903000053], [86.40380064400006, 25.478079540000067], [86.40472125300005, 25.479715014000078], [86.40509182600005, 25.481025415000033], [86.40297939400006, 25.483212740000056], [86.40313548400007, 25.483933543000035], [86.40510771500004, 25.486323414000026], [86.40549248800005, 25.487037904000033], [86.40549776100005, 25.487588510000023], [86.40606714400008, 25.48836926100006], [86.40701693800008, 25.488876254000047], [86.40769213500005, 25.488767111000072], [86.40865276500006, 25.488326311000037], [86.40905656800004, 25.491026341000065], [86.40862443200007, 25.491598332000024], [86.40815380900005, 25.491791615000068], [86.40751169900005, 25.491728959000056], [86.40720906200005, 25.491284605000033], [86.40719960100006, 25.490296390000026], [86.40693571100007, 25.490262331000054], [86.40653085000008, 25.49108690500003], [86.40626556300003, 25.491431909000028], [86.40608255300003, 25.491537212000026], [86.40581905000005, 25.491539249000027], [86.40573647800005, 25.491228508000063], [86.40599219500007, 25.490405120000048], [86.40632879000003, 25.48972109500005], [86.40632578400005, 25.48941416300005], [86.40606190100004, 25.489380194000034], [86.40583320600007, 25.489381991000073], [86.40471023600008, 25.49000460600007], [86.40391963900004, 25.490010804000065], [86.40147917400003, 25.49015178600007], [86.40087004000009, 25.48937137000007], [86.39961441000008, 25.48808144900005], [86.39822752100008, 25.489184470000055], [86.39718051100004, 25.489946323000026], [86.39692017300007, 25.490291291000062], [86.39692771700004, 25.491076537000026], [86.39662918500005, 25.49159332800008], [86.39565540400008, 25.492214697000065], [86.39600899100003, 25.49330857700005], [86.39704116500008, 25.493074858000057], [86.40159633800005, 25.49252472200004], [86.40134516500007, 25.493826415000058], [86.40142889600008, 25.49478245000006], [86.40211565600003, 25.495873716000062], [86.40288104200005, 25.496860579000042], [86.40397926900005, 25.497294212000043], [86.40575007500007, 25.497316365000074], [86.40722160000007, 25.497783112000036], [86.40863179500008, 25.499103253000044], [86.41012191600004, 25.50044983600003], [86.41297637700006, 25.498865783000042]]]]}}, {"type": "Feature", "properties": {"OBJECTID": 1822, "GPCODE": "091901", "GPNAME_1": "CHAWKI", "DIST_CEN_C": null, "BLK_NAME": "SAHEBPUR KAMAL", "ST_NAME": "BIHAR", "ST_CODE_1": null, "GPCODE2011": "94456", "REMARKS": null, "MAP_STATUS": null, "BLK_C_2001": "200015", "BLK_C_2011": "01318", "DIST_NAME": "BEGUSARAI", "code2011": 0.0, "Shape_Leng": 0.18198925755, "Shape_Area": 0.00101125774, "Area": 11.2588}, "geometry": {"type": "MultiPolygon", "coordinates": [[[[86.40297939400006, 25.483212740000056], [86.40509182600005, 25.481025415000033], [86.40472125300005, 25.479715014000078], [86.40380064400006, 25.478079540000067], [86.40287771700008, 25.476204903000053], [86.40226077900007, 25.474603131000038], [86.40187671100006, 25.473956314000077], [86.40161959000005, 25.47254126100006], [86.40057978300007, 25.47039228600005], [86.40008115500007, 25.469200284000067], [86.40007657900009, 25.46872187200006], [86.40029896600004, 25.468584731000078], [86.40312168200006, 25.468422718000056], [86.40670036700004, 25.46829530100007], [86.40880970800004, 25.468414064000058], [86.41081469500006, 25.469048051000073], [86.41278408800008, 25.47012910500007], [86.41404259200004, 25.471725781000032], [86.41463072100004, 25.47238900600007], [86.41553697900008, 25.47252168500006], [86.41663079800009, 25.47251301400007], [86.41757249300008, 25.472708612000076], [86.41848498300004, 25.473486552000054], [86.41909322600009, 25.47416772300005], [86.41932321400003, 25.47430127900003], [86.41947273700004, 25.474336180000023], [86.41966097900007, 25.474267032000057], [86.41958242500004, 25.473856908000073], [86.41926885400005, 25.47279890300007], [86.41922941200005, 25.472320827000033], [86.41922553000006, 25.471910191000063], [86.42001068500008, 25.471353398000076], [86.42120998600006, 25.470937638000066], [86.42184695300006, 25.470485822000057], [86.42225498100004, 25.47000414400003], [86.42391661800008, 25.470094716000062], [86.42383138200006, 25.468998700000043], [86.42310520900008, 25.467943968000043], [86.42169121800003, 25.46621330200003], [86.42069847000005, 25.464849266000044], [86.41998778000004, 25.463334067000062], [86.41947738000005, 25.461456250000026], [86.41959372900004, 25.45755616100007], [86.42058661300007, 25.453292628000042], [86.42069627900008, 25.452813349000053], [86.42046929400004, 25.452472197000077], [86.41978191900006, 25.451827837000053], [86.41951480600005, 25.451455363000036], [86.41970005900004, 25.451074849000065], [86.42131570800007, 25.450551923000035], [86.42171058100007, 25.450260016000072], [86.42196772800008, 25.44960805900007], [86.41887279500008, 25.449325849000047], [86.41582723600004, 25.44952152600007], [86.41556674500004, 25.44983052200007], [86.41492710500006, 25.450007060000075], [86.41443430400005, 25.44994323800006], [86.41420602700003, 25.449466702000052], [86.41420534600007, 25.44939450100003], [86.41325990400009, 25.449302687000056], [86.41254107600008, 25.448997064000025], [86.41197408500005, 25.44845548400008], [86.41173096100005, 25.446954534000042], [86.41129971300006, 25.445008364000046], [86.41114760400006, 25.444702705000054], [86.40993246200009, 25.443958603000056], [86.40896680500003, 25.443302851000055], [86.40861635500005, 25.442005881000057], [86.40858574700007, 25.44089146500005], [86.40771761700006, 25.44055532400006], [86.40643052300004, 25.44008705400006], [86.40378473200008, 25.438907456000038], [86.40306496500006, 25.438502422000056], [86.40276314100004, 25.43864469400006], [86.40188467200005, 25.43931499400003], [86.40031012400004, 25.44048710100003], [86.39900225700006, 25.441490185000077], [86.39791312500006, 25.44143101900005], [86.39645598300007, 25.44294519400006], [86.39563075800004, 25.443466129000058], [86.39499451500006, 25.443471086000045], [86.39246931700006, 25.443490719000067], [86.39246255500007, 25.442773226000043], [86.39151887800006, 25.442333794000035], [86.39042209300004, 25.44200384900006], [86.38989648200004, 25.44214334000003], [86.38982415000004, 25.442383090000078], [86.38986578500004, 25.443100251000033], [86.39015729600004, 25.443968985000026], [86.38865917200008, 25.444838121000032], [86.38791275200003, 25.44528611800007], [86.38791794800005, 25.445836737000036], [86.38785116100007, 25.446658598000056], [86.38721240100006, 25.44693429800003], [86.38698701700008, 25.447279019000064], [86.38699310600003, 25.44792882200005], [86.38658465400005, 25.448378829000035], [86.38560829900007, 25.448693207000076], [86.38493253000007, 25.44873006000006], [86.38451429900005, 25.44866556100004], [86.38417274500006, 25.44829360700004], [86.38375597900006, 25.447850032000076], [86.38345280700008, 25.44785237700006], [86.38312081600003, 25.448504856000056], [86.38241431500006, 25.449503117000063], [86.38193643300008, 25.450499705000027], [86.38180783000007, 25.451096364000023], [86.38286841700005, 25.451805767000053], [86.38294517200006, 25.45204435100004], [86.38290863800006, 25.45238764800007], [86.38272824400008, 25.452768096000057], [86.38231256700004, 25.452974433000065], [86.38126033400005, 25.453153989000043], [86.38099744800007, 25.45322367500006], [86.38092455500004, 25.453395728000032], [86.38092573300008, 25.45353110700006], [86.38104365300006, 25.453909320000037], [86.38134995300004, 25.454759951000028], [86.38139669500003, 25.455513195000037], [86.38221977300003, 25.455267710000044], [86.38312355000005, 25.455156905000024], [86.38376520600008, 25.455188075000024], [86.38452492400006, 25.455624440000065], [86.38486882900008, 25.45624006500003], [86.38435245800008, 25.457372286000066], [86.38362675000008, 25.458452040000054], [86.38333661600007, 25.459857773000067], [86.38282280200008, 25.461265248000075], [86.38302482500006, 25.462662699000077], [86.38338124800003, 25.46460959700005], [86.38400094500008, 25.46600828000004], [86.38503938800005, 25.466460625000025], [86.38587889900003, 25.467442406000032], [86.38649017500006, 25.468466654000053], [86.38695221100005, 25.469487556000047], [86.38729449600004, 25.46993169900003], [86.38771013400003, 25.47023527600004], [86.38813610100004, 25.471121035000067], [86.38840059000006, 25.471222813000054], [86.38869856300005, 25.471184376000053], [86.38899957500007, 25.470942859000047], [86.38884241700003, 25.470091172000025], [86.38887564100008, 25.469919369000024], [86.38898997300004, 25.46991852900004], [86.38925472000005, 25.47005189400005], [86.39001227500006, 25.470763505000036], [86.39107286100005, 25.470926818000066], [86.39295124500006, 25.470808414000032], [86.39344162800006, 25.47060146000007], [86.39414583000007, 25.469363912000063], [86.39462888900005, 25.46891339600006], [86.39500677400008, 25.468910438000023], [86.39568358400004, 25.468977422000023], [86.39629077600006, 25.46904036500007], [86.39651808800005, 25.469413134000035], [86.39671024600005, 25.46975464700006], [86.39707782600004, 25.47075813600003], [86.39755431200007, 25.473286161000033], [86.39806953100003, 25.47622457400007], [86.39882437300008, 25.478217920000077], [86.39948014100008, 25.479720077000025], [86.40013121600003, 25.481253839000033], [86.40116559600006, 25.48282079200004], [86.40173831600003, 25.48343006600004], [86.40297939400006, 25.483212740000056]]]]}}, {"type": "Feature", "properties": {"OBJECTID": 1823, "GPCODE": "091902", "GPNAME_1": "PACHBIR", "DIST_CEN_C": null, "BLK_NAME": "SAHEBPUR KAMAL", "ST_NAME": "BIHAR", "ST_CODE_1": null, "GPCODE2011": "94457", "REMARKS": null, "MAP_STATUS": null, "BLK_C_2001": "200015", "BLK_C_2011": "01318", "DIST_NAME": "BEGUSARAI", "code2011": 0.0, "Shape_Leng": 0.2229895128, "Shape_Area": 0.00072608367, "Area": 8.08634}, "geometry": {"type": "MultiPolygon", "coordinates": [[[[86.39791312500006, 25.44143101900005], [86.39664613000008, 25.44149959400005], [86.39549106300007, 25.44131903300007], [86.39463848500003, 25.44052236500005], [86.39354574200007, 25.43956515700006], [86.39337287800004, 25.437048238000045], [86.39310699500004, 25.436797555000055], [86.39251964200008, 25.43671637400007], [86.39142539200003, 25.436639134000075], [86.39011017400009, 25.435800981000057], [86.38874484400003, 25.43491798900004], [86.38718795100004, 25.43375211800003], [86.38550167000005, 25.43256475000004], [86.38459873100004, 25.431691700000044], [86.38434701600005, 25.43081809000006], [86.38379209600004, 25.429951343000027], [86.38356764400004, 25.429867349000062], [86.38322466100004, 25.42987004500003], [86.38259040600008, 25.43007801600004], [86.38217418000005, 25.430221088000053], [86.38181574700008, 25.430156150000073], [86.38150993400006, 25.42988323000003], [86.38103206800008, 25.428740600000026], [86.38112326300006, 25.428396892000023], [86.38144982200004, 25.42823190100006], [86.38303910600007, 25.427041775000077], [86.38319647200007, 25.42579045100007], [86.38275996100003, 25.424295572000062], [86.38252024000008, 25.423115041000074], [86.38240744000007, 25.421148214000027], [86.38164884800005, 25.420283023000025], [86.38106825400007, 25.419849774000056], [86.38096494600006, 25.41889376300003], [86.38057904800007, 25.417493250000064], [86.38103933100007, 25.416754039000068], [86.38160566300007, 25.415662121000025], [86.38241449700007, 25.415520482000034], [86.38258260300006, 25.41543340900006], [86.38247154300007, 25.413651682000022], [86.38286740900008, 25.41346356300005], [86.38435111700005, 25.413226503000033], [86.38582326700003, 25.41333695800006], [86.38647921300003, 25.41279935500006], [86.38711502000007, 25.41223033400007], [86.38747286500006, 25.41222756800005], [86.38770884000007, 25.412492024000073], [86.38881193500004, 25.41352596200005], [86.38930522700008, 25.413657556000032], [86.38992577000005, 25.413584994000075], [86.39183872000007, 25.413006058000065], [86.39346702800003, 25.412812883000072], [86.39337088700006, 25.410521061000054], [86.39329835000007, 25.40969119600004], [86.39335190600008, 25.40957345700008], [86.39603187100005, 25.40813098700005], [86.39871183000008, 25.407216558000073], [86.39987281700007, 25.40648991000006], [86.40188190200007, 25.40558515200007], [86.40276925600006, 25.40483357200003], [86.40278520000004, 25.40442274800006], [86.40242222800003, 25.40387500500003], [86.40136117500003, 25.40361258100006], [86.40124746800007, 25.403148608000038], [86.40117422900005, 25.401714025000047], [86.40091591400005, 25.40120608700005], [86.39991616300006, 25.40111009000003], [86.39948654800008, 25.401388740000073], [86.39926854800007, 25.401986178000072], [86.39921312900003, 25.402433365000036], [86.39866697600007, 25.40248732500004], [86.39737351100007, 25.402858468000034], [86.39643147000004, 25.40308694500004], [86.39582536500006, 25.402577135000058], [86.39520209900007, 25.40236091400004], [86.39430362500008, 25.402462653000043], [86.39399380700007, 25.405443597000044], [86.39380658700009, 25.40561660000003], [86.39286772100007, 25.405655504000038], [86.39192429300005, 25.405735035000077], [86.39180860300007, 25.40559599000005], [86.39139040000003, 25.404985457000066], [86.39108565600003, 25.404816340000025], [86.39078755600008, 25.404818679000073], [86.39037139900006, 25.40495726200004], [86.38902239600003, 25.405243006000035], [86.38679836400007, 25.40549937700007], [86.38656002700003, 25.40392621700005], [86.38795136400006, 25.40391550800007], [86.38870600700005, 25.403841938000028], [86.38869860200003, 25.403052227000046], [86.38846720500004, 25.402747138000052], [86.38769710900004, 25.402771133000044], [86.38607778800008, 25.40285139200006], [86.38557099100007, 25.400734202000024], [86.38406396100004, 25.40112490100006], [86.38376988800007, 25.401569379000023], [86.38377698200009, 25.402322988000037], [86.38328825000008, 25.402669807000052], [86.38280125700004, 25.402673552000067], [86.38174408700007, 25.402817037000034], [86.38095788600003, 25.403233767000074], [86.37953275800004, 25.403894582000078], [86.37866753000003, 25.40383354200003], [86.37824955500008, 25.403769112000077], [86.37801570700003, 25.40267418700006], [86.37778589100003, 25.402540565000038], [86.37703392700007, 25.402374894000047], [86.37684887400007, 25.402786957000046], [86.37723196400003, 25.40336617300005], [86.37697239100004, 25.40377890600007], [86.37662957400005, 25.403781492000064], [86.37602418200004, 25.403339294000034], [86.37558973800003, 25.40312149300007], [86.37476084700006, 25.403231680000033], [86.37415995800006, 25.403272327000025], [86.37223946000006, 25.40355783700005], [86.37182034300008, 25.40284346100003], [86.37105266800006, 25.401513427000054], [86.37048925400006, 25.401314640000066], [86.36984734000004, 25.401215722000074], [86.36977537200005, 25.40149156700005], [86.36966454800006, 25.401867035000066], [86.36997578900008, 25.402753709000024], [86.37024804700008, 25.403712924000047], [86.37002269300007, 25.404057628000032], [86.36953658200008, 25.404160611000066], [86.36938102000005, 25.403990298000053], [86.36888739400007, 25.403276490000053], [86.36843236600004, 25.402973006000025], [86.36839262100005, 25.402973349000035], [86.36644704900004, 25.404324005000035], [86.36644768100007, 25.404391694000026], [86.36683353200004, 25.405277796000064], [86.36672370600007, 25.405757050000034], [86.36604906000008, 25.405897521000043], [86.36506954900005, 25.405837228000053], [86.36476014800007, 25.405158131000064], [86.36370916700008, 25.405436852000037], [86.36337655500006, 25.406021615000043], [86.36396945800004, 25.40726718800005], [86.36450435500007, 25.408152151000024], [86.36530905300003, 25.409721149000063], [86.36561657500005, 25.410197176000054], [86.36531503000003, 25.410370967000063], [86.36448479600006, 25.41034111500005], [86.36399968500007, 25.41055238200005], [86.36355149900004, 25.410998074000076], [86.36337273900006, 25.41209612800003], [86.36375426000006, 25.412503893000064], [86.36405527700003, 25.412808460000065], [86.36477341300008, 25.413078307000035], [86.36575361100006, 25.41320629100005], [86.36613133300006, 25.413203403000068], [86.36643316400006, 25.41306580500003], [86.36635173900004, 25.412312677000045], [86.36672719000006, 25.41207071300005], [86.36706480000004, 25.41203648800007], [86.36740429000008, 25.412200907000056], [86.36774471100006, 25.41247363100007], [86.36767500700006, 25.412988640000037], [86.36823437000004, 25.41436989700003], [86.36851235500006, 25.415942821000044], [86.36901954900009, 25.417581690000077], [86.36996233300005, 25.41795357700005], [86.37019244500004, 25.418123313000024], [86.37019753700008, 25.41866933700004], [86.36951950700006, 25.41898141100006], [86.36895791700005, 25.41898568700003], [86.36839135800005, 25.41898998100004], [86.36851265000007, 25.41974275800004], [86.36869877400005, 25.41998045200006], [86.36907641900007, 25.419977653000046], [86.36945251500003, 25.419803281000043], [86.37020546200006, 25.419526731000076], [86.37069252000003, 25.419523025000046], [86.37084782500006, 25.419657233000066], [86.37189979300007, 25.42161688500005], [86.37251472400004, 25.42308345300006], [86.37348132200003, 25.425472420000062], [86.37398840200007, 25.42762581100004], [86.37485715200006, 25.42965451200007], [86.37536719200006, 25.432114652000053], [86.37564103900007, 25.432694764000075], [86.37710401800007, 25.432340530000033], [86.37815618700006, 25.43216099600005], [86.37834759700007, 25.432434760000035], [86.37847408700009, 25.433733542000027], [86.37844348900006, 25.43472665400003], [86.37803193500008, 25.434833592000075], [86.37705245800004, 25.434805057000062], [86.37705503000007, 25.435080322000033], [86.37706455600005, 25.436109187000056], [86.37733984600004, 25.43737070800006], [86.37790043800004, 25.438855697000065], [86.37833393400007, 25.44056278100004], [86.37882867500008, 25.441380335000076], [86.37892146600007, 25.443329169000037], [86.37870131600005, 25.443709960000035], [86.37806548800006, 25.44429256500007], [86.37776543400008, 25.444637855000053], [86.37762174100004, 25.44522112900006], [86.37755771900004, 25.44634983900005], [86.37792436500007, 25.447290216000056], [86.37879629300005, 25.448032649000027], [86.37966835900005, 25.44877967700006], [86.38019492800004, 25.44874401100003], [86.38061095300003, 25.44856926400007], [86.38158987900005, 25.44852566800006], [86.38312081600003, 25.448504856000056], [86.38345280700008, 25.44785237700006], [86.38375597900006, 25.447850032000076], [86.38417274500006, 25.44829360700004], [86.38451429900005, 25.44866556100004], [86.38493253000007, 25.44873006000006], [86.38560829900007, 25.448693207000076], [86.38658465400005, 25.448378829000035], [86.38699310600003, 25.44792882200005], [86.38698701700008, 25.447279019000064], [86.38721240100006, 25.44693429800003], [86.38785116100007, 25.446658598000056], [86.38791794800005, 25.445836737000036], [86.38791275200003, 25.44528611800007], [86.38865917200008, 25.444838121000032], [86.39015729600004, 25.443968985000026], [86.38986578500004, 25.443100251000033], [86.38982415000004, 25.442383090000078], [86.38989648200004, 25.44214334000003], [86.39042209300004, 25.44200384900006], [86.39151887800006, 25.442333794000035], [86.39246255500007, 25.442773226000043], [86.39246931700006, 25.443490719000067], [86.39499451500006, 25.443471086000045], [86.39563075800004, 25.443466129000058], [86.39645598300007, 25.44294519400006], [86.39791312500006, 25.44143101900005]]]]}}, {"type": "Feature", "properties": {"OBJECTID": 1824, "GPCODE": "091903", "GPNAME_1": "PHOOLMLIK", "DIST_CEN_C": null, "BLK_NAME": "SAHEBPUR KAMAL", "ST_NAME": "BIHAR", "ST_CODE_1": null, "GPCODE2011": "94458", "REMARKS": null, "MAP_STATUS": null, "BLK_C_2001": "200015", "BLK_C_2011": "01318", "DIST_NAME": "BEGUSARAI", "code2011": 0.0, "Shape_Leng": 0.08997734811, "Shape_Area": 0.00043696735, "Area": 4.86702}, "geometry": {"type": "MultiPolygon", "coordinates": [[[[86.43821496300006, 25.401058454000065], [86.43707223400008, 25.401586654000027], [86.43655544100005, 25.40159088400003], [86.43544516200006, 25.400367773000028], [86.43217334700006, 25.396088702000043], [86.43111366100004, 25.393917541000064], [86.42879072400007, 25.393674394000072], [86.42311104000004, 25.39367463600007], [86.41701989900008, 25.394291757000076], [86.41550933800005, 25.39430370300005], [86.41529452300006, 25.39469807200004], [86.41511357200005, 25.395520832000045], [86.41467196800005, 25.39662100700008], [86.41351115100008, 25.397347678000074], [86.41306661300007, 25.398140986000044], [86.41304558400003, 25.399576247000027], [86.41365344700006, 25.400257468000063], [86.41437453500004, 25.40083394800007], [86.41449276700007, 25.401243645000022], [86.41396829600006, 25.401487014000054], [86.41593996400007, 25.40290651500004], [86.41885213400008, 25.404458416000068], [86.42008564300005, 25.405594907000022], [86.42070146900005, 25.40658284400007], [86.42131925800004, 25.408288305000042], [86.42230652800004, 25.409137947000033], [86.42321459900006, 25.409505242000023], [86.42348925600004, 25.410667426000032], [86.42369364700005, 25.41227235300005], [86.42432758100006, 25.413585114000057], [86.42429516100003, 25.41433898200006], [86.42381800100009, 25.41536721600005], [86.42386614000003, 25.416224340000042], [86.42409534800004, 25.41680466300005], [86.42423235300004, 25.417092422000053], [86.42524619600005, 25.417084313000032], [86.42599954400004, 25.416870671000027], [86.42808360600003, 25.41805448300005], [86.42913949400008, 25.41828515900005], [86.43056844100005, 25.418034542000044], [86.43290055700004, 25.417636711000057], [86.43371174000004, 25.417752027000063], [86.43420981100007, 25.41836623100005], [86.43552849700006, 25.41852708600004], [86.43925546500003, 25.41846087700003], [86.43957073000007, 25.417163199000072], [86.43944902300007, 25.416410477000056], [86.43907675400004, 25.412920531000054], [86.43895056800005, 25.409685789000036], [86.43924356500008, 25.405098274000068], [86.43895394100008, 25.402428902000054], [86.43821496300006, 25.401058454000065]]]]}}, {"type": "Feature", "properties": {"OBJECTID": 1825, "GPCODE": "91905", "GPNAME_1": "RAGHUNATHPUR BARARI", "DIST_CEN_C": null, "BLK_NAME": "SAHEBPUR KAMAL", "ST_NAME": "BIHAR", "ST_CODE_1": null, "GPCODE2011": "94460", "REMARKS": null, "MAP_STATUS": null, "BLK_C_2001": "200015", "BLK_C_2011": "01318", "DIST_NAME": "BEGUSARAI", "code2011": 0.0, "Shape_Leng": 0.24296167454, "Shape_Area": 0.0015362582, "Area": 17.1076}, "geometry": {"type": "MultiPolygon", "coordinates": [[[[86.50054721600009, 25.422790104000057], [86.50336351200008, 25.421646930000065], [86.50391803900004, 25.421921995000048], [86.50405032800006, 25.42270160000004], [86.50422438400005, 25.42462715000005], [86.50497732300005, 25.42629494700003], [86.50663261700004, 25.42678630200004], [86.50825152000004, 25.427602829000023], [86.50870077500008, 25.42683180000006], [86.50889440100008, 25.424415691000036], [86.50921514900006, 25.42180454000004], [86.50919506600007, 25.42178668100007], [86.50915479800005, 25.420780621000063], [86.50915418500006, 25.420767090000027], [86.50907097700008, 25.418931069000053], [86.50901650700007, 25.417514506000032], [86.50907423300004, 25.414467909000052], [86.50898105000005, 25.41411213300006], [86.51063757800006, 25.414255956000034], [86.51190147400007, 25.414402986000027], [86.51412090800005, 25.414189880000038], [86.51445467600007, 25.41284222300004], [86.51409901200003, 25.412091630000077], [86.51145535300003, 25.409266763000062], [86.51075250000008, 25.408582247000027], [86.51006694800003, 25.408127797000077], [86.50926656500008, 25.40810760000005], [86.50879347200004, 25.40849074700003], [86.50832867100007, 25.40919426100004], [86.50800847100004, 25.40995057600003], [86.50768492100008, 25.410382076000076], [86.50721432400007, 25.41052151100007], [86.50525772600008, 25.410673648000056], [86.50374567300008, 25.410551072000032], [86.50122700100007, 25.410653767000042], [86.49933064100009, 25.41085950400003], [86.49764312700006, 25.411076825000066], [86.49768473000006, 25.41222278400005], [86.49424522100009, 25.412399185000027], [86.49325890400007, 25.412449770000023], [86.48774071900004, 25.41278066700005], [86.48237368400004, 25.412825792000035], [86.48169350300003, 25.41338205900007], [86.48022524200007, 25.41366510900008], [86.47768811900005, 25.413907402000063], [86.47340099500008, 25.414593013000058], [86.47031896400006, 25.41502930100006], [86.46700971800004, 25.415602792000072], [86.46415282800007, 25.41617697500004], [86.46221957700004, 25.41668478500003], [86.46128507400005, 25.41717094100005], [86.46060971800006, 25.41772248500007], [86.45975041000008, 25.418275610000023], [86.45948736600008, 25.418313933000036], [86.45925811800004, 25.418248121000033], [86.45853320100008, 25.417328905000034], [86.45819600400006, 25.417399428000067], [86.45699940900005, 25.418027486000028], [86.45609661300006, 25.418201898000063], [86.45492777400005, 25.41811218500004], [86.45371963400004, 25.417571457000065], [86.45224186500008, 25.416902178000043], [86.45030312200004, 25.416863817000035], [86.44932716900007, 25.41717869400003], [86.44809523300006, 25.41824927600004], [86.44757280000005, 25.418700242000057], [86.44629469700004, 25.419121361000066], [86.44435047600007, 25.42054066600008], [86.44281751300008, 25.421338384000023], [86.44305261800008, 25.422500795000076], [86.44334955000005, 25.423879355000054], [86.44426620800004, 25.425103911000065], [86.44544595400004, 25.426290255000026], [86.44537931600007, 25.427590502000044], [86.44621836100004, 25.428504291000024], [86.44641543400007, 25.429324075000068], [86.44657362400005, 25.43024792500006], [86.44705742300005, 25.43142182200006], [86.44755539200008, 25.432514422000054], [86.44756178800003, 25.433164228000066], [86.44746060400007, 25.43398637000007], [86.44686576400005, 25.435155546000033], [86.44548616900005, 25.436394284000073], [86.44424427700005, 25.436476672000026], [86.44338205800005, 25.436754437000047], [86.44225945500006, 25.43734566100005], [86.44202998100008, 25.439279054000053], [86.44181435400003, 25.440102164000052], [86.44175331500008, 25.441470064000043], [86.44145921100005, 25.442393077000077], [86.44147581000004, 25.443248099000073], [86.44189600600004, 25.444343653000033], [86.44184909700004, 25.447660977000055], [86.44158118000007, 25.44922467200007], [86.44099446600006, 25.450736746000075], [86.44116855700008, 25.453267032000042], [86.44105515100006, 25.456896285000028], [86.44166657200003, 25.46344410000006], [86.44164409800004, 25.46519077800008], [86.44190774300006, 25.46722397600007], [86.44186891200007, 25.468835349000074], [86.44327573400005, 25.46880132800004], [86.44444606200005, 25.468484981000074], [86.44478694500003, 25.46725923500003], [86.44525602400006, 25.46491321900004], [86.44642891600006, 25.460842037000077], [86.44764294700008, 25.456923993000032], [86.44857005200004, 25.454655457000058], [86.45351275800004, 25.449750141000038], [86.45550171600007, 25.447793346000026], [86.45948373100003, 25.44331989500006], [86.46111253600003, 25.44214665900006], [86.46404868100007, 25.440985154000032], [86.46821294100005, 25.43935317200004], [86.47122525600008, 25.438357868000026], [86.47754243300005, 25.435331277000046], [86.47979427900003, 25.433868304000043], [86.48685933400003, 25.430126527000027], [86.49436689200007, 25.42499973200006], [86.49764384400004, 25.424296927000057], [86.49780305100006, 25.42426181600007], [86.50054721600009, 25.422790104000057]]]]}}, {"type": "Feature", "properties": {"OBJECTID": 1826, "GPCODE": "091906", "GPNAME_1": "RAHUA", "DIST_CEN_C": null, "BLK_NAME": "SAHEBPUR KAMAL", "ST_NAME": "BIHAR", "ST_CODE_1": null, "GPCODE2011": "94461", "REMARKS": null, "MAP_STATUS": null, "BLK_C_2001": "200015", "BLK_C_2011": "01318", "DIST_NAME": "BEGUSARAI", "code2011": 0.0, "Shape_Leng": 0.11326857008, "Shape_Area": 0.00048194628, "Area": 5.3659}, "geometry": {"type": "MultiPolygon", "coordinates": [[[[86.43695596600008, 25.469299395000064], [86.43620815500003, 25.466056096000045], [86.43526466800006, 25.462128471000028], [86.43438229800006, 25.458841171000074], [86.43341016100004, 25.455527552000035], [86.43217438200008, 25.452184413000055], [86.43130343100006, 25.450056792000055], [86.43106794800008, 25.448339229000055], [86.43094667300005, 25.446106347000068], [86.42955517900003, 25.44615363500003], [86.42831514600005, 25.44643435200004], [86.42782904700005, 25.446542024000053], [86.42744589200004, 25.44599905000007], [86.42689460100007, 25.445538681000073], [86.42655052200007, 25.444923145000075], [86.42422549400004, 25.442003815000078], [86.42208878700006, 25.439520714000025], [86.42133485800008, 25.439188302000048], [86.42057708800007, 25.438955084000042], [86.42011648700003, 25.438101321000033], [86.41830666700008, 25.43549371000006], [86.41601630500008, 25.436130216000038], [86.41477465800006, 25.43624386500005], [86.41411207000004, 25.436091161000036], [86.41275782200006, 25.43637712800006], [86.41122381700006, 25.437106838000034], [86.41051401100003, 25.437726178000048], [86.41036445900005, 25.43820572000004], [86.41101195800007, 25.438850480000042], [86.41105622800006, 25.439328550000027], [86.40858574700007, 25.44089146500005], [86.40861635500005, 25.442005881000057], [86.40896680500003, 25.443302851000055], [86.40993246200009, 25.443958603000056], [86.41114760400006, 25.444702705000054], [86.41129971300006, 25.445008364000046], [86.41173096100005, 25.446954534000042], [86.41197408500005, 25.44845548400008], [86.41254107600008, 25.448997064000025], [86.41325990400009, 25.449302687000056], [86.41420534600007, 25.44939450100003], [86.41420602700003, 25.449466702000052], [86.41443430400005, 25.44994323800006], [86.41492710500006, 25.450007060000075], [86.41556674500004, 25.44983052200007], [86.41582723600004, 25.44952152600007], [86.41887279500008, 25.449325849000047], [86.42196772800008, 25.44960805900007], [86.42171058100007, 25.450260016000072], [86.42131570800007, 25.450551923000035], [86.41970005900004, 25.451074849000065], [86.41951480600005, 25.451455363000036], [86.41978191900006, 25.451827837000053], [86.42046929400004, 25.452472197000077], [86.42069627900008, 25.452813349000053], [86.42058661300007, 25.453292628000042], [86.41959372900004, 25.45755616100007], [86.41947738000005, 25.461456250000026], [86.41998778000004, 25.463334067000062], [86.42069847000005, 25.464849266000044], [86.42169121800003, 25.46621330200003], [86.42310520900008, 25.467943968000043], [86.42383138200006, 25.468998700000043], [86.42391661800008, 25.470094716000062], [86.42494077200007, 25.47007744700005], [86.42679958600007, 25.471019281000054], [86.42778442500008, 25.471562009000024], [86.42948114900008, 25.47168377400004], [86.43057801900005, 25.47198184800004], [86.43128589100007, 25.47115476400006], [86.43218344200005, 25.470398395000075], [86.43326928700003, 25.469568338000045], [86.43499444900004, 25.469039912000028], [86.43695596600008, 25.469299395000064]]]]}}, {"type": "Feature", "properties": {"OBJECTID": 1827, "GPCODE": "091907", "GPNAME_1": "SABDALPUR", "DIST_CEN_C": null, "BLK_NAME": "SAHEBPUR KAMAL", "ST_NAME": "BIHAR", "ST_CODE_1": null, "GPCODE2011": "94462", "REMARKS": null, "MAP_STATUS": null, "BLK_C_2001": "200015", "BLK_C_2011": "01318", "DIST_NAME": "BEGUSARAI", "code2011": 0.0, "Shape_Leng": 0.192018752, "Shape_Area": 0.00108423808, "Area": 12.0759}, "geometry": {"type": "MultiPolygon", "coordinates": [[[[86.43152620600006, 25.430107942000063], [86.43235869500006, 25.429338578000056], [86.43242121500003, 25.428097017000027], [86.43268359100006, 25.42647025800005], [86.43358981400007, 25.426634424000042], [86.43577839800008, 25.42678829500005], [86.43702493900008, 25.42718891000004], [86.43759219700007, 25.427251961000024], [86.43860410900004, 25.427040701000067], [86.44014297900009, 25.426342287000068], [86.44178958600008, 25.424961575000054], [86.44206019100005, 25.423677730000065], [86.44334955000005, 25.423879355000054], [86.44305261800008, 25.422500795000076], [86.44281751300008, 25.421338384000023], [86.44435047600007, 25.42054066600008], [86.44629469700004, 25.419121361000066], [86.44757280000005, 25.418700242000057], [86.44809523300006, 25.41824927600004], [86.44932716900007, 25.41717869400003], [86.45030312200004, 25.416863817000035], [86.45224186500008, 25.416902178000043], [86.45371963400004, 25.417571457000065], [86.45492777400005, 25.41811218500004], [86.45609661300006, 25.418201898000063], [86.45699940900005, 25.418027486000028], [86.45819600400006, 25.417399428000067], [86.45853320100008, 25.417328905000034], [86.45925811800004, 25.418248121000033], [86.45948736600008, 25.418313933000036], [86.45975041000008, 25.418275610000023], [86.46060971800006, 25.41772248500007], [86.46128507400005, 25.41717094100005], [86.46221957700004, 25.41668478500003], [86.46415282800007, 25.41617697500004], [86.46700971800004, 25.415602792000072], [86.47031896400006, 25.41502930100006], [86.47340099500008, 25.414593013000058], [86.47768811900005, 25.413907402000063], [86.48022524200007, 25.41366510900008], [86.48169350300003, 25.41338205900007], [86.48237368400004, 25.412825792000035], [86.48137062100005, 25.411931571000025], [86.48033163500008, 25.409453704000043], [86.47939979300008, 25.405296098000065], [86.47751855000007, 25.39963004200007], [86.47575699700008, 25.39791635200004], [86.47271593400006, 25.39595590600004], [86.47113545400003, 25.394452774000058], [86.46992366800004, 25.393041204000042], [86.46752518800008, 25.39108855300003], [86.46572030800007, 25.389619163000077], [86.46265533900004, 25.387726411000074], [86.45986141400004, 25.390069091000043], [86.45765058500007, 25.392596379000054], [86.45912764200006, 25.394714332000035], [86.45934244800009, 25.395326356000055], [86.45919590100004, 25.396085740000046], [86.45852319700003, 25.39689459500005], [86.45697568800006, 25.398184427000047], [86.45639929000004, 25.39818918000003], [86.45598103900005, 25.398097792000044], [86.45467169300008, 25.397354911000036], [86.45357608400008, 25.397124683000072], [86.45311094200008, 25.397317994000048], [86.45305955400005, 25.397652363000077], [86.45306660300008, 25.398360844000024], [86.45307458100007, 25.399164091000046], [86.45265818900003, 25.399262317000023], [86.45193171100004, 25.39917342900003], [86.44778504300007, 25.398945557000047], [86.44418704400005, 25.398925098000063], [86.44262464800005, 25.399222122000026], [86.44117337900008, 25.399707713000055], [86.43821496300006, 25.401058454000065], [86.43895394100008, 25.402428902000054], [86.43924356500008, 25.405098274000068], [86.43895056800005, 25.409685789000036], [86.43907675400004, 25.412920531000054], [86.43944902300007, 25.416410477000056], [86.43957073000007, 25.417163199000072], [86.43925546500003, 25.41846087700003], [86.43552849700006, 25.41852708600004], [86.43420981100007, 25.41836623100005], [86.43371174000004, 25.417752027000063], [86.43290055700004, 25.417636711000057], [86.43056844100005, 25.418034542000044], [86.42913949400008, 25.41828515900005], [86.42808360600003, 25.41805448300005], [86.42599954400004, 25.416870671000027], [86.42524619600005, 25.417084313000032], [86.42423235300004, 25.417092422000053], [86.42409534800004, 25.41680466300005], [86.42077057300008, 25.419908991000057], [86.41829110800006, 25.42254624700007], [86.41709430000003, 25.423683934000053], [86.41859600600003, 25.42530121300007], [86.41921030500004, 25.42611766600004], [86.42049487500003, 25.42685661200005], [86.42129765800007, 25.427640008000026], [86.42179338600005, 25.428525114000024], [86.42308393800005, 25.429372229000023], [86.42383260800005, 25.430196640000077], [86.42430354200008, 25.43007099500005], [86.42648814500006, 25.429809842000054], [86.42810807500007, 25.42976526500007], [86.42894339800006, 25.430304695000075], [86.42962817300008, 25.43089980800005], [86.42963023600004, 25.430899383000053], [86.43077117200005, 25.430664584000056], [86.43152620600006, 25.430107942000063]]]]}}, {"type": "Feature", "properties": {"OBJECTID": 1828, "GPCODE": "091908", "GPNAME_1": "SADPUR EAST", "DIST_CEN_C": null, "BLK_NAME": "SAHEBPUR KAMAL", "ST_NAME": "BIHAR", "ST_CODE_1": null, "GPCODE2011": "94463", "REMARKS": null, "MAP_STATUS": null, "BLK_C_2001": "200015", "BLK_C_2011": "01318", "DIST_NAME": "BEGUSARAI", "code2011": 0.0, "Shape_Leng": 0.25818980477, "Shape_Area": 0.0010543195, "Area": 11.7364}, "geometry": {"type": "MultiPolygon", "coordinates": [[[[86.40841057200004, 25.505066559000056], [86.40884467100005, 25.504688603000034], [86.40936520500009, 25.503993939000054], [86.40947474200004, 25.503492213000072], [86.40991949800008, 25.502157364000027], [86.41012191600004, 25.50044983600003], [86.40863179500008, 25.499103253000044], [86.40722160000007, 25.497783112000036], [86.40575007500007, 25.497316365000074], [86.40397926900005, 25.497294212000043], [86.40288104200005, 25.496860579000042], [86.40211565600003, 25.495873716000062], [86.40142889600008, 25.49478245000006], [86.40134516500007, 25.493826415000058], [86.40159633800005, 25.49252472200004], [86.39704116500008, 25.493074858000057], [86.39600899100003, 25.49330857700005], [86.39565540400008, 25.492214697000065], [86.39662918500005, 25.49159332800008], [86.39692771700004, 25.491076537000026], [86.39692017300007, 25.490291291000062], [86.39718051100004, 25.489946323000026], [86.39822752100008, 25.489184470000055], [86.39961441000008, 25.48808144900005], [86.40087004000009, 25.48937137000007], [86.40147917400003, 25.49015178600007], [86.40391963900004, 25.490010804000065], [86.40471023600008, 25.49000460600007], [86.40583320600007, 25.489381991000073], [86.40606190100004, 25.489380194000034], [86.40632578400005, 25.48941416300005], [86.40632879000003, 25.48972109500005], [86.40599219500007, 25.490405120000048], [86.40573647800005, 25.491228508000063], [86.40581905000005, 25.491539249000027], [86.40608255300003, 25.491537212000026], [86.40626556300003, 25.491431909000028], [86.40653085000008, 25.49108690500003], [86.40693571100007, 25.490262331000054], [86.40719960100006, 25.490296390000026], [86.40720906200005, 25.491284605000033], [86.40751169900005, 25.491728959000056], [86.40815380900005, 25.491791615000068], [86.40862443200007, 25.491598332000024], [86.40905656800004, 25.491026341000065], [86.40865276500006, 25.488326311000037], [86.40769213500005, 25.488767111000072], [86.40701693800008, 25.488876254000047], [86.40606714400008, 25.48836926100006], [86.40549776100005, 25.487588510000023], [86.40549248800005, 25.487037904000033], [86.40510771500004, 25.486323414000026], [86.40313548400007, 25.483933543000035], [86.40297939400006, 25.483212740000056], [86.40173831600003, 25.48343006600004], [86.40116559600006, 25.48282079200004], [86.40013121600003, 25.481253839000033], [86.39948014100008, 25.479720077000025], [86.39882437300008, 25.478217920000077], [86.39806953100003, 25.47622457400007], [86.39755431200007, 25.473286161000033], [86.39707782600004, 25.47075813600003], [86.39671024600005, 25.46975464700006], [86.39651808800005, 25.469413134000035], [86.39629077600006, 25.46904036500007], [86.39568358400004, 25.468977422000023], [86.39500677400008, 25.468910438000023], [86.39462888900005, 25.46891339600006], [86.39414583000007, 25.469363912000063], [86.39344162800006, 25.47060146000007], [86.39295124500006, 25.470808414000032], [86.39107286100005, 25.470926818000066], [86.39001227500006, 25.470763505000036], [86.38925472000005, 25.47005189400005], [86.38898997300004, 25.46991852900004], [86.38887564100008, 25.469919369000024], [86.38884241700003, 25.470091172000025], [86.38899957500007, 25.470942859000047], [86.38869856300005, 25.471184376000053], [86.38840059000006, 25.471222813000054], [86.38813610100004, 25.471121035000067], [86.38771013400003, 25.47023527600004], [86.38729449600004, 25.46993169900003], [86.38695221100005, 25.469487556000047], [86.38649017500006, 25.468466654000053], [86.38587889900003, 25.467442406000032], [86.38503938800005, 25.466460625000025], [86.38400094500008, 25.46600828000004], [86.38338124800003, 25.46460959700005], [86.38302482500006, 25.462662699000077], [86.38282280200008, 25.461265248000075], [86.38333661600007, 25.459857773000067], [86.38362675000008, 25.458452040000054], [86.38435245800008, 25.457372286000066], [86.38486882900008, 25.45624006500003], [86.38452492400006, 25.455624440000065], [86.38376520600008, 25.455188075000024], [86.38312355000005, 25.455156905000024], [86.38221977300003, 25.455267710000044], [86.38139669500003, 25.455513195000037], [86.37970037100007, 25.455932422000046], [86.37920692600005, 25.455800802000056], [86.37879209500005, 25.45556488300008], [86.37841039300008, 25.455157073000066], [86.37829105200007, 25.454611981000028], [86.37804627300005, 25.454487450000045], [86.37714237300008, 25.454593716000034], [86.37639175400005, 25.45459942800005], [86.37570994000004, 25.454340134000063], [86.37085212700003, 25.457348014000047], [86.36863922900005, 25.45941814500003], [86.36678324900004, 25.461059973000033], [86.36521280500006, 25.463915327000052], [86.36428481500008, 25.466842064000048], [86.36264298700007, 25.470411255000045], [86.36128669400006, 25.47176754800006], [86.36098241800005, 25.475440356000036], [86.36143489400007, 25.475437001000046], [86.36186396800008, 25.476665771000057], [86.36131666300008, 25.48041570500004], [86.36215462900003, 25.48069364500003], [86.36319598000006, 25.48092039900007], [86.36430185200004, 25.48167016600007], [86.36503488400007, 25.482422788000065], [86.36548268200005, 25.485686745000066], [86.36606867100005, 25.49259169900006], [86.36683097100007, 25.493276319000074], [86.36814165900006, 25.49411475200003], [86.36971124100006, 25.494436781000047], [86.37095764300005, 25.494237741000063], [86.37116253900007, 25.493807395000033], [86.37058539000003, 25.493247668000038], [86.36917286900007, 25.492689902000052], [86.36838818600006, 25.492267110000057], [86.36812198100006, 25.491984804000026], [86.36790960300004, 25.491607334000037], [86.36801099100006, 25.491277142000058], [86.36858738900008, 25.491227594000065], [86.36962970900004, 25.491549156000076], [86.37135738100005, 25.49229407100006], [86.37225274300005, 25.49285583300008], [86.37271801000009, 25.492613134000067], [86.37364864900007, 25.491613117000043], [86.37476940300007, 25.489140490000068], [86.37554274500008, 25.487812322000025], [86.37600439500005, 25.487190480000038], [86.37610444000006, 25.486715883000045], [86.37568271500004, 25.486294883000028], [86.37412047800007, 25.486212049000073], [86.37024864600005, 25.484820068000033], [86.36825588400006, 25.48389210000005], [86.36704566800006, 25.482619593000038], [86.36648933300006, 25.481608411000025], [86.36616514000008, 25.480428507000056], [86.36615543100004, 25.479386136000073], [86.36672161500007, 25.47876804400005], [86.36901655300005, 25.478511325000056], [86.37292562200008, 25.478576299000053], [86.37470423900004, 25.478941736000024], [86.37757928600007, 25.48010208200003], [86.38198254000008, 25.482482641000047], [86.38271606200004, 25.482761267000058], [86.38344575400004, 25.482615716000055], [86.38555034200004, 25.481678774000045], [86.38633094800008, 25.481672803000038], [86.38664424100006, 25.48167031500003], [86.38701295900006, 25.48228122300003], [86.38676784800003, 25.48370471100003], [86.38584143700007, 25.485133490000067], [86.38481542100004, 25.487081989000046], [86.38477863000008, 25.488454148000073], [86.38484215400007, 25.489920384000072], [86.38553402300005, 25.49105232100004], [86.38862595800003, 25.493018576000054], [86.39237868000004, 25.495430887000055], [86.39374258800007, 25.496602624000047], [86.39532386200005, 25.498151763000067], [86.39617187700009, 25.499471968000023], [86.39654048300008, 25.50045172500006], [86.39869705900009, 25.50403279300008], [86.39923825600005, 25.50497170600005], [86.40187880900004, 25.504928461000077], [86.40344228100008, 25.505105678000064], [86.40576514200006, 25.505128082000056], [86.40841057200004, 25.505066559000056]]]]}}, {"type": "Feature", "properties": {"OBJECTID": 1829, "GPCODE": "091909", "GPNAME_1": "SADPUR-WEST", "DIST_CEN_C": null, "BLK_NAME": "SAHEBPUR KAMAL", "ST_NAME": "BIHAR", "ST_CODE_1": null, "GPCODE2011": "94464", "REMARKS": null, "MAP_STATUS": null, "BLK_C_2001": "200015", "BLK_C_2011": "01318", "DIST_NAME": "BEGUSARAI", "code2011": 0.0, "Shape_Leng": 0.1790206804, "Shape_Area": 0.00116978385, "Area": 13.0242}, "geometry": {"type": "MultiPolygon", "coordinates": [[[[86.36098241800005, 25.475440356000036], [86.36128669400006, 25.47176754800006], [86.36264298700007, 25.470411255000045], [86.36428481500008, 25.466842064000048], [86.36521280500006, 25.463915327000052], [86.36678324900004, 25.461059973000033], [86.36863922900005, 25.45941814500003], [86.37085212700003, 25.457348014000047], [86.37570994000004, 25.454340134000063], [86.37446092700003, 25.45386513400007], [86.37325050400005, 25.453084630000035], [86.37233751700006, 25.452202533000047], [86.37146151700006, 25.45155936200007], [86.37077756000008, 25.450711607000073], [86.36952398100004, 25.449556784000038], [86.36876460500008, 25.449151933000053], [86.36762904500006, 25.44892135200007], [86.36510055800005, 25.44859758800004], [86.36408338900009, 25.44826234900006], [86.36321405600006, 25.448336622000056], [86.36242182500007, 25.44813954600005], [86.36067938400004, 25.44733139300007], [86.35815752500008, 25.44609131800007], [86.35691779300004, 25.446425524000063], [86.35633620400006, 25.446429925000075], [86.35565484100005, 25.446398982000062], [86.35490183100006, 25.446147379000024], [86.35423794800005, 25.445845505000023], [86.35385798200008, 25.445609198000056], [86.35355476000007, 25.44506535900007], [86.35339271200007, 25.444195593000074], [86.35324578300003, 25.443348239000045], [86.35241329300004, 25.44091296700003], [86.35172958200008, 25.440078662000076], [86.35103057600008, 25.43974090200004], [86.34968299600007, 25.439692352000066], [86.34760739000006, 25.43938744600007], [86.34553103000007, 25.439005802000054], [86.34330668800004, 25.43875160700003], [86.34233797200005, 25.43881748600006], [86.34060466400007, 25.43898381200006], [86.33925410400008, 25.43916533500004], [86.33761724500005, 25.439552013000025], [86.33574507600008, 25.439764403000027], [86.33433477900007, 25.43992823900004], [86.33347125400007, 25.440088065000054], [86.33186981200004, 25.439996111000028], [86.32918666000006, 25.440128677000075], [86.32781610700005, 25.440292121000027], [86.32683993900008, 25.440642325000056], [86.32655778100008, 25.440779774000077], [86.32676145700003, 25.443558288000077], [86.32672599600005, 25.444036949000065], [86.32641026100004, 25.444309994000037], [86.32551001000007, 25.444813060000058], [86.32485285100006, 25.445264658000042], [86.32423341400005, 25.44549029500007], [86.32344369800006, 25.445563770000035], [86.32267454900006, 25.445722818000036], [86.32216602900007, 25.446119147000047], [86.32170450900009, 25.446772433000035], [86.32078788300004, 25.44768167600006], [86.32228932800007, 25.44768883100005], [86.32271728300003, 25.448863585000026], [86.32488047500004, 25.44893355800008], [86.32548772100006, 25.44901482800003], [86.32560241400006, 25.449614220000058], [86.32558021700004, 25.451031469000043], [86.32549489800004, 25.45206104700003], [86.32446253800003, 25.452253683000038], [86.32295347600007, 25.45250388900007], [86.32160932000005, 25.45286122500005], [86.32211922300007, 25.453737468000043], [86.32231049200004, 25.454562026000076], [86.32113267900007, 25.455734980000045], [86.32073067100004, 25.456933794000065], [86.32084613900008, 25.45761892400003], [86.32093264000008, 25.458403623000038], [86.32138922800004, 25.458878622000043], [86.32191656800006, 25.45891092900007], [86.32242250200005, 25.458785375000048], [86.32324203600007, 25.458129473000042], [86.32428923000003, 25.45736819700005], [86.32542268700007, 25.45735983700007], [86.32704616200004, 25.45765484100008], [86.32787172300004, 25.457684911000058], [86.32840366100004, 25.45768098700006], [86.32949202000003, 25.457636851000075], [86.33153302700003, 25.45792877100007], [86.33217304800007, 25.458334712000067], [86.33312620200007, 25.45928900100006], [86.33455364900004, 25.461002375000078], [86.33562200300008, 25.462601153000037], [86.33661742100008, 25.464371861000075], [86.33741469100005, 25.46511968300007], [86.33798332700007, 25.46532307600006], [86.33884895200003, 25.46538434200005], [86.34156533600003, 25.465567277000048], [86.34258268500008, 25.465902657000072], [86.34277256600006, 25.466005074000066], [86.34293002600003, 25.466378469000063], [86.34290397400008, 25.467885971000044], [86.34274401400006, 25.46889354700005], [86.34226238600007, 25.46951546500003], [86.34105689600005, 25.469831270000043], [86.33849698900008, 25.46991793600006], [86.33793368300007, 25.470301256000027], [86.33775176200004, 25.471087884000042], [86.33791242100006, 25.471804226000074], [86.33832811900004, 25.47214413300003], [86.33897197000005, 25.47241464900003], [86.33957366200008, 25.472410142000058], [86.34066650100004, 25.472298314000057], [86.34145771100003, 25.472360121000065], [86.34251577400005, 25.472799045000045], [86.34380134700007, 25.473096273000067], [86.34496912500003, 25.473019950000037], [86.34613813900006, 25.473078900000075], [86.34636379900007, 25.473280266000074], [86.34636871100008, 25.47383079000008], [86.34584791000003, 25.474516136000034], [86.34581377500007, 25.475134679000064], [86.34595491300007, 25.475896308000074], [86.34663759800009, 25.476608787000032], [86.34720692200005, 25.476879833000055], [86.34795553500004, 25.476635100000067], [86.34874050300004, 25.47601088600004], [86.34865603400004, 25.47491943400007], [86.34925571000008, 25.47416120300005], [86.35026410600005, 25.473503789000063], [86.35211059900007, 25.47314701700003], [86.35271433900004, 25.473381626000048], [86.35339742200006, 25.474130174000038], [86.35457815500007, 25.47545714900008], [86.35541246100007, 25.475893084000063], [86.35639450700006, 25.47616100500005], [86.35824299600006, 25.47655775800007], [86.35967426500008, 25.476479278000056], [86.36019887200007, 25.476200001000052], [86.36098241800005, 25.475440356000036]]]]}}, {"type": "Feature", "properties": {"OBJECTID": 1830, "GPCODE": "091910", "GPNAME_1": "SAHEBPUR KAMAL EAST", "DIST_CEN_C": null, "BLK_NAME": "SAHEBPUR KAMAL", "ST_NAME": "BIHAR", "ST_CODE_1": null, "GPCODE2011": "94465", "REMARKS": null, "MAP_STATUS": null, "BLK_C_2001": "200015", "BLK_C_2011": "01318", "DIST_NAME": "BEGUSARAI", "code2011": 0.0, "Shape_Leng": 0.18918584487, "Shape_Area": 0.00099416631, "Area": 11.0712}, "geometry": {"type": "MultiPolygon", "coordinates": [[[[86.43605521000006, 25.440834749000032], [86.43614291900008, 25.438117242000033], [86.43682185300008, 25.43790867000007], [86.43669784400004, 25.43691688000007], [86.43612677400006, 25.43647468300003], [86.43442418200004, 25.435703183000044], [86.43242468700004, 25.43558391600004], [86.43135924900008, 25.434392003000028], [86.43074227000005, 25.433304847000045], [86.43119017500004, 25.432854457000076], [86.43122362000008, 25.432204382000066], [86.43031200800004, 25.431494094000072], [86.42962817300008, 25.43089980800005], [86.42894339800006, 25.430304695000075], [86.42810807500007, 25.42976526500007], [86.42648814500006, 25.429809842000054], [86.42430354200008, 25.43007099500005], [86.42383260800005, 25.430196640000077], [86.42308393800005, 25.429372229000023], [86.42179338600005, 25.428525114000024], [86.42129765800007, 25.427640008000026], [86.42049487500003, 25.42685661200005], [86.41921030500004, 25.42611766600004], [86.41859600600003, 25.42530121300007], [86.41709430000003, 25.423683934000053], [86.41656284500004, 25.42320980900007], [86.41584456600003, 25.422944717000064], [86.41467889700004, 25.423193147000063], [86.41318292900007, 25.42009110200007], [86.41206156100003, 25.41718913300008], [86.41109045100006, 25.41438974500005], [86.41095715100005, 25.41240505600007], [86.40811663200003, 25.412648619000038], [86.40563151800006, 25.41314655700006], [86.40393925700005, 25.413403492000043], [86.40255256300009, 25.413924364000025], [86.40108359500005, 25.414143485000068], [86.40004344800008, 25.414517174000025], [86.39918147500003, 25.414812746000052], [86.39733750200008, 25.414795518000062], [86.39603752000005, 25.415026780000062], [86.39402838400008, 25.41541699900006], [86.39384910000007, 25.415377775000024], [86.39369743100008, 25.415103679000026], [86.39346702800003, 25.412812883000072], [86.39183872000007, 25.413006058000065], [86.38992577000005, 25.413584994000075], [86.38930522700008, 25.413657556000032], [86.38881193500004, 25.41352596200005], [86.38770884000007, 25.412492024000073], [86.38747286500006, 25.41222756800005], [86.38711502000007, 25.41223033400007], [86.38647921300003, 25.41279935500006], [86.38582326700003, 25.41333695800006], [86.38435111700005, 25.413226503000033], [86.38286740900008, 25.41346356300005], [86.38247154300007, 25.413651682000022], [86.38258260300006, 25.41543340900006], [86.38241449700007, 25.415520482000034], [86.38160566300007, 25.415662121000025], [86.38103933100007, 25.416754039000068], [86.38057904800007, 25.417493250000064], [86.38096494600006, 25.41889376300003], [86.38106825400007, 25.419849774000056], [86.38164884800005, 25.420283023000025], [86.38240744000007, 25.421148214000027], [86.38252024000008, 25.423115041000074], [86.38275996100003, 25.424295572000062], [86.38319647200007, 25.42579045100007], [86.38303910600007, 25.427041775000077], [86.38144982200004, 25.42823190100006], [86.38112326300006, 25.428396892000023], [86.38103206800008, 25.428740600000026], [86.38150993400006, 25.42988323000003], [86.38181574700008, 25.430156150000073], [86.38217418000005, 25.430221088000053], [86.38259040600008, 25.43007801600004], [86.38322466100004, 25.42987004500003], [86.38356764400004, 25.429867349000062], [86.38379209600004, 25.429951343000027], [86.38434701600005, 25.43081809000006], [86.38459873100004, 25.431691700000044], [86.38550167000005, 25.43256475000004], [86.38718795100004, 25.43375211800003], [86.38874484400003, 25.43491798900004], [86.39011017400009, 25.435800981000057], [86.39142539200003, 25.436639134000075], [86.39251964200008, 25.43671637400007], [86.39310699500004, 25.436797555000055], [86.39337287800004, 25.437048238000045], [86.39354574200007, 25.43956515700006], [86.39463848500003, 25.44052236500005], [86.39549106300007, 25.44131903300007], [86.39664613000008, 25.44149959400005], [86.39791312500006, 25.44143101900005], [86.39900225700006, 25.441490185000077], [86.40031012400004, 25.44048710100003], [86.40188467200005, 25.43931499400003], [86.40276314100004, 25.43864469400006], [86.40306496500006, 25.438502422000056], [86.40378473200008, 25.438907456000038], [86.40643052300004, 25.44008705400006], [86.40771761700006, 25.44055532400006], [86.40858574700007, 25.44089146500005], [86.41105622800006, 25.439328550000027], [86.41101195800007, 25.438850480000042], [86.41036445900005, 25.43820572000004], [86.41051401100003, 25.437726178000048], [86.41122381700006, 25.437106838000034], [86.41275782200006, 25.43637712800006], [86.41411207000004, 25.436091161000036], [86.41477465800006, 25.43624386500005], [86.41601630500008, 25.436130216000038], [86.41830666700008, 25.43549371000006], [86.42011648700003, 25.438101321000033], [86.42057708800007, 25.438955084000042], [86.42133485800008, 25.439188302000048], [86.42208878700006, 25.439520714000025], [86.42422549400004, 25.442003815000078], [86.42655052200007, 25.444923145000075], [86.42689460100007, 25.445538681000073], [86.42744589200004, 25.44599905000007], [86.42782904700005, 25.446542024000053], [86.42831514600005, 25.44643435200004], [86.42955517900003, 25.44615363500003], [86.43094667300005, 25.446106347000068], [86.43172531300007, 25.44438974600007], [86.43253777300004, 25.44308346300005], [86.43414588000007, 25.441806904000032], [86.43605521000006, 25.440834749000032]], [[86.42665553200004, 25.438337991000026], [86.42159582300008, 25.433278810000047], [86.42161364600008, 25.43306202800005], [86.42295796300004, 25.43175154100004], [86.42363790100006, 25.432156846000055], [86.42511933100008, 25.433205539000028], [86.42739484800006, 25.43513689100007], [86.42854481200004, 25.43683802700008], [86.42665553200004, 25.438337991000026]]]]}}, {"type": "Feature", "properties": {"OBJECTID": 1831, "GPCODE": "091912", "GPNAME_1": "SAMASTIPUR", "DIST_CEN_C": null, "BLK_NAME": "SAHEBPUR KAMAL", "ST_NAME": "BIHAR", "ST_CODE_1": null, "GPCODE2011": "94467", "REMARKS": null, "MAP_STATUS": null, "BLK_C_2001": "200015", "BLK_C_2011": "01318", "DIST_NAME": "BEGUSARAI", "code2011": 0.0, "Shape_Leng": 0.31481740135, "Shape_Area": 0.00170953652, "Area": 19.0435}, "geometry": {"type": "MultiPolygon", "coordinates": [[[[86.41709430000003, 25.423683934000053], [86.41829110800006, 25.42254624700007], [86.42077057300008, 25.419908991000057], [86.42409534800004, 25.41680466300005], [86.42386614000003, 25.416224340000042], [86.42381800100009, 25.41536721600005], [86.42429516100003, 25.41433898200006], [86.42432758100006, 25.413585114000057], [86.42369364700005, 25.41227235300005], [86.42348925600004, 25.410667426000032], [86.42321459900006, 25.409505242000023], [86.42230652800004, 25.409137947000033], [86.42131925800004, 25.408288305000042], [86.42070146900005, 25.40658284400007], [86.42008564300005, 25.405594907000022], [86.41885213400008, 25.404458416000068], [86.41593996400007, 25.40290651500004], [86.41396829600006, 25.401487014000054], [86.41449276700007, 25.401243645000022], [86.41437453500004, 25.40083394800007], [86.41365344700006, 25.400257468000063], [86.41304558400003, 25.399576247000027], [86.41306661300007, 25.398140986000044], [86.41351115100008, 25.397347678000074], [86.41467196800005, 25.39662100700008], [86.41511357200005, 25.395520832000045], [86.41529452300006, 25.39469807200004], [86.41550933800005, 25.39430370300005], [86.41539904700005, 25.393686288000026], [86.41669636400007, 25.393206665000037], [86.41668905300008, 25.392448540000032], [86.41621880600007, 25.39211827400004], [86.41454886400004, 25.392086413000072], [86.41402264400006, 25.391616759000044], [86.41307263800007, 25.390487008000036], [86.40980773600006, 25.386821163000036], [86.40938809900007, 25.38658524600004], [86.40817333200005, 25.38737556700005], [86.40774835200006, 25.38657556000004], [86.40732961900005, 25.38643449500006], [86.40451887400008, 25.386600964000024], [86.40321213300007, 25.38608769800004], [86.40231829600003, 25.385625360000063], [86.40182568400007, 25.38293049600003], [86.40207631100003, 25.382120624000038], [86.40321545000006, 25.381213701000036], [86.40352526500004, 25.380877243000043], [86.40330586500005, 25.37974626700003], [86.40252570100006, 25.377121319000025], [86.40316176900006, 25.372950845000048], [86.40314420500005, 25.371105147000037], [86.40271885400006, 25.370255479000036], [86.40193305800005, 25.36964789700005], [86.39962901000007, 25.368199196000035], [86.39328929900006, 25.364457619000063], [86.39030323700007, 25.362824553000053], [86.39014916700006, 25.362825746000055], [86.38998562400008, 25.364979634000065], [86.38990793300007, 25.36781894300003], [86.38956535700004, 25.369951736000075], [86.38906241000007, 25.371945845000027], [86.38876628700007, 25.37374430500006], [86.38805064400003, 25.375315904000047], [86.38738871800007, 25.37678771700007], [86.38760810000008, 25.377923319000047], [86.38797564400005, 25.37843949300003], [86.38897678800004, 25.379235058000063], [86.38955122900006, 25.379564517000063], [86.38929687600006, 25.379990700000064], [86.38872199100007, 25.380139605000068], [86.38804445900007, 25.37995526000003], [86.38715214900003, 25.37910923100003], [86.38481279200005, 25.377064852000046], [86.38103271500006, 25.373966444000075], [86.37840445100005, 25.371287839000047], [86.37312474400005, 25.366616632000046], [86.37144308200004, 25.364733969000042], [86.37012221900005, 25.363182504000065], [86.36942691100006, 25.368057300000032], [86.36870397100006, 25.371551427000043], [86.36782699400004, 25.37450055900007], [86.36634237300007, 25.376768365000032], [86.36477514600006, 25.378147625000054], [86.36170058000005, 25.379335291000075], [86.36011452100007, 25.379211792000035], [86.35604681800004, 25.378831771000023], [86.35499540800004, 25.37904274600004], [86.35357518400008, 25.38021777700004], [86.35514370100003, 25.382773937000024], [86.35655072600008, 25.38450992500003], [86.35701033600003, 25.385327803000052], [86.35785631800007, 25.387099594000063], [86.35928846900003, 25.387224183000058], [86.35959079200006, 25.38821922300008], [86.35998384300007, 25.389908701000024], [86.36134968100004, 25.389835149000078], [86.36204808700006, 25.390141286000073], [86.36214652900009, 25.390582880000068], [86.36216243500007, 25.392311232000054], [86.36240424900006, 25.39429509200005], [86.36301069400008, 25.394322069000054], [86.36392953200004, 25.39426555500006], [86.36410793100004, 25.394760615000052], [86.36437522900007, 25.39518735000007], [86.36459870000004, 25.395167580000077], [86.36506802600007, 25.39487063000007], [86.36542763500006, 25.395075501000065], [86.36605355600005, 25.39558525700005], [86.36620838800008, 25.39621588500006], [86.36627200500004, 25.396644164000065], [86.36657025400007, 25.396655408000072], [86.36696725800005, 25.396602803000064], [86.36734238000008, 25.396324640000046], [86.36743525800006, 25.394545847000074], [86.36837912000004, 25.394507073000057], [86.36872146000007, 25.394996407000065], [86.36887750400007, 25.39574887200007], [86.36950205200003, 25.396118725000065], [86.37111719400008, 25.395591883000066], [86.37122864700007, 25.395284194000055], [86.37114236700006, 25.39401662000006], [86.37086799400004, 25.393368890000033], [86.37033848300007, 25.39306607700007], [86.36977037000008, 25.392352750000043], [86.36933941100006, 25.39088034300005], [86.36933214900006, 25.39009513800005], [86.36959452900004, 25.38998927800003], [86.37053696700008, 25.38981060100008], [86.37125372000008, 25.38994504200008], [86.37186283900007, 25.390793401000053], [86.37270652300003, 25.39229434600003], [86.37333828100003, 25.39343575600003], [86.37371594900009, 25.39343294100007], [86.37461613400006, 25.393525276000048], [86.37488760600007, 25.39386623400003], [86.37489246000007, 25.394380674000047], [86.37515741600004, 25.394550168000023], [86.37587700300008, 25.394986936000066], [86.37674537800007, 25.39539095400005], [86.37719848200004, 25.395491254000035], [86.37724016300007, 25.39569858300007], [86.37720553700007, 25.396244866000075], [86.37702151500008, 25.396760812000025], [86.37725287400008, 25.397065918000067], [86.37811586400005, 25.396887795000055], [86.38104579800006, 25.396147729000063], [86.38232325100006, 25.395659545000058], [86.38220484200008, 25.395213626000043], [86.38257956800004, 25.39490384000004], [86.38481427000005, 25.39421876600005], [86.38703320200005, 25.393447889000072], [86.38731101300004, 25.39498921200004], [86.38741684700005, 25.39620235700005], [86.38535280200006, 25.397075847000053], [86.38498091900004, 25.397692409000058], [86.38518262800005, 25.399062832000027], [86.38557099100007, 25.400734202000024], [86.38607778800008, 25.40285139200006], [86.38769710900004, 25.402771133000044], [86.38846720500004, 25.402747138000052], [86.38869860200003, 25.403052227000046], [86.38870600700005, 25.403841938000028], [86.38795136400006, 25.40391550800007], [86.38656002700003, 25.40392621700005], [86.38679836400007, 25.40549937700007], [86.38902239600003, 25.405243006000035], [86.39037139900006, 25.40495726200004], [86.39078755600008, 25.404818679000073], [86.39108565600003, 25.404816340000025], [86.39139040000003, 25.404985457000066], [86.39180860300007, 25.40559599000005], [86.39192429300005, 25.405735035000077], [86.39286772100007, 25.405655504000038], [86.39380658700009, 25.40561660000003], [86.39399380700007, 25.405443597000044], [86.39430362500008, 25.402462653000043], [86.39520209900007, 25.40236091400004], [86.39582536500006, 25.402577135000058], [86.39643147000004, 25.40308694500004], [86.39737351100007, 25.402858468000034], [86.39866697600007, 25.40248732500004], [86.39921312900003, 25.402433365000036], [86.39926854800007, 25.401986178000072], [86.39948654800008, 25.401388740000073], [86.39991616300006, 25.40111009000003], [86.40091591400005, 25.40120608700005], [86.40117422900005, 25.401714025000047], [86.40124746800007, 25.403148608000038], [86.40136117500003, 25.40361258100006], [86.40242222800003, 25.40387500500003], [86.40278520000004, 25.40442274800006], [86.40276925600006, 25.40483357200003], [86.40188190200007, 25.40558515200007], [86.39987281700007, 25.40648991000006], [86.39871183000008, 25.407216558000073], [86.39603187100005, 25.40813098700005], [86.39335190600008, 25.40957345700008], [86.39329835000007, 25.40969119600004], [86.39337088700006, 25.410521061000054], [86.39346702800003, 25.412812883000072], [86.39369743100008, 25.415103679000026], [86.39384910000007, 25.415377775000024], [86.39402838400008, 25.41541699900006], [86.39603752000005, 25.415026780000062], [86.39733750200008, 25.414795518000062], [86.39918147500003, 25.414812746000052], [86.40004344800008, 25.414517174000025], [86.40108359500005, 25.414143485000068], [86.40255256300009, 25.413924364000025], [86.40393925700005, 25.413403492000043], [86.40563151800006, 25.41314655700006], [86.40811663200003, 25.412648619000038], [86.41095715100005, 25.41240505600007], [86.41109045100006, 25.41438974500005], [86.41206156100003, 25.41718913300008], [86.41318292900007, 25.42009110200007], [86.41467889700004, 25.423193147000063], [86.41584456600003, 25.422944717000064], [86.41656284500004, 25.42320980900007], [86.41709430000003, 25.423683934000053]]]]}}, {"type": "Feature", "properties": {"OBJECTID": 1832, "GPCODE": "091913", "GPNAME_1": "SANHA-EAST", "DIST_CEN_C": null, "BLK_NAME": "SAHEBPUR KAMAL", "ST_NAME": "BIHAR", "ST_CODE_1": null, "GPCODE2011": "94468", "REMARKS": null, "MAP_STATUS": null, "BLK_C_2001": "200015", "BLK_C_2011": "01318", "DIST_NAME": "BEGUSARAI", "code2011": 0.0, "Shape_Leng": 0.18946112333, "Shape_Area": 0.0008143081, "Area": 9.07064}, "geometry": {"type": "MultiPolygon", "coordinates": [[[[86.36399968500007, 25.41055238200005], [86.36448479600006, 25.41034111500005], [86.36531503000003, 25.410370967000063], [86.36561657500005, 25.410197176000054], [86.36530905300003, 25.409721149000063], [86.36450435500007, 25.408152151000024], [86.36396945800004, 25.40726718800005], [86.36337655500006, 25.406021615000043], [86.36370916700008, 25.405436852000037], [86.36476014800007, 25.405158131000064], [86.36506954900005, 25.405837228000053], [86.36604906000008, 25.405897521000043], [86.36672370600007, 25.405757050000034], [86.36683353200004, 25.405277796000064], [86.36644768100007, 25.404391694000026], [86.36644704900004, 25.404324005000035], [86.36839262100005, 25.402973349000035], [86.36843236600004, 25.402973006000025], [86.36888739400007, 25.403276490000053], [86.36938102000005, 25.403990298000053], [86.36953658200008, 25.404160611000066], [86.37002269300007, 25.404057628000032], [86.37024804700008, 25.403712924000047], [86.36997578900008, 25.402753709000024], [86.36966454800006, 25.401867035000066], [86.36977537200005, 25.40149156700005], [86.36984734000004, 25.401215722000074], [86.37048925400006, 25.401314640000066], [86.37105266800006, 25.401513427000054], [86.37182034300008, 25.40284346100003], [86.37223946000006, 25.40355783700005], [86.37415995800006, 25.403272327000025], [86.37476084700006, 25.403231680000033], [86.37558973800003, 25.40312149300007], [86.37602418200004, 25.403339294000034], [86.37662957400005, 25.403781492000064], [86.37697239100004, 25.40377890600007], [86.37723196400003, 25.40336617300005], [86.37684887400007, 25.402786957000046], [86.37703392700007, 25.402374894000047], [86.37778589100003, 25.402540565000038], [86.37801570700003, 25.40267418700006], [86.37824955500008, 25.403769112000077], [86.37866753000003, 25.40383354200003], [86.37953275800004, 25.403894582000078], [86.38095788600003, 25.403233767000074], [86.38174408700007, 25.402817037000034], [86.38280125700004, 25.402673552000067], [86.38328825000008, 25.402669807000052], [86.38377698200009, 25.402322988000037], [86.38376988800007, 25.401569379000023], [86.38406396100004, 25.40112490100006], [86.38557099100007, 25.400734202000024], [86.38518262800005, 25.399062832000027], [86.38498091900004, 25.397692409000058], [86.38535280200006, 25.397075847000053], [86.38741684700005, 25.39620235700005], [86.38731101300004, 25.39498921200004], [86.38703320200005, 25.393447889000072], [86.38481427000005, 25.39421876600005], [86.38257956800004, 25.39490384000004], [86.38220484200008, 25.395213626000043], [86.38232325100006, 25.395659545000058], [86.38104579800006, 25.396147729000063], [86.37811586400005, 25.396887795000055], [86.37725287400008, 25.397065918000067], [86.37702151500008, 25.396760812000025], [86.37720553700007, 25.396244866000075], [86.37724016300007, 25.39569858300007], [86.37719848200004, 25.395491254000035], [86.37674537800007, 25.39539095400005], [86.37587700300008, 25.394986936000066], [86.37515741600004, 25.394550168000023], [86.37489246000007, 25.394380674000047], [86.37488760600007, 25.39386623400003], [86.37461613400006, 25.393525276000048], [86.37371594900009, 25.39343294100007], [86.37333828100003, 25.39343575600003], [86.37270652300003, 25.39229434600003], [86.37186283900007, 25.390793401000053], [86.37125372000008, 25.38994504200008], [86.37053696700008, 25.38981060100008], [86.36959452900004, 25.38998927800003], [86.36933214900006, 25.39009513800005], [86.36933941100006, 25.39088034300005], [86.36977037000008, 25.392352750000043], [86.37033848300007, 25.39306607700007], [86.37086799400004, 25.393368890000033], [86.37114236700006, 25.39401662000006], [86.37122864700007, 25.395284194000055], [86.37111719400008, 25.395591883000066], [86.36950205200003, 25.396118725000065], [86.36887750400007, 25.39574887200007], [86.36872146000007, 25.394996407000065], [86.36837912000004, 25.394507073000057], [86.36743525800006, 25.394545847000074], [86.36734238000008, 25.396324640000046], [86.36696725800005, 25.396602803000064], [86.36657025400007, 25.396655408000072], [86.36627200500004, 25.396644164000065], [86.36620838800008, 25.39621588500006], [86.36605355600005, 25.39558525700005], [86.36542763500006, 25.395075501000065], [86.36506802600007, 25.39487063000007], [86.36459870000004, 25.395167580000077], [86.36437522900007, 25.39518735000007], [86.36410793100004, 25.394760615000052], [86.36392953200004, 25.39426555500006], [86.36301069400008, 25.394322069000054], [86.36240424900006, 25.39429509200005], [86.36216243500007, 25.392311232000054], [86.36214652900009, 25.390582880000068], [86.36204808700006, 25.390141286000073], [86.36134968100004, 25.389835149000078], [86.35998384300007, 25.389908701000024], [86.35959079200006, 25.38821922300008], [86.35928846900003, 25.387224183000058], [86.35785631800007, 25.387099594000063], [86.35701033600003, 25.385327803000052], [86.35655072600008, 25.38450992500003], [86.35514370100003, 25.382773937000024], [86.35357518400008, 25.38021777700004], [86.34949591500003, 25.382942571000058], [86.35013676200003, 25.383483838000075], [86.35040442600007, 25.383960241000068], [86.35006914300004, 25.384238022000034], [86.34961761600005, 25.384309126000062], [86.34844851800005, 25.384146405000024], [86.34781407700007, 25.384322561000033], [86.34717804800005, 25.384873381000034], [86.34616884100006, 25.38590537700003], [86.34519714700008, 25.38670237300005], [86.34400098400005, 25.387392743000078], [86.34248349800004, 25.388275074000035], [86.34079655100004, 25.389108951000026], [86.33903665700007, 25.390660902000036], [86.33795805800008, 25.39172948600003], [86.33710238000003, 25.392728696000063], [86.33535987600004, 25.395128948000036], [86.33191037500006, 25.401707300000055], [86.33188537100006, 25.401693950000038], [86.33226099400008, 25.402016074000073], [86.33277722800005, 25.40250869600004], [86.33321229700005, 25.402812452000035], [86.33374133100006, 25.403065750000053], [86.33441792400004, 25.403146540000023], [86.33506916000005, 25.403182300000026], [86.33572651800006, 25.403335455000047], [86.33620133800008, 25.403638776000037], [86.33631932700007, 25.40404862400004], [86.33624149500008, 25.404234220000035], [86.33613344600008, 25.40437498700004], [86.33587223500007, 25.40461607700007], [86.33561393600007, 25.405182076000074], [86.33550309200007, 25.40557557300008], [86.33608554300008, 25.40568858000006], [86.33605864700007, 25.406564348000074], [86.33623488000006, 25.407379853000066], [86.33663476100008, 25.40818474200006], [86.33695913400004, 25.408335841000053], [86.33729610500006, 25.408229477000077], [86.33777860000004, 25.40772948700004], [86.33792943700007, 25.40736733600005], [86.33792777200006, 25.407182318000025], [86.33773709800005, 25.40697609800003], [86.33741168400007, 25.406707764000032], [86.33722536500005, 25.406433836000076], [86.33720204300005, 25.406059457000026], [86.33742446900004, 25.405917884000075], [86.33768736500008, 25.405866323000055], [86.33782027600006, 25.40572988300005], [86.33810028900007, 25.405366780000065], [86.33854809500008, 25.404867099000057], [86.33893785800007, 25.404557271000044], [86.33920109900004, 25.40453729500007], [86.33965420700008, 25.404637704000038], [86.33992045600007, 25.404960690000053], [86.34042227600008, 25.406053635000035], [86.34074893000007, 25.40700348000007], [86.34352765800008, 25.407077654000034], [86.34416585200006, 25.407312079000064], [86.34477547700004, 25.407682086000023], [86.34530073000008, 25.407506734000037], [86.34567469000007, 25.407093246000045], [86.34597217600003, 25.407023305000052], [86.34838817800005, 25.407655154000054], [86.35273360900004, 25.408958491000078], [86.35464574900004, 25.409918970000035], [86.35693870500006, 25.41076227900004], [86.35950852300004, 25.411276242000042], [86.36202123300006, 25.411333349000074], [86.36337273900006, 25.41209612800003], [86.36355149900004, 25.410998074000076], [86.36399968500007, 25.41055238200005]]]]}}, {"type": "Feature", "properties": {"OBJECTID": 1833, "GPCODE": "091914", "GPNAME_1": "SANHA-NORTH", "DIST_CEN_C": null, "BLK_NAME": "SAHEBPUR KAMAL", "ST_NAME": "BIHAR", "ST_CODE_1": null, "GPCODE2011": "94469", "REMARKS": null, "MAP_STATUS": null, "BLK_C_2001": "200015", "BLK_C_2011": "01318", "DIST_NAME": "BEGUSARAI", "code2011": 0.0, "Shape_Leng": 0.15600034982, "Shape_Area": 0.00066913688, "Area": 7.45141}, "geometry": {"type": "MultiPolygon", "coordinates": [[[[86.38139669500003, 25.455513195000037], [86.38134995300004, 25.454759951000028], [86.38104365300006, 25.453909320000037], [86.38092573300008, 25.45353110700006], [86.38092455500004, 25.453395728000032], [86.38099744800007, 25.45322367500006], [86.38126033400005, 25.453153989000043], [86.38231256700004, 25.452974433000065], [86.38272824400008, 25.452768096000057], [86.38290863800006, 25.45238764800007], [86.38294517200006, 25.45204435100004], [86.38286841700005, 25.451805767000053], [86.38180783000007, 25.451096364000023], [86.38193643300008, 25.450499705000027], [86.38241431500006, 25.449503117000063], [86.38312081600003, 25.448504856000056], [86.38158987900005, 25.44852566800006], [86.38061095300003, 25.44856926400007], [86.38019492800004, 25.44874401100003], [86.37966835900005, 25.44877967700006], [86.37879629300005, 25.448032649000027], [86.37792436500007, 25.447290216000056], [86.37755771900004, 25.44634983900005], [86.37762174100004, 25.44522112900006], [86.37776543400008, 25.444637855000053], [86.37806548800006, 25.44429256500007], [86.37870131600005, 25.443709960000035], [86.37892146600007, 25.443329169000037], [86.37882867500008, 25.441380335000076], [86.37833393400007, 25.44056278100004], [86.37790043800004, 25.438855697000065], [86.37733984600004, 25.43737070800006], [86.37706455600005, 25.436109187000056], [86.37705503000007, 25.435080322000033], [86.37705245800004, 25.434805057000062], [86.37803193500008, 25.434833592000075], [86.37844348900006, 25.43472665400003], [86.37847408700009, 25.433733542000027], [86.37834759700007, 25.432434760000035], [86.37815618700006, 25.43216099600005], [86.37710401800007, 25.432340530000033], [86.37564103900007, 25.432694764000075], [86.37536719200006, 25.432114652000053], [86.37485715200006, 25.42965451200007], [86.37398840200007, 25.42762581100004], [86.37348132200003, 25.425472420000062], [86.37251472400004, 25.42308345300006], [86.37189979300007, 25.42161688500005], [86.37084782500006, 25.419657233000066], [86.37069252000003, 25.419523025000046], [86.37020546200006, 25.419526731000076], [86.36945251500003, 25.419803281000043], [86.36907641900007, 25.419977653000046], [86.36869877400005, 25.41998045200006], [86.36851265000007, 25.41974275800004], [86.36839135800005, 25.41898998100004], [86.36895791700005, 25.41898568700003], [86.36951950700006, 25.41898141100006], [86.37019753700008, 25.41866933700004], [86.37019244500004, 25.418123313000024], [86.36996233300005, 25.41795357700005], [86.36901954900009, 25.417581690000077], [86.36851235500006, 25.415942821000044], [86.36823437000004, 25.41436989700003], [86.36767500700006, 25.412988640000037], [86.36774471100006, 25.41247363100007], [86.36740429000008, 25.412200907000056], [86.36706480000004, 25.41203648800007], [86.36672719000006, 25.41207071300005], [86.36635173900004, 25.412312677000045], [86.36643316400006, 25.41306580500003], [86.36613133300006, 25.413203403000068], [86.36575361100006, 25.41320629100005], [86.36477341300008, 25.413078307000035], [86.36405527700003, 25.412808460000065], [86.36375426000006, 25.412503893000064], [86.36337273900006, 25.41209612800003], [86.36202123300006, 25.411333349000074], [86.35950852300004, 25.411276242000042], [86.35693870500006, 25.41076227900004], [86.35464574900004, 25.409918970000035], [86.35301401400005, 25.413013566000075], [86.35298452600006, 25.413596014000063], [86.35344024600005, 25.414517696000075], [86.35344579400004, 25.415131506000023], [86.35345675200006, 25.41633186100006], [86.35328373900006, 25.417529067000032], [86.35279586400009, 25.41797957500006], [86.35257340800007, 25.41811656400006], [86.35215602400007, 25.418119753000042], [86.35170213000004, 25.41795160500004], [86.35113191300007, 25.41754518500005], [86.35055114200009, 25.417630793000058], [86.35029182600005, 25.41807957700007], [86.35026011400004, 25.418968808000045], [86.35056897600003, 25.419584841000074], [86.35094848600005, 25.419785061000027], [86.35192757500005, 25.419777750000037], [86.35222916000004, 25.419603985000037], [86.35263451900005, 25.418815618000053], [86.35455402200006, 25.41839055400004], [86.35516946600006, 25.419924879000064], [86.35577952000006, 25.420877078000046], [86.35660766400008, 25.420667715000036], [86.35833557500007, 25.41993713200003], [86.35945236800006, 25.42249211500007], [86.36098654700004, 25.425558414000022], [86.36143848800003, 25.425523381000062], [86.36256694800005, 25.42554645200005], [86.36265063100007, 25.425992604000044], [86.36225725300005, 25.426460359000032], [86.36233647800003, 25.42696980200003], [86.36230612000008, 25.427448364000043], [86.36219106300007, 25.428451109000036], [86.36170769200004, 25.429398028000037], [86.36068296400003, 25.430394053000043], [86.35997413200005, 25.431153150000057], [86.35961320300004, 25.431900463000034], [86.35931970400009, 25.432963219000044], [86.35894308000007, 25.435795747000043], [86.35869780300004, 25.437783324000065], [86.35849376800007, 25.43938245700008], [86.35806993000006, 25.440874887000064], [86.35817940200008, 25.44251680700006], [86.35821577100006, 25.44431271800005], [86.35815752500008, 25.44609131800007], [86.36067938400004, 25.44733139300007], [86.36242182500007, 25.44813954600005], [86.36321405600006, 25.448336622000056], [86.36408338900009, 25.44826234900006], [86.36510055800005, 25.44859758800004], [86.36762904500006, 25.44892135200007], [86.36876460500008, 25.449151933000053], [86.36952398100004, 25.449556784000038], [86.37077756000008, 25.450711607000073], [86.37146151700006, 25.45155936200007], [86.37233751700006, 25.452202533000047], [86.37325050400005, 25.453084630000035], [86.37446092700003, 25.45386513400007], [86.37570994000004, 25.454340134000063], [86.37639175400005, 25.45459942800005], [86.37714237300008, 25.454593716000034], [86.37804627300005, 25.454487450000045], [86.37829105200007, 25.454611981000028], [86.37841039300008, 25.455157073000066], [86.37879209500005, 25.45556488300008], [86.37920692600005, 25.455800802000056], [86.37970037100007, 25.455932422000046], [86.38139669500003, 25.455513195000037]]]]}}, {"type": "Feature", "properties": {"OBJECTID": 1834, "GPCODE": "091915", "GPNAME_1": "SANHA-WEST", "DIST_CEN_C": null, "BLK_NAME": "SAHEBPUR KAMAL", "ST_NAME": "BIHAR", "ST_CODE_1": null, "GPCODE2011": "94470", "REMARKS": null, "MAP_STATUS": null, "BLK_C_2001": "200015", "BLK_C_2011": "01318", "DIST_NAME": "BEGUSARAI", "code2011": 0.0, "Shape_Leng": 0.11027040093, "Shape_Area": 0.00027065612, "Area": 3.01437}, "geometry": {"type": "MultiPolygon", "coordinates": [[[[86.36225725300005, 25.426460359000032], [86.36265063100007, 25.425992604000044], [86.36256694800005, 25.42554645200005], [86.36143848800003, 25.425523381000062], [86.36098654700004, 25.425558414000022], [86.35945236800006, 25.42249211500007], [86.35833557500007, 25.41993713200003], [86.35660766400008, 25.420667715000036], [86.35577952000006, 25.420877078000046], [86.35516946600006, 25.419924879000064], [86.35455402200006, 25.41839055400004], [86.35263451900005, 25.418815618000053], [86.35222916000004, 25.419603985000037], [86.35192757500005, 25.419777750000037], [86.35094848600005, 25.419785061000027], [86.35056897600003, 25.419584841000074], [86.35026011400004, 25.418968808000045], [86.35029182600005, 25.41807957700007], [86.35055114200009, 25.417630793000058], [86.35113191300007, 25.41754518500005], [86.35170213000004, 25.41795160500004], [86.35215602400007, 25.418119753000042], [86.35257340800007, 25.41811656400006], [86.35279586400009, 25.41797957500006], [86.35328373900006, 25.417529067000032], [86.35345675200006, 25.41633186100006], [86.35344579400004, 25.415131506000023], [86.35344024600005, 25.414517696000075], [86.35298452600006, 25.413596014000063], [86.35301401400005, 25.413013566000075], [86.35464574900004, 25.409918970000035], [86.35273360900004, 25.408958491000078], [86.34838817800005, 25.407655154000054], [86.34597217600003, 25.407023305000052], [86.34567469000007, 25.407093246000045], [86.34530073000008, 25.407506734000037], [86.34477547700004, 25.407682086000023], [86.34416585200006, 25.407312079000064], [86.34352765800008, 25.407077654000034], [86.34074893000007, 25.40700348000007], [86.34072519800003, 25.407680583000058], [86.34057933800005, 25.408042717000058], [86.34035352700005, 25.408351279000044], [86.33971833300006, 25.40900584800005], [86.33936483900004, 25.409486842000035], [86.33915072200006, 25.410548994000067], [86.33871826900008, 25.41053415500005], [86.33803817100005, 25.410624976000065], [86.33780964000005, 25.41118174500008], [86.33758905400003, 25.411526386000048], [86.33717316600007, 25.411696411000037], [86.33662731200008, 25.411786160000077], [86.33617717900006, 25.412028706000058], [86.33601284400004, 25.41254443100007], [86.33527313500008, 25.413745793000032], [86.33503444700006, 25.414280123000026], [86.33517775800004, 25.414748451000037], [86.33534856000006, 25.41495474800007], [86.33542776700006, 25.415464112000052], [86.33550653000003, 25.415941986000064], [86.33579116800007, 25.416093329000034], [86.33605461300004, 25.416091315000074], [86.33635709500004, 25.416021373000035], [86.33674831800005, 25.415865073000077], [86.33748230100008, 25.415688127000067], [86.33783865500004, 25.415513995000026], [86.33802535300003, 25.415273463000062], [86.33805517800005, 25.414727121000055], [86.33823807000005, 25.41405788700007], [86.33870293800004, 25.413251093000042], [86.33898129900007, 25.412702973000023], [86.33939238200009, 25.41254649800004], [86.33984345900006, 25.412421276000032], [86.34035073900003, 25.412453689000074], [86.34068984200007, 25.412586489000034], [86.34091384500005, 25.413176070000077], [86.34155552800007, 25.413239004000047], [86.34223242700006, 25.413351350000028], [86.34247768600005, 25.413539024000045], [86.34250137900005, 25.413967557000035], [86.34246598500005, 25.414446230000067], [86.34237814300008, 25.41518252000003], [86.34242375700006, 25.415832093000063], [86.34263671800005, 25.416290839000055], [86.34305268300005, 25.416680384000074], [86.34358117300008, 25.416865958000074], [86.34476992400005, 25.41696094300005], [86.34518314500008, 25.41704362300004], [86.34531996900006, 25.41733135900006], [86.34541651200004, 25.41756989000004], [86.34585140900003, 25.41784192500006], [86.34657139900008, 25.418314922000036], [86.34725456000007, 25.418567026000062], [86.34740632400008, 25.418859308000037], [86.34731510900008, 25.419216539000047], [86.34710811200006, 25.419407611000054], [86.34673568800008, 25.419441927000037], [86.34620906600009, 25.41946394400003], [86.34571898500008, 25.41968871200004], [86.34538306200005, 25.419916842000077], [86.34504836200006, 25.420275928000024], [86.34488280600004, 25.420656190000045], [86.34482593200005, 25.420963554000025], [86.34486880500003, 25.42130617400005], [86.34502981900005, 25.421517099000027], [86.34525965600005, 25.421655282000074], [86.34557848300005, 25.421738692000076], [86.34620052200006, 25.421819825000057], [86.34651950900007, 25.42191667700007], [86.34665518800006, 25.422087180000062], [86.34677217000007, 25.422379688000035], [86.34705186600007, 25.422531029000027], [86.34739499500006, 25.42254194900005], [86.34820613600004, 25.42265780400004], [86.34852639300004, 25.42289454200005], [86.34858381400005, 25.423201004000077], [86.34862688800007, 25.423561765000045], [86.34848244200003, 25.424072817000024], [86.34808831200007, 25.42445479400004], [86.34779211500006, 25.42467817000005], [86.34724897400008, 25.42507490500003], [86.34653909400004, 25.42573006400005], [86.34625183300005, 25.42639104700004], [86.34620260000008, 25.42698719400005], [86.34626190100005, 25.427501235000022], [86.34649699000005, 25.428217027000073], [86.34678541700004, 25.428778992000048], [86.34710819900005, 25.429291092000028], [86.34752432100004, 25.42968061700003], [86.34797901700006, 25.429947967000032], [86.34873527100007, 25.43002811100007], [86.34970472700007, 25.430047929000068], [86.35265578000008, 25.429890387000057], [86.35501057200008, 25.429750870000078], [86.35583914900008, 25.42957761100007], [86.35623613300004, 25.428965455000025], [86.35680767500008, 25.427869009000062], [86.35729153800008, 25.426976258000025], [86.35823092500004, 25.42696915600004], [86.35902211600006, 25.427062464000073], [86.35985245800003, 25.427092345000062], [86.36047271100006, 25.426983896000024], [86.36084821100008, 25.426741856000035], [86.36137198300008, 25.426394880000032], [86.36185890100006, 25.426377666000064], [86.36225725300005, 25.426460359000032]]]]}}, {"type": "Feature", "properties": {"OBJECTID": 1864, "GPCODE": "091904", "GPNAME_1": "RAGHUNATH PUR KARARI", "DIST_CEN_C": null, "BLK_NAME": "SAHEBPUR KAMAL", "ST_NAME": "BIHAR", "ST_CODE_1": null, "GPCODE2011": "94459", "REMARKS": null, "MAP_STATUS": null, "BLK_C_2001": "200015", "BLK_C_2011": "01318", "DIST_NAME": "BEGUSARAI", "code2011": 0.0, "Shape_Leng": 0.13978983507, "Shape_Area": 0.00041855369, "Area": 4.66047}, "geometry": {"type": "MultiPolygon", "coordinates": [[[[86.42363790100006, 25.432156846000055], [86.42295796300004, 25.43175154100004], [86.42161364600008, 25.43306202800005], [86.42159582300008, 25.433278810000047], [86.42665553200004, 25.438337991000026], [86.42854481200004, 25.43683802700008], [86.42739484800006, 25.43513689100007], [86.42511933100008, 25.433205539000028], [86.42363790100006, 25.432156846000055]]], [[[86.43790602000007, 25.469332285000064], [86.43881050200008, 25.46877891400004], [86.44186891200007, 25.468835349000074], [86.44190774300006, 25.46722397600007], [86.44164409800004, 25.46519077800008], [86.44166657200003, 25.46344410000006], [86.44105515100006, 25.456896285000028], [86.44116855700008, 25.453267032000042], [86.44099446600006, 25.450736746000075], [86.44158118000007, 25.44922467200007], [86.44184909700004, 25.447660977000055], [86.44189600600004, 25.444343653000033], [86.44147581000004, 25.443248099000073], [86.44145921100005, 25.442393077000077], [86.44175331500008, 25.441470064000043], [86.44181435400003, 25.440102164000052], [86.44202998100008, 25.439279054000053], [86.44225945500006, 25.43734566100005], [86.44338205800005, 25.436754437000047], [86.44424427700005, 25.436476672000026], [86.44548616900005, 25.436394284000073], [86.44686576400005, 25.435155546000033], [86.44746060400007, 25.43398637000007], [86.44756178800003, 25.433164228000066], [86.44755539200008, 25.432514422000054], [86.44705742300005, 25.43142182200006], [86.44657362400005, 25.43024792500006], [86.44641543400007, 25.429324075000068], [86.44621836100004, 25.428504291000024], [86.44537931600007, 25.427590502000044], [86.44544595400004, 25.426290255000026], [86.44426620800004, 25.425103911000065], [86.44334955000005, 25.423879355000054], [86.44206019100005, 25.423677730000065], [86.44178958600008, 25.424961575000054], [86.44014297900009, 25.426342287000068], [86.43860410900004, 25.427040701000067], [86.43759219700007, 25.427251961000024], [86.43702493900008, 25.42718891000004], [86.43577839800008, 25.42678829500005], [86.43358981400007, 25.426634424000042], [86.43268359100006, 25.42647025800005], [86.43242121500003, 25.428097017000027], [86.43235869500006, 25.429338578000056], [86.43152620600006, 25.430107942000063], [86.43077117200005, 25.430664584000056], [86.42963023600004, 25.430899383000053], [86.42962817300008, 25.43089980800005], [86.43031200800004, 25.431494094000072], [86.43122362000008, 25.432204382000066], [86.43119017500004, 25.432854457000076], [86.43074227000005, 25.433304847000045], [86.43135924900008, 25.434392003000028], [86.43242468700004, 25.43558391600004], [86.43442418200004, 25.435703183000044], [86.43612677400006, 25.43647468300003], [86.43669784400004, 25.43691688000007], [86.43682185300008, 25.43790867000007], [86.43614291900008, 25.438117242000033], [86.43605521000006, 25.440834749000032], [86.43414588000007, 25.441806904000032], [86.43253777300004, 25.44308346300005], [86.43172531300007, 25.44438974600007], [86.43094667300005, 25.446106347000068], [86.43106794800008, 25.448339229000055], [86.43130343100006, 25.450056792000055], [86.43217438200008, 25.452184413000055], [86.43341016100004, 25.455527552000035], [86.43438229800006, 25.458841171000074], [86.43526466800006, 25.462128471000028], [86.43620815500003, 25.466056096000045], [86.43695596600008, 25.469299395000064], [86.43790602000007, 25.469332285000064]]]]}}]}