{"type": "FeatureCollection", "features": [{"type": "Feature", "properties": {"OBJECTID": 1734, "GPCODE": "091809", "GPNAME_1": "BHAWANAND PUR", "DIST_CEN_C": null, "BLK_NAME": "BIRPUR", "ST_NAME": "BIHAR", "ST_CODE_1": null, "GPCODE2011": "94366", "REMARKS": null, "MAP_STATUS": null, "BLK_C_2001": "200010", "BLK_C_2011": "01313", "DIST_NAME": "BEGUSARAI", "code2011": 0.0, "Shape_Leng": 0.16289489501, "Shape_Area": 0.00059836001, "Area": 6.65825}, "geometry": {"type": "MultiPolygon", "coordinates": [[[[86.11233849600006, 25.55213845700007], [86.11490798900007, 25.551726187000043], [86.11664540300006, 25.55186029300006], [86.11902218200004, 25.552347215000054], [86.12202442200004, 25.551936743000056], [86.12291052900008, 25.551308667000058], [86.12266361600007, 25.550195346000066], [86.12179499000007, 25.54978985100007], [86.11947914800004, 25.54947411300003], [86.11918410800007, 25.547891794000066], [86.11908086100004, 25.545310849000032], [86.11475364900008, 25.542019339000035], [86.11113905600007, 25.539558441000054], [86.10885294300004, 25.537802639000063], [86.10734261200008, 25.53670575900003], [86.10707313200004, 25.535881433000043], [86.10775747600007, 25.53488001900007], [86.10905165600008, 25.53428127500007], [86.11221862500008, 25.534005424000043], [86.11391261000006, 25.534556425000062], [86.11523045300004, 25.53498507300003], [86.11861067700005, 25.535998594000034], [86.12079144300003, 25.53692882300004], [86.12188694200006, 25.537145735000024], [86.12404470900003, 25.53757297100003], [86.12583335800008, 25.537932287000046], [86.12592322700004, 25.535241917000064], [86.12571233400007, 25.532237508000037], [86.12542355900007, 25.530831060000025], [86.12498567800003, 25.528766709000024], [86.12464965600003, 25.526340649000076], [86.12400289500005, 25.52495440200005], [86.12337296500004, 25.524520429000063], [86.12319980000007, 25.522585270000036], [86.12147241800005, 25.521724518000042], [86.12048550200007, 25.52144159100004], [86.11919099700003, 25.52127322000007], [86.11823449400003, 25.521080367000025], [86.11717964600007, 25.521027901000025], [86.11657647600003, 25.521550484000045], [86.11600700400004, 25.521901322000076], [86.11546606800005, 25.522080618000075], [86.11473483200007, 25.522084930000062], [86.11431391000008, 25.521649594000053], [86.11354713500003, 25.52154126000005], [86.11236823100006, 25.52154818100007], [86.11221281200005, 25.522068125000033], [86.11157690800007, 25.52218924600004], [86.11100324100005, 25.52196248000007], [86.10921278700005, 25.52130498300005], [86.10601234200004, 25.52032177600006], [86.10588087300005, 25.522114271000078], [86.10614605700005, 25.523732994000056], [86.10638194900008, 25.52543752300005], [86.10668492800005, 25.52746218200008], [86.10529828800009, 25.52764183100004], [86.10536886500006, 25.52917581400004], [86.10589111200005, 25.530562881000037], [86.10612241100006, 25.531604079000033], [86.10614794900005, 25.533106761000056], [86.10440207000005, 25.53384355000003], [86.10420477600007, 25.533379866000075], [86.10448078900004, 25.531613665000066], [86.10187715600006, 25.53275704300006], [86.10181452200004, 25.53304626000005], [86.10124183000005, 25.533658863000028], [86.10083112400008, 25.533977144000062], [86.10035522200008, 25.53421011000006], [86.09940047600008, 25.534274347000064], [86.09834589100006, 25.53428041600006], [86.09833398900008, 25.534713731000068], [86.09817702100008, 25.53573012100003], [86.09780707600004, 25.53688761500007], [86.09733122100005, 25.53784716800004], [86.09628687800006, 25.538602355000023], [86.09517376600007, 25.538784797000062], [86.09410729200005, 25.53924680800003], [86.09283682800003, 25.539687435000076], [86.09200947500005, 25.540184074000024], [86.09217919200006, 25.541685968000024], [86.09240976200005, 25.54264144600006], [86.09232325500005, 25.543797281000025], [86.09222012900005, 25.54470054600006], [86.09269802700004, 25.54473392500006], [86.09305461600007, 25.543793075000053], [86.09356174700008, 25.543041043000073], [86.09413082000003, 25.542599950000067], [86.09518512300008, 25.542539760000068], [86.09598013100003, 25.542390725000075], [86.09709309800007, 25.54218120300004], [86.09792263000008, 25.542000404000078], [86.09919752100006, 25.54216899100004], [86.09993521900003, 25.54236780000008], [86.09971680300004, 25.543149868000057], [86.09959500200006, 25.54422014000005], [86.09915770700007, 25.545694019000052], [86.09843200400007, 25.547205570000074], [86.09761664000007, 25.548713177000025], [86.09672458900008, 25.54991437900003], [86.09894922000007, 25.55140885800006], [86.10162866600007, 25.552489984000033], [86.10364674600004, 25.552906955000026], [86.10874023700006, 25.55269673500004], [86.11233849600006, 25.55213845700007]]]]}}, {"type": "Feature", "properties": {"OBJECTID": 1735, "GPCODE": "091810", "GPNAME_1": "BIRPUR EAST", "DIST_CEN_C": null, "BLK_NAME": "BIRPUR", "ST_NAME": "BIHAR", "ST_CODE_1": null, "GPCODE2011": "94367", "REMARKS": null, "MAP_STATUS": null, "BLK_C_2001": "200010", "BLK_C_2011": "01313", "DIST_NAME": "BEGUSARAI", "code2011": 0.0, "Shape_Leng": 0.17884256947, "Shape_Area": 0.00075241718, "Area": 8.37363}, "geometry": {"type": "MultiPolygon", "coordinates": [[[[86.09026826700006, 25.54019409800003], [86.09135021000003, 25.539813305000052], [86.09200947500005, 25.540184074000024], [86.09283682800003, 25.539687435000076], [86.09410729200005, 25.53924680800003], [86.09517376600007, 25.538784797000062], [86.09628687800006, 25.538602355000023], [86.09733122100005, 25.53784716800004], [86.09780707600004, 25.53688761500007], [86.09817702100008, 25.53573012100003], [86.09833398900008, 25.534713731000068], [86.09834589100006, 25.53428041600006], [86.09940047600008, 25.534274347000064], [86.10035522200008, 25.53421011000006], [86.10083112400008, 25.533977144000062], [86.10124183000005, 25.533658863000028], [86.10181452200004, 25.53304626000005], [86.10187715600006, 25.53275704300006], [86.10448078900004, 25.531613665000066], [86.10420477600007, 25.533379866000075], [86.10440207000005, 25.53384355000003], [86.10614794900005, 25.533106761000056], [86.10612241100006, 25.531604079000033], [86.10589111200005, 25.530562881000037], [86.10536886500006, 25.52917581400004], [86.10529828800009, 25.52764183100004], [86.10668492800005, 25.52746218200008], [86.10638194900008, 25.52543752300005], [86.10614605700005, 25.523732994000056], [86.10588087300005, 25.522114271000078], [86.10601234200004, 25.52032177600006], [86.10489469000004, 25.519836359000067], [86.10468977100004, 25.51899815200005], [86.10452362400008, 25.51801527200007], [86.10409676300003, 25.51674502000003], [86.10367416500009, 25.515361941000037], [86.10327991700007, 25.513771036000037], [86.10300523800004, 25.512910697000052], [86.10267417600005, 25.511811323000074], [86.10270061000006, 25.51062428700004], [86.10230943500005, 25.509471177000023], [86.10209056100007, 25.508055297000055], [86.10147766000006, 25.506497300000035], [86.10111578800007, 25.50525377100007], [86.10109168900004, 25.503954126000053], [86.09882676600006, 25.503678385000057], [86.09805762400003, 25.50321800300003], [86.09639944000008, 25.502938739000058], [86.09451897800005, 25.502863844000046], [86.09394373100008, 25.503097292000064], [86.09384369000009, 25.502317126000037], [86.09374256100006, 25.501360876000035], [86.09169081400006, 25.501693104000026], [86.09182121100008, 25.50255885300004], [86.09160809400004, 25.50409460000003], [86.09133394000008, 25.505427508000025], [86.09140339900006, 25.506122192000078], [86.09174246600008, 25.506959666000057], [86.09185048100005, 25.508177621000073], [86.09102379000007, 25.50873292500006], [86.08923942900003, 25.508914695000044], [86.08783833200005, 25.509125807000032], [86.08646742600007, 25.50939541300005], [86.08631670200003, 25.51061025300004], [86.08640250800005, 25.511507963000042], [86.08665035300004, 25.512815312000043], [86.08454658600004, 25.51285443000006], [86.08407271100003, 25.513376145000052], [86.08375679300008, 25.513725398000076], [86.08360290000007, 25.514479962000053], [86.08335163000004, 25.51482898200004], [86.08191437600004, 25.514864224000064], [86.08076565000005, 25.514902241000073], [86.08000686400004, 25.515222505000054], [86.08001741700008, 25.51603933800004], [86.07942249900003, 25.51705362200005], [86.07840552200008, 25.518160614000067], [86.07691882800003, 25.519698944000027], [86.07535158000007, 25.52110242200007], [86.07606888200007, 25.52341359600007], [86.07652204000004, 25.52494549900007], [86.07313143600004, 25.525226341000064], [86.07253023100003, 25.525324479000062], [86.07152048000006, 25.525330181000072], [86.06943190600003, 25.525441169000032], [86.06746788100008, 25.525560432000077], [86.06624823000004, 25.52690314700004], [86.06841692200004, 25.526877499000022], [86.07093237900006, 25.52663330200005], [86.07131087700003, 25.525963193000052], [86.07226656700004, 25.52604813100004], [86.07574272000005, 25.525911251000025], [86.07915682300006, 25.52615374900006], [86.07932341500003, 25.527222386000062], [86.07900149600005, 25.52742733100007], [86.07801532400003, 25.527256857000054], [86.07696161000007, 25.527380195000035], [86.07636465500008, 25.528105665000055], [86.07562321500006, 25.529522489000044], [86.07505884900007, 25.530653915000073], [86.07449429100006, 25.531753750000064], [86.07334960000009, 25.53239655400006], [86.07256210500003, 25.53364668300003], [86.07132598700008, 25.534750302000077], [86.07030931600008, 25.535220793000065], [86.06929712300007, 25.536341243000038], [86.07105724200005, 25.536922636000043], [86.07367574900007, 25.537169670000026], [86.07586804700009, 25.53694071900003], [86.07673625100006, 25.53585718100004], [86.07669618200003, 25.53437258100007], [86.07660652800007, 25.532906316000037], [86.07745637500005, 25.531330954000055], [86.07897871800003, 25.52990969800004], [86.08045150000004, 25.52922884800006], [86.08117719000006, 25.52914358000004], [86.08271283100004, 25.52964032600005], [86.08563200400005, 25.530941504000054], [86.08685540500005, 25.531602534000058], [86.08906822100005, 25.53290316400006], [86.08962976900006, 25.534244888000046], [86.08902969900004, 25.535232226000062], [86.08763640600006, 25.535890047000066], [86.08633513200004, 25.536917493000033], [86.08740421700008, 25.538269808000052], [86.08837240900004, 25.54014624200005], [86.08870902400008, 25.540609176000032], [86.09026826700006, 25.54019409800003]]]]}}, {"type": "Feature", "properties": {"OBJECTID": 1736, "GPCODE": "091811", "GPNAME_1": "BIRPUR WEST", "DIST_CEN_C": null, "BLK_NAME": "BIRPUR", "ST_NAME": "BIHAR", "ST_CODE_1": null, "GPCODE2011": "94368", "REMARKS": null, "MAP_STATUS": null, "BLK_C_2001": "200010", "BLK_C_2011": "01313", "DIST_NAME": "BEGUSARAI", "code2011": 0.0, "Shape_Leng": 0.07403652034, "Shape_Area": 0.0001095827, "Area": 1.21951}, "geometry": {"type": "MultiPolygon", "coordinates": [[[[86.08640250800005, 25.511507963000042], [86.08407382600006, 25.511376733000077], [86.08056958700007, 25.511717110000063], [86.08061580100008, 25.513364167000077], [86.07974164100006, 25.514271764000057], [86.08000686400004, 25.515222505000054], [86.08076565000005, 25.514902241000073], [86.08191437600004, 25.514864224000064], [86.08335163000004, 25.51482898200004], [86.08360290000007, 25.514479962000053], [86.08375679300008, 25.513725398000076], [86.08407271100003, 25.513376145000052], [86.08454658600004, 25.51285443000006], [86.08665035300004, 25.512815312000043], [86.08640250800005, 25.511507963000042]]], [[[86.07606888200007, 25.52341359600007], [86.07535158000007, 25.52110242200007], [86.07399375900007, 25.52111449000006], [86.07202039600008, 25.521324176000064], [86.07205380000005, 25.521847554000033], [86.07238106500006, 25.523145449000026], [86.07264262200005, 25.524303873000065], [86.07313143600004, 25.525226341000064], [86.07652204000004, 25.52494549900007], [86.07606888200007, 25.52341359600007]]], [[[86.07696161000007, 25.527380195000035], [86.07801532400003, 25.527256857000054], [86.07900149600005, 25.52742733100007], [86.07932341500003, 25.527222386000062], [86.07915682300006, 25.52615374900006], [86.07574272000005, 25.525911251000025], [86.07226656700004, 25.52604813100004], [86.07131087700003, 25.525963193000052], [86.07093237900006, 25.52663330200005], [86.06841692200004, 25.526877499000022], [86.06624823000004, 25.52690314700004], [86.06591927100004, 25.529012617000035], [86.06584357300005, 25.53178415700006], [86.06609289700003, 25.533344310000075], [86.06654146300008, 25.534939508000036], [86.06792006700005, 25.53574872300004], [86.06929712300007, 25.536341243000038], [86.07030931600008, 25.535220793000065], [86.07132598700008, 25.534750302000077], [86.07256210500003, 25.53364668300003], [86.07334960000009, 25.53239655400006], [86.07449429100006, 25.531753750000064], [86.07505884900007, 25.530653915000073], [86.07562321500006, 25.529522489000044], [86.07636465500008, 25.528105665000055], [86.07696161000007, 25.527380195000035]]]]}}, {"type": "Feature", "properties": {"OBJECTID": 1737, "GPCODE": "091812", "GPNAME_1": "DIHPAR", "DIST_CEN_C": null, "BLK_NAME": "BIRPUR", "ST_NAME": "BIHAR", "ST_CODE_1": null, "GPCODE2011": "94369", "REMARKS": null, "MAP_STATUS": null, "BLK_C_2001": "200010", "BLK_C_2011": "01313", "DIST_NAME": "BEGUSARAI", "code2011": 0.0, "Shape_Leng": 0.10069418678, "Shape_Area": 0.00029777743, "Area": 3.31327}, "geometry": {"type": "MultiPolygon", "coordinates": [[[[86.09919752100006, 25.54216899100004], [86.09792263000008, 25.542000404000078], [86.09709309800007, 25.54218120300004], [86.09598013100003, 25.542390725000075], [86.09518512300008, 25.542539760000068], [86.09413082000003, 25.542599950000067], [86.09356174700008, 25.543041043000073], [86.09305461600007, 25.543793075000053], [86.09269802700004, 25.54473392500006], [86.09456549600003, 25.546411054000032], [86.09572770900007, 25.54823671200006], [86.09672458900008, 25.54991437900003], [86.09761664000007, 25.548713177000025], [86.09843200400007, 25.547205570000074], [86.09915770700007, 25.545694019000052], [86.09959500200006, 25.54422014000005], [86.09971680300004, 25.543149868000057], [86.09993521900003, 25.54236780000008], [86.09919752100006, 25.54216899100004]]], [[[86.07816639000004, 25.557173826000053], [86.07880205500004, 25.556998699000076], [86.08043986000007, 25.557111320000047], [86.08176236200006, 25.556959386000074], [86.08339735900006, 25.556661262000034], [86.08444088700008, 25.556474733000073], [86.08518044600004, 25.556204223000066], [86.08763480000005, 25.555684731000042], [86.08942812500004, 25.555268323000064], [86.09151424400005, 25.554750870000078], [86.09096533000007, 25.553806231000067], [86.08938713600008, 25.55224925400006], [86.08808916000004, 25.550198688000023], [86.08807515500007, 25.54818590900004], [86.08853538400007, 25.546391535000055], [86.09016899100004, 25.545217751000052], [86.09146946900006, 25.54477707800004], [86.09222012900005, 25.54470054600006], [86.09232325500005, 25.543797281000025], [86.09240976200005, 25.54264144600006], [86.09217919200006, 25.541685968000024], [86.09200947500005, 25.540184074000024], [86.09135021000003, 25.539813305000052], [86.09026826700006, 25.54019409800003], [86.08870902400008, 25.540609176000032], [86.08837240900004, 25.54014624200005], [86.08740421700008, 25.538269808000052], [86.08633513200004, 25.536917493000033], [86.08383740000005, 25.539021298000023], [86.08247504900004, 25.54058610000004], [86.08115122400005, 25.541952069000047], [86.08033460800004, 25.542579485000033], [86.07865254400008, 25.543956516000037], [86.07643771800008, 25.544546731000025], [86.07465459900004, 25.544981019000033], [86.07257082800004, 25.545110086000022], [86.07127346600004, 25.54528436100003], [86.06982224400008, 25.545513554000024], [86.06963179900004, 25.54587659500004], [86.06897140400008, 25.546436632000052], [86.06782863400008, 25.547178273000043], [86.06774344300004, 25.54727223200007], [86.06772060200007, 25.547297425000068], [86.06778948400006, 25.547285060000036], [86.06916024700007, 25.547665599000027], [86.07128496700005, 25.54989224700006], [86.07349971300005, 25.55216342700004], [86.07495209600006, 25.555007602000046], [86.07507498700005, 25.555503334000036], [86.07590296900008, 25.55652764900003], [86.07816639000004, 25.557173826000053]]]]}}, {"type": "Feature", "properties": {"OBJECTID": 1738, "GPCODE": "091813", "GPNAME_1": "GENHARPUR", "DIST_CEN_C": null, "BLK_NAME": "BIRPUR", "ST_NAME": "BIHAR", "ST_CODE_1": null, "GPCODE2011": "94370", "REMARKS": null, "MAP_STATUS": null, "BLK_C_2001": "200010", "BLK_C_2011": "01313", "DIST_NAME": "BEGUSARAI", "code2011": 0.0, "Shape_Leng": 0.13946052778, "Shape_Area": 0.00047708895, "Area": 5.30983}, "geometry": {"type": "MultiPolygon", "coordinates": [[[[86.06248262800005, 25.517324478000035], [86.06327303100005, 25.517247909000048], [86.06370209700003, 25.51817974100004], [86.06532646000005, 25.520066330000077], [86.06642378100008, 25.521978295000054], [86.06710130400006, 25.522854623000057], [86.06793192300006, 25.52431219300007], [86.06746788100008, 25.525560432000077], [86.06943190600003, 25.525441169000032], [86.07152048000006, 25.525330181000072], [86.07253023100003, 25.525324479000062], [86.07313143600004, 25.525226341000064], [86.07264262200005, 25.524303873000065], [86.07238106500006, 25.523145449000026], [86.07205380000005, 25.521847554000033], [86.07202039600008, 25.521324176000064], [86.07399375900007, 25.52111449000006], [86.07535158000007, 25.52110242200007], [86.07691882800003, 25.519698944000027], [86.07840552200008, 25.518160614000067], [86.07942249900003, 25.51705362200005], [86.08001741700008, 25.51603933800004], [86.08000686400004, 25.515222505000054], [86.07974164100006, 25.514271764000057], [86.07913446200007, 25.513494424000044], [86.07762916900003, 25.51303800200003], [86.07467946000008, 25.51301404000003], [86.07251692000006, 25.513170623000065], [86.07063683800004, 25.51318108600003], [86.06849808000004, 25.51319307600005], [86.06697098100005, 25.513169977000075], [86.06424437600003, 25.513040741000054], [86.06257133100007, 25.512765657000045], [86.06068329600004, 25.51234290900004], [86.05864105100005, 25.51189382800004], [86.05742951500008, 25.511467195000023], [86.05611521800006, 25.51054926200004], [86.05508848800008, 25.50948524000006], [86.05440916300006, 25.50830200100006], [86.05312747300007, 25.507036326000048], [86.05200482100008, 25.506491870000048], [86.05127411600006, 25.50655454200006], [86.05038172900004, 25.506992620000062], [86.04786003800007, 25.50849125600007], [86.04617571300008, 25.509511386000042], [86.04464748100008, 25.510070278000057], [86.04331204700009, 25.51045206400005], [86.04242269500008, 25.510601288000032], [86.04100676100006, 25.510843686000044], [86.04037497600007, 25.510820012000067], [86.03934096200004, 25.510153096000067], [86.03782414200003, 25.50865382300003], [86.03657259600004, 25.507410334000042], [86.03497726100005, 25.506073998000033], [86.03427266000006, 25.50556326700007], [86.03350758900007, 25.50568918500005], [86.03332966100004, 25.506624342000066], [86.03391931000004, 25.507821746000047], [86.03416476600006, 25.50884941000004], [86.03507045900005, 25.510455850000028], [86.03516787400008, 25.51090213200007], [86.03405893000007, 25.51169783100005], [86.03425685200006, 25.51306429400006], [86.03476541900005, 25.514022862000047], [86.03578827400008, 25.514509329000077], [86.03758540900003, 25.51474339500004], [86.04057029300003, 25.514822147000075], [86.04310595800007, 25.514664008000068], [86.04489250300009, 25.514789708000023], [86.04502462300007, 25.515217775000053], [86.04439865000006, 25.51608767600004], [86.04445577700005, 25.517215692000036], [86.04491842900006, 25.51872510900006], [86.04539595800009, 25.520992687000046], [86.04596212200005, 25.522357131000035], [86.04630098500007, 25.52395288300005], [86.04673484800009, 25.525629492000064], [86.04698328800004, 25.52709040900004], [86.04743143900004, 25.528663106000067], [86.04819594700007, 25.528419703000054], [86.04996466900008, 25.52809413500006], [86.05207373200005, 25.52731533900004], [86.05449831900006, 25.526873316000035], [86.05601399600005, 25.526639346000024], [86.05759627800006, 25.525958219000074], [86.05853858500006, 25.524057413000037], [86.05957584000004, 25.521483680000074], [86.06077082900003, 25.52017283500004], [86.06111218900008, 25.51990462200007], [86.06113112400004, 25.519019951000075], [86.06118277500008, 25.518563809000057], [86.06202226700003, 25.517647546000035], [86.06248262800005, 25.517324478000035]]]]}}, {"type": "Feature", "properties": {"OBJECTID": 1739, "GPCODE": "091814", "GPNAME_1": "JAGADAR", "DIST_CEN_C": null, "BLK_NAME": "BIRPUR", "ST_NAME": "BIHAR", "ST_CODE_1": null, "GPCODE2011": "94371", "REMARKS": null, "MAP_STATUS": null, "BLK_C_2001": "200010", "BLK_C_2011": "01313", "DIST_NAME": "BEGUSARAI", "code2011": 0.0, "Shape_Leng": 0.11819122039, "Shape_Area": 0.00063834862, "Area": 7.10539}, "geometry": {"type": "MultiPolygon", "coordinates": [[[[86.08061580100008, 25.513364167000077], [86.08056958700007, 25.511717110000063], [86.08407382600006, 25.511376733000077], [86.08640250800005, 25.511507963000042], [86.08631670200003, 25.51061025300004], [86.08646742600007, 25.50939541300005], [86.08783833200005, 25.509125807000032], [86.08923942900003, 25.508914695000044], [86.09102379000007, 25.50873292500006], [86.09185048100005, 25.508177621000073], [86.09174246600008, 25.506959666000057], [86.09140339900006, 25.506122192000078], [86.09133394000008, 25.505427508000025], [86.09160809400004, 25.50409460000003], [86.09182121100008, 25.50255885300004], [86.09169081400006, 25.501693104000026], [86.09006096300004, 25.50118338300007], [86.08910591300008, 25.50115730600004], [86.08805114000006, 25.501104645000055], [86.08738395400007, 25.500995595000063], [86.08723088700003, 25.50044586300004], [86.08707597300008, 25.499620866000043], [86.08689896900006, 25.499188599000036], [86.08615809500003, 25.499219965000066], [86.08595049100006, 25.497961968000027], [86.08565032800004, 25.496275667000077], [86.08530800700004, 25.494950732000063], [86.08458310200007, 25.49368216000005], [86.08237303100003, 25.494118952000065], [86.08162383200005, 25.494371427000033], [86.07952473500006, 25.495037711000066], [86.07764271800005, 25.495450065000057], [86.07733144400004, 25.49428740600007], [86.07725788200008, 25.492992551000043], [86.07696806400008, 25.492786600000045], [86.07509740800003, 25.492675258000077], [86.07521864700004, 25.494407641000066], [86.07522988000005, 25.496054886000024], [86.07368263100005, 25.495968813000047], [86.07361196700003, 25.495080078000058], [86.07346041000005, 25.492553549000036], [86.07335362200007, 25.490748839000048], [86.07306905100006, 25.489134767000053], [86.07257215300007, 25.487733871000046], [86.06930372700003, 25.488275740000063], [86.06570750700007, 25.488887006000027], [86.06418813200008, 25.489242924000052], [86.06314449100006, 25.48933898300004], [86.06231635100005, 25.48967753900007], [86.06127277100006, 25.489800665000075], [86.06017457900003, 25.489915048000057], [86.05987804800003, 25.490932170000065], [86.05866321900004, 25.492942791000075], [86.05791125700006, 25.494287292000024], [86.05774267600003, 25.495105138000042], [86.05742952900005, 25.49660521800007], [86.05745094600007, 25.498320128000046], [86.05768087800004, 25.499235071000044], [86.05757497900004, 25.500503860000038], [86.05741386400007, 25.50243637600005], [86.05748810400007, 25.503880242000037], [86.05791158200003, 25.505471029000034], [86.05845485800006, 25.50786903900007], [86.05866359700008, 25.510070361000032], [86.05864105100005, 25.51189382800004], [86.06068329600004, 25.51234290900004], [86.06257133100007, 25.512765657000045], [86.06424437600003, 25.513040741000054], [86.06697098100005, 25.513169977000075], [86.06849808000004, 25.51319307600005], [86.07063683800004, 25.51318108600003], [86.07251692000006, 25.513170623000065], [86.07467946000008, 25.51301404000003], [86.07762916900003, 25.51303800200003], [86.07913446200007, 25.513494424000044], [86.07974164100006, 25.514271764000057], [86.08061580100008, 25.513364167000077]]]]}}, {"type": "Feature", "properties": {"OBJECTID": 1740, "GPCODE": "091815", "GPNAME_1": "NOULA", "DIST_CEN_C": null, "BLK_NAME": "BIRPUR", "ST_NAME": "BIHAR", "ST_CODE_1": null, "GPCODE2011": "94372", "REMARKS": null, "MAP_STATUS": null, "BLK_C_2001": "200010", "BLK_C_2011": "01313", "DIST_NAME": "BEGUSARAI", "code2011": 0.0, "Shape_Leng": 0.15743715742, "Shape_Area": 0.00109042231, "Area": 12.1321}, "geometry": {"type": "MultiPolygon", "coordinates": [[[[86.05150941100004, 25.571060174000024], [86.05261808300008, 25.570914251000033], [86.05426084800007, 25.57099997200004], [86.05598415500003, 25.571220701000072], [86.05772756600004, 25.571481892000065], [86.05914102600008, 25.57150116100007], [86.05997299500007, 25.571636424000076], [86.06145311100005, 25.57122208000004], [86.06370015100003, 25.57088010500007], [86.06598577500006, 25.57038], [86.06944139300003, 25.569954515000063], [86.07103679500005, 25.56966121000005], [86.07422475000004, 25.56939512100007], [86.07637690700005, 25.569017433000056], [86.07879882600008, 25.568800665000026], [86.07938482400004, 25.56863485300005], [86.07986906600007, 25.567409033000047], [86.08053436300008, 25.56647106400004], [86.08066444600007, 25.56586097400003], [86.07980602400005, 25.56476465000003], [86.07888239300007, 25.564314096000032], [86.07748011900009, 25.563017708000075], [86.07702581600006, 25.562081574000047], [86.07692649600006, 25.56065596600007], [86.07607098300008, 25.560701428000073], [86.07387173500007, 25.560713801000077], [86.07164767100005, 25.560748852000074], [86.07119791200006, 25.560462563000044], [86.07087920500004, 25.559692530000063], [86.07000611300003, 25.556438987000035], [86.06981958100005, 25.555338809000034], [86.07120435000007, 25.554843619000053], [86.07495209600006, 25.555007602000046], [86.07349971300005, 25.55216342700004], [86.07128496700005, 25.54989224700006], [86.06916024700007, 25.547665599000027], [86.06778948400006, 25.547285060000036], [86.06772060200007, 25.547297425000068], [86.06662171000005, 25.547494667000024], [86.06527812600007, 25.548197215000073], [86.06353294000007, 25.549105008000026], [86.06138906800004, 25.550664941000036], [86.06042782000009, 25.548305328000026], [86.05954580100007, 25.54583234300003], [86.05919563900005, 25.544850558000064], [86.05868777000006, 25.54330538100004], [86.05802356700008, 25.541458644000045], [86.05730201500006, 25.540690854000047], [86.05492073600004, 25.54021202000007], [86.05101175100003, 25.539664771000048], [86.04763835800009, 25.538866273000053], [86.04329601700005, 25.53748625000003], [86.04224719700005, 25.538372037000045], [86.04096227900004, 25.538915962000033], [86.03991482800006, 25.53926014600006], [86.03865602400003, 25.539244370000063], [86.03811567400004, 25.538782445000038], [86.03749277200006, 25.537860585000033], [86.03716938200006, 25.537862295000025], [86.03702998600005, 25.53860775100003], [86.03635396200008, 25.540980800000057], [86.03579166100008, 25.544007656000076], [86.03506352400007, 25.545261709000044], [86.03438603800004, 25.547422659000063], [86.03376699000006, 25.54939821200003], [86.03315070000008, 25.551026299000057], [86.03244455800007, 25.552614119000054], [86.03228967900003, 25.554036634000056], [86.03267812100006, 25.554869520000068], [86.03313255400008, 25.555882590000067], [86.03395083100008, 25.55775114200003], [86.03434252600005, 25.55907144400004], [86.03474116600006, 25.559913230000063], [86.03524138800003, 25.561092984000027], [86.03563134400008, 25.562128907000044], [86.03605368100006, 25.56356186000005], [86.03653555100004, 25.564962929000046], [86.03679155700007, 25.566062731000045], [86.03708052500008, 25.567636268000058], [86.03715278100003, 25.568024010000045], [86.03789784000008, 25.567821405000075], [86.03839944000003, 25.56766529600003], [86.03881585400006, 25.567419373000064], [86.03928218300007, 25.567204668000045], [86.03977372600008, 25.567048576000047], [86.04069404900008, 25.566993979000074], [86.04106776200007, 25.567077720000043], [86.04136246100006, 25.56723859300007], [86.04166809500003, 25.56756189200007], [86.04180412400007, 25.567818379000073], [86.04185047700008, 25.56806186700004], [86.04188794300006, 25.568458790000022], [86.04186151600004, 25.568973431000074], [86.04168589600005, 25.569511471000055], [86.04136601600004, 25.57005484800004], [86.04113984100007, 25.570466728000042], [86.04105170600008, 25.570683855000027], [86.04105265800007, 25.570832761000077], [86.04110830300004, 25.570967842000073], [86.04123331400007, 25.571066510000037], [86.04161277100008, 25.571258534000037], [86.04213135100008, 25.57141815400007], [86.04244534600008, 25.57148864900006], [86.04262454500008, 25.571487662000038], [86.04324977800007, 25.57122706100006], [86.04362078100007, 25.570882032000043], [86.04397692200007, 25.570564201000025], [86.04445221900005, 25.570187016000034], [86.04462571200008, 25.570091282000078], [86.04476998700005, 25.570090546000074], [86.04495979300003, 25.570197835000045], [86.04529089200008, 25.57059318000006], [86.04571812500006, 25.571240757000055], [86.04648825200007, 25.57180976500007], [86.04722845500004, 25.571611636000057], [86.04883533000003, 25.571544249000056], [86.05055672700007, 25.571476159000042], [86.05105368800008, 25.571378588000073], [86.05150941100004, 25.571060174000024]]]]}}, {"type": "Feature", "properties": {"OBJECTID": 1741, "GPCODE": "091816", "GPNAME_1": "PARRA", "DIST_CEN_C": null, "BLK_NAME": "BIRPUR", "ST_NAME": "BIHAR", "ST_CODE_1": null, "GPCODE2011": "94373", "REMARKS": null, "MAP_STATUS": null, "BLK_C_2001": "200010", "BLK_C_2011": "01313", "DIST_NAME": "BEGUSARAI", "code2011": 0.0, "Shape_Leng": 0.15356104257, "Shape_Area": 0.0007392137, "Area": 8.22791}, "geometry": {"type": "MultiPolygon", "coordinates": [[[[86.12319980000007, 25.522585270000036], [86.12306181900004, 25.52070417400006], [86.12293655700006, 25.517144030000054], [86.12276608600007, 25.513530023000044], [86.12237180400007, 25.511970846000054], [86.12228641900003, 25.511163495000062], [86.12182373600007, 25.50908111800004], [86.12086815800006, 25.509001090000027], [86.12000939700005, 25.50923633000008], [86.11943492400007, 25.508892269000057], [86.11929813400008, 25.50785048000006], [86.11934102500004, 25.506897958000025], [86.12010068500007, 25.50671747800004], [86.11983096000006, 25.50449409500004], [86.11978967900006, 25.502901176000023], [86.12027846500007, 25.50240629600006], [86.12209946600007, 25.50251288800007], [86.12334283100006, 25.502505461000055], [86.12410039900004, 25.502040584000042], [86.12425487800004, 25.50139878500005], [86.12221417800004, 25.50118076800004], [86.12020979700003, 25.501165607000075], [86.11883649900005, 25.501083529000027], [86.11835683000004, 25.500770454000076], [86.11818028500005, 25.500428475000035], [86.11799820100003, 25.49999625600003], [86.11572488100006, 25.499928450000027], [86.11563652400008, 25.49870594400005], [86.11570572000005, 25.497261305000052], [86.11459065100007, 25.497123414000043], [86.11443215000008, 25.495815607000054], [86.11374711400003, 25.49599109500008], [86.11200153700008, 25.49600137500005], [86.11194912500008, 25.497012676000054], [86.10901171700004, 25.497264510000036], [86.10736039100004, 25.497238140000036], [86.10689294300005, 25.497249907000025], [86.10646707900008, 25.49610147900006], [86.10632421100007, 25.49559686500004], [86.10612189500006, 25.494411081000067], [86.10478868600006, 25.491548495000075], [86.10352699800006, 25.488951695000026], [86.10312208000005, 25.48794309400006], [86.10308910400005, 25.487505544000044], [86.10475447000005, 25.486719570000048], [86.10565685000006, 25.486344237000026], [86.10528901000004, 25.484956313000055], [86.10462831700005, 25.48435084600004], [86.10398801200006, 25.483813017000045], [86.10214253900006, 25.484437494000076], [86.10078622400005, 25.48319980900004], [86.09805458000005, 25.483675954000034], [86.09709057900005, 25.483780813000067], [86.09715395300003, 25.48573010700005], [86.09613602500008, 25.485934539000027], [86.09454347900004, 25.485754195000027], [86.09340346400006, 25.485575683000036], [86.09195755600007, 25.487168154000074], [86.09100513800007, 25.487516629000027], [86.09055990100006, 25.48785311100005], [86.08966705900008, 25.488891774000024], [86.08886803900003, 25.489126530000078], [86.08773027400008, 25.489268362000075], [86.08713881100005, 25.490747569000064], [86.08562270900006, 25.492286165000053], [86.08458310200007, 25.49368216000005], [86.08530800700004, 25.494950732000063], [86.08565032800004, 25.496275667000077], [86.08595049100006, 25.497961968000027], [86.08615809500003, 25.499219965000066], [86.08689896900006, 25.499188599000036], [86.08707597300008, 25.499620866000043], [86.08723088700003, 25.50044586300004], [86.08738395400007, 25.500995595000063], [86.08805114000006, 25.501104645000055], [86.08910591300008, 25.50115730600004], [86.09006096300004, 25.50118338300007], [86.09169081400006, 25.501693104000026], [86.09374256100006, 25.501360876000035], [86.09384369000009, 25.502317126000037], [86.09394373100008, 25.503097292000064], [86.09451897800005, 25.502863844000046], [86.09639944000008, 25.502938739000058], [86.09805762400003, 25.50321800300003], [86.09882676600006, 25.503678385000057], [86.10109168900004, 25.503954126000053], [86.10111578800007, 25.50525377100007], [86.10147766000006, 25.506497300000035], [86.10209056100007, 25.508055297000055], [86.10230943500005, 25.509471177000023], [86.10270061000006, 25.51062428700004], [86.10267417600005, 25.511811323000074], [86.10300523800004, 25.512910697000052], [86.10327991700007, 25.513771036000037], [86.10367416500009, 25.515361941000037], [86.10409676300003, 25.51674502000003], [86.10452362400008, 25.51801527200007], [86.10468977100004, 25.51899815200005], [86.10489469000004, 25.519836359000067], [86.10601234200004, 25.52032177600006], [86.10921278700005, 25.52130498300005], [86.11100324100005, 25.52196248000007], [86.11157690800007, 25.52218924600004], [86.11221281200005, 25.522068125000033], [86.11236823100006, 25.52154818100007], [86.11354713500003, 25.52154126000005], [86.11431391000008, 25.521649594000053], [86.11473483200007, 25.522084930000062], [86.11546606800005, 25.522080618000075], [86.11600700400004, 25.521901322000076], [86.11657647600003, 25.521550484000045], [86.11717964600007, 25.521027901000025], [86.11823449400003, 25.521080367000025], [86.11919099700003, 25.52127322000007], [86.12048550200007, 25.52144159100004], [86.12147241800005, 25.521724518000042], [86.12319980000007, 25.522585270000036]]]]}}]}