{"type": "FeatureCollection", "features": [{"type": "Feature", "properties": {"OBJECTID": 2500, "GPCODE": "92037", "GPNAME_1": "LOKMANPUR", "DIST_CEN_C": "22", "BLK_NAME": "KHARIK", "ST_NAME": "BIHAR", "ST_CODE_1": "10", "GPCODE2011": "94592", "REMARKS": "FINALIZED", "MAP_STATUS": "COMPLETED", "BLK_C_2001": "220003", "BLK_C_2011": "01331", "DIST_NAME": "BHAGALPUR", "code2011": 11.0, "Shape_Leng": 0.26515146231, "Shape_Area": 0.00171452351, "Area": 19.0893}, "geometry": {"type": "MultiPolygon", "coordinates": [[[[87.02044044500008, 25.476512978000073], [87.02064919400004, 25.475824596000052], [87.02082731900003, 25.473047448000045], [87.02081920500007, 25.472497057000055], [87.02074026400004, 25.472200233000024], [87.01938068400005, 25.470700540000053], [87.01858334800005, 25.469902426000033], [87.01680150400006, 25.468425875000037], [87.01652031300006, 25.46789686900007], [87.01605915200008, 25.466620956000042], [87.01562591600003, 25.465899698000044], [87.01554545500005, 25.465499092000073], [87.01557987300004, 25.46513318700005], [87.01604230500004, 25.464112384000032], [87.01688192300008, 25.463041893000025], [87.01733770600003, 25.46258974600005], [87.01773765500008, 25.462399977000075], [87.01912851500003, 25.461963558000036], [87.01998217300007, 25.462196934000076], [87.02054003100005, 25.462605323000048], [87.02133505000006, 25.463245502000063], [87.02196705600005, 25.46362141000003], [87.02316123200006, 25.46402207700004], [87.02417317200008, 25.46419481600003], [87.02547734800004, 25.464291927000033], [87.02626951400003, 25.46439960300006], [87.02671338000005, 25.46449356900007], [87.02646157200007, 25.463598713000067], [87.02633142000008, 25.463203218000046], [87.02592073400007, 25.46266221700006], [87.02512692200008, 25.461088003000043], [87.02504825900007, 25.460809228000073], [87.02526103900004, 25.460062136000033], [87.02563957800004, 25.45841066400004], [87.02594246800004, 25.45669230900006], [87.02592887000003, 25.45576748900004], [87.02585364500004, 25.454369704000044], [87.02559775900005, 25.45217989500003], [87.02565520300004, 25.452030317000037], [87.02576453800003, 25.45202895600005], [87.02643123400009, 25.452733808000062], [87.02665558100006, 25.45278077300003], [87.02690751100005, 25.452664862000063], [87.02744655600009, 25.451792030000036], [87.02776086600005, 25.45085418900004], [87.02784771400007, 25.450338741000053], [87.02761164000003, 25.449493388000064], [87.02733114000006, 25.449013940000043], [87.02696417300007, 25.447727877000034], [87.02670163700003, 25.44745135200003], [87.02635267200003, 25.447387827000057], [87.02607975800004, 25.44742277000006], [87.02581006300005, 25.447678721000045], [87.02537424200005, 25.448130642000024], [87.02497557000004, 25.448401742000044], [87.02461018400004, 25.448573104000047], [87.02437055400009, 25.448508307000054], [87.02405695700008, 25.448146550000047], [87.02279158200008, 25.446948078000048], [87.02260401400008, 25.446702154000036], [87.02264032000005, 25.446467099000074], [87.02299397200005, 25.445831111000075], [87.02376427700005, 25.444459153000025], [87.02384916100004, 25.44414228200003], [87.02375695200004, 25.44395838500003], [87.02349386700007, 25.44364575700007], [87.02345492900008, 25.443361955000057], [87.02363203900006, 25.44289503500005], [87.02405872800006, 25.442158978000066], [87.02445714600003, 25.44187434400004], [87.02482373000004, 25.441784202000065], [87.02560929200007, 25.44179274700008], [87.02611929100004, 25.441651226000033], [87.02648343800007, 25.441398640000045], [87.02693269500008, 25.44084271500003], [87.02853680400005, 25.441409975000056], [87.02936872000004, 25.44186460900005], [87.02988634600007, 25.442241893000073], [87.03052061000005, 25.443114067000067], [87.03118126600003, 25.44443260500003], [87.03134995300007, 25.444746460000033], [87.03157063500004, 25.444874582000068], [87.03214087800006, 25.445115858000065], [87.03241599100005, 25.44522980800008], [87.03279022300006, 25.44565846200004], [87.03295961200007, 25.44602186000003], [87.03313825100008, 25.44666948300005], [87.03336207300003, 25.44701870800003], [87.03377063400006, 25.447410786000034], [87.03446753200006, 25.447808397000074], [87.03494932500007, 25.44811845600003], [87.03524263700007, 25.448114823000026], [87.03545990100008, 25.448012909000056], [87.03580093300008, 25.447539551000034], [87.03610669700004, 25.447039503000042], [87.03629158700005, 25.446089726000025], [87.03648866800006, 25.44563607500004], [87.03697409300008, 25.44517901300003], [87.03733390600007, 25.444628591000026], [87.03747191600007, 25.444211806000055], [87.03752238300007, 25.443593043000078], [87.03773352800005, 25.443076090000034], [87.03787388400008, 25.44282174800003], [87.03799500700006, 25.44126354800005], [87.03815049900004, 25.44067964000004], [87.03861952300008, 25.44012794100007], [87.03901645400003, 25.439739575000033], [87.04012790400003, 25.439256750000027], [87.04196388700007, 25.438697423000065], [87.04258247900003, 25.438504932000058], [87.04318313300007, 25.43811402800003], [87.04428889100006, 25.437252236000063], [87.04693716500003, 25.43481498400007], [87.04927595600003, 25.43297247600003], [87.05158089700006, 25.43152743400003], [87.05567417800006, 25.428675216000045], [87.05806962500003, 25.42698082900006], [87.05911995400004, 25.42608347500004], [87.06078256400008, 25.424912463000055], [87.06134306300004, 25.42450395700007], [87.06137857900006, 25.424219254000036], [87.06132888000008, 25.423556562000044], [87.06137312000004, 25.42285669300003], [87.06149135900006, 25.422124241000063], [87.06149195700004, 25.421826476000035], [87.06128547600008, 25.421648540000035], [87.06080638300006, 25.421519052000065], [87.05917116900008, 25.42119174800007], [87.05744709200007, 25.42091067900003], [87.05420831900005, 25.420372866000037], [87.05048198000009, 25.419804913000064], [87.04708440900004, 25.41928247000004], [87.04385871700003, 25.41895634800005], [87.04108763600004, 25.41878708300004], [87.03804593000007, 25.418792516000053], [87.03700344300006, 25.41888637900007], [87.03634070100009, 25.41910656700003], [87.03665326400005, 25.420749690000036], [87.03666311400008, 25.421083470000042], [87.03652197600007, 25.42128818200007], [87.03613634300007, 25.421423729000026], [87.03540799400008, 25.42158598000003], [87.03534428500006, 25.42096861300007], [87.03522629100007, 25.42072184700004], [87.03500588500003, 25.42060726300008], [87.03440832200005, 25.420533292000073], [87.03180671900003, 25.420731771000078], [87.02906269800008, 25.421049271000072], [87.02468498900004, 25.421815069000047], [87.02349876200003, 25.421928714000046], [87.02318301900004, 25.421751994000033], [87.02282391900007, 25.420989234000047], [87.02259704800008, 25.42042800300004], [87.02237734700003, 25.42036294600007], [87.02153448300004, 25.420503964000034], [87.02003489600008, 25.42060772600007], [87.01837603000007, 25.420695370000033], [87.01705722000008, 25.420927852000034], [87.01569318600008, 25.42145862700005], [87.01421452500006, 25.421977252000033], [87.01314608300004, 25.422671370000046], [87.01265582800005, 25.42314203500007], [87.01165491700004, 25.424381279000045], [87.01100289900006, 25.425007245000074], [87.00993055600009, 25.425782697000045], [87.00917005600007, 25.42612568800007], [87.00818801200006, 25.426268315000073], [87.00751093400004, 25.426195163000045], [87.00622602500005, 25.426025539000022], [87.00523414700007, 25.42583879400007], [87.00503832400005, 25.428101772000048], [87.00508093900004, 25.428299808000077], [87.00545331100005, 25.428615728000068], [87.00575161900008, 25.428959599000052], [87.00609214200006, 25.429821829000048], [87.00648237100006, 25.431364905000066], [87.00667793100007, 25.432161164000036], [87.00716754900003, 25.433021721000046], [87.00735659200006, 25.433371356000066], [87.00725300300007, 25.433769694000034], [87.00705628800006, 25.434259320000024], [87.00712034200006, 25.434903856000062], [87.00706929500006, 25.436519764000025], [87.00702314000006, 25.437106896000046], [87.00676995200007, 25.437475411000037], [87.00647364000008, 25.43829573900007], [87.00569675700007, 25.43923002100007], [87.00566663600006, 25.439550673000042], [87.00576288700006, 25.44001434100005], [87.00656764400009, 25.441006435000077], [87.00673770100008, 25.441414980000047], [87.00672606900008, 25.441645230000063], [87.00642070400005, 25.44218583600008], [87.00626230600005, 25.442571259000033], [87.00615070900005, 25.443786381000052], [87.00565179000006, 25.445037709000076], [87.00530482400006, 25.446476691000044], [87.00477569900005, 25.447701273000064], [87.00385559200004, 25.448704944000042], [87.00331154600008, 25.44889648800006], [87.00271976400006, 25.448885527000073], [87.00185693000003, 25.44869725800004], [87.00078784900006, 25.448339992000058], [87.00049577600004, 25.448429200000078], [87.00038460400003, 25.44864707800008], [87.00035552800006, 25.449044530000037], [87.00003617300007, 25.449652926000056], [86.99978469800004, 25.450138743000025], [86.99944011800005, 25.450377477000075], [86.99924565700007, 25.450677623000047], [86.99910203300004, 25.451062829000023], [86.99883182200006, 25.451282633000062], [86.99851917400008, 25.451322453000046], [86.99791247300004, 25.451311686000054], [86.99758020300004, 25.45140648000006], [86.99741731200004, 25.45145290100004], [86.99733139100005, 25.451702073000035], [86.99716955100007, 25.451852940000038], [86.99661944300004, 25.451976820000027], [86.99618507400004, 25.452194074000033], [86.99605829500007, 25.45236252500007], [86.99600664700006, 25.45257964800004], [86.99608676600008, 25.452962312000068], [86.99620871000008, 25.45382713400005], [86.99610399200003, 25.45552947300007], [86.99601609100006, 25.455981731000065], [86.99549876000003, 25.45700319900004], [86.99554436000005, 25.457404189000044], [86.99574804300005, 25.45773566500003], [86.99617032500004, 25.458055528000045], [86.99698272300003, 25.45819478100003], [86.99758016400006, 25.458198968000033], [86.99793747000007, 25.45820145700003], [86.99816007400005, 25.458464994000053], [86.99837039100004, 25.458913746000064], [86.99917042700008, 25.459914929000035], [87.00021826800008, 25.46120200100006], [87.00182929400006, 25.46223410300007], [87.00332896200007, 25.463132168000072], [87.00427477200003, 25.463887991000036], [87.00570821100007, 25.46570274800007], [87.00555522900004, 25.466467100000045], [87.00559899800004, 25.46708029000007], [87.00553393400008, 25.467396895000036], [87.00527957900005, 25.46768417800007], [87.00473186400006, 25.46797503500005], [87.00457018400004, 25.468143870000063], [87.00458887900004, 25.469086692000076], [87.00480854700004, 25.470514431000026], [87.00492515700006, 25.471013939000045], [87.00431330800006, 25.47137394400005], [87.00397532100004, 25.471693105000043], [87.00313997200004, 25.47203693700004], [87.00182466300004, 25.472548945000028], [87.00101531900003, 25.472969269000032], [87.00094389000003, 25.47318664000005], [87.00109186900005, 25.47345114500007], [87.00190870600005, 25.47388808100004], [87.00328102900005, 25.47490495900007], [87.00414914000004, 25.475788042000033], [87.00494975200007, 25.476811742000052], [87.00588255200006, 25.47769852700003], [87.00673319500004, 25.478401227000063], [87.00712348500008, 25.47856355400006], [87.00741607900005, 25.47851043600008], [87.00763003300005, 25.478178444000037], [87.00798168800009, 25.477055241000073], [87.00867674600005, 25.475950428000033], [87.01015678500005, 25.476853187000074], [87.01235689300006, 25.47802248200003], [87.01333770800005, 25.478443930000026], [87.01417116700009, 25.478984362000062], [87.01506451100005, 25.479885042000035], [87.01565820500008, 25.480360751000035], [87.01604302000004, 25.480491422000057], [87.01646645600005, 25.480536032000032], [87.01677744200003, 25.480383376000077], [87.01903531200009, 25.47835729700006], [87.02010114400008, 25.477112635000026], [87.02044044500008, 25.476512978000073]]]]}}, {"type": "Feature", "properties": {"OBJECTID": 2502, "GPCODE": "92062", "GPNAME_1": "BHAWANPURA", "DIST_CEN_C": "22", "BLK_NAME": "KHARIK", "ST_NAME": "BIHAR", "ST_CODE_1": "10", "GPCODE2011": "94585", "REMARKS": "FINALIZED", "MAP_STATUS": "COMPLETED", "BLK_C_2001": "220003", "BLK_C_2011": "01331", "DIST_NAME": "BHAGALPUR", "code2011": 8.0, "Shape_Leng": 0.20391929653, "Shape_Area": 0.00138395985, "Area": 15.4094}, "geometry": {"type": "MultiPolygon", "coordinates": [[[[87.00431330800006, 25.47137394400005], [87.00492515700006, 25.471013939000045], [87.00480854700004, 25.470514431000026], [87.00458887900004, 25.469086692000076], [87.00457018400004, 25.468143870000063], [87.00473186400006, 25.46797503500005], [87.00527957900005, 25.46768417800007], [87.00553393400008, 25.467396895000036], [87.00559899800004, 25.46708029000007], [87.00555522900004, 25.466467100000045], [87.00570821100007, 25.46570274800007], [87.00427477200003, 25.463887991000036], [87.00332896200007, 25.463132168000072], [87.00182929400006, 25.46223410300007], [87.00021826800008, 25.46120200100006], [86.99917042700008, 25.459914929000035], [86.99837039100004, 25.458913746000064], [86.99816007400005, 25.458464994000053], [86.99793747000007, 25.45820145700003], [86.99758016400006, 25.458198968000033], [86.99698272300003, 25.45819478100003], [86.99617032500004, 25.458055528000045], [86.99574804300005, 25.45773566500003], [86.99554436000005, 25.457404189000044], [86.99549876000003, 25.45700319900004], [86.99601609100006, 25.455981731000065], [86.99610399200003, 25.45552947300007], [86.99620871000008, 25.45382713400005], [86.99608676600008, 25.452962312000068], [86.99600664700006, 25.45257964800004], [86.99605829500007, 25.45236252500007], [86.99618507400004, 25.452194074000033], [86.99661944300004, 25.451976820000027], [86.99716955100007, 25.451852940000038], [86.99733139100005, 25.451702073000035], [86.99741731200004, 25.45145290100004], [86.99758020300004, 25.45140648000006], [86.99791247300004, 25.451311686000054], [86.99851917400008, 25.451322453000046], [86.99883182200006, 25.451282633000062], [86.99910203300004, 25.451062829000023], [86.99924565700007, 25.450677623000047], [86.99944011800005, 25.450377477000075], [86.99978469800004, 25.450138743000025], [87.00003617300007, 25.449652926000056], [87.00035552800006, 25.449044530000037], [87.00038460400003, 25.44864707800008], [87.00049577600004, 25.448429200000078], [87.00078784900006, 25.448339992000058], [87.00185693000003, 25.44869725800004], [87.00271976400006, 25.448885527000073], [87.00331154600008, 25.44889648800006], [87.00385559200004, 25.448704944000042], [87.00477569900005, 25.447701273000064], [87.00530482400006, 25.446476691000044], [87.00565179000006, 25.445037709000076], [87.00615070900005, 25.443786381000052], [87.00626230600005, 25.442571259000033], [87.00642070400005, 25.44218583600008], [87.00672606900008, 25.441645230000063], [87.00673770100008, 25.441414980000047], [87.00656764400009, 25.441006435000077], [87.00576288700006, 25.44001434100005], [87.00566663600006, 25.439550673000042], [87.00569675700007, 25.43923002100007], [87.00647364000008, 25.43829573900007], [87.00676995200007, 25.437475411000037], [87.00702314000006, 25.437106896000046], [87.00706929500006, 25.436519764000025], [87.00712034200006, 25.434903856000062], [87.00705628800006, 25.434259320000024], [87.00725300300007, 25.433769694000034], [87.00735659200006, 25.433371356000066], [87.00716754900003, 25.433021721000046], [87.00667793100007, 25.432161164000036], [87.00648237100006, 25.431364905000066], [87.00609214200006, 25.429821829000048], [87.00575161900008, 25.428959599000052], [87.00545331100005, 25.428615728000068], [87.00508093900004, 25.428299808000077], [87.00503832400005, 25.428101772000048], [87.00523414700007, 25.42583879400007], [87.00465787200005, 25.42551632800007], [87.00382314300003, 25.424858507000067], [87.00332249900003, 25.42426428400006], [87.00268279800008, 25.422994996000057], [87.00180068300006, 25.421462328000075], [87.00059970900008, 25.419531875000075], [86.99903730900007, 25.417691450000063], [86.99758063100006, 25.416345037000042], [86.99747568400005, 25.416248042000063], [86.99663950100006, 25.41547285200005], [86.99540459800005, 25.414625713000078], [86.99477579900008, 25.414452652000023], [86.99393332000005, 25.41427771000008], [86.99265033900008, 25.414229712000065], [86.99151259400008, 25.41425670500007], [86.98994233100007, 25.414627279000058], [86.98810435700005, 25.415041604000066], [86.98597373500007, 25.415847364000058], [86.98349195200007, 25.41642711700007], [86.98200797300007, 25.416580030000034], [86.97990610500005, 25.41661829000003], [86.97875320100007, 25.416631864000067], [86.97776735000008, 25.416859986000077], [86.97590532800007, 25.41733311400003], [86.97530537100005, 25.41778684800005], [86.97449889000006, 25.41874387400003], [86.97407763700005, 25.41883000200005], [86.97281354300009, 25.418713998000044], [86.97187520100005, 25.418440688000032], [86.97115182500005, 25.417898680000064], [86.97036072300006, 25.417145378000043], [86.96997009000006, 25.416933311000037], [86.96962178900003, 25.416905846000077], [86.96911032800006, 25.416943400000036], [86.96883845200006, 25.417050350000068], [86.96814818900003, 25.417437437000046], [86.96767702400007, 25.41751067900003], [86.96651981700006, 25.417573838000067], [86.96545968200007, 25.417468881000048], [86.96398939600004, 25.41718818800007], [86.96341461100008, 25.418011636000074], [86.96321571400006, 25.41836133100003], [86.96313002700003, 25.418628629000068], [86.96347570500006, 25.419874505000053], [86.96381949500005, 25.42098500900005], [86.96407027800007, 25.42184840400006], [86.96423994400004, 25.422243465000065], [86.96507661200008, 25.423064043000068], [86.96593841900005, 25.42424516400007], [86.96618347500004, 25.42470705200003], [86.96625784200006, 25.425040139000032], [86.96623788800008, 25.42608718100007], [86.96631789700007, 25.426469773000065], [86.96650604600006, 25.426769919000037], [86.96689128700007, 25.426945931000034], [86.96727680200007, 25.427139992000036], [86.96757332000004, 25.42737113100003], [86.96761828000007, 25.427736132000064], [86.96780588200005, 25.428000087000044], [86.96800637000007, 25.428115106000064], [86.96824420500008, 25.428062673000056], [86.96860825500005, 25.427792168000053], [86.96888060000003, 25.427721321000035], [86.96921457300004, 25.427785094000058], [86.96984945300005, 25.428039443000046], [86.97026226700007, 25.428404584000077], [86.97057203100007, 25.428513765000048], [86.97094241600007, 25.42869439800006], [86.97121812200004, 25.42885818600007], [86.97137027500008, 25.429072958000063], [86.97151823700005, 25.429337401000055], [86.97174530800004, 25.429930384000045], [86.97187891500005, 25.430231133000063], [86.97208505400005, 25.430395652000072], [86.97246885600003, 25.430472381000072], [86.97388346800005, 25.430672387000072], [86.97417827800007, 25.430786288000036], [86.97434585400003, 25.431032523000056], [86.97471482600008, 25.432503637000025], [86.97481471600008, 25.43428025000003], [86.97529525600004, 25.43590805900004], [86.97594670200004, 25.43802116100005], [86.97615835200008, 25.438916610000035], [86.97628432700003, 25.440079269000023], [86.97643841000007, 25.440429404000042], [86.97669640700008, 25.440742243000045], [86.97712224000009, 25.440967362000038], [86.97875540200005, 25.441151227000034], [86.97989020000006, 25.441246197000055], [86.98077282900005, 25.441434340000058], [86.98130844700006, 25.441694220000045], [86.98147564500005, 25.441908857000044], [86.98160822900007, 25.442141915000036], [86.98159304600006, 25.442471470000044], [86.98088963100008, 25.443346099000053], [86.98000470900007, 25.44403787500005], [86.97902321100008, 25.44458185800005], [86.97840425800007, 25.44510804400005], [86.97786847800006, 25.445876976000022], [86.97760063800007, 25.446272634000024], [86.97753268700006, 25.446738174000075], [86.97754106100007, 25.44732467700004], [86.97779300100007, 25.44825120400003], [86.97812838800007, 25.448761712000078], [86.97879767500007, 25.449322340000037], [86.97936743300005, 25.449532221000027], [86.97988174600005, 25.449693179000064], [86.98052250300003, 25.44964949900003], [86.98140281200006, 25.449675198000023], [86.98247180600004, 25.450028084000053], [86.98306410800006, 25.45041818800007], [86.98352157100004, 25.45077372700007], [86.98415866300007, 25.45151528300005], [86.98498614700009, 25.453053158000046], [86.98553357700007, 25.454129644000034], [86.98607055100007, 25.455864983000026], [86.98630552600008, 25.45699028100006], [86.98660466800004, 25.45843519700003], [86.98690242000004, 25.460123717000045], [86.98713204200004, 25.460883526000032], [86.98734786300008, 25.461715738000066], [86.98731308900005, 25.462063588000035], [86.98663640900008, 25.463411760000042], [86.98644586500006, 25.463996070000064], [86.98645451400006, 25.46459610200003], [86.98653530800004, 25.465375791000042], [86.98677993500007, 25.465787995000028], [86.98720778500007, 25.466148358000055], [86.98774215600008, 25.466309033000073], [86.98847346600007, 25.466336435000073], [86.98889889600008, 25.46652993500004], [86.98908937600004, 25.467330849000064], [86.98909776700003, 25.469293631000028], [86.98896217900005, 25.47127607500005], [86.98885561700007, 25.47285204600007], [86.98897715700008, 25.47369891200003], [86.98912271600005, 25.475229795000075], [86.98940960900006, 25.475122601000066], [86.99010890400007, 25.474992490000034], [86.99087778800003, 25.474861542000042], [86.99107373400005, 25.474656164000066], [86.99112079300005, 25.474132224000073], [86.99131112300006, 25.473881763000065], [86.99243709000007, 25.47334051200005], [86.99485150400005, 25.472152152000035], [86.99754364600005, 25.470567987000038], [87.00062441000006, 25.470699767000042], [87.00150293200005, 25.47058998500006], [87.00322615400006, 25.470438647000037], [87.00385587000005, 25.470543544000066], [87.00415367500005, 25.47105799800005], [87.00431330800006, 25.47137394400005]]]]}}, {"type": "Feature", "properties": {"OBJECTID": 2510, "GPCODE": "92040", "GPNAME_1": "TULSIPUR", "DIST_CEN_C": "22", "BLK_NAME": "KHARIK", "ST_NAME": "BIHAR", "ST_CODE_1": "10", "GPCODE2011": "94595", "REMARKS": "FINALIZED", "MAP_STATUS": "COMPLETED", "BLK_C_2001": "220003", "BLK_C_2011": "01331", "DIST_NAME": "BHAGALPUR", "code2011": 5.0, "Shape_Leng": 0.01522322657, "Shape_Area": 1.11223e-05, "Area": 0.123897}, "geometry": {"type": "MultiPolygon", "coordinates": [[[[86.98232549400007, 25.37898027400007], [86.98132618200003, 25.37859044100003], [86.98104989500007, 25.37837712000004], [86.98002579600006, 25.37868698400007], [86.97887163300004, 25.378935153000043], [86.97899706600003, 25.38006626400005], [86.97899344100006, 25.381207887000073], [86.97903654900006, 25.38144203300004], [86.97931661800004, 25.381921592000026], [86.97954041300005, 25.38228444300006], [86.97958538600005, 25.382649357000048], [86.97943188400006, 25.383386649000045], [86.97945134500009, 25.383702306000032], [86.97960277700008, 25.38386743700005], [86.97982280000008, 25.38396414500005], [86.98044572200007, 25.384092190000047], [86.98083819800007, 25.382693279000023], [86.98132759300006, 25.381126342000073], [86.98165838800008, 25.379935700000033], [86.98187016100007, 25.379450389000056], [86.98232549400007, 25.37898027400007]]]]}}, {"type": "Feature", "properties": {"OBJECTID": 2514, "GPCODE": "92033", "GPNAME_1": "KHAREEK BAZAR", "DIST_CEN_C": "22", "BLK_NAME": "KHARIK", "ST_NAME": "BIHAR", "ST_CODE_1": "10", "GPCODE2011": "92036", "REMARKS": "FINALIZED", "MAP_STATUS": "COMPLETED", "BLK_C_2001": "220003", "BLK_C_2011": "01331", "DIST_NAME": "BHAGALPUR", "code2011": 9.0, "Shape_Leng": 0.13584524337, "Shape_Area": 0.00054634448, "Area": 6.08634}, "geometry": {"type": "MultiPolygon", "coordinates": [[[[87.02778541500004, 25.397344308000072], [87.02766854100008, 25.395816038000078], [87.02772100300007, 25.39430837900005], [87.02767721400005, 25.393690744000025], [87.02678611600004, 25.390872356000045], [87.02666697500007, 25.39020146300004], [87.02675915100008, 25.38937013700007], [87.02739644200005, 25.387417683000024], [87.02788220200006, 25.386658262000026], [87.02848566800003, 25.386132081000028], [87.02895847300005, 25.385842109000066], [87.02952803700003, 25.38571795000007], [87.03035894200008, 25.38579360400007], [87.03102574700006, 25.38585320100003], [87.03128978300003, 25.384884416000034], [87.03135057300005, 25.383949639000036], [87.03137714700006, 25.383394328000065], [87.03139243200008, 25.38307829200005], [87.03151867700007, 25.38287821700004], [87.03162529100007, 25.382691934000036], [87.03165635700003, 25.382443374000047], [87.03162885900008, 25.38192488800007], [87.03166147900004, 25.381437125000048], [87.03176663400006, 25.381156083000064], [87.03207643700006, 25.380931275000023], [87.03258693300006, 25.380843879000054], [87.03371209300008, 25.380997207000064], [87.03579757500006, 25.381576533000043], [87.03712668100007, 25.378361278000057], [87.03767365600004, 25.37670313900003], [87.03847257500007, 25.37494729900004], [87.03899148400006, 25.37408818600005], [87.03917314500006, 25.373937006000062], [87.03950325000005, 25.373748027000033], [87.03995042500009, 25.373074814000063], [87.04080975400007, 25.371715230000063], [87.04087616300006, 25.37116390700004], [87.04077688300004, 25.370497365000062], [87.04016411000003, 25.369033814000034], [87.03960202000007, 25.36798033900004], [87.03851334600006, 25.366256322000027], [87.03763460200008, 25.36528338900007], [87.03744154200007, 25.364654001000076], [87.03693577700005, 25.36404646400007], [87.03661762600007, 25.363698385000077], [87.03645293000005, 25.363650757000073], [87.03517045300003, 25.363937070000077], [87.03482321700005, 25.36397283200006], [87.03465781900007, 25.363875564000068], [87.03419873100006, 25.36272597800007], [87.03426962300006, 25.362476989000072], [87.03450590500006, 25.36232517700006], [87.03492580000005, 25.362166686000023], [87.03597466400004, 25.362208172000066], [87.03641222400006, 25.36223437800004], [87.03665389500009, 25.362114202000043], [87.03696802300004, 25.361176382000053], [87.03701904700006, 25.359578441000053], [87.03714568000004, 25.359409948000064], [87.03743658300004, 25.35925749200004], [87.03952847900007, 25.358947839000052], [87.04027510500003, 25.358704083000077], [87.04025300600006, 25.35822156100005], [87.04034071000007, 25.35810321400004], [87.04076016400006, 25.357913118000056], [87.04085114200007, 25.357677403000025], [87.04079011300007, 25.357244938000065], [87.04044783000006, 25.356603902000074], [87.04016969900005, 25.35627336300007], [87.04012578300006, 25.35598959200007], [87.04016494500007, 25.354937820000032], [87.04006515400005, 25.354239595000024], [87.03995002800008, 25.353839445000062], [87.03974364200008, 25.353656960000023], [87.03926651500007, 25.353644726000027], [87.03829334500006, 25.353674563000027], [87.03620799000004, 25.353749470000025], [87.03458804200005, 25.353719451000075], [87.03313994900003, 25.35388591700007], [87.03123406900005, 25.354008269000076], [87.02963674700004, 25.354162952000024], [87.02741036700007, 25.354104066000048], [87.02767390300005, 25.355138690000047], [87.02756754300003, 25.355338510000024], [87.02707278600008, 25.355479827000067], [87.02619381400007, 25.355504024000027], [87.02602720200008, 25.355659393000053], [87.02609078900008, 25.35627227300006], [87.02635084900004, 25.357406211000068], [87.02620850800008, 25.357525277000036], [87.02582184000005, 25.35757958000005], [87.02512618500003, 25.357569931000057], [87.02370980900008, 25.357537386000047], [87.02506401000005, 25.363424828000063], [87.02566706100004, 25.36885228400007], [87.02031295000006, 25.372759888000076], [87.02295333300003, 25.375033552000048], [87.02219952000007, 25.37985795700007], [87.01519881000007, 25.38786681600004], [87.01572239300003, 25.389015638000046], [87.01624515200007, 25.389762904000065], [87.01695362000004, 25.390986287000032], [87.01781577900005, 25.39217616800005], [87.01829008500005, 25.392666770000062], [87.01896662100006, 25.393060209000055], [87.01937602000004, 25.393190675000028], [87.02058712400003, 25.393433280000067], [87.02149566900005, 25.393715661000044], [87.02221677400007, 25.393756619000044], [87.02297531700003, 25.39397308200006], [87.02329478400009, 25.39407296400003], [87.02383764500007, 25.394490593000057], [87.02456976900004, 25.395280408000076], [87.02474241000004, 25.395531066000046], [87.02495686300006, 25.39626389400007], [87.02519144700005, 25.39667623200006], [87.02569166300003, 25.397238713000036], [87.02592317500006, 25.397434451000038], [87.02625226300006, 25.39751168300006], [87.02654063100005, 25.39752174000006], [87.02778541500004, 25.397344308000072]]]]}}, {"type": "Feature", "properties": {"OBJECTID": 2482, "GPCODE": "92038", "GPNAME_1": "RAGHOPUR", "DIST_CEN_C": "22", "BLK_NAME": "KHARIK", "ST_NAME": "BIHAR", "ST_CODE_1": "10", "GPCODE2011": "94593", "REMARKS": "FINALIZED", "MAP_STATUS": "COMPLETED", "BLK_C_2001": "220003", "BLK_C_2011": "01331", "DIST_NAME": "BHAGALPUR", "code2011": 10.0, "Shape_Leng": 0.14766008361, "Shape_Area": 0.00091064126, "Area": 10.1501}, "geometry": {"type": "MultiPolygon", "coordinates": [[[[87.02607406600004, 25.32385237400007], [87.02618447500004, 25.318828919000055], [87.02522253200004, 25.31723413900005], [87.02501072600006, 25.316672665000056], [87.02500112400008, 25.31601401100005], [87.02634156000005, 25.31564135700006], [87.02817120200007, 25.31510494300005], [87.02763340200005, 25.313649526000063], [87.02636846400009, 25.310343729000067], [87.02608527200005, 25.308628027000054], [87.02501582200006, 25.305784626000047], [87.02778289100007, 25.30585961500003], [87.03175761000006, 25.30464751900007], [87.03287048200008, 25.304349733000038], [87.03571142300007, 25.304044678000025], [87.03770970500005, 25.30418740400006], [87.04030544100004, 25.304435742000067], [87.04396784300008, 25.30528918600004], [87.04601612700003, 25.305453769000053], [87.04730996100005, 25.305298135000044], [87.04772199000007, 25.305293117000076], [87.04697567000005, 25.302166225000065], [87.04606267900004, 25.299185696000052], [87.04512888700003, 25.29545650700004], [87.04195167400007, 25.285780935000048], [87.00837237400003, 25.296620994000023], [87.00799282300005, 25.296639092000078], [87.00761317000007, 25.296657194000034], [87.00691412600008, 25.29673315200006], [87.00613356200006, 25.29700871500006], [87.00501903400004, 25.297540828000024], [87.00482333700006, 25.29774173000004], [87.00428381300009, 25.298546776000023], [87.00401734700006, 25.299353109000037], [87.00389759000007, 25.300004345000048], [87.00411537000008, 25.30236618600003], [87.00437586300006, 25.304939613000045], [87.00484614900006, 25.30828206800004], [87.00520341300006, 25.310326385000053], [87.00523752500004, 25.311314208000056], [87.00507952500004, 25.313098362000062], [87.00505387800007, 25.316144472000076], [87.00510911500004, 25.317560682000078], [87.00522461200006, 25.317992452000055], [87.00565925500007, 25.31886263000007], [87.00656152500005, 25.32047183000003], [87.00694642800005, 25.320300245000055], [87.00747720400005, 25.32025780200007], [87.00949846100008, 25.320251771000073], [87.01064969500004, 25.32052681400006], [87.01220596100006, 25.32065717000006], [87.01463312800007, 25.321241740000062], [87.01701743800004, 25.321957691000023], [87.01826806000008, 25.32257449100007], [87.01938630600006, 25.323657497000056], [87.01971743500008, 25.323888173000057], [87.02121895600004, 25.324001016000068], [87.02607406600004, 25.32385237400007]]]]}}, {"type": "Feature", "properties": {"OBJECTID": 2485, "GPCODE": "92035", "GPNAME_1": "KHAIRPUR", "DIST_CEN_C": "22", "BLK_NAME": "KHARIK", "ST_NAME": "BIHAR", "ST_CODE_1": "10", "GPCODE2011": "94590", "REMARKS": "FINALIZED", "MAP_STATUS": "COMPLETED", "BLK_C_2001": "220003", "BLK_C_2011": "01331", "DIST_NAME": "BHAGALPUR", "code2011": 19.0, "Shape_Leng": 0.20351882665, "Shape_Area": 0.00140006321, "Area": 15.6033}, "geometry": {"type": "MultiPolygon", "coordinates": [[[[86.96957374000004, 25.34480945100006], [86.97247927200004, 25.343381220000026], [86.97406312800007, 25.342631693000044], [86.97580932800008, 25.34177642000003], [86.97739769900005, 25.341342734000023], [86.97827695400008, 25.340998477000028], [86.97847330900004, 25.340833711000073], [86.97859837000004, 25.340548028000057], [86.97861176900005, 25.340096618000075], [86.97832349000004, 25.33693690700005], [86.97834554800005, 25.333250108000072], [86.97857124700005, 25.33235398900007], [86.97909797400007, 25.33062866800003], [86.97956477000008, 25.329923773000075], [86.97994664500004, 25.329535746000033], [86.98032838700004, 25.32948168300004], [86.98066009600007, 25.329410061000033], [86.98138665900007, 25.328814911000052], [86.98227885100005, 25.328339738000068], [86.98334745600005, 25.327695431000052], [86.98504372700006, 25.325789350000036], [86.98482460600007, 25.325051872000074], [86.98429250000004, 25.323961646000043], [86.98413284200007, 25.323210059000075], [86.98374031700007, 25.322154268000077], [86.98330566200008, 25.32127942900007], [86.98322271800004, 25.321032237000054], [86.98324425700008, 25.32010245600003], [86.98326842700004, 25.319014698000046], [86.98261239400006, 25.318625347000022], [86.98235618000007, 25.318420798000034], [86.98180526500005, 25.317750430000046], [86.98121514600007, 25.317112145000067], [86.98094140600006, 25.31706569000005], [86.98073762100006, 25.31705450900006], [86.98021166900008, 25.317092312000057], [86.97940414600004, 25.31722813500005], [86.97887837600007, 25.31727486400007], [86.97791024700007, 25.317295260000037], [86.97716576000005, 25.317326587000025], [86.97617867700006, 25.317410305000067], [86.97419954500003, 25.317577855000025], [86.97360386400004, 25.317593802000033], [86.97301169600007, 25.317510524000056], [86.97219466000007, 25.317330561000063], [86.97198354000005, 25.317856396000025], [86.97179739000006, 25.318386544000077], [86.97128299100007, 25.319231883000043], [86.96996039600003, 25.319477368000037], [86.96842455200004, 25.320090909000044], [86.96655668500006, 25.32110539400003], [86.96556906600006, 25.321509481000078], [86.96523732100007, 25.321576465000078], [86.96490457500005, 25.32158037000005], [86.96494452500008, 25.321241480000026], [86.96505709800005, 25.320418935000077], [86.96502708400004, 25.318997912000043], [86.96507688200006, 25.317594034000024], [86.96481704300004, 25.315372401000047], [86.96439195100004, 25.313748435000036], [86.96419476400007, 25.31350259100003], [86.96398364300006, 25.31331552300003], [86.96363890700007, 25.313175100000024], [86.96295199600007, 25.31305678700005], [86.96277150600008, 25.31293699400004], [86.96267447000008, 25.31274857300008], [86.96267159400008, 25.312541082000052], [86.96287604800006, 25.312249903000065], [86.96460162300008, 25.309951160000026], [86.96641388200004, 25.30746188200004], [86.96654538600006, 25.306927838000036], [86.96663442100004, 25.305848406000052], [86.96660313000007, 25.30468905300006], [86.96620589600008, 25.302220995000027], [86.96592270400004, 25.30080286900005], [86.96493818400006, 25.300706063000064], [86.96409269600008, 25.300612030000025], [86.96292802300007, 25.300417981000066], [86.96231067700006, 25.300298844000054], [86.96081924600009, 25.300519506000057], [86.95815704200004, 25.300883163000037], [86.95665885800008, 25.30098170900004], [86.95606783700003, 25.301322498000047], [86.95633887000008, 25.305073573000072], [86.95451496300007, 25.305320255000026], [86.95370979700004, 25.305270891000077], [86.95355406000004, 25.30478541900004], [86.95274872000005, 25.303305570000077], [86.95134387800005, 25.30262238000006], [86.94803619500004, 25.301866331000042], [86.94200667400008, 25.301768664000065], [86.93686514100006, 25.301967440000055], [86.93477977700007, 25.302699724000036], [86.93322392600004, 25.30294309100003], [86.93209673200005, 25.302942404000078], [86.93011503600007, 25.302549875000068], [86.92836188500007, 25.303836922000073], [86.92861269200006, 25.304110971000057], [86.92919561700006, 25.304970748000073], [86.92940344000004, 25.30527974300003], [86.92980643600004, 25.305690310000045], [86.93033937300004, 25.306171548000066], [86.93067889000008, 25.306664020000028], [86.93105595900005, 25.306998152000062], [86.93200756200008, 25.30758744900004], [86.93280235800006, 25.308322908000036], [86.93377269600006, 25.309182743000065], [86.93411116000004, 25.309603008000067], [86.93463298100005, 25.310346164000066], [86.93508108100008, 25.311509698000066], [86.93524280100007, 25.312428398000065], [86.93533731100007, 25.31279728900006], [86.93573803800007, 25.31376739600006], [86.93651400900006, 25.316366710000068], [86.93666045300006, 25.31725393000005], [86.93670284500007, 25.317803928000046], [86.93686718400005, 25.318194662000053], [86.93766014100004, 25.319507693000048], [86.93833376400005, 25.320452114000034], [86.93913833300007, 25.321169318000045], [86.93938277300003, 25.32124775400007], [86.93956182100004, 25.321268300000042], [86.94006279200005, 25.321221895000065], [86.94123820100003, 25.32110472000005], [86.94266739000005, 25.32102509400005], [86.94369902000005, 25.320932038000024], [86.94527366300008, 25.32095451300006], [86.94576219500004, 25.321084289000055], [86.94605186200005, 25.321198284000047], [86.94595900400003, 25.32273354800003], [86.94575059600004, 25.32345338300007], [86.94516869600005, 25.326248719000034], [86.94484954400008, 25.32865297400008], [86.94458681100008, 25.33046990300005], [86.94451611900007, 25.333588794000036], [86.94459496700006, 25.333903733000056], [86.94491292000004, 25.33426554700003], [86.94702857700008, 25.33602808100005], [86.94925922100003, 25.338547332000076], [86.95065493300007, 25.339966135000054], [86.95097408800007, 25.340409161000025], [86.95097780700007, 25.340675402000045], [86.95036345300008, 25.341499241000065], [86.94924454700003, 25.342829687000062], [86.94928691900003, 25.343014207000067], [86.94937763800004, 25.343112425000072], [86.95234054600007, 25.343994253000062], [86.95256410600007, 25.34399168500005], [86.95267191400006, 25.343891194000037], [86.95274424700006, 25.343736913000043], [86.95309142500008, 25.342631924000045], [86.95334246800007, 25.342114564000042], [86.95370576700003, 25.341808074000028], [86.95403618100005, 25.34163723200004], [86.95465689100007, 25.341630102000067], [86.95535863400005, 25.341725766000025], [86.95572803800007, 25.34185238400005], [86.95595052300007, 25.342134052000063], [86.95609840400004, 25.343467932000067], [86.95615608600008, 25.34368392400006], [86.95632112700008, 25.343763227000068], [86.95676335000007, 25.343776176000063], [86.95766113500008, 25.343680015000075], [86.95823035100005, 25.34354257900003], [86.95837234000004, 25.34339198500004], [86.95842057200008, 25.342940214000066], [86.95849182500007, 25.34270470100006], [86.95870781700006, 25.342169738000052], [86.95924298100005, 25.342429800000048], [86.95946786600007, 25.342878426000027], [86.95962028500009, 25.343476827000075], [86.95956597000009, 25.344560383000044], [86.95949535900007, 25.344831898000052], [86.95957186400005, 25.344979958000067], [86.95982589000005, 25.34502660100003], [86.96242656300007, 25.344870121000042], [86.96333964800004, 25.344805309000037], [86.96576308000004, 25.34475911900006], [86.96682320200006, 25.344904691000067], [86.96929634000008, 25.345214218000024], [86.96957374000004, 25.34480945100006]]]]}}, {"type": "Feature", "properties": {"OBJECTID": 2493, "GPCODE": "92041", "GPNAME_1": "USMANPUR", "DIST_CEN_C": "22", "BLK_NAME": "KHARIK", "ST_NAME": "BIHAR", "ST_CODE_1": "10", "GPCODE2011": "94596", "REMARKS": "FINALIZED", "MAP_STATUS": "COMPLETED", "BLK_C_2001": "220003", "BLK_C_2011": "01331", "DIST_NAME": "BHAGALPUR", "code2011": 11.0, "Shape_Leng": 0.17589200339, "Shape_Area": 0.00080173426, "Area": 8.93339}, "geometry": {"type": "MultiPolygon", "coordinates": [[[[87.01687533200004, 25.35660420100004], [87.01744842600004, 25.354332217000035], [87.01847731200007, 25.35232553000003], [87.01901061000007, 25.351421129000073], [87.01931096700008, 25.350555755000073], [87.01935414900004, 25.349770040000067], [87.01948010400008, 25.34955201400004], [87.01998764300004, 25.349270621000073], [87.02012831300004, 25.349034326000037], [87.02008462100008, 25.348421187000042], [87.01989139100004, 25.347773723000046], [87.01939973300006, 25.34676444100006], [87.01949143400003, 25.346578285000078], [87.01968700300006, 25.34635931500003], [87.01972305500004, 25.346110804000034], [87.01950122900007, 25.344859006000036], [87.01962758900004, 25.344672476000028], [87.02044484800007, 25.34416638500005], [87.02084321000007, 25.343895372000077], [87.02083934600006, 25.343629133000036], [87.02054958700006, 25.34283399000003], [87.02053176000004, 25.342631140000037], [87.02087508300008, 25.34232926100003], [87.02114721300006, 25.34225822600007], [87.02135230100004, 25.342355092000048], [87.02152058900003, 25.34265534800005], [87.02176182800008, 25.342851021000058], [87.02198111500007, 25.34289803200005], [87.02223741700004, 25.342764035000073], [87.02272180500006, 25.342257352000047], [87.02275738400004, 25.341972645000055], [87.02260297100008, 25.34160006600007], [87.02219241100005, 25.341040969000062], [87.02211336800008, 25.340726070000073], [87.02212885000006, 25.340428082000074], [87.02155615900006, 25.339983690000054], [87.02063012900004, 25.339494028000047], [87.01901665700007, 25.338872583000068], [87.01770820100006, 25.338387514000033], [87.01678650800005, 25.337852570000052], [87.01568164600008, 25.337364897000043], [87.01518046000007, 25.337055106000037], [87.01444265300006, 25.336184032000062], [87.01364456500005, 25.33561149600007], [87.01268852300007, 25.335104072000036], [87.01211593300008, 25.334664157000077], [87.01126199900006, 25.334006592000037], [87.00987052400006, 25.333265160000053], [87.00942341400008, 25.334976125000026], [87.00897212800004, 25.33639828400004], [87.00877209300006, 25.33767766300008], [87.00887155500004, 25.33837140600008], [87.00880857900006, 25.339170824000064], [87.00873778600004, 25.340453108000077], [87.00855029100006, 25.34294612000008], [87.00840444800008, 25.344193184000062], [87.00831917900007, 25.344478475000074], [87.00788657200007, 25.34479496000006], [87.00667963300003, 25.345143333000067], [87.00434396300005, 25.345766755000056], [87.00372461600006, 25.345873362000077], [87.00332168600005, 25.345837575000076], [87.00222341300008, 25.34614847100005], [87.00154943700005, 25.346255694000035], [87.00120076600007, 25.346192201000065], [87.00086929000008, 25.34593892500004], [87.00005745300007, 25.345100255000034], [86.99951557500003, 25.344380240000078], [86.99928490100007, 25.344225064000057], [86.99897503800008, 25.344097886000043], [86.99875934800008, 25.343951524000033], [86.99862771200009, 25.343777129000046], [86.99856968500006, 25.34354319600004], [86.99839786000007, 25.34264722000006], [86.99783742700004, 25.342017702000078], [86.99758143700006, 25.341711063000048], [86.99736744100005, 25.34145468500003], [86.99730969500007, 25.341238800000042], [86.99737792800005, 25.340804814000023], [86.99734073100007, 25.340638316000025], [86.99720918900005, 25.340472946000034], [86.99687461100007, 25.34034605100004], [86.99613767300008, 25.340219357000024], [86.99582737500003, 25.340056160000074], [86.99536700400006, 25.339479526000048], [86.99494033700006, 25.339168702000052], [86.99208973900005, 25.337817147000067], [86.98807617100005, 25.336416086000042], [86.98585432100003, 25.335260078000033], [86.98430034700004, 25.334258602000034], [86.98374001500008, 25.33362893800006], [86.98275700100004, 25.33261175000007], [86.98172657200007, 25.331058062000068], [86.98131104100008, 25.33012891100003], [86.98101217400006, 25.329717281000057], [86.98066009600007, 25.329410061000033], [86.98032838700004, 25.32948168300004], [86.97994664500004, 25.329535746000033], [86.97956477000008, 25.329923773000075], [86.97909797400007, 25.33062866800003], [86.97857124700005, 25.33235398900007], [86.97834554800005, 25.333250108000072], [86.97832349000004, 25.33693690700005], [86.97861176900005, 25.340096618000075], [86.97859837000004, 25.340548028000057], [86.97847330900004, 25.340833711000073], [86.97827695400008, 25.340998477000028], [86.97739769900005, 25.341342734000023], [86.97580932800008, 25.34177642000003], [86.97406312800007, 25.342631693000044], [86.97247927200004, 25.343381220000026], [86.96957374000004, 25.34480945100006], [86.96929634000008, 25.345214218000024], [86.96877517800004, 25.346298783000066], [86.96832288500008, 25.346985380000035], [86.96774458900006, 25.347542641000075], [86.96674576300006, 25.347865671000022], [86.96553813200006, 25.34817753300007], [86.96438425400004, 25.348782035000056], [86.96385706500007, 25.351202300000068], [86.96479014400006, 25.35114625800003], [86.96674295000008, 25.350830202000054], [86.96901983800007, 25.35025322300004], [86.97358706600005, 25.349346997000055], [86.97482004800008, 25.34941829400003], [86.97625498900004, 25.349717316000067], [86.97800724800004, 25.350328526000055], [86.97906003700007, 25.351002005000055], [86.97989204800007, 25.351524711000025], [86.98114519300003, 25.35265608000003], [86.98342325500005, 25.354253700000072], [86.98412199400008, 25.354480135000074], [86.98482040800008, 25.354336595000063], [86.98537690000006, 25.354695500000048], [86.98608809900009, 25.355445153000062], [86.98651484300007, 25.355760512000074], [86.98710187000006, 25.35581679200004], [86.98830547000006, 25.355567978000067], [86.98916780700006, 25.355426885000043], [86.98965928400008, 25.355403055000068], [86.98995859000007, 25.355485205000036], [86.99016035400007, 25.355699478000076], [86.99031908700005, 25.356378936000056], [86.99067350100006, 25.35684397600005], [86.99109806500007, 25.357005989000072], [86.99164992600004, 25.357031033000055], [86.99194536300007, 25.35719444700004], [86.99230479600004, 25.357663957000057], [86.99322930300008, 25.35700334300003], [86.99337805300007, 25.356987966000077], [86.99394834300006, 25.357260979000046], [86.99413168700005, 25.357227269000077], [86.99434612000005, 25.356940490000056], [86.99476715100008, 25.35685421200003], [86.99516873100004, 25.356799867000063], [86.99549844800003, 25.356579390000036], [86.99633501500006, 25.354990152000028], [86.99649747800004, 25.354884398000024], [86.99726361100005, 25.354961119000052], [86.99758125900007, 25.355018835000067], [86.99821993000006, 25.355134759000066], [86.99831217100007, 25.355332221000026], [86.99818879300005, 25.355735244000073], [86.99826545000008, 25.35588327800008], [86.99999283600005, 25.356128974000057], [87.00030290600006, 25.356274203000055], [87.00042963400006, 25.35645314900006], [87.00042371700005, 25.35707138600003], [87.00048050900006, 25.35721958000005], [87.00093860300007, 25.357295364000038], [87.00308465900008, 25.357635363000043], [87.00454225100003, 25.35811888300003], [87.00592131600007, 25.358666484000025], [87.00682470400005, 25.35895802500005], [87.00704253000004, 25.358905784000058], [87.00771388000004, 25.35723723800004], [87.00852683600004, 25.35539557800007], [87.00880179600006, 25.355175706000068], [87.00903907100007, 25.355091711000057], [87.00942197700004, 25.35511871400007], [87.01056544400006, 25.355520182000078], [87.01148177200008, 25.35567610700008], [87.01298482300007, 25.355865738000034], [87.01580972300007, 25.356432029000075], [87.01687533200004, 25.35660420100004]]]]}}, {"type": "Feature", "properties": {"OBJECTID": 2494, "GPCODE": "92039", "GPNAME_1": "TELGHI", "DIST_CEN_C": "22", "BLK_NAME": "KHARIK", "ST_NAME": "BIHAR", "ST_CODE_1": "10", "GPCODE2011": "94594", "REMARKS": "FINALIZED", "MAP_STATUS": "COMPLETED", "BLK_C_2001": "220003", "BLK_C_2011": "01331", "DIST_NAME": "BHAGALPUR", "code2011": 12.0, "Shape_Leng": 0.10704733845, "Shape_Area": 0.00059751352, "Area": 6.65675}, "geometry": {"type": "MultiPolygon", "coordinates": [[[[86.98002579600006, 25.37868698400007], [86.98104989500007, 25.37837712000004], [86.98132618200003, 25.37859044100003], [86.98232549400007, 25.37898027400007], [86.98379703900008, 25.378340238000078], [86.98496466900008, 25.377640627000062], [86.98589500400004, 25.377029570000047], [86.98675287000003, 25.376568202000044], [86.98754468300007, 25.37634230200007], [86.98820552000007, 25.376347980000048], [86.98870735200006, 25.376694042000054], [86.98944687700003, 25.377673512000058], [86.99012450600009, 25.37850022200007], [86.99052956900005, 25.379027848000078], [86.99140165100005, 25.378516696000077], [86.99162274900004, 25.378338086000042], [86.99172726500007, 25.37800301200008], [86.99172148400004, 25.377606013000047], [86.99140164300007, 25.377126978000035], [86.99074481300005, 25.37602021200007], [86.99065133000005, 25.37573701200006], [86.99077616600005, 25.375437789000046], [86.99127635500008, 25.37463314300004], [86.99132650900003, 25.37431673900005], [86.99159639500004, 25.374078886000063], [86.99172337900006, 25.373928480000075], [86.99171769900005, 25.37353147500005], [86.99174958200007, 25.373328043000072], [86.99236150900003, 25.372693620000064], [86.99260933600004, 25.371959699000058], [86.99269204800004, 25.37148940800006], [86.99287421800005, 25.371374477000074], [86.99314766900005, 25.371389321000038], [86.99366675000005, 25.37155010300006], [86.99534046900004, 25.37219803000005], [86.99563374500008, 25.372208104000038], [86.99581683400004, 25.37215634300003], [86.99595843200007, 25.371987673000035], [86.99597527800006, 25.371770911000056], [86.99580393000008, 25.37125854800007], [86.99518983500008, 25.36932557800003], [86.99462989700004, 25.367351364000058], [86.99473631800004, 25.367151569000043], [86.99502622500006, 25.366931511000075], [86.99515370800003, 25.36681268700005], [86.99536806600008, 25.366516880000063], [86.99558398200008, 25.36632928100005], [86.99600614400003, 25.366324320000047], [86.99653969500008, 25.366453292000074], [86.99681230400006, 25.36641398300003], [86.99688230600003, 25.366097324000066], [86.99700432300006, 25.364566160000038], [86.99692757900004, 25.36440919000006], [86.99618646100004, 25.364002817000028], [86.99547018500004, 25.36359624100004], [86.99537218600005, 25.36334918500006], [86.99549438400004, 25.362864942000044], [86.99576231500004, 25.362491797000075], [86.99678243700004, 25.361915681000028], [86.99699663300004, 25.361615271000062], [86.99701360800003, 25.361412048000034], [86.99684217800007, 25.361233552000044], [86.99543825500007, 25.360338753000065], [86.99366289400007, 25.359177620000025], [86.99279279400008, 25.358438858000056], [86.99230479600004, 25.357663957000057], [86.99194536300007, 25.35719444700004], [86.99164992600004, 25.357031033000055], [86.99109806500007, 25.357005989000072], [86.99067350100006, 25.35684397600005], [86.99031908700005, 25.356378936000056], [86.99016035400007, 25.355699478000076], [86.98995859000007, 25.355485205000036], [86.98965928400008, 25.355403055000068], [86.98916780700006, 25.355426885000043], [86.98830547000006, 25.355567978000067], [86.98710187000006, 25.35581679200004], [86.98651484300007, 25.355760512000074], [86.98608809900009, 25.355445153000062], [86.98537690000006, 25.354695500000048], [86.98482040800008, 25.354336595000063], [86.98412199400008, 25.354480135000074], [86.98342325500005, 25.354253700000072], [86.98114519300003, 25.35265608000003], [86.97990678300005, 25.353257228000075], [86.97900968600004, 25.353398638000044], [86.97809103100008, 25.353427483000075], [86.97753901500005, 25.353384337000023], [86.97671386200005, 25.353344365000055], [86.97611003600008, 25.35350038200005], [86.97560191600007, 25.353754467000044], [86.97511070400003, 25.354143803000056], [86.97410977500004, 25.354674405000026], [86.97265896900007, 25.35571115700003], [86.97211554100005, 25.355920559000026], [86.97154781200004, 25.356175376000067], [86.97076451700008, 25.356635710000035], [86.97018256200005, 25.356940371000064], [86.96941274800008, 25.357305821000068], [86.96912317400006, 25.357552817000055], [86.96880318400008, 25.358107120000057], [86.96877620000004, 25.35865792000004], [86.96896559600003, 25.361863886000037], [86.96912568000005, 25.364045994000037], [86.96902392400006, 25.364579606000063], [86.96877996300003, 25.36559326500003], [86.96857269200007, 25.366394341000046], [86.96855752800008, 25.36672842200005], [86.96905710400006, 25.368676400000027], [86.96940059800005, 25.370477320000077], [86.96986484100006, 25.372385045000044], [86.96985519500004, 25.372755184000027], [86.96932236300006, 25.373722487000066], [86.96883201300005, 25.374531407000063], [86.96881589800006, 25.374797799000078], [86.96899717300005, 25.37567105900007], [86.96924225100008, 25.377536296000073], [86.96972515500005, 25.379006204000063], [86.97011736400003, 25.380734336000046], [86.97047295300007, 25.381280638000078], [86.97065887000008, 25.381427363000057], [86.97097207600007, 25.381441749000032], [86.97151548500005, 25.38121881400008], [86.97198935300008, 25.38099670200006], [86.97252417800007, 25.380873119000057], [86.97351284500007, 25.38086153000006], [86.97433681700005, 25.380802242000073], [86.97528211300005, 25.380538537000064], [86.97575814800007, 25.380469745000028], [86.97612363700006, 25.38031202700006], [86.97715525000007, 25.37948323300003], [86.97788602900005, 25.379158767000035], [86.97887163300004, 25.378935153000043], [86.98002579600006, 25.37868698400007]]]]}}, {"type": "Feature", "properties": {"OBJECTID": 2497, "GPCODE": "92031", "GPNAME_1": "CHORHAR", "DIST_CEN_C": "22", "BLK_NAME": "KHARIK", "ST_NAME": "BIHAR", "ST_CODE_1": "10", "GPCODE2011": "94586", "REMARKS": "FINALIZED", "MAP_STATUS": "COMPLETED", "BLK_C_2001": "220003", "BLK_C_2011": "01331", "DIST_NAME": "BHAGALPUR", "code2011": 10.0, "Shape_Leng": 0.1959847635, "Shape_Area": 0.0010403771, "Area": 11.5872}, "geometry": {"type": "MultiPolygon", "coordinates": [[[[87.00391929300008, 25.414677830000073], [87.00428169300005, 25.41327922200003], [87.00446483200005, 25.412194095000075], [87.00442804200009, 25.40965419500003], [87.00432010000009, 25.40734520700005], [87.00399850000008, 25.405386271000054], [87.00399549200006, 25.405183218000047], [87.00430424300004, 25.404881760000023], [87.00452048900007, 25.404712201000052], [87.00446270200007, 25.40449632600007], [87.00421828100008, 25.40408864500006], [87.00397427300004, 25.40371255100007], [87.00399141600008, 25.40352729400007], [87.00442515500004, 25.403274003000035], [87.00497466600007, 25.403132047000042], [87.00647410400006, 25.403032943000028], [87.00676898000006, 25.403146780000043], [87.00691684000003, 25.40340668400006], [87.00736286500006, 25.404001434000065], [87.00760309500004, 25.404115896000064], [87.01037707300009, 25.403834541000037], [87.01107080200006, 25.403695440000035], [87.01223743300005, 25.40326632600005], [87.01367930100008, 25.402964816000065], [87.01386162600005, 25.402863310000043], [87.01389376200007, 25.402677925000035], [87.01379803000003, 25.40224592800007], [87.01387036600005, 25.40209613600007], [87.01480208500004, 25.401918050000063], [87.01558327100008, 25.401642459000072], [87.01573040500006, 25.401509830000066], [87.01568680800005, 25.40124410800007], [87.01546496700007, 25.40068272800005], [87.01461689100006, 25.399095587000033], [87.01413663200003, 25.398537330000067], [87.01361450000007, 25.398173652000025], [87.01315597300004, 25.398079858000074], [87.01244593100006, 25.39812442500005], [87.01121960700004, 25.39820229600008], [87.00742712000005, 25.398152925000034], [87.00647788500004, 25.398146170000075], [87.00596154600004, 25.398183978000077], [87.00587406200003, 25.398320351000052], [87.00595389300008, 25.398684881000065], [87.00603379000006, 25.399396812000077], [87.00594682300004, 25.399564861000044], [87.00576415600005, 25.399652735000075], [87.00492637900004, 25.39979362400004], [87.00236706300007, 25.400140014000044], [87.00075588000004, 25.40041183900007], [87.00035389200008, 25.40044824100005], [87.00015176200003, 25.40021593800003], [86.99990436700006, 25.399605287000043], [86.99972858800004, 25.398790607000024], [86.99962057300007, 25.397501429000044], [86.99946568800004, 25.397101676000034], [86.99894667900008, 25.396606957000074], [86.99873526800008, 25.39607705900005], [86.99826015300005, 25.394489949000047], [86.99791462700006, 25.393266690000075], [86.99758087500004, 25.392245443000036], [86.99758087000004, 25.392245351000042], [86.99739467600006, 25.391675518000056], [86.99695772600006, 25.390318066000077], [86.99666888000007, 25.389238486000067], [86.99633026500004, 25.38884545600007], [86.99607407700006, 25.388649960000066], [86.99554025700007, 25.388502935000076], [86.99514888300007, 25.388241294000068], [86.99443593000007, 25.387387912000065], [86.99391129700007, 25.386496263000026], [86.99351155800008, 25.38530068700004], [86.99340998900004, 25.384458136000035], [86.99343402800008, 25.38370879200005], [86.99374709700004, 25.382676313000047], [86.99401328500005, 25.38183835800004], [86.99396951200004, 25.381559183000036], [86.99362250500008, 25.381270011000026], [86.99274903600008, 25.380648618000066], [86.99179291100006, 25.380159039000034], [86.99118018000007, 25.379701512000054], [86.99052956900005, 25.379027848000078], [86.99012450600009, 25.37850022200007], [86.98944687700003, 25.377673512000058], [86.98870735200006, 25.376694042000054], [86.98820552000007, 25.376347980000048], [86.98754468300007, 25.37634230200007], [86.98675287000003, 25.376568202000044], [86.98589500400004, 25.377029570000047], [86.98496466900008, 25.377640627000062], [86.98379703900008, 25.378340238000078], [86.98232549400007, 25.37898027400007], [86.98187016100007, 25.379450389000056], [86.98165838800008, 25.379935700000033], [86.98132759300006, 25.381126342000073], [86.98083819800007, 25.382693279000023], [86.98044572200007, 25.384092190000047], [86.98055782600005, 25.384289409000075], [86.98056215800005, 25.384591741000065], [86.98028165100004, 25.385479428000053], [86.97955142200004, 25.38688681800005], [86.97948068500006, 25.387153828000066], [86.97961757800005, 25.387693648000038], [86.98051459100003, 25.388919473000044], [86.98181919400008, 25.390501519000054], [86.98239904100006, 25.391437712000027], [86.98238816000008, 25.39206509400003], [86.98222669200004, 25.392585824000037], [86.98199366600005, 25.39297210600006], [86.98173056100006, 25.393688163000036], [86.98127339500007, 25.395078830000045], [86.98009299400007, 25.396987876000026], [86.97879330300003, 25.39853727900004], [86.97850505800005, 25.39888807500006], [86.97692121700004, 25.399687354000037], [86.97574739300006, 25.399967335000042], [86.97398963700005, 25.40006919500007], [86.97336480200005, 25.40016218100004], [86.97238238600005, 25.400620401000026], [86.97207401700007, 25.40095789800006], [86.97158083100004, 25.40192478800003], [86.97074136200007, 25.403698895000048], [86.97038074300008, 25.40420405100008], [86.96925589000006, 25.405137688000025], [86.96911575600006, 25.405414536000023], [86.96908691000004, 25.405834554000023], [86.96901329500008, 25.407301913000026], [86.96878512300003, 25.407683528000064], [86.96840622800005, 25.40795424600003], [86.96782255300008, 25.408146074000058], [86.96714275400006, 25.40822169100005], [86.96614768300003, 25.40814754300004], [86.96458857900006, 25.40789950900006], [86.96337239000007, 25.407647481000026], [86.96305979500005, 25.407682717000057], [86.96291448800008, 25.407950576000076], [86.96288986500008, 25.408668316000046], [86.96304336400004, 25.410385689000066], [86.96358036700008, 25.414620998000032], [86.96398939600004, 25.41718818800007], [86.96545968200007, 25.417468881000048], [86.96651981700006, 25.417573838000067], [86.96767702400007, 25.41751067900003], [86.96814818900003, 25.417437437000046], [86.96883845200006, 25.417050350000068], [86.96911032800006, 25.416943400000036], [86.96962178900003, 25.416905846000077], [86.96997009000006, 25.416933311000037], [86.97036072300006, 25.417145378000043], [86.97115182500005, 25.417898680000064], [86.97187520100005, 25.418440688000032], [86.97281354300009, 25.418713998000044], [86.97407763700005, 25.41883000200005], [86.97449889000006, 25.41874387400003], [86.97530537100005, 25.41778684800005], [86.97590532800007, 25.41733311400003], [86.97776735000008, 25.416859986000077], [86.97875320100007, 25.416631864000067], [86.97990610500005, 25.41661829000003], [86.98200797300007, 25.416580030000034], [86.98349195200007, 25.41642711700007], [86.98597373500007, 25.415847364000058], [86.98810435700005, 25.415041604000066], [86.98994233100007, 25.414627279000058], [86.99151259400008, 25.41425670500007], [86.99265033900008, 25.414229712000065], [86.99393332000005, 25.41427771000008], [86.99477579900008, 25.414452652000023], [86.99540459800005, 25.414625713000078], [86.99663950100006, 25.41547285200005], [86.99747568400005, 25.416248042000063], [86.99758063100006, 25.416345037000042], [86.99903730900007, 25.417691450000063], [87.00059970900008, 25.419531875000075], [87.00180068300006, 25.421462328000075], [87.00268279800008, 25.422994996000057], [87.00443867400008, 25.42274390500006], [87.00460098700006, 25.422624703000054], [87.00461799800007, 25.422425908000037], [87.00451662200004, 25.42194431300004], [87.00422192900004, 25.420819779000055], [87.00423197600009, 25.420138347000034], [87.00441226700008, 25.419888035000042], [87.00556233700007, 25.419675819000076], [87.00804396400008, 25.41943409000004], [87.00954907000005, 25.41936640800003], [87.00961668600007, 25.419230196000058], [87.00930510800004, 25.417970512000068], [87.00896366800004, 25.41704511100005], [87.00866797000003, 25.416881739000075], [87.00633170400005, 25.416864516000032], [87.00446147000008, 25.416769529000078], [87.00411219300008, 25.416674456000067], [87.00396119800007, 25.416540843000064], [87.00386142400004, 25.415829079000048], [87.00391929300008, 25.414677830000073]]]]}}, {"type": "Feature", "properties": {"OBJECTID": 2521, "GPCODE": "92032", "GPNAME_1": "DHORIYA DADPUR", "DIST_CEN_C": "22", "BLK_NAME": "KHARIK", "ST_NAME": "BIHAR", "ST_CODE_1": "10", "GPCODE2011": "94587", "REMARKS": "FINALIZED", "MAP_STATUS": "COMPLETED", "BLK_C_2001": "220003", "BLK_C_2011": "01331", "DIST_NAME": "BHAGALPUR", "code2011": 13.0, "Shape_Leng": 0.24231087931, "Shape_Area": 0.00122216777, "Area": 13.6113}, "geometry": {"type": "MultiPolygon", "coordinates": [[[[87.02153448300004, 25.420503964000034], [87.02237734700003, 25.42036294600007], [87.02259704800008, 25.42042800300004], [87.02282391900007, 25.420989234000047], [87.02318301900004, 25.421751994000033], [87.02349876200003, 25.421928714000046], [87.02468498900004, 25.421815069000047], [87.02906269800008, 25.421049271000072], [87.03180671900003, 25.420731771000078], [87.03440832200005, 25.420533292000073], [87.03500588500003, 25.42060726300008], [87.03522629100007, 25.42072184700004], [87.03534428500006, 25.42096861300007], [87.03540799400008, 25.42158598000003], [87.03613634300007, 25.421423729000026], [87.03652197600007, 25.42128818200007], [87.03666311400008, 25.421083470000042], [87.03665326400005, 25.420749690000036], [87.03634070100009, 25.41910656700003], [87.03700344300006, 25.41888637900007], [87.03804593000007, 25.418792516000053], [87.04108763600004, 25.41878708300004], [87.04385871700003, 25.41895634800005], [87.04708440900004, 25.41928247000004], [87.05048198000009, 25.419804913000064], [87.05420831900005, 25.420372866000037], [87.05440042700008, 25.416589372000033], [87.05449413900004, 25.415536897000038], [87.05465359400006, 25.415232639000067], [87.05489615400006, 25.41516197900006], [87.05538689300005, 25.415074677000064], [87.05737329500005, 25.41496462500004], [87.05834578500009, 25.41485335300007], [87.06069428700005, 25.414355217000036], [87.06178974100004, 25.41416119200005], [87.06300578000008, 25.414046996000025], [87.06539651100007, 25.414049085000045], [87.06609247500006, 25.414058553000075], [87.06670340000005, 25.414032914000074], [87.06737061000007, 25.41378105700005], [87.06760326900007, 25.413390142000026], [87.06762070900004, 25.413222922000045], [87.06728305500008, 25.412911274000066], [87.06609222900005, 25.41205511100003], [87.06562731900004, 25.41154652700004], [87.06421344300009, 25.410386283000037], [87.06352635400003, 25.409975178000025], [87.06264001200003, 25.409534906000033], [87.06086426500008, 25.40910556700004], [87.05998426100007, 25.409084739000036], [87.05875417600004, 25.40924876200006], [87.05754453800006, 25.409448705000045], [87.05651587700004, 25.409795212000063], [87.05624659400007, 25.409730801000023], [87.05555758900005, 25.409188803000063], [87.05464296800005, 25.408180283000036], [87.05389472400003, 25.408658779000064], [87.05336472400006, 25.408782512000073], [87.05130796400005, 25.409173276000047], [87.04933678400005, 25.409635039000023], [87.04738830500008, 25.40995668900007], [87.04668356400003, 25.41001941500008], [87.04581554200007, 25.409799931000066], [87.04520582300006, 25.409572757000035], [87.04472329700008, 25.409208577000072], [87.04427588800007, 25.40886666700004], [87.04370137300003, 25.40867060100004], [87.04322140200009, 25.408477885000025], [87.04266366200005, 25.40806505200004], [87.04201171300008, 25.407671426000036], [87.04136611200005, 25.40736348400003], [87.04086448300006, 25.407053701000052], [87.04009146000004, 25.406196797000064], [87.03965034500004, 25.405602096000052], [87.03944483900005, 25.405153349000045], [87.03937594700005, 25.40418410600006], [87.03911758200007, 25.40284712500005], [87.03886755500008, 25.402065063000066], [87.03874768900005, 25.401691951000032], [87.03836135300008, 25.401439494000044], [87.03815933900006, 25.401225387000068], [87.03766259600008, 25.400229678000073], [87.03752529400003, 25.399342511000043], [87.03695623800007, 25.398162649000028], [87.03602814800007, 25.396558603000074], [87.03564401200003, 25.395444244000032], [87.03484027600007, 25.395869144000073], [87.03405448100006, 25.396162923000077], [87.03307404700007, 25.397077227000068], [87.03260538300003, 25.397651489000054], [87.03195121800007, 25.398110592000023], [87.03080643300007, 25.399008838000043], [87.02961483900003, 25.399081870000032], [87.02919341100005, 25.399150192000036], [87.02886084800008, 25.399172277000048], [87.02861980800003, 25.399008214000048], [87.02853650900005, 25.398404628000037], [87.02831174700003, 25.39799221800007], [87.02778541500004, 25.397344308000072], [87.02654063100005, 25.39752174000006], [87.02625226300006, 25.39751168300006], [87.02592317500006, 25.397434451000038], [87.02569166300003, 25.397238713000036], [87.02519144700005, 25.39667623200006], [87.02495686300006, 25.39626389400007], [87.02474241000004, 25.395531066000046], [87.02456976900004, 25.395280408000076], [87.02383764500007, 25.394490593000057], [87.02329478400009, 25.39407296400003], [87.02297531700003, 25.39397308200006], [87.02221677400007, 25.393756619000044], [87.02149566900005, 25.393715661000044], [87.02058712400003, 25.393433280000067], [87.01937602000004, 25.393190675000028], [87.01896662100006, 25.393060209000055], [87.01829008500005, 25.392666770000062], [87.01781577900005, 25.39217616800005], [87.01695362000004, 25.390986287000032], [87.01624515200007, 25.389762904000065], [87.01572239300003, 25.389015638000046], [87.01519881000007, 25.38786681600004], [87.01476111700003, 25.38749756800007], [87.01432834900004, 25.38746214200006], [87.01368855800007, 25.387550996000073], [87.01281154100008, 25.387723933000075], [87.01190393700006, 25.387838628000054], [87.01107946800005, 25.387871045000054], [87.01014549400008, 25.387882240000067], [87.00914066900003, 25.38781305300006], [87.00793195700004, 25.387723683000047], [87.00683679700006, 25.387592403000042], [87.00644951700008, 25.387615072000074], [87.00608317600006, 25.38770517000006], [87.00597030400007, 25.387805740000033], [87.00595583700004, 25.38818043200007], [87.00584371700006, 25.388326214000074], [87.00554741800005, 25.388456086000076], [87.00265868500009, 25.38902739300005], [87.00053994100006, 25.389242170000045], [86.99997322300004, 25.389226301000065], [86.99985745000004, 25.389123899000026], [86.99950893700003, 25.388735561000033], [86.99927923200005, 25.388657011000078], [86.99887240000004, 25.38870247600005], [86.99855121200005, 25.388828114000034], [86.99843940500006, 25.38899645200007], [86.99842643100004, 25.389474836000034], [86.99833499100004, 25.389683538000043], [86.99790603300005, 25.38991420700006], [86.99758087500004, 25.390052646000072], [86.99695772600006, 25.390318066000077], [86.99739467600006, 25.391675518000056], [86.99758087000004, 25.392245351000042], [86.99758087500004, 25.392245443000036], [86.99791462700006, 25.393266690000075], [86.99826015300005, 25.394489949000047], [86.99873526800008, 25.39607705900005], [86.99894667900008, 25.396606957000074], [86.99946568800004, 25.397101676000034], [86.99962057300007, 25.397501429000044], [86.99972858800004, 25.398790607000024], [86.99990436700006, 25.399605287000043], [87.00015176200003, 25.40021593800003], [87.00035389200008, 25.40044824100005], [87.00075588000004, 25.40041183900007], [87.00236706300007, 25.400140014000044], [87.00492637900004, 25.39979362400004], [87.00576415600005, 25.399652735000075], [87.00594682300004, 25.399564861000044], [87.00603379000006, 25.399396812000077], [87.00595389300008, 25.398684881000065], [87.00587406200003, 25.398320351000052], [87.00596154600004, 25.398183978000077], [87.00647788500004, 25.398146170000075], [87.00742712000005, 25.398152925000034], [87.01121960700004, 25.39820229600008], [87.01244593100006, 25.39812442500005], [87.01315597300004, 25.398079858000074], [87.01361450000007, 25.398173652000025], [87.01413663200003, 25.398537330000067], [87.01461689100006, 25.399095587000033], [87.01546496700007, 25.40068272800005], [87.01568680800005, 25.40124410800007], [87.01573040500006, 25.401509830000066], [87.01558327100008, 25.401642459000072], [87.01480208500004, 25.401918050000063], [87.01387036600005, 25.40209613600007], [87.01379803000003, 25.40224592800007], [87.01389376200007, 25.402677925000035], [87.01386162600005, 25.402863310000043], [87.01367930100008, 25.402964816000065], [87.01223743300005, 25.40326632600005], [87.01107080200006, 25.403695440000035], [87.01037707300009, 25.403834541000037], [87.00760309500004, 25.404115896000064], [87.00736286500006, 25.404001434000065], [87.00691684000003, 25.40340668400006], [87.00676898000006, 25.403146780000043], [87.00647410400006, 25.403032943000028], [87.00497466600007, 25.403132047000042], [87.00442515500004, 25.403274003000035], [87.00399141600008, 25.40352729400007], [87.00397427300004, 25.40371255100007], [87.00421828100008, 25.40408864500006], [87.00446270200007, 25.40449632600007], [87.00452048900007, 25.404712201000052], [87.00430424300004, 25.404881760000023], [87.00399549200006, 25.405183218000047], [87.00399850000008, 25.405386271000054], [87.00432010000009, 25.40734520700005], [87.00442804200009, 25.40965419500003], [87.00446483200005, 25.412194095000075], [87.00428169300005, 25.41327922200003], [87.00391929300008, 25.414677830000073], [87.00386142400004, 25.415829079000048], [87.00396119800007, 25.416540843000064], [87.00411219300008, 25.416674456000067], [87.00446147000008, 25.416769529000078], [87.00633170400005, 25.416864516000032], [87.00866797000003, 25.416881739000075], [87.00896366800004, 25.41704511100005], [87.00930510800004, 25.417970512000068], [87.00961668600007, 25.419230196000058], [87.00954907000005, 25.41936640800003], [87.00804396400008, 25.41943409000004], [87.00556233700007, 25.419675819000076], [87.00441226700008, 25.419888035000042], [87.00423197600009, 25.420138347000034], [87.00422192900004, 25.420819779000055], [87.00451662200004, 25.42194431300004], [87.00461799800007, 25.422425908000037], [87.00460098700006, 25.422624703000054], [87.00443867400008, 25.42274390500006], [87.00268279800008, 25.422994996000057], [87.00332249900003, 25.42426428400006], [87.00382314300003, 25.424858507000067], [87.00465787200005, 25.42551632800007], [87.00523414700007, 25.42583879400007], [87.00622602500005, 25.426025539000022], [87.00751093400004, 25.426195163000045], [87.00818801200006, 25.426268315000073], [87.00917005600007, 25.42612568800007], [87.00993055600009, 25.425782697000045], [87.01100289900006, 25.425007245000074], [87.01165491700004, 25.424381279000045], [87.01265582800005, 25.42314203500007], [87.01314608300004, 25.422671370000046], [87.01421452500006, 25.421977252000033], [87.01569318600008, 25.42145862700005], [87.01705722000008, 25.420927852000034], [87.01837603000007, 25.420695370000033], [87.02003489600008, 25.42060772600007], [87.02153448300004, 25.420503964000034]]]]}}, {"type": "Feature", "properties": {"OBJECTID": 2540, "GPCODE": "92029", "GPNAME_1": "AKIDATPUR", "DIST_CEN_C": "22", "BLK_NAME": "KHARIK", "ST_NAME": "BIHAR", "ST_CODE_1": "10", "GPCODE2011": "94584", "REMARKS": "FINALIZED", "MAP_STATUS": "COMPLETED", "BLK_C_2001": "220003", "BLK_C_2011": "01331", "DIST_NAME": "BHAGALPUR", "code2011": 19.0, "Shape_Leng": 0.23393938832, "Shape_Area": 0.00156126219, "Area": 17.4002}, "geometry": {"type": "MultiPolygon", "coordinates": [[[[87.00222341300008, 25.34614847100005], [87.00332168600005, 25.345837575000076], [87.00372461600006, 25.345873362000077], [87.00434396300005, 25.345766755000056], [87.00667963300003, 25.345143333000067], [87.00788657200007, 25.34479496000006], [87.00831917900007, 25.344478475000074], [87.00840444800008, 25.344193184000062], [87.00855029100006, 25.34294612000008], [87.00873778600004, 25.340453108000077], [87.00880857900006, 25.339170824000064], [87.00887155500004, 25.33837140600008], [87.00877209300006, 25.33767766300008], [87.00897212800004, 25.33639828400004], [87.00942341400008, 25.334976125000026], [87.00987052400006, 25.333265160000053], [87.01126199900006, 25.334006592000037], [87.01211593300008, 25.334664157000077], [87.01268852300007, 25.335104072000036], [87.01364456500005, 25.33561149600007], [87.01444265300006, 25.336184032000062], [87.01518046000007, 25.337055106000037], [87.01568164600008, 25.337364897000043], [87.01678650800005, 25.337852570000052], [87.01770820100006, 25.338387514000033], [87.01901665700007, 25.338872583000068], [87.02063012900004, 25.339494028000047], [87.02155615900006, 25.339983690000054], [87.02212885000006, 25.340428082000074], [87.02303697800005, 25.34070595000003], [87.02324585700006, 25.34072596900006], [87.02333397600006, 25.340639128000078], [87.02386586700004, 25.339306160000035], [87.02379425800007, 25.33915809100006], [87.02335085600004, 25.338730329000043], [87.02316354700008, 25.33848438600006], [87.02320719000005, 25.33807324600008], [87.02367064800006, 25.337156227000037], [87.02379239100009, 25.335968009000055], [87.02390718800007, 25.33430616000004], [87.02399386700006, 25.334115619000045], [87.02448245400006, 25.333220769000036], [87.02490173500007, 25.330639329000064], [87.02544886800007, 25.32729365800003], [87.02574603900007, 25.326220684000077], [87.02607406600004, 25.32385237400007], [87.02121895600004, 25.324001016000068], [87.01971743500008, 25.323888173000057], [87.01938630600006, 25.323657497000056], [87.01826806000008, 25.32257449100007], [87.01701743800004, 25.321957691000023], [87.01463312800007, 25.321241740000062], [87.01220596100006, 25.32065717000006], [87.01064969500004, 25.32052681400006], [87.00949846100008, 25.320251771000073], [87.00747720400005, 25.32025780200007], [87.00694642800005, 25.320300245000055], [87.00656152500005, 25.32047183000003], [87.00565925500007, 25.31886263000007], [87.00522461200006, 25.317992452000055], [87.00510911500004, 25.317560682000078], [87.00505387800007, 25.316144472000076], [87.00507952500004, 25.313098362000062], [87.00523752500004, 25.311314208000056], [87.00520341300006, 25.310326385000053], [87.00484614900006, 25.30828206800004], [87.00437586300006, 25.304939613000045], [87.00411537000008, 25.30236618600003], [87.00246174000006, 25.302015856000025], [87.00091825000004, 25.30172734200005], [86.99758174000004, 25.30284326900005], [86.99733639200008, 25.30270755300006], [86.99508649400008, 25.301637636000066], [86.99195215100008, 25.300862520000067], [86.98992056200007, 25.300471342000037], [86.98842094400004, 25.30047101100007], [86.98659455100005, 25.300185631000033], [86.98306284300008, 25.29974886800005], [86.97974539100005, 25.299359136000078], [86.97548413900006, 25.29824485300003], [86.97183909600005, 25.297515840000074], [86.96980347700008, 25.29717858600003], [86.96637647100005, 25.297466685000074], [86.96149968500004, 25.297762473000034], [86.95861352400004, 25.29766963700007], [86.95855923600004, 25.298401193000075], [86.95791285400009, 25.298692964000054], [86.95796647600008, 25.299328624000054], [86.95815704200004, 25.300883163000037], [86.96081924600009, 25.300519506000057], [86.96231067700006, 25.300298844000054], [86.96292802300007, 25.300417981000066], [86.96409269600008, 25.300612030000025], [86.96493818400006, 25.300706063000064], [86.96592270400004, 25.30080286900005], [86.96620589600008, 25.302220995000027], [86.96660313000007, 25.30468905300006], [86.96663442100004, 25.305848406000052], [86.96654538600006, 25.306927838000036], [86.96641388200004, 25.30746188200004], [86.96460162300008, 25.309951160000026], [86.96287604800006, 25.312249903000065], [86.96267159400008, 25.312541082000052], [86.96267447000008, 25.31274857300008], [86.96277150600008, 25.31293699400004], [86.96295199600007, 25.31305678700005], [86.96363890700007, 25.313175100000024], [86.96398364300006, 25.31331552300003], [86.96419476400007, 25.31350259100003], [86.96439195100004, 25.313748435000036], [86.96481704300004, 25.315372401000047], [86.96507688200006, 25.317594034000024], [86.96502708400004, 25.318997912000043], [86.96505709800005, 25.320418935000077], [86.96494452500008, 25.321241480000026], [86.96490457500005, 25.32158037000005], [86.96523732100007, 25.321576465000078], [86.96556906600006, 25.321509481000078], [86.96655668500006, 25.32110539400003], [86.96842455200004, 25.320090909000044], [86.96996039600003, 25.319477368000037], [86.97128299100007, 25.319231883000043], [86.97179739000006, 25.318386544000077], [86.97198354000005, 25.317856396000025], [86.97219466000007, 25.317330561000063], [86.97301169600007, 25.317510524000056], [86.97360386400004, 25.317593802000033], [86.97419954500003, 25.317577855000025], [86.97617867700006, 25.317410305000067], [86.97716576000005, 25.317326587000025], [86.97791024700007, 25.317295260000037], [86.97887837600007, 25.31727486400007], [86.97940414600004, 25.31722813500005], [86.98021166900008, 25.317092312000057], [86.98073762100006, 25.31705450900006], [86.98094140600006, 25.31706569000005], [86.98121514600007, 25.317112145000067], [86.98180526500005, 25.317750430000046], [86.98235618000007, 25.318420798000034], [86.98261239400006, 25.318625347000022], [86.98326842700004, 25.319014698000046], [86.98324425700008, 25.32010245600003], [86.98322271800004, 25.321032237000054], [86.98330566200008, 25.32127942900007], [86.98374031700007, 25.322154268000077], [86.98413284200007, 25.323210059000075], [86.98429250000004, 25.323961646000043], [86.98482460600007, 25.325051872000074], [86.98504372700006, 25.325789350000036], [86.98334745600005, 25.327695431000052], [86.98227885100005, 25.328339738000068], [86.98138665900007, 25.328814911000052], [86.98066009600007, 25.329410061000033], [86.98101217400006, 25.329717281000057], [86.98131104100008, 25.33012891100003], [86.98172657200007, 25.331058062000068], [86.98275700100004, 25.33261175000007], [86.98374001500008, 25.33362893800006], [86.98430034700004, 25.334258602000034], [86.98585432100003, 25.335260078000033], [86.98807617100005, 25.336416086000042], [86.99208973900005, 25.337817147000067], [86.99494033700006, 25.339168702000052], [86.99536700400006, 25.339479526000048], [86.99582737500003, 25.340056160000074], [86.99613767300008, 25.340219357000024], [86.99687461100007, 25.34034605100004], [86.99720918900005, 25.340472946000034], [86.99734073100007, 25.340638316000025], [86.99737792800005, 25.340804814000023], [86.99730969500007, 25.341238800000042], [86.99736744100005, 25.34145468500003], [86.99758143700006, 25.341711063000048], [86.99783742700004, 25.342017702000078], [86.99839786000007, 25.34264722000006], [86.99856968500006, 25.34354319600004], [86.99862771200009, 25.343777129000046], [86.99875934800008, 25.343951524000033], [86.99897503800008, 25.344097886000043], [86.99928490100007, 25.344225064000057], [86.99951557500003, 25.344380240000078], [87.00005745300007, 25.345100255000034], [87.00086929000008, 25.34593892500004], [87.00120076600007, 25.346192201000065], [87.00154943700005, 25.346255694000035], [87.00222341300008, 25.34614847100005]]]]}}, {"type": "Feature", "properties": {"OBJECTID": 2556, "GPCODE": "92034", "GPNAME_1": "GOTKHAREEK", "DIST_CEN_C": "22", "BLK_NAME": "KHARIK", "ST_NAME": "BIHAR", "ST_CODE_1": "10", "GPCODE2011": "94589", "REMARKS": "FINALIZED", "MAP_STATUS": "COMPLETED", "BLK_C_2001": "220003", "BLK_C_2011": "01331", "DIST_NAME": "BHAGALPUR", "code2011": 6.0, "Shape_Leng": 0.09993474954, "Shape_Area": 0.00042307286, "Area": 4.71346}, "geometry": {"type": "MultiPolygon", "coordinates": [[[[87.02370980900008, 25.357537386000047], [87.02288335600008, 25.35741192300003], [87.02207105200006, 25.357241213000066], [87.02090916400005, 25.356939358000034], [87.01985941600003, 25.356834595000066], [87.01789481700007, 25.356673217000036], [87.01687533200004, 25.35660420100004], [87.01580972300007, 25.356432029000075], [87.01298482300007, 25.355865738000034], [87.01148177200008, 25.35567610700008], [87.01056544400006, 25.355520182000078], [87.00942197700004, 25.35511871400007], [87.00903907100007, 25.355091711000057], [87.00880179600006, 25.355175706000068], [87.00852683600004, 25.35539557800007], [87.00771388000004, 25.35723723800004], [87.00704253000004, 25.358905784000058], [87.00682470400005, 25.35895802500005], [87.00592131600007, 25.358666484000025], [87.00454225100003, 25.35811888300003], [87.00308465900008, 25.357635363000043], [87.00093860300007, 25.357295364000038], [87.00048050900006, 25.35721958000005], [87.00042371700005, 25.35707138600003], [87.00042963400006, 25.35645314900006], [87.00030290600006, 25.356274203000055], [86.99999283600005, 25.356128974000057], [86.99826545000008, 25.35588327800008], [86.99818879300005, 25.355735244000073], [86.99831217100007, 25.355332221000026], [86.99821993000006, 25.355134759000066], [86.99758125900007, 25.355018835000067], [86.99726361100005, 25.354961119000052], [86.99649747800004, 25.354884398000024], [86.99633501500006, 25.354990152000028], [86.99549844800003, 25.356579390000036], [86.99516873100004, 25.356799867000063], [86.99476715100008, 25.35685421200003], [86.99434612000005, 25.356940490000056], [86.99413168700005, 25.357227269000077], [86.99394834300006, 25.357260979000046], [86.99337805300007, 25.356987966000077], [86.99322930300008, 25.35700334300003], [86.99230479600004, 25.357663957000057], [86.99279279400008, 25.358438858000056], [86.99366289400007, 25.359177620000025], [86.99543825500007, 25.360338753000065], [86.99684217800007, 25.361233552000044], [86.99701360800003, 25.361412048000034], [86.99699663300004, 25.361615271000062], [86.99678243700004, 25.361915681000028], [86.99576231500004, 25.362491797000075], [86.99549438400004, 25.362864942000044], [86.99537218600005, 25.36334918500006], [86.99547018500004, 25.36359624100004], [86.99618646100004, 25.364002817000028], [86.99692757900004, 25.36440919000006], [86.99700432300006, 25.364566160000038], [86.99688230600003, 25.366097324000066], [86.99681230400006, 25.36641398300003], [86.99653969500008, 25.366453292000074], [86.99600614400003, 25.366324320000047], [86.99558398200008, 25.36632928100005], [86.99536806600008, 25.366516880000063], [86.99515370800003, 25.36681268700005], [86.99502622500006, 25.366931511000075], [86.99473631800004, 25.367151569000043], [86.99462989700004, 25.367351364000058], [86.99518983500008, 25.36932557800003], [87.00048969800008, 25.369756860000052], [87.00516334000008, 25.37216906200007], [87.01044003300007, 25.37186753700007], [87.01451062500007, 25.37051067300007], [87.01752587800007, 25.370359910000047], [87.02031295000006, 25.372759888000076], [87.02566706100004, 25.36885228400007], [87.02506401000005, 25.363424828000063], [87.02370980900008, 25.357537386000047]]]]}}, {"type": "Feature", "properties": {"OBJECTID": 2557, "GPCODE": "92033", "GPNAME_1": "DHURUBGANG", "DIST_CEN_C": "22", "BLK_NAME": "KHARIK", "ST_NAME": "BIHAR", "ST_CODE_1": "10", "GPCODE2011": "94588", "REMARKS": "FINALIZED", "MAP_STATUS": "COMPLETED", "BLK_C_2001": "220003", "BLK_C_2011": "01331", "DIST_NAME": "BHAGALPUR", "code2011": 7.0, "Shape_Leng": 0.09587216258, "Shape_Area": 0.0004801845, "Area": 5.34908}, "geometry": {"type": "MultiPolygon", "coordinates": [[[[87.01519881000007, 25.38786681600004], [87.02219952000007, 25.37985795700007], [87.02295333300003, 25.375033552000048], [87.02031295000006, 25.372759888000076], [87.01752587800007, 25.370359910000047], [87.01451062500007, 25.37051067300007], [87.01044003300007, 25.37186753700007], [87.00516334000008, 25.37216906200007], [87.00048969800008, 25.369756860000052], [86.99518983500008, 25.36932557800003], [86.99580393000008, 25.37125854800007], [86.99597527800006, 25.371770911000056], [86.99595843200007, 25.371987673000035], [86.99581683400004, 25.37215634300003], [86.99563374500008, 25.372208104000038], [86.99534046900004, 25.37219803000005], [86.99366675000005, 25.37155010300006], [86.99314766900005, 25.371389321000038], [86.99287421800005, 25.371374477000074], [86.99269204800004, 25.37148940800006], [86.99260933600004, 25.371959699000058], [86.99236150900003, 25.372693620000064], [86.99174958200007, 25.373328043000072], [86.99171769900005, 25.37353147500005], [86.99172337900006, 25.373928480000075], [86.99159639500004, 25.374078886000063], [86.99132650900003, 25.37431673900005], [86.99127635500008, 25.37463314300004], [86.99077616600005, 25.375437789000046], [86.99065133000005, 25.37573701200006], [86.99074481300005, 25.37602021200007], [86.99140164300007, 25.377126978000035], [86.99172148400004, 25.377606013000047], [86.99172726500007, 25.37800301200008], [86.99162274900004, 25.378338086000042], [86.99140165100005, 25.378516696000077], [86.99052956900005, 25.379027848000078], [86.99118018000007, 25.379701512000054], [86.99179291100006, 25.380159039000034], [86.99274903600008, 25.380648618000066], [86.99362250500008, 25.381270011000026], [86.99396951200004, 25.381559183000036], [86.99401328500005, 25.38183835800004], [86.99374709700004, 25.382676313000047], [86.99343402800008, 25.38370879200005], [86.99340998900004, 25.384458136000035], [86.99351155800008, 25.38530068700004], [86.99391129700007, 25.386496263000026], [86.99443593000007, 25.387387912000065], [86.99514888300007, 25.388241294000068], [86.99554025700007, 25.388502935000076], [86.99607407700006, 25.388649960000066], [86.99633026500004, 25.38884545600007], [86.99666888000007, 25.389238486000067], [86.99695772600006, 25.390318066000077], [86.99758087500004, 25.390052646000072], [86.99790603300005, 25.38991420700006], [86.99833499100004, 25.389683538000043], [86.99842643100004, 25.389474836000034], [86.99843940500006, 25.38899645200007], [86.99855121200005, 25.388828114000034], [86.99887240000004, 25.38870247600005], [86.99927923200005, 25.388657011000078], [86.99950893700003, 25.388735561000033], [86.99985745000004, 25.389123899000026], [86.99997322300004, 25.389226301000065], [87.00053994100006, 25.389242170000045], [87.00265868500009, 25.38902739300005], [87.00554741800005, 25.388456086000076], [87.00584371700006, 25.388326214000074], [87.00595583700004, 25.38818043200007], [87.00597030400007, 25.387805740000033], [87.00608317600006, 25.38770517000006], [87.00644951700008, 25.387615072000074], [87.00683679700006, 25.387592403000042], [87.00793195700004, 25.387723683000047], [87.00914066900003, 25.38781305300006], [87.01014549400008, 25.387882240000067], [87.01107946800005, 25.387871045000054], [87.01190393700006, 25.387838628000054], [87.01281154100008, 25.387723933000075], [87.01368855800007, 25.387550996000073], [87.01432834900004, 25.38746214200006], [87.01476111700003, 25.38749756800007], [87.01519881000007, 25.38786681600004]]]]}}]}