{"type": "FeatureCollection", "features": [{"type": "Feature", "properties": {"OBJECTID": 3317, "GPCODE": "92350", "GPNAME_1": "BAGA", "DIST_CEN_C": "29", "BLK_NAME": "SANDESH", "ST_NAME": "BIHAR", "ST_CODE_1": "10", "GPCODE2011": "94905", "REMARKS": "FINALIZED", "MAP_STATUS": "COMPLETED", "BLK_C_2001": "290005", "BLK_C_2011": "01425", "DIST_NAME": "BHOJPUR", "code2011": 16.0, "Shape_Leng": 0.14900893492, "Shape_Area": 0.00083617834, "Area": 9.32891}, "geometry": {"type": "MultiPolygon", "coordinates": [[[[84.70189380000005, 25.36650195800007], [84.70189635000008, 25.365928720000056], [84.70197772500006, 25.36441700900008], [84.70190743900008, 25.36347799300006], [84.70185904400006, 25.362092141000062], [84.70182551600004, 25.36071090200005], [84.70153939700003, 25.359166222000056], [84.70300041500008, 25.35904077500004], [84.70538555800005, 25.358882662000042], [84.70572994300005, 25.36073443500004], [84.70631329300005, 25.36248327100003], [84.70664390000007, 25.362990038000078], [84.70682365300007, 25.363897919000067], [84.70717512400006, 25.364169960000027], [84.70776555700007, 25.364339157000074], [84.70854092100006, 25.364242767000064], [84.70946567300007, 25.364074610000046], [84.71006261700006, 25.363878191000026], [84.71046657400007, 25.36354121100004], [84.71080030000007, 25.363339341000028], [84.71176356600006, 25.36344663600005], [84.71313432200003, 25.363519343000064], [84.71501647700006, 25.363657063000062], [84.71560746600005, 25.363695354000072], [84.71673318000006, 25.364137209000035], [84.71791315000007, 25.364678612000034], [84.71832005800007, 25.364779405000036], [84.71891123800003, 25.364781487000073], [84.72098436000005, 25.364418896000075], [84.72332212400005, 25.363754725000035], [84.72617364000007, 25.36259147800007], [84.73001012900005, 25.361093035000067], [84.73271188300004, 25.360059935000038], [84.73387080000003, 25.359730047000028], [84.73378121000007, 25.358587831000023], [84.73389705600005, 25.357040131000076], [84.73420252900007, 25.35528993400004], [84.73420523400006, 25.354653601000052], [84.73400584700005, 25.353641819000075], [84.73331226500005, 25.35202361100005], [84.73276008100004, 25.35104672600005], [84.73217499000003, 25.34963194200003], [84.73167764500005, 25.348619213000063], [84.73072266900004, 25.346598338000035], [84.73014375700006, 25.34373477300005], [84.72979558300005, 25.342690869000023], [84.72947304100006, 25.340297607000025], [84.72903758800004, 25.338747931000057], [84.72860020100006, 25.33767221000005], [84.72769910900007, 25.335850055000037], [84.72674338100006, 25.33403222900006], [84.72624676600003, 25.334021496000048], [84.72502414500008, 25.33422021000007], [84.72350708300007, 25.33475195400007], [84.72139795600003, 25.33552071200006], [84.71856073600009, 25.336954768000055], [84.71604119300008, 25.338426070000025], [84.71288764200006, 25.340599088000033], [84.71132826600007, 25.341672103000064], [84.71055230100006, 25.341935582000076], [84.70953260600004, 25.342270373000076], [84.70908834100004, 25.342774251000037], [84.70864313400006, 25.343481214000064], [84.70664694100003, 25.34337009400008], [84.70397957200004, 25.343396272000064], [84.70202251700005, 25.34342065800007], [84.70146427700007, 25.343851811000036], [84.70102041800004, 25.344251867000025], [84.70083411200005, 25.344824422000045], [84.70106462000007, 25.345466111000064], [84.70109988000007, 25.346472780000056], [84.70101926200005, 25.34781752400005], [84.70101323900008, 25.349162491000072], [84.70126752100003, 25.350034511000047], [84.70177852800003, 25.351282112000035], [84.70216192400005, 25.352195245000075], [84.70227215200003, 25.35307126300006], [84.70212120400004, 25.35350857000003], [84.70178657800005, 25.35390899500004], [84.70133863100006, 25.354110443000025], [84.70059738900005, 25.354342333000034], [84.69948877100006, 25.354541338000047], [84.69756373900003, 25.355138960000033], [84.69659822200003, 25.35553703200003], [84.69567310100007, 25.35580430600004], [84.69515362900006, 25.356443299000034], [84.69420933300006, 25.35653903000008], [84.69309991500006, 25.356904878000023], [84.69161763000005, 25.357337072000064], [84.69021096600005, 25.35753489900003], [84.68917270400004, 25.357530947000043], [84.68780657400004, 25.357557254000028], [84.68775519900004, 25.357922650000035], [84.68771033400003, 25.359032848000027], [84.68762776300008, 25.36077923000005], [84.68766359000006, 25.36161882400006], [84.68781156800009, 25.361854056000027], [84.68799473500007, 25.361990242000047], [84.68891868800006, 25.361993701000074], [84.68969328000009, 25.362064385000053], [84.69069742000005, 25.361932800000034], [84.69143775800006, 25.361904044000028], [84.69232121000005, 25.362074376000066], [84.69302671500003, 25.362040957000033], [84.69405969100006, 25.36211254600005], [84.69450585700008, 25.362317286000064], [84.69497857900006, 25.363226344000054], [84.69536272600004, 25.363972508000074], [84.69550960300006, 25.36444240900005], [84.69535826600008, 25.36494740200004], [84.69535705400006, 25.365218179000067], [84.69553886000006, 25.365656632000025], [84.69601793500004, 25.36626325900005], [84.69657222500007, 25.366734722000047], [84.69705166100005, 25.367273650000072], [84.69730747600005, 25.367811708000033], [84.69748869300008, 25.368385639000053], [84.69835976900004, 25.368018791000054], [84.69884168800007, 25.368020578000028], [84.69958180100008, 25.368023377000043], [84.69999031900005, 25.36779016400004], [84.70058412800006, 25.367187582000042], [84.70121280300003, 25.36658513800006], [84.70162065400007, 25.366482891000032], [84.70189380000005, 25.36650195800007]]]]}}, {"type": "Feature", "properties": {"OBJECTID": 3324, "GPCODE": "92355", "GPNAME_1": "KORI", "DIST_CEN_C": "29", "BLK_NAME": "SANDESH", "ST_NAME": "BIHAR", "ST_CODE_1": "10", "GPCODE2011": "94910", "REMARKS": "FINALIZED", "MAP_STATUS": "COMPLETED", "BLK_C_2001": "290005", "BLK_C_2011": "01425", "DIST_NAME": "BHOJPUR", "code2011": 20.0, "Shape_Leng": 0.1817357139, "Shape_Area": 0.0009115195, "Area": 10.166}, "geometry": {"type": "MultiPolygon", "coordinates": [[[[84.69314700100006, 25.413887141000032], [84.69307710400005, 25.412880361000077], [84.69321026200004, 25.412005288000046], [84.69345287100003, 25.411126074000038], [84.69442003100005, 25.41045726300007], [84.69646611500008, 25.408582872000068], [84.69821341400007, 25.40684274000006], [84.69846376600003, 25.406423897000025], [84.69863333600006, 25.407399481000027], [84.69881486200006, 25.40790561400007], [84.69903288500007, 25.408041835000063], [84.69973794800006, 25.408179872000062], [84.70022046500003, 25.408077951000053], [84.70040601500006, 25.40770849300003], [84.70077768000004, 25.406838797000034], [84.70085356600003, 25.406536663000054], [84.70141091800008, 25.406371784000044], [84.70189266800008, 25.40643674200004], [84.70215, 25.40667692900007], [84.70262920400006, 25.407315109000024], [84.70288562800005, 25.40775386200005], [84.70329222000004, 25.40795848700003], [84.70403191200006, 25.408128238000074], [84.70528965000005, 25.408029122000073], [84.70666237600005, 25.407767841000066], [84.70736416500006, 25.407535754000037], [84.70784554200003, 25.407672993000062], [84.70836273900005, 25.40760719700006], [84.70869657900005, 25.407405244000074], [84.70892171100007, 25.407054096000024], [84.70932831100004, 25.40725870600005], [84.71021791100009, 25.407261895000033], [84.71199362400006, 25.406898357000046], [84.71321730000005, 25.406631968000056], [84.71370074400005, 25.406299759000035], [84.71337451200003, 25.404782044000058], [84.71315697500006, 25.40340467900006], [84.71301400500005, 25.402023021000048], [84.71309094500003, 25.40148620900004], [84.71327536700005, 25.401351498000054], [84.71405602100003, 25.401255113000047], [84.71472140200007, 25.40135680800006], [84.71553377000004, 25.40082268200007], [84.71709511100005, 25.399451718000023], [84.71793248700004, 25.39888154700003], [84.71786132900007, 25.398109533000024], [84.71763907000008, 25.39780632800006], [84.71727336100008, 25.397335560000045], [84.71718991300008, 25.397096092000027], [84.71722522800007, 25.39697880400007], [84.71737461900005, 25.39691164000004], [84.71759873300005, 25.396795146000045], [84.71770881400005, 25.396610476000035], [84.71768986600006, 25.396407355000065], [84.71758125300005, 25.39625797800005], [84.71732372400004, 25.396053919000053], [84.71689742900008, 25.39581769800003], [84.71664009800008, 25.395563997000068], [84.71643791500009, 25.395211189000065], [84.71636447300006, 25.394976297000028], [84.71642010100004, 25.39474180800005], [84.71679588700005, 25.394034564000037], [84.71716087200008, 25.393534844000044], [84.71740051000006, 25.393264920000036], [84.71766124800007, 25.392728773000044], [84.71775831200006, 25.392119790000038], [84.71775981800005, 25.391781322000043], [84.71753698700007, 25.39161350300003], [84.71720518500007, 25.391341440000076], [84.71694816500008, 25.39103818600006], [84.71631908300003, 25.39060259200005], [84.71587725300003, 25.39049714400005], [84.71487822700004, 25.390561228000024], [84.71448920300008, 25.39089831000007], [84.71415393500007, 25.39143423200005], [84.71415159100007, 25.391975779000063], [84.71429872600004, 25.39241415500004], [84.71414884100005, 25.392580602000066], [84.713666, 25.392781942000056], [84.71314708800008, 25.39328099100004], [84.71206809600005, 25.39455438500005], [84.71151245000004, 25.394353758000022], [84.71107185400007, 25.39398203500008], [84.71079583900007, 25.39347104600006], [84.71057552500008, 25.392729988000042], [84.71046998400004, 25.39189013200007], [84.71039813000004, 25.391285089000064], [84.70999534000003, 25.390240987000027], [84.70944226800003, 25.38946260800003], [84.70785756600003, 25.38828329300003], [84.70734288500006, 25.387812051000026], [84.70763787400006, 25.387406933000022], [84.70760503000008, 25.38696894800006], [84.70741783500006, 25.386598176000064], [84.70706259100007, 25.386046212000053], [84.70573043500008, 25.386172196000075], [84.70358305000008, 25.386367286000052], [84.70102879900008, 25.38646159900003], [84.69999606600004, 25.386286261000066], [84.69918309700006, 25.385881496000025], [84.69900089700008, 25.38551074800006], [84.69874513300005, 25.384936596000045], [84.69865482800003, 25.384029046000023], [84.69855117700007, 25.382782924000026], [84.69829719200004, 25.381807122000055], [84.69807843600006, 25.380763672000057], [84.69724325100003, 25.380859792000024], [84.69635845400006, 25.380960264000066], [84.69539446200008, 25.380988263000063], [84.69447026700004, 25.380984753000064], [84.69417185100008, 25.381051343000024], [84.69343146700004, 25.38108462300005], [84.69288055900006, 25.38094714300007], [84.69225113500005, 25.380606313000044], [84.69177218400006, 25.379968088000055], [84.69096729900008, 25.378886283000043], [84.69037574400005, 25.377877584000032], [84.68967521100006, 25.377874831000042], [84.68882472200005, 25.378070179000076], [84.68832150900005, 25.37837068400006], [84.68804732000007, 25.37857272800005], [84.68789593700006, 25.379077710000047], [84.68804003200006, 25.38015243700005], [84.68815131800005, 25.380793778000054], [84.68810967400003, 25.38119534300006], [84.68622093000005, 25.38135962900003], [84.68621876200007, 25.38182897300004], [84.68658733300003, 25.38270601800008], [84.68676583800004, 25.383848585000067], [84.68721550800007, 25.38654033800003], [84.68772242100005, 25.388663558000076], [84.68810566800005, 25.389608297000052], [84.68732845100004, 25.39004314700003], [84.68584560100004, 25.390506869000035], [84.68440449800005, 25.39053291400006], [84.68288344800004, 25.39066247200003], [84.68206796400005, 25.39079474600004], [84.68159004400007, 25.39099592900004], [84.68139975500003, 25.39129764100005], [84.68143591200004, 25.392069528000036], [84.68154002500006, 25.393180268000037], [84.68150260600004, 25.393753350000054], [84.68052340900005, 25.393817257000023], [84.67904169700006, 25.394014561000063], [84.67807760300008, 25.394042451000075], [84.67711863700004, 25.394038688000023], [84.67648783800007, 25.393968572000063], [84.67612123900005, 25.39373237500007], [84.67604833500008, 25.393393668000044], [84.67597581600006, 25.39296010000004], [84.67571908800005, 25.392620582000063], [84.67519890900007, 25.392284494000023], [84.67405623900004, 25.392243982000025], [84.67275971800007, 25.392171172000076], [84.67070714600004, 25.392262386000027], [84.66937564600005, 25.39222550100004], [84.66833730700006, 25.392185305000055], [84.66784466200005, 25.392350329000067], [84.66858217800007, 25.39293101800007], [84.66920587300007, 25.393434462000073], [84.66975938500008, 25.39407299100003], [84.66982608200004, 25.39467810900004], [84.66986227100006, 25.395413896000036], [84.66985738700004, 25.396451950000028], [84.66989053600008, 25.396790659000033], [84.67022091900003, 25.39732899200004], [84.67080950000008, 25.397900066000034], [84.67084285100003, 25.398202578000053], [84.67065530700006, 25.39896913700005], [84.67035353500006, 25.40077777600004], [84.67051237600003, 25.40185712400006], [84.67088163000005, 25.40256271000004], [84.67241751100005, 25.402496460000066], [84.67400780700007, 25.402471099000024], [84.67548926100005, 25.40234153800003], [84.67701045700005, 25.402212054000074], [84.67837736800004, 25.402149735000023], [84.67896934400005, 25.402016584000023], [84.67889920600004, 25.401077577000024], [84.67900088400006, 25.399525338000046], [84.67933668300003, 25.39892180000004], [84.68026205200005, 25.398690731000045], [84.68148411600004, 25.398763151000026], [84.68142365500006, 25.40000860500004], [84.68122924500005, 25.402264607000063], [84.68110566300004, 25.40424543200004], [84.68109887100007, 25.405694247000042], [84.68111058500006, 25.40744095200006], [84.68113680900007, 25.409259967000025], [84.68142554300005, 25.41127861700005], [84.68165922100007, 25.412322080000024], [84.68206439500005, 25.412829213000066], [84.68269404800003, 25.413133978000076], [84.68399010900004, 25.41337367700004], [84.68519797900007, 25.413328721000028], [84.68660358200003, 25.413505602000043], [84.68817356100004, 25.41361092300008], [84.68917165100004, 25.413781681000046], [84.68987119400003, 25.414050692000046], [84.69094276300007, 25.41446094300005], [84.69164631700005, 25.414933059000077], [84.69226956400007, 25.415576303000023], [84.69276750700004, 25.415366107000068], [84.69295805900003, 25.414996694000024], [84.69295959500005, 25.414662743000065], [84.69314700100006, 25.413887141000032]]]]}}, {"type": "Feature", "properties": {"OBJECTID": 3325, "GPCODE": "92348", "GPNAME_1": "AHPURA", "DIST_CEN_C": "29", "BLK_NAME": "SANDESH", "ST_NAME": "BIHAR", "ST_CODE_1": "10", "GPCODE2011": "94903", "REMARKS": "FINALIZED", "MAP_STATUS": "COMPLETED", "BLK_C_2001": "290005", "BLK_C_2011": "01425", "DIST_NAME": "BHOJPUR", "code2011": 21.0, "Shape_Leng": 0.1509548675, "Shape_Area": 0.00100270982, "Area": 11.1808}, "geometry": {"type": "MultiPolygon", "coordinates": [[[[84.72991604600008, 25.435343269000043], [84.73047575900006, 25.43463666300005], [84.73092594400003, 25.433965717000035], [84.73112612100005, 25.433664016000023], [84.73068790700006, 25.432687642000076], [84.73035921400003, 25.431675420000033], [84.72991709500008, 25.430464251000046], [84.72970018900008, 25.43002572100005], [84.72951239900004, 25.429790366000077], [84.72914454800008, 25.42978905700005], [84.72866239600006, 25.42978736500004], [84.72843914800006, 25.429687259000048], [84.72784986600004, 25.429179686000055], [84.72730250900008, 25.428171175000045], [84.72706857900005, 25.42709620000005], [84.72703783400004, 25.425010833000044], [84.72723209300005, 25.422587831000044], [84.72733254400003, 25.421207064000043], [84.72716087200007, 25.42066935500003], [84.72746165200004, 25.42006116500005], [84.72761356500007, 25.41942528100003], [84.72783221000003, 25.419426076000036], [84.72890633100008, 25.41929452100004], [84.72964707300008, 25.419229391000044], [84.72968754700008, 25.419062585000063], [84.72968868400005, 25.418791723000027], [84.72987408400007, 25.41845842500004], [84.73035876500006, 25.417855302000078], [84.73083742300008, 25.417486905000032], [84.73172903500006, 25.417016217000025], [84.73236182500005, 25.416648269000063], [84.73262131700005, 25.41638296900004], [84.73262254900004, 25.416112104000035], [84.73262421300007, 25.41571046200005], [84.73262582700005, 25.415340316000027], [84.73281062900008, 25.415106301000037], [84.73310943800004, 25.414971944000058], [84.73381050500006, 25.41490671500003], [84.73414381000003, 25.414808598000036], [84.73441468300007, 25.414218248000054], [84.73425684100005, 25.41394238500004], [84.73399694000005, 25.413133599000048], [84.73385548000005, 25.412492202000067], [84.73385667400004, 25.412225850000027], [84.73394667900004, 25.412090774000035], [84.73419087000008, 25.411924654000074], [84.73444954600006, 25.411875963000057], [84.73454451700007, 25.411740827000074], [84.73452524800007, 25.411587353000073], [84.73435758300008, 25.411284348000038], [84.73412457300003, 25.411152593000054], [84.73316571300006, 25.41108157700006], [84.73253561200005, 25.410844619000045], [84.73223843100004, 25.410608920000072], [84.73224084500004, 25.410035696000023], [84.73246767400008, 25.409296313000027], [84.73280461200005, 25.408354201000066], [84.73303086900006, 25.407750202000045], [84.73308808400003, 25.40714556000006], [84.73290605400007, 25.406711675000054], [84.73227725900006, 25.406172354000034], [84.73187262400006, 25.405498374000047], [84.73176659800004, 25.404726233000076], [84.73158370900006, 25.40449091200003], [84.73132542300004, 25.404453854000053], [84.73058458200006, 25.40455509700007], [84.73002769500005, 25.40461628500003], [84.72917738900009, 25.40474867100005], [84.72821261900003, 25.404916772000036], [84.72806292300004, 25.405047127000046], [84.72817461800008, 25.40565232600005], [84.72794988700008, 25.40592236300006], [84.72643405100007, 25.40595300600006], [84.72539534600008, 25.40598088300004], [84.72487778100003, 25.406146110000066], [84.72458803800004, 25.40533711100005], [84.72408953600006, 25.40456357000005], [84.72331751100006, 25.40382055200007], [84.72295195500004, 25.40331378600007], [84.72232264100006, 25.40290981000004], [84.72173423700008, 25.40223523000003], [84.72102918400003, 25.402097292000064], [84.72014492500006, 25.402026412000055], [84.71925662000007, 25.401752414000043], [84.71870204000004, 25.401312537000024], [84.71833724400005, 25.400638783000034], [84.71804258700007, 25.399829736000072], [84.71793248700004, 25.39888154700003], [84.71709511100005, 25.399451718000023], [84.71553377000004, 25.40082268200007], [84.71472140200007, 25.40135680800006], [84.71405602100003, 25.401255113000047], [84.71327536700005, 25.401351498000054], [84.71309094500003, 25.40148620900004], [84.71301400500005, 25.402023021000048], [84.71315697500006, 25.40340467900006], [84.71337451200003, 25.404782044000058], [84.71370074400005, 25.406299759000035], [84.71321730000005, 25.406631968000056], [84.71199362400006, 25.406898357000046], [84.71021791100009, 25.407261895000033], [84.70932831100004, 25.40725870600005], [84.70892171100007, 25.407054096000024], [84.70869657900005, 25.407405244000074], [84.70836273900005, 25.40760719700006], [84.70784554200003, 25.407672993000062], [84.70736416500006, 25.407535754000037], [84.70666237600005, 25.407767841000066], [84.70528965000005, 25.408029122000073], [84.70403191200006, 25.408128238000074], [84.70329222000004, 25.40795848700003], [84.70288562800005, 25.40775386200005], [84.70262920400006, 25.407315109000024], [84.70215, 25.40667692900007], [84.70189266800008, 25.40643674200004], [84.70141091800008, 25.406371784000044], [84.70085356600003, 25.406536663000054], [84.70077768000004, 25.406838797000034], [84.70040601500006, 25.40770849300003], [84.70022046500003, 25.408077951000053], [84.69973794800006, 25.408179872000062], [84.69903288500007, 25.408041835000063], [84.69881486200006, 25.40790561400007], [84.69863333600006, 25.407399481000027], [84.69846376600003, 25.406423897000025], [84.69821341400007, 25.40684274000006], [84.69646611500008, 25.408582872000068], [84.69442003100005, 25.41045726300007], [84.69345287100003, 25.411126074000038], [84.69321026200004, 25.412005288000046], [84.69307710400005, 25.412880361000077], [84.69314700100006, 25.413887141000032], [84.69295959500005, 25.414662743000065], [84.69295805900003, 25.414996694000024], [84.69276750700004, 25.415366107000068], [84.69226956400007, 25.415576303000023], [84.69234073900003, 25.416316823000045], [84.69248379000004, 25.417626192000057], [84.69260901800004, 25.418502284000056], [84.69315772800007, 25.42021947300003], [84.69345054500008, 25.42139861000004], [84.69391919600008, 25.423246308000046], [84.69446886800006, 25.424764924000044], [84.69479882400003, 25.42543867200004], [84.69492960200006, 25.426197366000054], [84.69525825400007, 25.42714197600003], [84.69584551900004, 25.428051406000066], [84.69656088900007, 25.429232014000036], [84.69689086700004, 25.42990575600004], [84.69755406500008, 25.43051305000006], [84.69832625900005, 25.43122459600005], [84.69964361400008, 25.431193437000047], [84.70164212400005, 25.431101657000056], [84.70315747000006, 25.431242652000037], [84.70478841700003, 25.431113355000036], [84.70597214500003, 25.430950738000035], [84.70713946500007, 25.431122050000056], [84.70854270900008, 25.43186743700005], [84.71038871800005, 25.432546693000063], [84.71134541200007, 25.433155055000043], [84.71308477600007, 25.43322911000007], [84.71434768400007, 25.433134376000055], [84.71486537600003, 25.432969279000076], [84.71626684900008, 25.433010472000035], [84.71697059900004, 25.433482468000022], [84.71752506800004, 25.43398994200004], [84.71799924400005, 25.434695814000065], [84.71829611400005, 25.434999230000074], [84.71879743300008, 25.435168060000024], [84.72090551400004, 25.43504028600006], [84.72212867800005, 25.43494541000007], [84.72331226800009, 25.434814251000034], [84.72394276900008, 25.434987971000055], [84.72482629800004, 25.435293583000032], [84.72674798400004, 25.435733682000034], [84.72800995300008, 25.435873593000053], [84.72917791800006, 25.43590935700007], [84.72958072600005, 25.435879211000042], [84.72991604600008, 25.435343269000043]]]]}}, {"type": "Feature", "properties": {"OBJECTID": 3373, "GPCODE": "92354", "GPNAME_1": "KHANDAUL", "DIST_CEN_C": "29", "BLK_NAME": "SANDESH", "ST_NAME": "BIHAR", "ST_CODE_1": "10", "GPCODE2011": "94909", "REMARKS": "FINALIZED", "MAP_STATUS": "COMPLETED", "BLK_C_2001": "290005", "BLK_C_2011": "01425", "DIST_NAME": "BHOJPUR", "code2011": 14.0, "Shape_Leng": 0.15073771795, "Shape_Area": 0.00102278771, "Area": 11.4084}, "geometry": {"type": "MultiPolygon", "coordinates": [[[[84.72287755700006, 25.39298226300008], [84.72447292800007, 25.39288863300004], [84.72613756900006, 25.392894633000026], [84.72683826600007, 25.392861027000038], [84.72785732600005, 25.392765315000076], [84.72914948600004, 25.392702245000066], [84.73037332600006, 25.392368024000064], [84.73182092300004, 25.391971436000063], [84.73270753100007, 25.391469020000045], [84.73326486000008, 25.391267925000022], [84.73367234700004, 25.391269391000037], [84.73429729800006, 25.391542323000067], [84.73515191500007, 25.391545328000063], [84.73615150100005, 25.391345727000044], [84.73774276900008, 25.39104893800004], [84.73852342000004, 25.390916236000066], [84.73885623500007, 25.39094897800004], [84.73911360600005, 25.39118910600007], [84.73937067800006, 25.39149232400007], [84.73981294300006, 25.39149390800003], [84.74103678900008, 25.39112801500005], [84.74300097500003, 25.390764701000023], [84.74522469600004, 25.39013142700003], [84.74581692200007, 25.38989882900006], [84.74636902600008, 25.389765254000054], [84.74714958400006, 25.389668701000062], [84.74786589700005, 25.389387172000056], [84.74923352600007, 25.38884964700003], [84.74890376400003, 25.388392788000033], [84.74864579700005, 25.38711015800004], [84.74842967100005, 25.385285960000033], [84.74786598300005, 25.38161082700003], [84.74705485600003, 25.381313904000024], [84.74624412500003, 25.380336244000034], [84.74554733300005, 25.379426644000034], [84.74423715600005, 25.377874060000067], [84.74231986200004, 25.375376046000042], [84.74064899800004, 25.372206324000047], [84.73869999600004, 25.369004011000072], [84.73803804300007, 25.368126095000036], [84.73654993600007, 25.365227743000048], [84.73419971400006, 25.36064292700007], [84.73387080000003, 25.359730047000028], [84.73271188300004, 25.360059935000038], [84.73001012900005, 25.361093035000067], [84.72617364000007, 25.36259147800007], [84.72332212400005, 25.363754725000035], [84.72098436000005, 25.364418896000075], [84.71891123800003, 25.364781487000073], [84.71832005800007, 25.364779405000036], [84.71791315000007, 25.364678612000034], [84.71673318000006, 25.364137209000035], [84.71560746600005, 25.363695354000072], [84.71501647700006, 25.363657063000062], [84.71313432200003, 25.363519343000064], [84.71176356600006, 25.36344663600005], [84.71080030000007, 25.363339341000028], [84.71046657400007, 25.36354121100004], [84.71006261700006, 25.363878191000026], [84.70946567300007, 25.364074610000046], [84.70854092100006, 25.364242767000064], [84.70776555700007, 25.364339157000074], [84.70717512400006, 25.364169960000027], [84.70682365300007, 25.363897919000067], [84.70664390000007, 25.362990038000078], [84.70631329300005, 25.36248327100003], [84.70572994300005, 25.36073443500004], [84.70538555800005, 25.358882662000042], [84.70300041500008, 25.35904077500004], [84.70153939700003, 25.359166222000056], [84.70182551600004, 25.36071090200005], [84.70185904400006, 25.362092141000062], [84.70190743900008, 25.36347799300006], [84.70197772500006, 25.36441700900008], [84.70189635000008, 25.365928720000056], [84.70189380000005, 25.36650195800007], [84.70211266100006, 25.36754531500003], [84.70282784700004, 25.36868992500007], [84.70334104900007, 25.369468161000043], [84.70407433400004, 25.371018970000023], [84.70499473800004, 25.37293604200005], [84.70549165900007, 25.374012118000053], [84.70559741000005, 25.37482039100007], [84.70566923200005, 25.37542544200005], [84.70574255600008, 25.375696534000042], [84.70603394700004, 25.376067739000064], [84.70644079100003, 25.376204665000046], [84.70714553100004, 25.376374261000024], [84.70766072100008, 25.376714633000063], [84.70821484300006, 25.377217646000076], [84.70872736500007, 25.378162838000037], [84.70911073900004, 25.379107624000028], [84.70951426700003, 25.37998015100004], [84.70976972300008, 25.380621981000047], [84.71002665500004, 25.380956929000035], [84.71047257000004, 25.381229408000024], [84.71206185200003, 25.381370635000053], [84.71509222200007, 25.381449427000064], [84.71564870500004, 25.381451382000023], [84.71564641500004, 25.38197497300007], [84.71579280600008, 25.382580329000064], [84.71586468000004, 25.38318537200007], [84.71574836100007, 25.383654324000076], [84.71537996900008, 25.383824471000025], [84.71423122100003, 25.384054997000078], [84.71360409200008, 25.384287431000075], [84.71371300500005, 25.38551552100006], [84.71385698000006, 25.386657916000047], [84.71385324600004, 25.387497411000027], [84.71385183000007, 25.387835877000043], [84.71400012900006, 25.388003389000062], [84.71436659100004, 25.38827560200008], [84.71458917000007, 25.388511118000054], [84.71465848000008, 25.389684788000068], [84.71487822700004, 25.390561228000024], [84.71587725300003, 25.39049714400005], [84.71631908300003, 25.39060259200005], [84.71694816500008, 25.39103818600006], [84.71720518500007, 25.391341440000076], [84.71753698700007, 25.39161350300003], [84.71775981800005, 25.391781322000043], [84.71775831200006, 25.392119790000038], [84.71766124800007, 25.392728773000044], [84.71740051000006, 25.393264920000036], [84.71828782900008, 25.393742012000075], [84.71891850100008, 25.393843640000057], [84.72002666100008, 25.393815991000054], [84.72136022800004, 25.393383007000068], [84.72287755700006, 25.39298226300008]]]]}}, {"type": "Feature", "properties": {"OBJECTID": 3377, "GPCODE": "92357", "GPNAME_1": "RAMASHAND", "DIST_CEN_C": "29", "BLK_NAME": "SANDESH", "ST_NAME": "BIHAR", "ST_CODE_1": "10", "GPCODE2011": "94912", "REMARKS": "FINALIZED", "MAP_STATUS": "COMPLETED", "BLK_C_2001": "290005", "BLK_C_2011": "01425", "DIST_NAME": "BHOJPUR", "code2011": 22.0, "Shape_Leng": 0.20224537286, "Shape_Area": 0.00112467549, "Area": 12.5455}, "geometry": {"type": "MultiPolygon", "coordinates": [[[[84.71385698000006, 25.386657916000047], [84.71371300500005, 25.38551552100006], [84.71360409200008, 25.384287431000075], [84.71423122100003, 25.384054997000078], [84.71537996900008, 25.383824471000025], [84.71574836100007, 25.383654324000076], [84.71586468000004, 25.38318537200007], [84.71579280600008, 25.382580329000064], [84.71564641500004, 25.38197497300007], [84.71564870500004, 25.381451382000023], [84.71509222200007, 25.381449427000064], [84.71206185200003, 25.381370635000053], [84.71047257000004, 25.381229408000024], [84.71002665500004, 25.380956929000035], [84.70976972300008, 25.380621981000047], [84.70951426700003, 25.37998015100004], [84.70911073900004, 25.379107624000028], [84.70872736500007, 25.378162838000037], [84.70821484300006, 25.377217646000076], [84.70766072100008, 25.376714633000063], [84.70714553100004, 25.376374261000024], [84.70644079100003, 25.376204665000046], [84.70603394700004, 25.376067739000064], [84.70574255600008, 25.375696534000042], [84.70566923200005, 25.37542544200005], [84.70559741000005, 25.37482039100007], [84.70549165900007, 25.374012118000053], [84.70499473800004, 25.37293604200005], [84.70407433400004, 25.371018970000023], [84.70334104900007, 25.369468161000043], [84.70282784700004, 25.36868992500007], [84.70211266100006, 25.36754531500003], [84.70189380000005, 25.36650195800007], [84.70162065400007, 25.366482891000032], [84.70121280300003, 25.36658513800006], [84.70058412800006, 25.367187582000042], [84.69999031900005, 25.36779016400004], [84.69958180100008, 25.368023377000043], [84.69884168800007, 25.368020578000028], [84.69835976900004, 25.368018791000054], [84.69748869300008, 25.368385639000053], [84.69730747600005, 25.367811708000033], [84.69705166100005, 25.367273650000072], [84.69657222500007, 25.366734722000047], [84.69601793500004, 25.36626325900005], [84.69553886000006, 25.365656632000025], [84.69535705400006, 25.365218179000067], [84.69535826600008, 25.36494740200004], [84.69550960300006, 25.36444240900005], [84.69536272600004, 25.363972508000074], [84.69497857900006, 25.363226344000054], [84.69450585700008, 25.362317286000064], [84.69405969100006, 25.36211254600005], [84.69302671500003, 25.362040957000033], [84.69232121000005, 25.362074376000066], [84.69143775800006, 25.361904044000028], [84.69069742000005, 25.361932800000034], [84.68969328000009, 25.362064385000053], [84.68891868800006, 25.361993701000074], [84.68799473500007, 25.361990242000047], [84.68781156800009, 25.361854056000027], [84.68766359000006, 25.36161882400006], [84.68762776300008, 25.36077923000005], [84.68771033400003, 25.359032848000027], [84.68775519900004, 25.357922650000035], [84.68780657400004, 25.357557254000028], [84.68651133600008, 25.357286077000026], [84.68405247500004, 25.357276591000073], [84.68186643000007, 25.35733590600006], [84.68009292500005, 25.357360635000077], [84.67724760600004, 25.35715099600003], [84.67557377800006, 25.35709936300003], [84.67431888400006, 25.357762396000055], [84.67446168500004, 25.359071826000047], [84.67445753000004, 25.359942924000052], [84.67422227800006, 25.362419920000036], [84.67439474300005, 25.364835260000063], [84.67455278300008, 25.366081604000044], [84.67491711100007, 25.36782517300003], [84.67494947100005, 25.36833077400007], [84.67479788400004, 25.36886733700004], [84.67446872900007, 25.36913234600007], [84.67357701300006, 25.36966589700006], [84.67045573000007, 25.370994118000056], [84.66967946500006, 25.371261901000025], [84.66916276300003, 25.37125987400003], [84.66754228400004, 25.370413943000074], [84.66665944400006, 25.370108083000048], [84.66573586300007, 25.370005115000026], [84.66451808000005, 25.37013117600003], [84.66342772900003, 25.370627822000074], [84.66272515200006, 25.371062795000057], [84.66224059500007, 25.371597939000026], [84.66194510100007, 25.37209774300004], [84.66161026200007, 25.372502590000067], [84.66256808000009, 25.373747636000076], [84.66278989800009, 25.374118615000043], [84.66278835000008, 25.37442098500003], [84.66245348400008, 25.374853], [84.66148843000008, 25.376121883000053], [84.66111162000004, 25.37699146500006], [84.66103961200008, 25.37749670200003], [84.66125468200005, 25.378233289000036], [84.66132592500009, 25.378906054000026], [84.66122870300006, 25.37947881300005], [84.66104264300003, 25.379947512000058], [84.66059913700008, 25.380216570000073], [84.66012223900003, 25.38021460500005], [84.65938158300008, 25.380279316000042], [84.65901326800008, 25.380408715000044], [84.65867898000005, 25.38070984700005], [84.65845360300005, 25.38107898100003], [84.65815651500003, 25.381881236000027], [84.65879815600005, 25.382754834000025], [84.66000809600007, 25.38427170500006], [84.66081299700005, 25.385313050000036], [84.66169491400007, 25.38582202400005], [84.66279872000007, 25.38669754800003], [84.66395564200008, 25.387875630000053], [84.66531466700008, 25.38942462500006], [84.66670840100005, 25.390973761000055], [84.66784466200005, 25.392350329000067], [84.66833730700006, 25.392185305000055], [84.66937564600005, 25.39222550100004], [84.67070714600004, 25.392262386000027], [84.67275971800007, 25.392171172000076], [84.67405623900004, 25.392243982000025], [84.67519890900007, 25.392284494000023], [84.67571908800005, 25.392620582000063], [84.67597581600006, 25.39296010000004], [84.67604833500008, 25.393393668000044], [84.67612123900005, 25.39373237500007], [84.67648783800007, 25.393968572000063], [84.67711863700004, 25.394038688000023], [84.67807760300008, 25.394042451000075], [84.67904169700006, 25.394014561000063], [84.68052340900005, 25.393817257000023], [84.68150260600004, 25.393753350000054], [84.68154002500006, 25.393180268000037], [84.68143591200004, 25.392069528000036], [84.68139975500003, 25.39129764100005], [84.68159004400007, 25.39099592900004], [84.68206796400005, 25.39079474600004], [84.68288344800004, 25.39066247200003], [84.68440449800005, 25.39053291400006], [84.68584560100004, 25.390506869000035], [84.68732845100004, 25.39004314700003], [84.68810566800005, 25.389608297000052], [84.68772242100005, 25.388663558000076], [84.68721550800007, 25.38654033800003], [84.68676583800004, 25.383848585000067], [84.68658733300003, 25.38270601800008], [84.68621876200007, 25.38182897300004], [84.68622093000005, 25.38135962900003], [84.68810967400003, 25.38119534300006], [84.68815131800005, 25.380793778000054], [84.68804003200006, 25.38015243700005], [84.68789593700006, 25.379077710000047], [84.68804732000007, 25.37857272800005], [84.68832150900005, 25.37837068400006], [84.68882472200005, 25.378070179000076], [84.68967521100006, 25.377874831000042], [84.69037574400005, 25.377877584000032], [84.69096729900008, 25.378886283000043], [84.69177218400006, 25.379968088000055], [84.69225113500005, 25.380606313000044], [84.69288055900006, 25.38094714300007], [84.69343146700004, 25.38108462300005], [84.69417185100008, 25.381051343000024], [84.69447026700004, 25.380984753000064], [84.69539446200008, 25.380988263000063], [84.69635845400006, 25.380960264000066], [84.69724325100003, 25.380859792000024], [84.69807843600006, 25.380763672000057], [84.69829719200004, 25.381807122000055], [84.69855117700007, 25.382782924000026], [84.69865482800003, 25.384029046000023], [84.69874513300005, 25.384936596000045], [84.69900089700008, 25.38551074800006], [84.69918309700006, 25.385881496000025], [84.69999606600004, 25.386286261000066], [84.70102879900008, 25.38646159900003], [84.70358305000008, 25.386367286000052], [84.70573043500008, 25.386172196000075], [84.70706259100007, 25.386046212000053], [84.70741783500006, 25.386598176000064], [84.70760503000008, 25.38696894800006], [84.70763787400006, 25.387406933000022], [84.70734288500006, 25.387812051000026], [84.70785756600003, 25.38828329300003], [84.70944226800003, 25.38946260800003], [84.70999534000003, 25.390240987000027], [84.71039813000004, 25.391285089000064], [84.71046998400004, 25.39189013200007], [84.71057552500008, 25.392729988000042], [84.71079583900007, 25.39347104600006], [84.71107185400007, 25.39398203500008], [84.71151245000004, 25.394353758000022], [84.71206809600005, 25.39455438500005], [84.71314708800008, 25.39328099100004], [84.713666, 25.392781942000056], [84.71414884100005, 25.392580602000066], [84.71429872600004, 25.39241415500004], [84.71415159100007, 25.391975779000063], [84.71415393500007, 25.39143423200005], [84.71448920300008, 25.39089831000007], [84.71487822700004, 25.390561228000024], [84.71465848000008, 25.389684788000068], [84.71458917000007, 25.388511118000054], [84.71436659100004, 25.38827560200008], [84.71400012900006, 25.388003389000062], [84.71385183000007, 25.387835877000043], [84.71385324600004, 25.387497411000027], [84.71385698000006, 25.386657916000047]]]]}}, {"type": "Feature", "properties": {"OBJECTID": 3380, "GPCODE": "92358", "GPNAME_1": "SANDESH", "DIST_CEN_C": "29", "BLK_NAME": "SANDESH", "ST_NAME": "BIHAR", "ST_CODE_1": "10", "GPCODE2011": "94913", "REMARKS": "FINALIZED", "MAP_STATUS": "COMPLETED", "BLK_C_2001": "290005", "BLK_C_2011": "01425", "DIST_NAME": "BHOJPUR", "code2011": 13.0, "Shape_Leng": 0.16115558122, "Shape_Area": 0.00092260387, "Area": 10.2883}, "geometry": {"type": "MultiPolygon", "coordinates": [[[[84.74440175300003, 25.419547220000027], [84.74595341700007, 25.41928629000006], [84.74699328000008, 25.419019001000038], [84.74786558000005, 25.418548257000054], [84.75883497000007, 25.412627804000067], [84.75751612200008, 25.41133667500003], [84.75593756000006, 25.40965237000006], [84.75498854300008, 25.408389941000053], [84.75427803900004, 25.407141834000072], [84.75349061800006, 25.405275132000043], [84.75315739900003, 25.404114080000056], [84.75258159100008, 25.402749027000027], [84.75255109900007, 25.402410298000063], [84.75241049400006, 25.400848324000037], [84.75191472400007, 25.398138537000023], [84.75179928100005, 25.395980764000058], [84.75148952900008, 25.393971217000058], [84.75148388400004, 25.39292406900006], [84.75121207000007, 25.391356947000077], [84.75014517300008, 25.389800738000076], [84.74948183500004, 25.389193658000067], [84.74923352600007, 25.38884964700003], [84.74786589700005, 25.389387172000056], [84.74714958400006, 25.389668701000062], [84.74636902600008, 25.389765254000054], [84.74581692200007, 25.38989882900006], [84.74522469600004, 25.39013142700003], [84.74300097500003, 25.390764701000023], [84.74103678900008, 25.39112801500005], [84.73981294300006, 25.39149390800003], [84.73937067800006, 25.39149232400007], [84.73911360600005, 25.39118910600007], [84.73885623500007, 25.39094897800004], [84.73852342000004, 25.390916236000066], [84.73774276900008, 25.39104893800004], [84.73615150100005, 25.391345727000044], [84.73515191500007, 25.391545328000063], [84.73429729800006, 25.391542323000067], [84.73367234700004, 25.391269391000037], [84.73326486000008, 25.391267925000022], [84.73270753100007, 25.391469020000045], [84.73182092300004, 25.391971436000063], [84.73037332600006, 25.392368024000064], [84.72914948600004, 25.392702245000066], [84.72785732600005, 25.392765315000076], [84.72683826600007, 25.392861027000038], [84.72613756900006, 25.392894633000026], [84.72447292800007, 25.39288863300004], [84.72287755700006, 25.39298226300008], [84.72136022800004, 25.393383007000068], [84.72002666100008, 25.393815991000054], [84.71891850100008, 25.393843640000057], [84.71828782900008, 25.393742012000075], [84.71740051000006, 25.393264920000036], [84.71716087200008, 25.393534844000044], [84.71679588700005, 25.394034564000037], [84.71642010100004, 25.39474180800005], [84.71636447300006, 25.394976297000028], [84.71643791500009, 25.395211189000065], [84.71664009800008, 25.395563997000068], [84.71689742900008, 25.39581769800003], [84.71732372400004, 25.396053919000053], [84.71758125300005, 25.39625797800005], [84.71768986600006, 25.396407355000065], [84.71770881400005, 25.396610476000035], [84.71759873300005, 25.396795146000045], [84.71737461900005, 25.39691164000004], [84.71722522800007, 25.39697880400007], [84.71718991300008, 25.397096092000027], [84.71727336100008, 25.397335560000045], [84.71763907000008, 25.39780632800006], [84.71786132900007, 25.398109533000024], [84.71793248700004, 25.39888154700003], [84.71804258700007, 25.399829736000072], [84.71833724400005, 25.400638783000034], [84.71870204000004, 25.401312537000024], [84.71925662000007, 25.401752414000043], [84.72014492500006, 25.402026412000055], [84.72102918400003, 25.402097292000064], [84.72173423700008, 25.40223523000003], [84.72232264100006, 25.40290981000004], [84.72295195500004, 25.40331378600007], [84.72331751100006, 25.40382055200007], [84.72408953600006, 25.40456357000005], [84.72458803800004, 25.40533711100005], [84.72487778100003, 25.406146110000066], [84.72539534600008, 25.40598088300004], [84.72643405100007, 25.40595300600006], [84.72794988700008, 25.40592236300006], [84.72817461800008, 25.40565232600005], [84.72806292300004, 25.405047127000046], [84.72821261900003, 25.404916772000036], [84.72917738900009, 25.40474867100005], [84.73002769500005, 25.40461628500003], [84.73058458200006, 25.40455509700007], [84.73132542300004, 25.404453854000053], [84.73158370900006, 25.40449091200003], [84.73176659800004, 25.404726233000076], [84.73187262400006, 25.405498374000047], [84.73227725900006, 25.406172354000034], [84.73290605400007, 25.406711675000054], [84.73308808400003, 25.40714556000006], [84.73303086900006, 25.407750202000045], [84.73280461200005, 25.408354201000066], [84.73246767400008, 25.409296313000027], [84.73224084500004, 25.410035696000023], [84.73223843100004, 25.410608920000072], [84.73253561200005, 25.410844619000045], [84.73316571300006, 25.41108157700006], [84.73412457300003, 25.411152593000054], [84.73435758300008, 25.411284348000038], [84.73452524800007, 25.411587353000073], [84.73454451700007, 25.411740827000074], [84.73444954600006, 25.411875963000057], [84.73419087000008, 25.411924654000074], [84.73394667900004, 25.412090774000035], [84.73385667400004, 25.412225850000027], [84.73385548000005, 25.412492202000067], [84.73399694000005, 25.413133599000048], [84.73425684100005, 25.41394238500004], [84.73441468300007, 25.414218248000054], [84.73414381000003, 25.414808598000036], [84.73381050500006, 25.41490671500003], [84.73310943800004, 25.414971944000058], [84.73281062900008, 25.415106301000037], [84.73262582700005, 25.415340316000027], [84.73262421300007, 25.41571046200005], [84.73262254900004, 25.416112104000035], [84.73262131700005, 25.41638296900004], [84.73236182500005, 25.416648269000063], [84.73172903500006, 25.417016217000025], [84.73083742300008, 25.417486905000032], [84.73035876500006, 25.417855302000078], [84.72987408400007, 25.41845842500004], [84.72968868400005, 25.418791723000027], [84.72968754700008, 25.419062585000063], [84.72964707300008, 25.419229391000044], [84.72890633100008, 25.41929452100004], [84.72783221000003, 25.419426076000036], [84.72761356500007, 25.41942528100003], [84.72746165200004, 25.42006116500005], [84.72716087200007, 25.42066935500003], [84.72733254400003, 25.421207064000043], [84.72723209300005, 25.422587831000044], [84.72703783400004, 25.425010833000044], [84.72706857900005, 25.42709620000005], [84.72730250900008, 25.428171175000045], [84.72784986600004, 25.429179686000055], [84.72843914800006, 25.429687259000048], [84.72866239600006, 25.42978736500004], [84.72914454800008, 25.42978905700005], [84.72951239900004, 25.429790366000077], [84.72970018900008, 25.43002572100005], [84.72991709500008, 25.430464251000046], [84.73035921400003, 25.431675420000033], [84.73068790700006, 25.432687642000076], [84.73112612100005, 25.433664016000023], [84.73159097600006, 25.433060856000054], [84.73214977200007, 25.43255741200005], [84.73296628400004, 25.43225780800003], [84.73392827900005, 25.431620316000078], [84.73489448500004, 25.431154338000056], [84.73604634900005, 25.430282755000064], [84.73734753300005, 25.429380081000033], [84.73801595000003, 25.42880926500004], [84.73846054500007, 25.428273647000026], [84.73892411700007, 25.427968400000054], [84.74111300900006, 25.426328581000064], [84.74152250400005, 25.42585609100007], [84.74200738700006, 25.425185244000033], [84.74264104100007, 25.424618783000028], [84.74334433900003, 25.424016395000024], [84.74393649500007, 25.42385140600004], [84.74416067200008, 25.42371682600003], [84.74419615900007, 25.423549984000033], [84.74419726500008, 25.423279123000043], [84.74390602900007, 25.422808720000035], [84.74383292500005, 25.42246995800008], [84.74398340700003, 25.422136514000044], [84.74424283700006, 25.421902690000024], [84.74457618800005, 25.42180003800007], [84.74468635700003, 25.421601812000063], [84.74468761100007, 25.421299453000074], [84.74454033900008, 25.42086111200007], [84.74432397400005, 25.42032331300004], [84.74440175300003, 25.419547220000027]]]]}}, {"type": "Feature", "properties": {"OBJECTID": 3393, "GPCODE": "92352", "GPNAME_1": "DIHRA", "DIST_CEN_C": "29", "BLK_NAME": "SANDESH", "ST_NAME": "BIHAR", "ST_CODE_1": "10", "GPCODE2011": "94907", "REMARKS": "FINALIZED", "MAP_STATUS": "COMPLETED", "BLK_C_2001": "290005", "BLK_C_2011": "01425", "DIST_NAME": "BHOJPUR", "code2011": 19.0, "Shape_Leng": 0.17965942089, "Shape_Area": 0.00137303955, "Area": 15.3101}, "geometry": {"type": "MultiPolygon", "coordinates": [[[[84.69374367200004, 25.44526206000006], [84.69466929000004, 25.445062406000034], [84.69520505500003, 25.44529914800006], [84.69557001800007, 25.44594144100006], [84.69631189000006, 25.44567339500003], [84.69738823400007, 25.445104324000056], [84.69813136900007, 25.444570014000078], [84.69835141700008, 25.444268403000024], [84.69846799200008, 25.443794965000052], [84.69884021700005, 25.442821406000064], [84.69917764700006, 25.441847795000058], [84.69946155100007, 25.440634818000035], [84.69984481100005, 25.438347881000027], [84.70000588800008, 25.43569463600005], [84.70007242900004, 25.43416934800007], [84.69974277400007, 25.433427921000032], [84.69978063200006, 25.432755564000047], [84.69985688700007, 25.432385742000065], [84.70074918800003, 25.431820465000044], [84.70141622800008, 25.431588177000037], [84.70164212400005, 25.431101657000056], [84.69964361400008, 25.431193437000047], [84.69832625900005, 25.43122459600005], [84.69755406500008, 25.43051305000006], [84.69689086700004, 25.42990575600004], [84.69656088900007, 25.429232014000036], [84.69584551900004, 25.428051406000066], [84.69525825400007, 25.42714197600003], [84.69492960200006, 25.426197366000054], [84.69479882400003, 25.42543867200004], [84.69446886800006, 25.424764924000044], [84.69391919600008, 25.423246308000046], [84.69345054500008, 25.42139861000004], [84.69315772800007, 25.42021947300003], [84.69260901800004, 25.418502284000056], [84.69248379000004, 25.417626192000057], [84.69234073900003, 25.416316823000045], [84.69226956400007, 25.415576303000023], [84.69164631700005, 25.414933059000077], [84.69094276300007, 25.41446094300005], [84.68987119400003, 25.414050692000046], [84.68917165100004, 25.413781681000046], [84.68817356100004, 25.41361092300008], [84.68660358200003, 25.413505602000043], [84.68519797900007, 25.413328721000028], [84.68399010900004, 25.41337367700004], [84.68269404800003, 25.413133978000076], [84.68206439500005, 25.412829213000066], [84.68165922100007, 25.412322080000024], [84.68142554300005, 25.41127861700005], [84.68113680900007, 25.409259967000025], [84.68111058500006, 25.40744095200006], [84.68109887100007, 25.405694247000042], [84.68110566300004, 25.40424543200004], [84.68122924500005, 25.402264607000063], [84.68142365500006, 25.40000860500004], [84.68148411600004, 25.398763151000026], [84.68026205200005, 25.398690731000045], [84.67933668300003, 25.39892180000004], [84.67900088400006, 25.399525338000046], [84.67889920600004, 25.401077577000024], [84.67896934400005, 25.402016584000023], [84.67837736800004, 25.402149735000023], [84.67701045700005, 25.402212054000074], [84.67548926100005, 25.40234153800003], [84.67400780700007, 25.402471099000024], [84.67241751100005, 25.402496460000066], [84.67088163000005, 25.40256271000004], [84.67087738300006, 25.40346528200007], [84.67065216800006, 25.40380293100003], [84.66991475800006, 25.404201770000043], [84.66898933000004, 25.40443277600008], [84.66843601200009, 25.404800650000027], [84.66717778500004, 25.40499433000008], [84.66352368600008, 25.405318264000073], [84.66145582200005, 25.40544084100003], [84.65977567900006, 25.405533416000026], [84.65789069500005, 25.40586436600006], [84.65682104200005, 25.406094749000033], [84.65695750300006, 25.406645928000046], [84.65706182700006, 25.40768446800007], [84.65742538900008, 25.409563423000066], [84.65760432100006, 25.410570714000073], [84.65756148500003, 25.41120692900006], [84.65737461400005, 25.411810912000078], [84.65693119600007, 25.412043851000078], [84.65641416100004, 25.412073372000066], [84.65538086300006, 25.41200595300006], [84.65464628700005, 25.411799905000066], [84.65434798600006, 25.411830313000053], [84.65403979900003, 25.411842600000057], [84.65365086300005, 25.412107322000054], [84.65280544900008, 25.412221180000074], [84.65210282900006, 25.41260645500006], [84.65200662600006, 25.412958159000027], [84.65218839100004, 25.413392138000063], [84.65255248700004, 25.414147365000076], [84.65253556400006, 25.414548996000065], [84.65234080100004, 25.414733299000034], [84.65196774800006, 25.414799464000055], [84.65182316500005, 25.414902700000027], [84.65141368400003, 25.415302659000076], [84.65130135800007, 25.41590255500006], [84.65151540800008, 25.416842218000056], [84.65180498600006, 25.41758356500003], [84.65209549500008, 25.418121837000058], [84.65246708500007, 25.418358031000025], [84.65298462800007, 25.41822472900003], [84.65387145600005, 25.417790554000078], [84.65434903500005, 25.417693162000035], [84.65449708600005, 25.417896923000058], [84.65456770400004, 25.41870054800006], [84.65474965700008, 25.419103024000037], [84.65493079100008, 25.419672382000044], [84.65518854200008, 25.419808852000074], [84.65581908600006, 25.419946838000044], [84.65626188600004, 25.419849288000023], [84.65694487700006, 25.419414308000057], [84.65774186900006, 25.419881391000047], [84.65860739800007, 25.419912933000035], [84.65912057500003, 25.42068677900005], [84.65937606500006, 25.421292574000063], [84.65929672800007, 25.42226267800004], [84.65896070400004, 25.422897660000046], [84.65869874800006, 25.423600769000075], [84.65840453600003, 25.423802615000056], [84.65758783400008, 25.424133323000035], [84.65655669500006, 25.424598554000056], [84.65636602400008, 25.424967921000075], [84.65610666900005, 25.426171886000077], [84.65613706900007, 25.42707920400005], [84.65593008800005, 25.427719327000034], [84.65541206800003, 25.427951919000066], [84.65519140000004, 25.428352663000055], [84.65518912000005, 25.428822086000025], [84.65518602400005, 25.429458483000076], [84.65555149100004, 25.429929300000026], [84.65647220000005, 25.43070482400003], [84.65738676500007, 25.431715066000038], [84.65808389900008, 25.43248513800006], [84.65865348100004, 25.43289364700007], [84.65913483200006, 25.43306253000003], [84.65983505700007, 25.433196198000076], [84.66167892700008, 25.433239788000037], [84.66414811300007, 25.433484360000023], [84.66510613500003, 25.433754458000067], [84.66569518900008, 25.434262267000065], [84.66587703400006, 25.434696317000032], [84.66628204700004, 25.435234983000043], [84.66664837400003, 25.435538799000028], [84.66734761900005, 25.435875602000067], [84.66773393300008, 25.436179551000066], [84.66802535200009, 25.436550814000043], [84.66820656900006, 25.437120151000045], [84.66850242800007, 25.43762682700003], [84.66886844100009, 25.437993910000046], [84.66979124900007, 25.438367621000054], [84.67100692400004, 25.438810227000033], [84.67133381800005, 25.439077834000045], [84.67158966800008, 25.43961591300007], [84.67181020300006, 25.44028931400004], [84.67195834300009, 25.440488450000032], [84.67225094500003, 25.440625039000054], [84.67258350700007, 25.440725615000076], [84.67315211300007, 25.441368732000058], [84.67333399400007, 25.441802770000038], [84.67377563900004, 25.441971516000024], [84.67419867200005, 25.441855820000058], [84.67461677200004, 25.441735575000052], [84.67473349400007, 25.44229570500005], [84.67502886300008, 25.442901650000067], [84.67554292100004, 25.443508463000057], [84.67606110300005, 25.444313867000062], [84.67686726300008, 25.445192634000023], [84.67742063600008, 25.44590332300004], [84.67767745200007, 25.44626990100005], [84.67830637600008, 25.446777841000028], [84.67893122000004, 25.447082673000068], [84.67963700400009, 25.44712160800003], [84.68006061900007, 25.44688847200007], [84.68250240400005, 25.446694897000043], [84.68533776500004, 25.44630412500004], [84.68785433900007, 25.44604301100003], [84.69051955700007, 25.44588620500008], [84.69229540800006, 25.445626601000072], [84.69374367200004, 25.44526206000006]]]]}}, {"type": "Feature", "properties": {"OBJECTID": 3397, "GPCODE": "92356", "GPNAME_1": "PARURA", "DIST_CEN_C": "29", "BLK_NAME": "SANDESH", "ST_NAME": "BIHAR", "ST_CODE_1": "10", "GPCODE2011": "94911", "REMARKS": "FINALIZED", "MAP_STATUS": "COMPLETED", "BLK_C_2001": "290005", "BLK_C_2011": "01425", "DIST_NAME": "BHOJPUR", "code2011": 15.0, "Shape_Leng": 0.17838526284, "Shape_Area": 0.00089321203, "Area": 9.95694}, "geometry": {"type": "MultiPolygon", "coordinates": [[[[84.71489425200008, 25.480481871000052], [84.71511937100007, 25.480171341000073], [84.71543401000008, 25.47985652500006], [84.71606886800004, 25.479100568000035], [84.71657928800005, 25.47836229400008], [84.71782737900008, 25.477238416000034], [84.71905479700007, 25.476286062000042], [84.72014678600004, 25.475581377000026], [84.72097324400005, 25.475345180000033], [84.72178903200006, 25.47526234600008], [84.72330410700005, 25.476748229000066], [84.72394750100005, 25.47745462900008], [84.72432108400005, 25.47728892400005], [84.72466977100004, 25.47714128700005], [84.72507737700005, 25.47717427400005], [84.72537504100006, 25.47734237800006], [84.72552212600004, 25.477816825000048], [84.72568377300007, 25.478386042000068], [84.72587173600004, 25.478607856000053], [84.72627901200008, 25.478708622000056], [84.72668677800004, 25.47871010700004], [84.72712915400007, 25.47874773800004], [84.72757703000008, 25.47868169800006], [84.72780170300007, 25.478447775000063], [84.72783789600004, 25.478145468000037], [84.72784014900003, 25.477608461000045], [84.72777069900008, 25.476430158000028], [84.72762691700007, 25.475183952000066], [84.72765125500007, 25.474141469000074], [84.72784453300005, 25.471989293000036], [84.72789809100004, 25.468794009000078], [84.72788242100006, 25.46781904100004], [84.72873898600005, 25.467488049000053], [84.72936934900008, 25.46657866000004], [84.72955690700007, 25.46573976600007], [84.72952540700004, 25.464967864000073], [84.72923014900005, 25.46425823800007], [84.72882439400007, 25.46381902400003], [84.72931012300006, 25.463017360000038], [84.73020372500008, 25.46214487800006], [84.73090960400003, 25.46218348700006], [84.73098650500003, 25.461646685000062], [84.73084003600007, 25.461005271000033], [84.73080742800005, 25.46049961600005], [84.73081033400007, 25.45982712700004], [84.73060853700008, 25.459357019000038], [84.72979604500006, 25.45868167100008], [84.72935517400003, 25.458310013000073], [84.72909822200006, 25.457939010000075], [84.72909966300006, 25.45760506700003], [84.72925059300007, 25.45719934600004], [84.72977222900005, 25.456127050000077], [84.73029460800007, 25.454883175000077], [84.73057715200008, 25.453909235000026], [84.73215109500006, 25.45321074800006], [84.73504805200008, 25.45119888800008], [84.73612512700004, 25.450430896000057], [84.73671948100008, 25.44976051100008], [84.73691108200006, 25.44912028600004], [84.73715121200007, 25.448782553000058], [84.73789227200007, 25.448685886000078], [84.73826552700007, 25.448587926000073], [84.73845102600006, 25.448218432000033], [84.73841783400007, 25.44784825000005], [84.73819566900005, 25.447477393000042], [84.73786415700005, 25.44710610100003], [84.73740454300008, 25.44646356900006], [84.73696141200008, 25.44545550500004], [84.73644945500007, 25.44427577600004], [84.73567933400005, 25.44299572600005], [84.73527650700004, 25.44188402700007], [84.73466820500005, 25.44114169100004], [84.73433886100008, 25.440269470000032], [84.73404378200007, 25.439528254000038], [84.73342130200007, 25.43861884200004], [84.73250082100003, 25.43767229200006], [84.73202030300007, 25.43726888200007], [84.73124532000008, 25.43716240300006], [84.73035617800008, 25.437023857000042], [84.72980065500008, 25.436755607000066], [84.72961790600004, 25.436484094000036], [84.72958072600005, 25.435879211000042], [84.72917791800006, 25.43590935700007], [84.72800995300008, 25.435873593000053], [84.72674798400004, 25.435733682000034], [84.72482629800004, 25.435293583000032], [84.72394276900008, 25.434987971000055], [84.72331226800009, 25.434814251000034], [84.72212867800005, 25.43494541000007], [84.72090551400004, 25.43504028600006], [84.71879743300008, 25.435168060000024], [84.71829611400005, 25.434999230000074], [84.71799924400005, 25.434695814000065], [84.71752506800004, 25.43398994200004], [84.71697059900004, 25.433482468000022], [84.71626684900008, 25.433010472000035], [84.71486537600003, 25.432969279000076], [84.71434768400007, 25.433134376000055], [84.71308477600007, 25.43322911000007], [84.71134541200007, 25.433155055000043], [84.71038871800005, 25.432546693000063], [84.70854270900008, 25.43186743700005], [84.70713946500007, 25.431122050000056], [84.70597214500003, 25.430950738000035], [84.70478841700003, 25.431113355000036], [84.70315747000006, 25.431242652000037], [84.70164212400005, 25.431101657000056], [84.70141622800008, 25.431588177000037], [84.70074918800003, 25.431820465000044], [84.69985688700007, 25.432385742000065], [84.69978063200006, 25.432755564000047], [84.69974277400007, 25.433427921000032], [84.70007242900004, 25.43416934800007], [84.70140538900006, 25.43400740100003], [84.70303702300004, 25.433711060000064], [84.70351421900006, 25.433712798000045], [84.70377586200004, 25.434115473000077], [84.70487823900004, 25.435464609000064], [84.70513203500008, 25.43650815600006], [84.70571866200004, 25.43758451700006], [84.70606839600003, 25.43829438100005], [84.70602720200003, 25.438632754000025], [84.70576766700003, 25.43886651200006], [84.70550758800005, 25.439203974000066], [84.70547120700007, 25.439573970000026], [84.70557964100004, 25.43977299100004], [84.70587699700008, 25.439977148000025], [84.70639303800004, 25.440182220000054], [84.70683456600005, 25.44038246200006], [84.70705643500008, 25.44078946700006], [84.70738521000004, 25.44173395200005], [84.70760274300005, 25.44200102700006], [84.70782446600003, 25.442439713000056], [84.70831990300007, 25.443921885000066], [84.70868150500007, 25.445335922000027], [84.70893609800004, 25.446212484000057], [84.70908218500006, 25.446885517000055], [84.70908069100005, 25.447219462000078], [84.70918870100007, 25.44752227200007], [84.70950118500008, 25.447690418000036], [84.71054057700007, 25.447594955000056], [84.71349899200004, 25.447470382000063], [84.71590948900007, 25.447578441000076], [84.71771913100008, 25.447553440000036], [84.71884667700004, 25.447747149000065], [84.71885921600006, 25.44943063100004], [84.71873262700007, 25.45221949100005], [84.71835623800007, 25.454167937000022], [84.71784807400007, 25.455547162000073], [84.71744174200006, 25.45638514600006], [84.71691717500005, 25.456951943000035], [84.71617190200004, 25.457991855000046], [84.71546511300005, 25.45930270100007], [84.71406757000005, 25.46165353300006], [84.71395102400004, 25.462154143000078], [84.71370010800007, 25.462685816000032], [84.71302880200005, 25.46382972500004], [84.71242967200004, 25.465506536000078], [84.71192400600006, 25.466312524000045], [84.71076133900004, 25.46947222400007], [84.71005363200004, 25.470981593000033], [84.70928387400005, 25.472996167000076], [84.70951954400005, 25.47367411400006], [84.71007415800005, 25.474181603000034], [84.71040491400004, 25.474719918000062], [84.71062611300005, 25.47529397200003], [84.71062477800007, 25.475596322000058], [84.71058341800006, 25.47593018200007], [84.71028892600003, 25.47619990100003], [84.70872746400005, 25.47733598900004], [84.70805831900003, 25.477974446000076], [84.70751658100005, 25.47901502800005], [84.70747925300003, 25.479588087000025], [84.70758638200004, 25.480089452000072], [84.70780773300004, 25.480631919000075], [84.70793016100004, 25.481061086000068], [84.70893368800006, 25.481267935000062], [84.71026647200006, 25.481236787000057], [84.71285914700007, 25.480776845000037], [84.71422780800003, 25.480511051000065], [84.71489425200008, 25.480481871000052]]]]}}, {"type": "Feature", "properties": {"OBJECTID": 3398, "GPCODE": "92351", "GPNAME_1": "CHILHAUS", "DIST_CEN_C": "29", "BLK_NAME": "SANDESH", "ST_NAME": "BIHAR", "ST_CODE_1": "10", "GPCODE2011": "94906", "REMARKS": "FINALIZED", "MAP_STATUS": "COMPLETED", "BLK_C_2001": "290005", "BLK_C_2011": "01425", "DIST_NAME": "BHOJPUR", "code2011": 15.0, "Shape_Leng": 0.16859155682, "Shape_Area": 0.00108285939, "Area": 12.0723}, "geometry": {"type": "MultiPolygon", "coordinates": [[[[84.77226851700004, 25.438511168000048], [84.77271929900007, 25.437641539000026], [84.77330335700003, 25.436998024000047], [84.77365459100008, 25.43617326100008], [84.77313434500007, 25.43448354800006], [84.77263255800005, 25.433154889000036], [84.77176883900006, 25.431608526000048], [84.77044398600003, 25.42976720400003], [84.76909915200008, 25.427970963000064], [84.76812111200007, 25.426424225000062], [84.76748981500003, 25.425212518000023], [84.76692941400006, 25.423644554000077], [84.76672332700008, 25.421712083000045], [84.76646585600008, 25.420226339000067], [84.76531923400006, 25.41862932300006], [84.76346650000005, 25.417124710000053], [84.76306546600006, 25.416735249000055], [84.76126340300004, 25.415005097000062], [84.75883497000007, 25.412627804000067], [84.74786558000005, 25.418548257000054], [84.74699328000008, 25.419019001000038], [84.74595341700007, 25.41928629000006], [84.74440175300003, 25.419547220000027], [84.74432397400005, 25.42032331300004], [84.74454033900008, 25.42086111200007], [84.74468761100007, 25.421299453000074], [84.74468635700003, 25.421601812000063], [84.74457618800005, 25.42180003800007], [84.74424283700006, 25.421902690000024], [84.74398340700003, 25.422136514000044], [84.74383292500005, 25.42246995800008], [84.74390602900007, 25.422808720000035], [84.74419726500008, 25.423279123000043], [84.74419615900007, 25.423549984000033], [84.74416067200008, 25.42371682600003], [84.74393649500007, 25.42385140600004], [84.74334433900003, 25.424016395000024], [84.74264104100007, 25.424618783000028], [84.74200738700006, 25.425185244000033], [84.74152250400005, 25.42585609100007], [84.74111300900006, 25.426328581000064], [84.73892411700007, 25.427968400000054], [84.73846054500007, 25.428273647000026], [84.73801595000003, 25.42880926500004], [84.73734753300005, 25.429380081000033], [84.73604634900005, 25.430282755000064], [84.73489448500004, 25.431154338000056], [84.73392827900005, 25.431620316000078], [84.73296628400004, 25.43225780800003], [84.73214977200007, 25.43255741200005], [84.73159097600006, 25.433060856000054], [84.73112612100005, 25.433664016000023], [84.73092594400003, 25.433965717000035], [84.73047575900006, 25.43463666300005], [84.72991604600008, 25.435343269000043], [84.72958072600005, 25.435879211000042], [84.72961790600004, 25.436484094000036], [84.72980065500008, 25.436755607000066], [84.73035617800008, 25.437023857000042], [84.73124532000008, 25.43716240300006], [84.73202030300007, 25.43726888200007], [84.73250082100003, 25.43767229200006], [84.73342130200007, 25.43861884200004], [84.73404378200007, 25.439528254000038], [84.73433886100008, 25.440269470000032], [84.73466820500005, 25.44114169100004], [84.73527650700004, 25.44188402700007], [84.73567933400005, 25.44299572600005], [84.73644945500007, 25.44427577600004], [84.73696141200008, 25.44545550500004], [84.73740454300008, 25.44646356900006], [84.73786415700005, 25.44710610100003], [84.73819566900005, 25.447477393000042], [84.73841783400007, 25.44784825000005], [84.73845102600006, 25.448218432000033], [84.73826552700007, 25.448587926000073], [84.73789227200007, 25.448685886000078], [84.73715121200007, 25.448782553000058], [84.73691108200006, 25.44912028600004], [84.73671948100008, 25.44976051100008], [84.73612512700004, 25.450430896000057], [84.73504805200008, 25.45119888800008], [84.73215109500006, 25.45321074800006], [84.73057715200008, 25.453909235000026], [84.73029460800007, 25.454883175000077], [84.72977222900005, 25.456127050000077], [84.72925059300007, 25.45719934600004], [84.72909966300006, 25.45760506700003], [84.72909822200006, 25.457939010000075], [84.72935517400003, 25.458310013000073], [84.72979604500006, 25.45868167100008], [84.73060853700008, 25.459357019000038], [84.73081033400007, 25.45982712700004], [84.73080742800005, 25.46049961600005], [84.73084003600007, 25.461005271000033], [84.73098650500003, 25.461646685000062], [84.73090960400003, 25.46218348700006], [84.73131569600008, 25.462555004000023], [84.73198094600008, 25.46279209200003], [84.73461118000006, 25.462733677000074], [84.73627687600003, 25.462707886000032], [84.73679413200006, 25.46267358600005], [84.73759229700005, 25.46203547400006], [84.73885299000005, 25.461367392000056], [84.74030040800005, 25.46120540100003], [84.74140862800004, 25.461308560000077], [84.74189175000004, 25.461111652000056], [84.74161575700003, 25.46053746700005], [84.74158489000007, 25.459598594000056], [84.74144388900004, 25.45764831100007], [84.74135141300007, 25.45717865000006], [84.74183492600008, 25.45687785800004], [84.74223298300006, 25.45678898400007], [84.74249745800006, 25.456555200000025], [84.74271678900004, 25.456425102000026], [84.74288578400007, 25.456439181000064], [84.74317864500006, 25.456544045000044], [84.74321748100004, 25.45677887200003], [84.74329078500006, 25.457081524000046], [84.74352830000004, 25.457348583000055], [84.74367701500006, 25.457452973000045], [84.74401005000004, 25.457454116000065], [84.74499021200006, 25.457272387000046], [84.74625403100003, 25.457024052000065], [84.74712542600008, 25.456688539000027], [84.74740513300009, 25.456373522000035], [84.74744116800008, 25.456084745000055], [84.74734778900006, 25.455831698000054], [84.74721980500004, 25.45551534200007], [84.74724134100006, 25.45510923300003], [84.74735277500008, 25.45462210000005], [84.74750365100005, 25.454202916000042], [84.74773821300005, 25.45399158500004], [84.74786277200008, 25.45391530200004], [84.74811082400004, 25.454028987000072], [84.74841500100007, 25.453826852000077], [84.74924112500008, 25.453608554000027], [84.75016127900005, 25.453507913000067], [84.75079851900006, 25.453288944000064], [84.75196331400008, 25.45291826500005], [84.75166653800005, 25.45256067100007], [84.75163846100008, 25.45212725600004], [84.75171683500008, 25.451206857000045], [84.75256408100006, 25.450695154000073], [84.75318291000008, 25.450101490000065], [84.75448363900006, 25.44930699100007], [84.75476450700006, 25.44869411800005], [84.75477700800008, 25.44808937700003], [84.75444218100006, 25.44728937700006], [84.75438763600005, 25.446043472000042], [84.75436080200006, 25.44410266500006], [84.75411951100006, 25.443537654000068], [84.75460997900007, 25.44272239600008], [84.75585156000005, 25.441787789000045], [84.75681304100004, 25.44126288600006], [84.75786515900006, 25.44046759500003], [84.75900975700006, 25.440146466000044], [84.75958233900008, 25.439922718000048], [84.76031664100003, 25.43902242000007], [84.76108071400006, 25.438086171000066], [84.76122405500007, 25.43794327100005], [84.76134031200007, 25.43787390600005], [84.76190338400005, 25.43752474200005], [84.76282408900005, 25.437257051000074], [84.76374401000004, 25.437156239000046], [84.76577092900004, 25.437451828000064], [84.76749511900005, 25.437610922000033], [84.76901495000004, 25.437940930000025], [84.77033585500004, 25.438261202000035], [84.77134891000009, 25.43851726300005], [84.77226851700004, 25.438511168000048]]]]}}, {"type": "Feature", "properties": {"OBJECTID": 3399, "GPCODE": "92349", "GPNAME_1": "AKHGAON", "DIST_CEN_C": "29", "BLK_NAME": "SANDESH", "ST_NAME": "BIHAR", "ST_CODE_1": "10", "GPCODE2011": "94904", "REMARKS": "FINALIZED", "MAP_STATUS": "COMPLETED", "BLK_C_2001": "290005", "BLK_C_2011": "01425", "DIST_NAME": "BHOJPUR", "code2011": 16.0, "Shape_Leng": 0.20872449201, "Shape_Area": 0.0015829962, "Area": 17.6439}, "geometry": {"type": "MultiPolygon", "coordinates": [[[[84.77419441900008, 25.460746107000034], [84.77478097000005, 25.45952035700003], [84.77552264100007, 25.458024254000065], [84.77636537400008, 25.456095271000038], [84.77674232300006, 25.455053871000075], [84.77698920500006, 25.454201659000034], [84.77741605400007, 25.45310623000006], [84.77779474700003, 25.451604434000046], [84.77853578700007, 25.45026183400006], [84.77892292000007, 25.44913023400005], [84.77889212700006, 25.448105620000035], [84.77826034800006, 25.446930078000037], [84.77725274500006, 25.445274918000052], [84.77548797100008, 25.44273720900003], [84.77399504700008, 25.440620050000064], [84.77226851700004, 25.438511168000048], [84.77134891000009, 25.43851726300005], [84.77033585500004, 25.438261202000035], [84.76901495000004, 25.437940930000025], [84.76749511900005, 25.437610922000033], [84.76577092900004, 25.437451828000064], [84.76374401000004, 25.437156239000046], [84.76282408900005, 25.437257051000074], [84.76190338400005, 25.43752474200005], [84.76134031200007, 25.43787390600005], [84.76122405500007, 25.43794327100005], [84.76108071400006, 25.438086171000066], [84.76031664100003, 25.43902242000007], [84.75958233900008, 25.439922718000048], [84.75900975700006, 25.440146466000044], [84.75786515900006, 25.44046759500003], [84.75681304100004, 25.44126288600006], [84.75585156000005, 25.441787789000045], [84.75460997900007, 25.44272239600008], [84.75411951100006, 25.443537654000068], [84.75436080200006, 25.44410266500006], [84.75438763600005, 25.446043472000042], [84.75444218100006, 25.44728937700006], [84.75477700800008, 25.44808937700003], [84.75476450700006, 25.44869411800005], [84.75448363900006, 25.44930699100007], [84.75318291000008, 25.450101490000065], [84.75256408100006, 25.450695154000073], [84.75171683500008, 25.451206857000045], [84.75163846100008, 25.45212725600004], [84.75166653800005, 25.45256067100007], [84.75196331400008, 25.45291826500005], [84.75079851900006, 25.453288944000064], [84.75016127900005, 25.453507913000067], [84.74924112500008, 25.453608554000027], [84.74841500100007, 25.453826852000077], [84.74811082400004, 25.454028987000072], [84.74786277200008, 25.45391530200004], [84.74773821300005, 25.45399158500004], [84.74750365100005, 25.454202916000042], [84.74735277500008, 25.45462210000005], [84.74724134100006, 25.45510923300003], [84.74721980500004, 25.45551534200007], [84.74734778900006, 25.455831698000054], [84.74744116800008, 25.456084745000055], [84.74740513300009, 25.456373522000035], [84.74712542600008, 25.456688539000027], [84.74625403100003, 25.457024052000065], [84.74499021200006, 25.457272387000046], [84.74401005000004, 25.457454116000065], [84.74367701500006, 25.457452973000045], [84.74352830000004, 25.457348583000055], [84.74329078500006, 25.457081524000046], [84.74321748100004, 25.45677887200003], [84.74317864500006, 25.456544045000044], [84.74288578400007, 25.456439181000064], [84.74271678900004, 25.456425102000026], [84.74249745800006, 25.456555200000025], [84.74223298300006, 25.45678898400007], [84.74183492600008, 25.45687785800004], [84.74135141300007, 25.45717865000006], [84.74144388900004, 25.45764831100007], [84.74158489000007, 25.459598594000056], [84.74161575700003, 25.46053746700005], [84.74189175000004, 25.461111652000056], [84.74140862800004, 25.461308560000077], [84.74030040800005, 25.46120540100003], [84.73885299000005, 25.461367392000056], [84.73759229700005, 25.46203547400006], [84.73679413200006, 25.46267358600005], [84.73627687600003, 25.462707886000032], [84.73461118000006, 25.462733677000074], [84.73198094600008, 25.46279209200003], [84.73131569600008, 25.462555004000023], [84.73090960400003, 25.46218348700006], [84.73020372500008, 25.46214487800006], [84.72931012300006, 25.463017360000038], [84.72882439400007, 25.46381902400003], [84.72923014900005, 25.46425823800007], [84.72952540700004, 25.464967864000073], [84.72955690700007, 25.46573976600007], [84.72936934900008, 25.46657866000004], [84.72873898600005, 25.467488049000053], [84.72788242100006, 25.46781904100004], [84.72789809100004, 25.468794009000078], [84.72784453300005, 25.471989293000036], [84.72765125500007, 25.474141469000074], [84.72762691700007, 25.475183952000066], [84.72777069900008, 25.476430158000028], [84.72784014900003, 25.477608461000045], [84.72783789600004, 25.478145468000037], [84.72780170300007, 25.478447775000063], [84.72757703000008, 25.47868169800006], [84.72712915400007, 25.47874773800004], [84.72668677800004, 25.47871010700004], [84.72627901200008, 25.478708622000056], [84.72587173600004, 25.478607856000053], [84.72568377300007, 25.478386042000068], [84.72552212600004, 25.477816825000048], [84.72537504100006, 25.47734237800006], [84.72507737700005, 25.47717427400005], [84.72466977100004, 25.47714128700005], [84.72432108400005, 25.47728892400005], [84.72394750100005, 25.47745462900008], [84.72330410700005, 25.476748229000066], [84.72178903200006, 25.47526234600008], [84.72097324400005, 25.475345180000033], [84.72014678600004, 25.475581377000026], [84.71905479700007, 25.476286062000042], [84.71782737900008, 25.477238416000034], [84.71657928800005, 25.47836229400008], [84.71606886800004, 25.479100568000035], [84.71543401000008, 25.47985652500006], [84.71511937100007, 25.480171341000073], [84.71489425200008, 25.480481871000052], [84.71541548000005, 25.48068242900007], [84.71650903400007, 25.480785663000063], [84.71810014200008, 25.480791440000075], [84.71905777900008, 25.481268870000065], [84.71935475900005, 25.481572276000065], [84.72001935400004, 25.481976382000028], [84.72098109500007, 25.482652391000045], [84.72171974600008, 25.483160500000054], [84.72275236300004, 25.483565919000057], [84.72349290800008, 25.48363629200003], [84.72445834400008, 25.483472738000046], [84.72473782400004, 25.483239086000026], [84.72470229000004, 25.482264087000033], [84.72474630200009, 25.48128933600003], [84.72485807500004, 25.480748075000065], [84.72615639900005, 25.48062188800003], [84.72693331100004, 25.480353835000074], [84.72760051100005, 25.48015311900008], [84.72830623700008, 25.480223332000037], [84.72912120700005, 25.480361670000036], [84.72963744500004, 25.48056656800003], [84.73045216700007, 25.480736491000073], [84.73074415600007, 25.481071521000047], [84.73092568000004, 25.481645283000034], [84.73103526800008, 25.48275596600007], [84.73144029300005, 25.483398329000067], [84.73180668200007, 25.483769763000055], [84.73228798600007, 25.484006106000038], [84.73343736700008, 25.483843148000062], [84.73679121700007, 25.483317873000033], [84.73760708600008, 25.483216907000042], [84.73809085800008, 25.482884633000026], [84.73834938300007, 25.48288548800008], [84.73879046500008, 25.483257112000047], [84.73901118000003, 25.483961992000047], [84.73919252000007, 25.48460352400008], [84.73959908300003, 25.48487573700004], [84.74030000700003, 25.484941347000074], [84.74193104400007, 25.484947043000034], [84.74274610400005, 25.485053722000032], [84.74324802200005, 25.48512309800003], [84.74391072000003, 25.48600102300003], [84.74442523300007, 25.486639178000075], [84.74468266000008, 25.486910872000067], [84.74533208300005, 25.48738697600004], [84.74607011800003, 25.488093615000025], [84.74643656400008, 25.48846501400004], [84.74725080400003, 25.48877013500004], [84.74761827700007, 25.48890687100004], [84.74786193600005, 25.488903192000066], [84.74856891600007, 25.489912065000055], [84.74933875500005, 25.490135843000076], [84.75044258500003, 25.490171213000053], [84.75160563800006, 25.490328614000077], [84.75256506700003, 25.490417655000044], [84.75336990200003, 25.490591906000077], [84.75411982000008, 25.490847118000033], [84.75511297600008, 25.49119349600005], [84.75598764300008, 25.49132737900004], [84.75663046300008, 25.489781488000062], [84.75803431000008, 25.488192924000032], [84.75914861800004, 25.486869769000066], [84.76041419400008, 25.485032465000074], [84.76181972700005, 25.483001621000028], [84.76320285200006, 25.480329806000043], [84.76531367600006, 25.47598133200006], [84.76595350300005, 25.472670583000024], [84.76652513600004, 25.471462923000047], [84.76813850600007, 25.469604165000078], [84.76898848600007, 25.46841096000003], [84.77011780300006, 25.46698382900007], [84.77201307300004, 25.464223315000027], [84.77339274800005, 25.462336684000036], [84.77419441900008, 25.460746107000034]]]]}}, {"type": "Feature", "properties": {"OBJECTID": 3402, "GPCODE": "92353", "GPNAME_1": "JAMUAON", "DIST_CEN_C": "29", "BLK_NAME": "SANDESH", "ST_NAME": "BIHAR", "ST_CODE_1": "10", "GPCODE2011": "94908", "REMARKS": "FINALIZED", "MAP_STATUS": "COMPLETED", "BLK_C_2001": "290005", "BLK_C_2011": "01425", "DIST_NAME": "BHOJPUR", "code2011": 15.0, "Shape_Leng": 0.15662907171, "Shape_Area": 0.00123849224, "Area": 13.8055}, "geometry": {"type": "MultiPolygon", "coordinates": [[[[84.70793016100004, 25.481061086000068], [84.70780773300004, 25.480631919000075], [84.70758638200004, 25.480089452000072], [84.70747925300003, 25.479588087000025], [84.70751658100005, 25.47901502800005], [84.70805831900003, 25.477974446000076], [84.70872746400005, 25.47733598900004], [84.71028892600003, 25.47619990100003], [84.71058341800006, 25.47593018200007], [84.71062477800007, 25.475596322000058], [84.71062611300005, 25.47529397200003], [84.71040491400004, 25.474719918000062], [84.71007415800005, 25.474181603000034], [84.70951954400005, 25.47367411400006], [84.70928387400005, 25.472996167000076], [84.71005363200004, 25.470981593000033], [84.71076133900004, 25.46947222400007], [84.71192400600006, 25.466312524000045], [84.71242967200004, 25.465506536000078], [84.71302880200005, 25.46382972500004], [84.71370010800007, 25.462685816000032], [84.71395102400004, 25.462154143000078], [84.71406757000005, 25.46165353300006], [84.71546511300005, 25.45930270100007], [84.71617190200004, 25.457991855000046], [84.71691717500005, 25.456951943000035], [84.71744174200006, 25.45638514600006], [84.71784807400007, 25.455547162000073], [84.71835623800007, 25.454167937000022], [84.71873262700007, 25.45221949100005], [84.71885921600006, 25.44943063100004], [84.71884667700004, 25.447747149000065], [84.71771913100008, 25.447553440000036], [84.71590948900007, 25.447578441000076], [84.71349899200004, 25.447470382000063], [84.71054057700007, 25.447594955000056], [84.70950118500008, 25.447690418000036], [84.70918870100007, 25.44752227200007], [84.70908069100005, 25.447219462000078], [84.70908218500006, 25.446885517000055], [84.70893609800004, 25.446212484000057], [84.70868150500007, 25.445335922000027], [84.70831990300007, 25.443921885000066], [84.70782446600003, 25.442439713000056], [84.70760274300005, 25.44200102700006], [84.70738521000004, 25.44173395200005], [84.70705643500008, 25.44078946700006], [84.70683456600005, 25.44038246200006], [84.70639303800004, 25.440182220000054], [84.70587699700008, 25.439977148000025], [84.70557964100004, 25.43977299100004], [84.70547120700007, 25.439573970000026], [84.70550758800005, 25.439203974000066], [84.70576766700003, 25.43886651200006], [84.70602720200003, 25.438632754000025], [84.70606839600003, 25.43829438100005], [84.70571866200004, 25.43758451700006], [84.70513203500008, 25.43650815600006], [84.70487823900004, 25.435464609000064], [84.70377586200004, 25.434115473000077], [84.70351421900006, 25.433712798000045], [84.70303702300004, 25.433711060000064], [84.70140538900006, 25.43400740100003], [84.70007242900004, 25.43416934800007], [84.70000588800008, 25.43569463600005], [84.69984481100005, 25.438347881000027], [84.69946155100007, 25.440634818000035], [84.69917764700006, 25.441847795000058], [84.69884021700005, 25.442821406000064], [84.69846799200008, 25.443794965000052], [84.69835141700008, 25.444268403000024], [84.69813136900007, 25.444570014000078], [84.69738823400007, 25.445104324000056], [84.69631189000006, 25.44567339500003], [84.69557001800007, 25.44594144100006], [84.69520505500003, 25.44529914800006], [84.69466929000004, 25.445062406000034], [84.69374367200004, 25.44526206000006], [84.69229540800006, 25.445626601000072], [84.69051955700007, 25.44588620500008], [84.68785433900007, 25.44604301100003], [84.68533776500004, 25.44630412500004], [84.68250240400005, 25.446694897000043], [84.68006061900007, 25.44688847200007], [84.67963700400009, 25.44712160800003], [84.67944819400003, 25.448158920000026], [84.67913184900004, 25.448834689000023], [84.67890339700006, 25.449844833000043], [84.67874917100005, 25.45091839400004], [84.67881956200006, 25.451794290000066], [84.67881694200008, 25.452362894000032], [84.67855552200007, 25.45297125600007], [84.67827425000007, 25.453574874000026], [84.67771206700007, 25.454714601000035], [84.67659454400007, 25.45659686700003], [84.67599878800007, 25.457465582000054], [84.67566298400004, 25.45803750300007], [84.67542155500007, 25.458641295000064], [84.67541878300005, 25.459214505000034], [84.67567380400004, 25.459955733000072], [84.67622283100008, 25.460562683000035], [84.67674177000004, 25.461201017000064], [84.67702801800004, 25.461667077000072], [84.67773473700004, 25.462549937000063], [84.67809887400006, 25.46335923500004], [84.67815099500007, 25.46389653400007], [84.67789089600006, 25.46423403400007], [84.67781455800008, 25.464603839000063], [84.67799785800008, 25.464739936000058], [84.67833022600007, 25.464908188000038], [84.67858988300009, 25.465717136000023], [84.67913206700007, 25.467768325000065], [84.67983145000005, 25.46918372600004], [84.68087540300007, 25.471340678000047], [84.68260054900009, 25.474574415000063], [84.68287562400008, 25.475279570000055], [84.68346406100005, 25.475990368000055], [84.68357167400006, 25.47636088300004], [84.68394401300003, 25.47649771400006], [84.68516666500005, 25.476601782000046], [84.68568379300007, 25.476603755000042], [84.68579131600006, 25.477010368000037], [84.68582597200003, 25.47811624600007], [84.68574858000005, 25.47872531400003], [84.68648813900006, 25.478994422000028], [84.68700518000009, 25.479032490000066], [84.68752138600007, 25.479233108000074], [84.68829643100008, 25.479371483000023], [84.68935117000007, 25.47924458400007], [84.68983376300008, 25.479178710000042], [84.69027617100005, 25.479212025000038], [84.69057324100004, 25.479483989000073], [84.69094046500004, 25.479652358000067], [84.69168091100005, 25.479754469000056], [84.69238713000004, 25.479725565000024], [84.69268176900005, 25.479455877000078], [84.69305534500006, 25.47932192600007], [84.69349736200007, 25.479427436000037], [84.69438730900004, 25.47946239600003], [84.69486909800008, 25.479567988000042], [84.69531029500007, 25.47987204800006], [84.69582606900008, 25.48017642800005], [84.69660609800007, 25.480314704000023], [84.69719826200009, 25.480213169000024], [84.69884380200006, 25.480287110000063], [84.69936550900007, 25.480388349000066], [84.69991685200006, 25.48052579800003], [84.70117426200005, 25.480665891000058], [84.70291461600004, 25.48067236600008], [84.70432137300008, 25.480776967000054], [84.70543391800004, 25.481051898000032], [84.70635918500005, 25.48098765000003], [84.70719411200008, 25.48109004500003], [84.70793016100004, 25.481061086000068]]]]}}]}