{"type": "FeatureCollection", "features": [{"type": "Feature", "properties": {"OBJECTID": 3295, "GPCODE": "92258", "GPNAME_1": "MAJHIYA AWAN", "DIST_CEN_C": "29", "BLK_NAME": "CHARPOKHARI", "ST_NAME": "BIHAR", "ST_CODE_1": "10", "GPCODE2011": "94813", "REMARKS": "FINALIZED", "MAP_STATUS": "COMPLETED", "BLK_C_2001": "290010", "BLK_C_2011": "01430", "DIST_NAME": "BHOJPUR", "code2011": 29.0, "Shape_Leng": 0.16648829631, "Shape_Area": 0.00076650444, "Area": 8.55494}, "geometry": {"type": "MultiPolygon", "coordinates": [[[[84.50834123500005, 25.359908116000042], [84.51036857200006, 25.359819035000044], [84.51106353600005, 25.359894675000078], [84.51170933200007, 25.359897982000064], [84.51235054900008, 25.359828950000065], [84.51337435900007, 25.359757340000044], [84.51406928500006, 25.35983757200006], [84.51597205500008, 25.35982000300004], [84.51708466000008, 25.35984357700005], [84.51713174300005, 25.359437583000044], [84.51699232800007, 25.35784820400005], [84.51686497200006, 25.35672377800006], [84.51647107700006, 25.355309130000023], [84.51637001500006, 25.354771533000076], [84.51636015900004, 25.35394102600003], [84.51628997500006, 25.352406165000048], [84.51627161800008, 25.351331878000053], [84.51607617500008, 25.34996337900003], [84.51576214700003, 25.348499434000075], [84.51526547500004, 25.346836101000065], [84.51506432900004, 25.346419839000077], [84.51493552400007, 25.34554361900007], [84.51477852900007, 25.34522690400007], [84.51445715300008, 25.34498155500006], [84.51430071100003, 25.34456555500003], [84.51417079600003, 25.343878879000044], [84.51397473500003, 25.34260966000005], [84.51352578100006, 25.34128951300005], [84.51323851100005, 25.34033576300004], [84.51449257400003, 25.339944805000073], [84.51645253700008, 25.339440078000052], [84.51771605300007, 25.33910784400007], [84.51830738800004, 25.33906114000007], [84.51876360500006, 25.339185325000074], [84.51918810700005, 25.339625185000045], [84.51974652400008, 25.34008379100004], [84.51965071400008, 25.33950561300003], [84.51930468900008, 25.33840716900005], [84.51885924900006, 25.337308214000075], [84.51875299400007, 25.33681570300007], [84.51875502600006, 25.336477227000046], [84.51883639600004, 25.336161669000035], [84.51906674700007, 25.335846924000066], [84.51925595600005, 25.335753097000065], [84.52038424000006, 25.335609692000048], [84.52148153800005, 25.335664800000075], [84.52183955700008, 25.333933444000024], [84.52190672100005, 25.331839554000055], [84.52192750200004, 25.330864763000022], [84.52190169700003, 25.330183154000053], [84.52287174600008, 25.329921686000034], [84.52458629900008, 25.32973148700006], [84.52601318100005, 25.329472225000075], [84.52689847300007, 25.329255474000036], [84.52780417500009, 25.328948429000036], [84.52903727100005, 25.328710822000062], [84.52979328500004, 25.328520394000066], [84.53059820300007, 25.328452112000036], [84.53167088100008, 25.328457311000022], [84.53207256400003, 25.32855864800007], [84.53259767800006, 25.328777838000065], [84.53268827400007, 25.327731106000044], [84.53326414700007, 25.327770068000063], [84.53349267900006, 25.327748649000057], [84.53377123500007, 25.327677790000052], [84.53411985800005, 25.32751693700004], [84.53463191100008, 25.327424695000047], [84.53522279100008, 25.327441109000063], [84.53586818000008, 25.32748033000007], [84.53574163800005, 25.32703741000006], [84.53589711100005, 25.325932327000032], [84.53579398300008, 25.324889234000068], [84.53546751000005, 25.32381354000006], [84.53506763000007, 25.322570368000072], [84.53494562400004, 25.321360226000024], [84.53378444500004, 25.321214629000053], [84.53282295700006, 25.320871458000056], [84.53242554900004, 25.320066173000043], [84.53194873800004, 25.319224349000024], [84.53246678400006, 25.318956050000054], [84.53236990000005, 25.317696364000028], [84.53227902100008, 25.314586184000063], [84.53170533100007, 25.312498205000054], [84.53073781200004, 25.30900017500005], [84.52997151200003, 25.309271675000048], [84.52895715000005, 25.309501431000058], [84.52770028700007, 25.309594609000044], [84.52614936500004, 25.30988938200005], [84.52437947700008, 25.31024624500003], [84.52271157900003, 25.310978222000074], [84.52145753800005, 25.311441459000037], [84.51990647800005, 25.311736171000064], [84.52010137100007, 25.313181418000056], [84.52032519100004, 25.316441138000073], [84.52024178700003, 25.316465359000063], [84.51969841500005, 25.316623150000055], [84.51884844600005, 25.316767835000064], [84.51805220000006, 25.317048250000028], [84.51727718200004, 25.317112098000052], [84.51743302300008, 25.317609338000068], [84.51786876800008, 25.31865407300006], [84.51860059600006, 25.319998206000037], [84.51896470100007, 25.32056865900006], [84.51877105800008, 25.322215113000027], [84.51777509300007, 25.322679536000066], [84.51651684600006, 25.322975618000044], [84.51492546500003, 25.323337845000026], [84.51304035700008, 25.32382942600003], [84.51205920900009, 25.324298352000028], [84.51161708000006, 25.32432779900006], [84.51131949900008, 25.324258556000075], [84.51102788900005, 25.324022370000023], [84.51043960600003, 25.32358163600003], [84.51010848200008, 25.32331372300007], [84.50985048200005, 25.323280804000035], [84.50959187300003, 25.323342753000077], [84.50933241500007, 25.32354451300006], [84.50899601000003, 25.32414761600006], [84.50888450900004, 25.324517180000043], [84.50877380700007, 25.324751262000063], [84.50847386300006, 25.325083765000045], [84.50755413500008, 25.325246160000063], [84.50625510400005, 25.325708915000064], [84.50455675500007, 25.326508239000077], [84.50333152800005, 25.32707076300005], [84.50249873000007, 25.32763974200003], [84.50208860700008, 25.32810702300003], [84.50179254400007, 25.328611047000038], [84.50153184000004, 25.329011368000067], [84.50104693100008, 25.32951894100006], [84.50128802200004, 25.32989474200008], [84.50155169200008, 25.33062727400005], [84.50178255200007, 25.331847065000034], [84.50205759000005, 25.333161802000063], [84.50245373100006, 25.334165820000067], [84.50252859100004, 25.334919857000045], [84.50284556800005, 25.33587386800008], [84.50329052600006, 25.337821360000078], [84.50492627400007, 25.337536245000024], [84.50481647300006, 25.33843838000007], [84.50448738600005, 25.33946125700004], [84.50429405000006, 25.340218480000033], [84.50402510400005, 25.340339008000058], [84.50388974200007, 25.340532361000044], [84.50384766400003, 25.34092034400004], [84.50368322300005, 25.341822130000025], [84.50324224800005, 25.34325969100007], [84.50315730400007, 25.34415741500004], [84.50320718200004, 25.344938418000027], [84.50315071600005, 25.34523150900003], [84.50279117500008, 25.345536627000058], [84.50301383000004, 25.346499083000026], [84.50308676800006, 25.34674320000005], [84.50330277300003, 25.347159506000025], [84.50343227900004, 25.347913883000047], [84.50353222400008, 25.34862298300004], [84.50358332900004, 25.349205504000054], [84.50370416800007, 25.35056006800005], [84.50370021900005, 25.351196492000042], [84.50375193900004, 25.351684146000025], [84.50386727500006, 25.352312131000076], [84.50453218300004, 25.353245249000054], [84.50506083000005, 25.35451613300006], [84.50545471400005, 25.35590824700006], [84.50559808800006, 25.35683423100005], [84.50583161200007, 25.358446666000077], [84.50579320800006, 25.359845539000048], [84.50676156800006, 25.35990008300007], [84.50834123500005, 25.359908116000042]]]]}}, {"type": "Feature", "properties": {"OBJECTID": 3297, "GPCODE": "92261", "GPNAME_1": "NAGARI", "DIST_CEN_C": "29", "BLK_NAME": "CHARPOKHARI", "ST_NAME": "BIHAR", "ST_CODE_1": "10", "GPCODE2011": "94816", "REMARKS": "FINALIZED", "MAP_STATUS": "COMPLETED", "BLK_C_2001": "290010", "BLK_C_2011": "01430", "DIST_NAME": "BHOJPUR", "code2011": 26.0, "Shape_Leng": 0.17896853386, "Shape_Area": 0.00105355764, "Area": 11.7593}, "geometry": {"type": "MultiPolygon", "coordinates": [[[[84.44152606600005, 25.35851359700007], [84.44584913100005, 25.35755798300005], [84.44828728200008, 25.35694392000005], [84.44922936700004, 25.357206305000034], [84.44972095600008, 25.357240540000078], [84.45040707900006, 25.357153992000065], [84.45096435500005, 25.357008063000023], [84.45168663500004, 25.35671411100003], [84.45237365200006, 25.356478629000037], [84.45256774500007, 25.356421027000067], [84.45269459200006, 25.356778261000045], [84.45285399000005, 25.357465140000045], [84.45281605600007, 25.358710651000024], [84.45333795900007, 25.358654775000048], [84.45389434200007, 25.358657761000075], [84.45415775600009, 25.35863214400007], [84.45464581700008, 25.358454212000026], [84.45530282000004, 25.35825015100005], [84.45587621000004, 25.357923809000056], [84.45571796300004, 25.357060927000077], [84.45572201400006, 25.35643804600005], [84.45575691000005, 25.355661972000064], [84.45592365200008, 25.35522060900007], [84.45619125400003, 25.354567592000024], [84.45676978200004, 25.353437848000056], [84.45693787600004, 25.35281144700008], [84.45743438900007, 25.35207394200006], [84.45809532700008, 25.351274153000077], [84.45908095900006, 25.350178179000068], [84.46029607800006, 25.348939034000068], [84.46098916400007, 25.34852754700006], [84.46102144100007, 25.348139494000065], [84.46201050400003, 25.347282820000032], [84.46276454300005, 25.346663944000056], [84.46291104400007, 25.346276655000054], [84.46265403900009, 25.345322966000026], [84.46106925300006, 25.343057808000026], [84.46069546500007, 25.34249165400007], [84.46060453400008, 25.34195861300003], [84.46061418500005, 25.340473743000075], [84.46055580500007, 25.33874938300005], [84.46091192000006, 25.336675140000068], [84.46121477100007, 25.335160280000025], [84.46128516300007, 25.334267053000076], [84.46012300500007, 25.33426532200008], [84.45927279500006, 25.334405168000046], [84.45894858800006, 25.33461551700003], [84.45878205800005, 25.33502990200003], [84.45871208200003, 25.33585994400005], [84.45850532100008, 25.33710904000003], [84.45833768900007, 25.337672265000037], [84.45817265000005, 25.33784746200007], [84.45794339100007, 25.337968056000022], [84.45752110800004, 25.337992817000043], [84.45542801000005, 25.338311017000024], [84.45496650500007, 25.338245365000034], [84.45428076100006, 25.338304853000068], [84.45213324200006, 25.338591146000056], [84.45198798500007, 25.338021629000025], [84.45176730300005, 25.336833443000046], [84.45132092100005, 25.335224278000055], [84.45098854800005, 25.333647383000027], [84.45070148400004, 25.331980414000043], [84.45061221100008, 25.331208081000057], [84.45035132300006, 25.33085017800005], [84.44976648600004, 25.33066640800007], [84.44927556400006, 25.330546425000023], [84.44901299100007, 25.33045469500007], [84.44860020300007, 25.32902623900003], [84.44840745400006, 25.32813605800004], [84.44784912200004, 25.32845798900007], [84.44686647800006, 25.329107116000046], [84.44627841700003, 25.329401807000067], [84.44562194200006, 25.32954716300003], [84.44450974800003, 25.329509444000053], [84.44410549000008, 25.32906042600007], [84.44356218600007, 25.327098658000068], [84.44189764400005, 25.32423261100007], [84.44171449300006, 25.324145866000038], [84.44153625300004, 25.324054653000076], [84.44117794700009, 25.32416999000003], [84.44078365000007, 25.32446574000005], [84.43999729900008, 25.324727691000078], [84.43904675900006, 25.325020308000035], [84.43846174600003, 25.324868179000077], [84.43777487300008, 25.32510360300006], [84.43676017100006, 25.325337175000072], [84.43515563600005, 25.325414040000055], [84.43406174900008, 25.32561109200003], [84.43206628300004, 25.326195815000062], [84.43049586900008, 25.326363096000023], [84.42846909900004, 25.326442107000048], [84.42831107500007, 25.32557918200007], [84.42827326600008, 25.32529461400003], [84.42805415500004, 25.323898788000065], [84.42772018900007, 25.322615179000024], [84.42698958800008, 25.319758664000062], [84.42649151100005, 25.31850119300003], [84.42563726400004, 25.31852798400007], [84.42416838300005, 25.318370835000053], [84.42325611600006, 25.318158098000026], [84.42197932200008, 25.31824122100005], [84.42119462100004, 25.318245836000074], [84.41805719100006, 25.318092756000055], [84.41619958700005, 25.318140912000047], [84.41382582500006, 25.31815448100008], [84.41255493600005, 25.31808864100003], [84.41182318200003, 25.31835073700006], [84.41155838900005, 25.318583975000024], [84.41155494000003, 25.319089435000024], [84.41187434300008, 25.320305349000023], [84.41250814600005, 25.32273252600004], [84.41264851900007, 25.32326593700003], [84.41386835400004, 25.323539133000054], [84.41464594100006, 25.32384140100004], [84.41509960300004, 25.324313396000036], [84.41555462100007, 25.324586725000074], [84.41601892900007, 25.32567252800004], [84.41644182200008, 25.326297796000063], [84.41692334400005, 25.32704524600007], [84.41708319400004, 25.32763740000007], [84.41721238800005, 25.32835114900007], [84.41753236200003, 25.328768197000045], [84.41802216400004, 25.32904181600003], [84.41874251100006, 25.32901428300005], [84.41916580700007, 25.32884060600003], [84.41943146900007, 25.328485596000064], [84.41976046200006, 25.328306871000052], [84.42011758200005, 25.328367592000063], [84.42047728900008, 25.328784790000043], [84.42076702800006, 25.32926485100006], [84.42125128900005, 25.32962416500004], [84.42194103500003, 25.329713793000053], [84.42239505200007, 25.330136031000052], [84.42284657300007, 25.330937452000057], [84.42303342800005, 25.33194947000004], [84.42336589000007, 25.333445288000064], [84.42361829100008, 25.33504891800004], [84.42393596300008, 25.336535578000053], [84.42394508200005, 25.337388571000076], [84.42436455300003, 25.337783611000077], [84.42507819700006, 25.338026785000068], [84.42579312500004, 25.338057941000045], [84.42833025100003, 25.33818944500007], [84.42835686400008, 25.33940364500006], [84.42851061000005, 25.340171747000056], [84.42867115600006, 25.340673624000033], [84.42879345700004, 25.341680754000038], [84.42907510800006, 25.343365858000027], [84.42916490900006, 25.344783505000066], [84.42910565000005, 25.345469198000046], [84.42927500800005, 25.346878308000043], [84.42929919500006, 25.347708858000033], [84.42928744500006, 25.34945096000007], [84.42937702800003, 25.35090019300003], [84.42956618600005, 25.351578234000044], [84.42972231500005, 25.35199883100006], [84.42993241700003, 25.353981373000067], [84.43013238400005, 25.35601346800007], [84.43031657300008, 25.357431630000065], [84.43099280800004, 25.358071805000066], [84.43151032300005, 25.358670381000024], [84.43173729700004, 25.358906348000062], [84.43196577100008, 25.358907644000055], [84.43226041100007, 25.35867453700007], [84.43269084900004, 25.35819859000003], [84.43311502200004, 25.35790754100003], [84.43357765400003, 25.357819815000028], [84.43426347000008, 25.35776502500005], [84.43544141500007, 25.35768123400004], [84.43798944700006, 25.357726917000036], [84.43811637500005, 25.358052574000055], [84.43807786400004, 25.358616491000078], [84.43838624000006, 25.359299763000024], [84.44152606600005, 25.35851359700007]]]]}}, {"type": "Feature", "properties": {"OBJECTID": 3304, "GPCODE": "92265", "GPNAME_1": "SONBERSA", "DIST_CEN_C": "29", "BLK_NAME": "CHARPOKHARI", "ST_NAME": "BIHAR", "ST_CODE_1": "10", "GPCODE2011": "94820", "REMARKS": "FINALIZED", "MAP_STATUS": "COMPLETED", "BLK_C_2001": "290010", "BLK_C_2011": "01430", "DIST_NAME": "BHOJPUR", "code2011": 29.0, "Shape_Leng": 0.25574583728, "Shape_Area": 0.00102646665, "Area": 11.4587}, "geometry": {"type": "MultiPolygon", "coordinates": [[[[84.49174710100004, 25.309206369000037], [84.49170280900006, 25.308339640000042], [84.49148069100005, 25.307327502000078], [84.49122830900006, 25.30640547200005], [84.49119716900003, 25.305809557000032], [84.49146369900006, 25.305278316000056], [84.49202680100007, 25.30414838200005], [84.49227568700007, 25.303256023000074], [84.49228099100003, 25.30239393100004], [84.49205591600008, 25.301860271000066], [84.49169901700003, 25.300964752000027], [84.49108615000006, 25.299711432000038], [84.49029239000004, 25.298813653000025], [84.48931358400006, 25.29812713800004], [84.48834198400004, 25.297079517000043], [84.48762631300008, 25.296394303000056], [84.48727202500004, 25.295886938000024], [84.48711135000008, 25.295380597000076], [84.48696780700004, 25.29451332800005], [84.48668084100007, 25.293559505000076], [84.48639462800008, 25.292488339000045], [84.48603892400007, 25.291416883000068], [84.48596247200004, 25.290929005000066], [84.48588120500006, 25.290436661000058], [84.48559291900006, 25.289690439000026], [84.48520315700006, 25.28930021900004], [84.48468332800007, 25.289062853000075], [84.48285550100007, 25.288398937000068], [84.47955860900004, 25.28766863100003], [84.47834765800008, 25.287603630000035], [84.47785470200006, 25.28783575800003], [84.47759538800005, 25.28801490400008], [84.47736725200008, 25.28798208300003], [84.47710519500004, 25.287804743000038], [84.47648913000006, 25.287088420000032], [84.47572525500004, 25.286208763000047], [84.475297, 25.28641415000004], [84.47473756400007, 25.286943790000066], [84.47384708300007, 25.288008809000075], [84.47351981300005, 25.28872466300004], [84.47403541400007, 25.289630100000068], [84.47442096600008, 25.290674660000036], [84.47451688200005, 25.291207748000033], [84.47438510400008, 25.29162226400007], [84.47392574500003, 25.292039609000028], [84.47362501400005, 25.292480367000053], [84.47355727500008, 25.292985489000046], [84.47358822700005, 25.293581415000062], [84.47394022700007, 25.294445346000032], [84.47409840800003, 25.295339828000067], [84.47416948500006, 25.29664900800003], [84.47380874600003, 25.29715264300006], [84.47318536900008, 25.29759617600007], [84.47236195000005, 25.298246230000075], [84.47121562000007, 25.29892622500006], [84.47000041400008, 25.299511046000077], [84.46898411900008, 25.300042787000052], [84.46742433000009, 25.30092815100005], [84.46719153300006, 25.301612899000077], [84.46722250300007, 25.302204310000036], [84.46731219400004, 25.302922488000036], [84.46740546000007, 25.303870781000057], [84.46727233600006, 25.304497402000038], [84.46663390400005, 25.30494078600003], [84.46597856100004, 25.304937298000027], [84.46502900100006, 25.305112829000052], [84.46407887900006, 25.305374011000026], [84.46312864200007, 25.30566686800006], [84.46260657300007, 25.30578144900005], [84.46178205900009, 25.306580377000046], [84.46099041100007, 25.307677358000035], [84.46131800700005, 25.30846447600004], [84.46183386200005, 25.31010110300008], [84.46255673500008, 25.311950839000076], [84.46313959400004, 25.313204201000076], [84.46346062900005, 25.314244002000066], [84.46371672500004, 25.314574766000078], [84.46395903100006, 25.314725070000065], [84.46497450800007, 25.31511858400006], [84.46601520400003, 25.315453627000068], [84.46693308700003, 25.315575892000027], [84.46764560600008, 25.31596780700005], [84.46823354800006, 25.31644480800003], [84.46865957100005, 25.316595977000077], [84.46930951300004, 25.316689672000052], [84.47025932500009, 25.31648713000004], [84.47163744000005, 25.316074698000023], [84.47361589000008, 25.315760126000043], [84.47472991600006, 25.315499681000063], [84.47548656200007, 25.31520580800003], [84.47636646200004, 25.315061511000067], [84.47691826900007, 25.314965088000065], [84.47717926700005, 25.31451967600003], [84.47747970300009, 25.31413307300005], [84.47816882800004, 25.313513861000047], [84.47869230700007, 25.313187112000037], [84.47882809000004, 25.31292157000007], [84.47879668500008, 25.312388836000025], [84.47869121700006, 25.31101620000004], [84.47849747200007, 25.310238878000064], [84.47898975600003, 25.310124092000024], [84.48026874400006, 25.309683964000044], [84.48111925400008, 25.309453742000073], [84.48289130100005, 25.308776943000055], [84.48351324900005, 25.308572566000066], [84.48387168100004, 25.308425446000058], [84.48377592300005, 25.30786077600004], [84.48336024500009, 25.30684769100003], [84.48331321800003, 25.306427661000043], [84.48524425000005, 25.305724592000047], [84.48632886100006, 25.30537365200007], [84.48717937500004, 25.30513888300004], [84.48750693800008, 25.30517212600006], [84.48828213700006, 25.306661010000028], [84.48867014800004, 25.30734908100004], [84.48882893000007, 25.308153283000024], [84.48908310500008, 25.30880903900004], [84.48934385000007, 25.30919856500003], [84.48983446200003, 25.30934550300003], [84.49045517500008, 25.309348698000065], [84.49107679800005, 25.309207471000036], [84.49174710100004, 25.309206369000037]]], [[[84.49174710100004, 25.309206369000037], [84.49147715900006, 25.310301742000036], [84.49127997500005, 25.31086937200007], [84.49127674200008, 25.311374931000046], [84.49143473700008, 25.312323544000037], [84.49145958600008, 25.313127019000035], [84.49144076900006, 25.313754307000067], [84.49114132800008, 25.31399191400004], [84.49015810300006, 25.31478573800007], [84.48907205800003, 25.316152183000042], [84.48808027200005, 25.317514600000038], [84.48750229100006, 25.31861289400007], [84.48720581700007, 25.319175563000044], [84.48674191500004, 25.31950254800006], [84.48625264800006, 25.31991526300004], [84.48590621200003, 25.320518235000065], [84.48567502800006, 25.320963903000063], [84.48564245400007, 25.32141054300007], [84.48573487500005, 25.321708899000043], [84.48589808300005, 25.321827110000072], [84.48658351500006, 25.321799073000022], [84.48773099300007, 25.321746328000074], [84.48831700800008, 25.321749341000043], [84.48848264200006, 25.32226022800006], [84.48906402000006, 25.323003378000067], [84.48994168900003, 25.324018898000077], [84.49049431300006, 25.324585978000073], [84.49059123200004, 25.324974629000053], [84.49042306700005, 25.325659742000028], [84.49038538200006, 25.32613351300006], [84.49048251100004, 25.32649057200007], [84.49080907300004, 25.32667274100004], [84.49126319000004, 25.327117435000048], [84.49162318100008, 25.327538979000053], [84.49230779000004, 25.327659845000028], [84.49276462500006, 25.32766216600004], [84.49338611400003, 25.327543499000058], [84.49344828800008, 25.327932050000072], [84.49357943900003, 25.32840654300003], [84.49462306800007, 25.32829460100004], [84.49534482100006, 25.32802752300006], [84.49632388900005, 25.327915140000073], [84.49717939500005, 25.32771194700007], [84.49789840100004, 25.327891647000058], [84.49813670500004, 25.327897347000032], [84.49848361700003, 25.32802098700006], [84.49856069800006, 25.328409472000033], [84.49853189400005, 25.329045704000066], [84.49841950000007, 25.329555164000055], [84.49870601500004, 25.330603721000045], [84.49894191500005, 25.33182355400004], [84.49975172700005, 25.333389268000076], [84.50020353600007, 25.334222053000076], [84.50086770500008, 25.335249970000064], [84.50091507700006, 25.335620254000048], [84.50106753100005, 25.33747154200006], [84.50119701400007, 25.338225925000074], [84.50033212600005, 25.339146758000027], [84.49944313400005, 25.339950138000063], [84.49903931600005, 25.340191798000035], [84.49863589700004, 25.34036124900007], [84.49789574200008, 25.34038908200006], [84.49757158300008, 25.34059951200004], [84.49649062100008, 25.341099496000027], [84.49552381000007, 25.341627103000064], [84.49572779700009, 25.343176236000033], [84.49598038600004, 25.344098236000036], [84.49613841200005, 25.345051341000044], [84.49629364100008, 25.346446813000057], [84.49636904000005, 25.347101654000028], [84.49760951600007, 25.347315587000026], [84.49789728400003, 25.34736672500003], [84.49819031100003, 25.347377192000067], [84.49904474900006, 25.34735902500006], [84.49942285700007, 25.347261675000027], [84.49998522100003, 25.34709304100005], [84.50074228600005, 25.346758340000065], [84.50144019800007, 25.34634671200007], [84.50197330100008, 25.34606952300004], [84.50279117500008, 25.345536627000058], [84.50315071600005, 25.34523150900003], [84.50320718200004, 25.344938418000027], [84.50315730400007, 25.34415741500004], [84.50324224800005, 25.34325969100007], [84.50368322300005, 25.341822130000025], [84.50384766400003, 25.34092034400004], [84.50388974200007, 25.340532361000044], [84.50402510400005, 25.340339008000058], [84.50429405000006, 25.340218480000033], [84.50448738600005, 25.33946125700004], [84.50481647300006, 25.33843838000007], [84.50492627400007, 25.337536245000024], [84.50329052600006, 25.337821360000078], [84.50284556800005, 25.33587386800008], [84.50252859100004, 25.334919857000045], [84.50245373100006, 25.334165820000067], [84.50205759000005, 25.333161802000063], [84.50178255200007, 25.331847065000034], [84.50155169200008, 25.33062727400005], [84.50128802200004, 25.32989474200008], [84.50104693100008, 25.32951894100006], [84.50153184000004, 25.329011368000067], [84.50179254400007, 25.328611047000038], [84.50208860700008, 25.32810702300003], [84.50249873000007, 25.32763974200003], [84.50333152800005, 25.32707076300005], [84.50455675500007, 25.326508239000077], [84.50625510400005, 25.325708915000064], [84.50755413500008, 25.325246160000063], [84.50847386300006, 25.325083765000045], [84.50877380700007, 25.324751262000063], [84.50888450900004, 25.324517180000043], [84.50899601000003, 25.32414761600006], [84.50933241500007, 25.32354451300006], [84.50959187300003, 25.323342753000077], [84.50985048200005, 25.323280804000035], [84.51010848200008, 25.32331372300007], [84.51043960600003, 25.32358163600003], [84.51102788900005, 25.324022370000023], [84.51131949900008, 25.324258556000075], [84.51161708000006, 25.32432779900006], [84.51205920900009, 25.324298352000028], [84.51304035700008, 25.32382942600003], [84.51492546500003, 25.323337845000026], [84.51651684600006, 25.322975618000044], [84.51777509300007, 25.322679536000066], [84.51877105800008, 25.322215113000027], [84.51896470100007, 25.32056865900006], [84.51860059600006, 25.319998206000037], [84.51786876800008, 25.31865407300006], [84.51743302300008, 25.317609338000068], [84.51727718200004, 25.317112098000052], [84.51805220000006, 25.317048250000028], [84.51884844600005, 25.316767835000064], [84.51969841500005, 25.316623150000055], [84.52024178700003, 25.316465359000063], [84.52032519100004, 25.316441138000073], [84.52010137100007, 25.313181418000056], [84.51990647800005, 25.311736171000064], [84.51916882600005, 25.311362445000043], [84.51836310600004, 25.310753574000046], [84.51725980600008, 25.310080164000055], [84.51666977400004, 25.309941827000046], [84.51604309400005, 25.31010568100004], [84.51559515300005, 25.310270495000054], [84.51485934100003, 25.310433749000026], [84.51437788900006, 25.310395285000027], [84.51374995700007, 25.310762220000072], [84.51194015900006, 25.311154911000074], [84.51071641700008, 25.311518828000032], [84.50949778100005, 25.31184667200006], [84.50809730300006, 25.31187572400006], [84.50739738700008, 25.311836134000032], [84.50703119300005, 25.311635721000073], [84.50655140300006, 25.311330868000027], [84.50603550300008, 25.311229011000023], [84.50511201600006, 25.31122427500003], [84.50379980100007, 25.311420807000047], [84.50184800900007, 25.311478625000063], [84.50022446400004, 25.311438759000055], [84.49911615400003, 25.311600138000074], [84.49789998800009, 25.31152622600007], [84.49729013900009, 25.31137411700007], [84.49624718800004, 25.311400422000077], [84.49552615300007, 25.31157273100007], [84.49516350300007, 25.311602497000024], [84.49497055300003, 25.311479633000033], [84.49487273800008, 25.31124442500004], [84.49458218200004, 25.31085476000004], [84.49428778000004, 25.310289135000062], [84.49380365800005, 25.309871378000025], [84.49327917900007, 25.309570820000033], [84.49249652800006, 25.309268904000078], [84.49174710100004, 25.309206369000037]]]]}}, {"type": "Feature", "properties": {"OBJECTID": 3307, "GPCODE": "92257", "GPNAME_1": "KOEL", "DIST_CEN_C": "29", "BLK_NAME": "CHARPOKHARI", "ST_NAME": "BIHAR", "ST_CODE_1": "10", "GPCODE2011": "94812", "REMARKS": "FINALIZED", "MAP_STATUS": "COMPLETED", "BLK_C_2001": "290010", "BLK_C_2011": "01430", "DIST_NAME": "BHOJPUR", "code2011": 26.0, "Shape_Leng": 0.20320864726, "Shape_Area": 0.00094374355, "Area": 10.5343}, "geometry": {"type": "MultiPolygon", "coordinates": [[[[84.48793740400004, 25.341944642000044], [84.48905130000009, 25.341738254000063], [84.48980129000006, 25.341742132000036], [84.49074992400006, 25.341746974000046], [84.49225445500008, 25.341817932000026], [84.49359161200005, 25.341644269000028], [84.49506195900005, 25.34162475100004], [84.49552381000007, 25.341627103000064], [84.49649062100008, 25.341099496000027], [84.49757158300008, 25.34059951200004], [84.49789574200008, 25.34038908200006], [84.49863589700004, 25.34036124900007], [84.49903931600005, 25.340191798000035], [84.49944313400005, 25.339950138000063], [84.50033212600005, 25.339146758000027], [84.50119701400007, 25.338225925000074], [84.50106753100005, 25.33747154200006], [84.50091507700006, 25.335620254000048], [84.50086770500008, 25.335249970000064], [84.50020353600007, 25.334222053000076], [84.49975172700005, 25.333389268000076], [84.49894191500005, 25.33182355400004], [84.49870601500004, 25.330603721000045], [84.49841950000007, 25.329555164000055], [84.49853189400005, 25.329045704000066], [84.49856069800006, 25.328409472000033], [84.49848361700003, 25.32802098700006], [84.49813670500004, 25.327897347000032], [84.49789840100004, 25.327891647000058], [84.49717939500005, 25.32771194700007], [84.49632388900005, 25.327915140000073], [84.49534482100006, 25.32802752300006], [84.49462306800007, 25.32829460100004], [84.49357943900003, 25.32840654300003], [84.49344828800008, 25.327932050000072], [84.49338611400003, 25.327543499000058], [84.49276462500006, 25.32766216600004], [84.49230779000004, 25.327659845000028], [84.49162318100008, 25.327538979000053], [84.49126319000004, 25.327117435000048], [84.49080907300004, 25.32667274100004], [84.49048251100004, 25.32649057200007], [84.49038538200006, 25.32613351300006], [84.49042306700005, 25.325659742000028], [84.49059123200004, 25.324974629000053], [84.49049431300006, 25.324585978000073], [84.48994168900003, 25.324018898000077], [84.48906402000006, 25.323003378000067], [84.48848264200006, 25.32226022800006], [84.48831700800008, 25.321749341000043], [84.48773099300007, 25.321746328000074], [84.48658351500006, 25.321799073000022], [84.48589808300005, 25.321827110000072], [84.48573487500005, 25.321708899000043], [84.48564245400007, 25.32141054300007], [84.48567502800006, 25.320963903000063], [84.48590621200003, 25.320518235000065], [84.48625264800006, 25.31991526300004], [84.48674191500004, 25.31950254800006], [84.48720581700007, 25.319175563000044], [84.48750229100006, 25.31861289400007], [84.48808027200005, 25.317514600000038], [84.48907205800003, 25.316152183000042], [84.49015810300006, 25.31478573800007], [84.49114132800008, 25.31399191400004], [84.49144076900006, 25.313754307000067], [84.49145958600008, 25.313127019000035], [84.49143473700008, 25.312323544000037], [84.49127674200008, 25.311374931000046], [84.49127997500005, 25.31086937200007], [84.49147715900006, 25.310301742000036], [84.49174710100004, 25.309206369000037], [84.49107679800005, 25.309207471000036], [84.49045517500008, 25.309348698000065], [84.48983446200003, 25.30934550300003], [84.48934385000007, 25.30919856500003], [84.48908310500008, 25.30880903900004], [84.48882893000007, 25.308153283000024], [84.48867014800004, 25.30734908100004], [84.48828213700006, 25.306661010000028], [84.48750693800008, 25.30517212600006], [84.48717937500004, 25.30513888300004], [84.48632886100006, 25.30537365200007], [84.48524425000005, 25.305724592000047], [84.48331321800003, 25.306427661000043], [84.48336024500009, 25.30684769100003], [84.48377592300005, 25.30786077600004], [84.48387168100004, 25.308425446000058], [84.48351324900005, 25.308572566000066], [84.48289130100005, 25.308776943000055], [84.48111925400008, 25.309453742000073], [84.48026874400006, 25.309683964000044], [84.47898975600003, 25.310124092000024], [84.47849747200007, 25.310238878000064], [84.47869121700006, 25.31101620000004], [84.47879668500008, 25.312388836000025], [84.47882809000004, 25.31292157000007], [84.47869230700007, 25.313187112000037], [84.47816882800004, 25.313513861000047], [84.47747970300009, 25.31413307300005], [84.47717926700005, 25.31451967600003], [84.47691826900007, 25.314965088000065], [84.47636646200004, 25.315061511000067], [84.47548656200007, 25.31520580800003], [84.47472991600006, 25.315499681000063], [84.47361589000008, 25.315760126000043], [84.47163744000005, 25.316074698000023], [84.47025932500009, 25.31648713000004], [84.46930951300004, 25.316689672000052], [84.46865957100005, 25.316595977000077], [84.46823354800006, 25.31644480800003], [84.46764560600008, 25.31596780700005], [84.46693308700003, 25.315575892000027], [84.46601520400003, 25.315453627000068], [84.46497450800007, 25.31511858400006], [84.46395903100006, 25.314725070000065], [84.46371672500004, 25.314574766000078], [84.46346062900005, 25.314244002000066], [84.46313959400004, 25.313204201000076], [84.46255673500008, 25.311950839000076], [84.46183386200005, 25.31010110300008], [84.46131800700005, 25.30846447600004], [84.46099041100007, 25.307677358000035], [84.46059659800005, 25.307914491000076], [84.45935391000006, 25.308115460000067], [84.45812616700005, 25.30832096100005], [84.45711224400003, 25.308464498000035], [84.45564176700003, 25.308573916000057], [84.45465723600006, 25.308776172000023], [84.45494784100003, 25.309901585000034], [84.45582177300008, 25.31142277200007], [84.45692167100003, 25.313328820000038], [84.45792600900006, 25.314674687000036], [84.45811642900009, 25.315176696000037], [84.45913597400005, 25.316463918000068], [84.45988339200005, 25.31759634100007], [84.46004133300005, 25.31851790500008], [84.45994149100005, 25.319356827000036], [84.45990827100007, 25.31988921100003], [84.46019874100006, 25.320278939000048], [84.46039332100008, 25.32090274600006], [84.46042063400006, 25.321291115000065], [84.46025539900006, 25.321497814000054], [84.45950188100005, 25.322057924000035], [84.45848369500004, 25.322855858000025], [84.45819376100008, 25.323147638000023], [84.45763692700007, 25.323234929000023], [84.45649378100006, 25.32337766200004], [84.45495780500005, 25.32360415000005], [84.45387402000006, 25.323778769000057], [84.45305829700004, 25.323981960000026], [84.45249899500004, 25.32445283900006], [84.45180915000003, 25.325135119000038], [84.44983550500007, 25.326965914000027], [84.44840745400006, 25.32813605800004], [84.44860020300007, 25.32902623900003], [84.44901299100007, 25.33045469500007], [84.44927556400006, 25.330546425000023], [84.44976648600004, 25.33066640800007], [84.45035132300006, 25.33085017800005], [84.45061221100008, 25.331208081000057], [84.45070148400004, 25.331980414000043], [84.45098854800005, 25.333647383000027], [84.45132092100005, 25.335224278000055], [84.45176730300005, 25.336833443000046], [84.45198798500007, 25.338021629000025], [84.45213324200006, 25.338591146000056], [84.45428076100006, 25.338304853000068], [84.45496650500007, 25.338245365000034], [84.45542801000005, 25.338311017000024], [84.45752110800004, 25.337992817000043], [84.45794339100007, 25.337968056000022], [84.45817265000005, 25.33784746200007], [84.45833768900007, 25.337672265000037], [84.45850532100008, 25.33710904000003], [84.45871208200003, 25.33585994400005], [84.45878205800005, 25.33502990200003], [84.45894858800006, 25.33461551700003], [84.45927279500006, 25.334405168000046], [84.46012300500007, 25.33426532200008], [84.46128516300007, 25.334267053000076], [84.46103811300009, 25.33330432200006], [84.46227779700007, 25.33360889200003], [84.46311254300008, 25.333554654000068], [84.46396111000007, 25.33365849200004], [84.46562486800008, 25.333667383000034], [84.46794411400003, 25.333679647000054], [84.46935007600007, 25.333623918000058], [84.47074159100003, 25.333482402000072], [84.47221209400004, 25.333417971000074], [84.47263407600008, 25.333451745000048], [84.47332475200005, 25.33339221700004], [84.47381090900006, 25.333485004000067], [84.47427148000008, 25.333695109000075], [84.47499212000008, 25.33360864800005], [84.47567767400005, 25.33358517000005], [84.47642945800004, 25.333291255000063], [84.47720131300008, 25.332965815000023], [84.47792398800004, 25.33258147600003], [84.47844636500008, 25.33243525300003], [84.47985668500007, 25.331670795000036], [84.48100694200008, 25.33120290000005], [84.48165900700008, 25.330967092000037], [84.48260752000004, 25.330976589000045], [84.48431172100004, 25.330868081000062], [84.48666522900004, 25.33095706900008], [84.48616999100005, 25.331518671000026], [84.48551460800007, 25.332287034000046], [84.48482244600007, 25.33336218200003], [84.48482062300008, 25.33366004000004], [84.48504530700006, 25.334256976000063], [84.48551112500007, 25.335211686000036], [84.48589824700008, 25.336048684000048], [84.48642120700003, 25.336615529000028], [84.48690397000007, 25.337240905000044], [84.48751958600008, 25.338074507000044], [84.48761575700007, 25.33858049500003], [84.48756252900006, 25.339148915000067], [84.48736361900006, 25.339978286000076], [84.48709860100007, 25.340274830000055], [84.48663226800005, 25.341757276000067], [84.48715210900008, 25.34202631200003], [84.48793740400004, 25.341944642000044]]]]}}, {"type": "Feature", "properties": {"OBJECTID": 3309, "GPCODE": "92256", "GPNAME_1": "BABU BANDH", "DIST_CEN_C": "29", "BLK_NAME": "CHARPOKHARI", "ST_NAME": "BIHAR", "ST_CODE_1": "10", "GPCODE2011": "94811", "REMARKS": "FINALIZED", "MAP_STATUS": "COMPLETED", "BLK_C_2001": "290010", "BLK_C_2011": "01430", "DIST_NAME": "BHOJPUR", "code2011": 22.0, "Shape_Leng": 0.17569489226, "Shape_Area": 0.00087435733, "Area": 9.75756}, "geometry": {"type": "MultiPolygon", "coordinates": [[[[84.54973562800006, 25.36520199200004], [84.55003474800003, 25.36503188000006], [84.55062071000003, 25.365061737000076], [84.55121299600006, 25.36487049400006], [84.55153747000008, 25.364601195000034], [84.55213001400006, 25.364360306000037], [84.55325909300007, 25.364121891000025], [84.55379516400006, 25.364196666000055], [84.55400848600004, 25.364247309000064], [84.55435539900003, 25.36439790000003], [84.55448815200003, 25.364642263000064], [84.55459513000005, 25.36503094400007], [84.55469782100005, 25.36532481100005], [84.55483072500004, 25.36554209600007], [84.55491454400004, 25.36564175700005], [84.55518239700007, 25.36571519900008], [84.55545098300007, 25.36566688100004], [84.55574025300007, 25.365465094000058], [84.55601602100006, 25.365015071000073], [84.55698846900003, 25.364374213000076], [84.55742766700007, 25.36401975700005], [84.55813056300008, 25.363585259000047], [84.56114919500004, 25.36125694900005], [84.56367680400007, 25.359662039000057], [84.56393794500008, 25.359166755000047], [84.56359088600004, 25.359043263000046], [84.56316673900005, 25.35850875700004], [84.56285259300006, 25.35783030400006], [84.56192335700007, 25.35700898500005], [84.56101677400005, 25.35656694200003], [84.56043335300006, 25.35608131500004], [84.56000730600005, 25.35588527300007], [84.55958006500003, 25.355883198000072], [84.55936794800004, 25.355638502000033], [84.55937148000004, 25.355006686000024], [84.55948437900008, 25.35437533700008], [84.55927321000007, 25.35394100700006], [84.55852485600008, 25.35364412000007], [84.55788650800008, 25.353203380000025], [84.55757140900005, 25.352718969000023], [84.55693087500003, 25.352666249000038], [84.55666487200006, 25.35227690000005], [84.55619114700005, 25.350866524000025], [84.55515382500005, 25.34984160700003], [84.55329120600004, 25.34896165300006], [84.55249433500006, 25.34847047900007], [84.55212369600008, 25.348130238000067], [84.55191380800005, 25.34749732100005], [84.55154453700004, 25.346913378000067], [84.55085087200007, 25.346616691000065], [84.55058437700006, 25.346326614000077], [84.55011034200004, 25.34583690900007], [84.54813934600008, 25.344807487000026], [84.54723517600007, 25.343981753000037], [84.54676142500006, 25.34344239400008], [84.54657666400004, 25.34275992700003], [84.54647655300005, 25.342032800000027], [84.54663916800007, 25.341401749000056], [84.54658813300006, 25.340769598000065], [84.54589970000006, 25.340427797000075], [84.54472745000004, 25.33959628100007], [84.54430307900003, 25.339111271000036], [84.54414750800004, 25.338528318000044], [84.54393682800008, 25.338039897000044], [84.54345672400007, 25.337748703000045], [84.54319687100008, 25.337165215000027], [84.54303634100006, 25.33658222200006], [84.54309324100007, 25.336189830000023], [84.54360236400004, 25.33575453000003], [84.54366155000008, 25.33497852800008], [84.54379816100004, 25.334807983000076], [84.54393167300003, 25.334641306000037], [84.54473403500003, 25.33415771500006], [84.54665883100006, 25.33368392700004], [84.54825803800009, 25.33369161400003], [84.55173009300006, 25.333608843000036], [84.55274442900009, 25.33341955700007], [84.55429387700008, 25.33255574900005], [84.55477702100006, 25.33231437200004], [84.55436790000005, 25.329157577000046], [84.55402809600008, 25.327797392000036], [84.55371249500007, 25.327407742000048], [84.55072867900003, 25.32637357300007], [84.54993195800006, 25.325882379000063], [84.54955789500008, 25.325298383000074], [84.54940342300006, 25.32452137100006], [84.54956931600003, 25.32330803600007], [84.54952356000007, 25.322630785000058], [84.54883224600007, 25.32194596200003], [84.54662525100008, 25.320576920000065], [84.54571871500008, 25.32018442100008], [84.54529169800009, 25.320182396000064], [84.54481492800005, 25.32018017100006], [84.54460253000008, 25.319985004000046], [84.54454965400004, 25.319691413000044], [84.54417826900004, 25.319495566000057], [84.54375125500007, 25.319493537000028], [84.54348397800004, 25.319347770000036], [84.54316806700007, 25.319007835000036], [84.54268755000004, 25.318811409000034], [84.54129941100007, 25.318416609000053], [84.53991502100007, 25.318215809000037], [84.53874365400003, 25.318110882000042], [84.53834198400006, 25.31832684500006], [84.53793667000008, 25.31854476500007], [84.53767014100004, 25.319125722000024], [84.53734478300004, 25.31956198200004], [84.53670303400008, 25.31975297300005], [84.53574436200006, 25.319797978000054], [84.53448857100005, 25.31969254300003], [84.53316003100008, 25.319297954000035], [84.53273377900007, 25.319151478000038], [84.53246678400006, 25.318956050000054], [84.53194873800004, 25.319224349000024], [84.53242554900004, 25.320066173000043], [84.53282295700006, 25.320871458000056], [84.53378444500004, 25.321214629000053], [84.53494562400004, 25.321360226000024], [84.53506763000007, 25.322570368000072], [84.53546751000005, 25.32381354000006], [84.53579398300008, 25.324889234000068], [84.53589711100005, 25.325932327000032], [84.53574163800005, 25.32703741000006], [84.53586818000008, 25.32748033000007], [84.53522279100008, 25.327441109000063], [84.53463191100008, 25.327424695000047], [84.53411985800005, 25.32751693700004], [84.53377123500007, 25.327677790000052], [84.53349267900006, 25.327748649000057], [84.53326414700007, 25.327770068000063], [84.53268827400007, 25.327731106000044], [84.53259767800006, 25.328777838000065], [84.53207256400003, 25.32855864800007], [84.53167088100008, 25.328457311000022], [84.53059820300007, 25.328452112000036], [84.52979328500004, 25.328520394000066], [84.52903727100005, 25.328710822000062], [84.52780417500009, 25.328948429000036], [84.52689847300007, 25.329255474000036], [84.52704232400004, 25.33179268300006], [84.52716757800005, 25.333282671000063], [84.52729477400004, 25.334452231000057], [84.52745458700008, 25.335134529000072], [84.52776867800003, 25.33577253800007], [84.52810452500006, 25.336094607000064], [84.52837181600006, 25.336240307000025], [84.52887753400006, 25.33639174700005], [84.53042959500004, 25.33681004600004], [84.53128865100007, 25.33684129100004], [84.53252323100008, 25.33721295400005], [84.53375113500005, 25.33785074800005], [84.53452747400007, 25.338441334000038], [84.53513049400004, 25.338936153000077], [84.53452267400007, 25.339258190000066], [84.53376974500009, 25.339769010000055], [84.53328594200008, 25.340105186000073], [84.53325474700006, 25.340348747000064], [84.53338491500006, 25.341008330000022], [84.53362546200003, 25.341496996000046], [84.53372658600006, 25.34203458500008], [84.53369859000009, 25.342571530000043], [84.53356235400008, 25.34293640100003], [84.53321337700004, 25.34315140800004], [84.53262089600008, 25.343392227000038], [84.53223315900004, 25.343439938000074], [84.53175490100006, 25.343681374000028], [84.53198477200004, 25.34514481000008], [84.53233828100008, 25.34668557300006], [84.53246758800003, 25.34748957100004], [84.53228959000006, 25.34908381100007], [84.53201483700008, 25.351833794000072], [84.53254975400006, 25.35294215400006], [84.53291391800008, 25.354356625000037], [84.53370181400004, 25.35721282700007], [84.53416513100007, 25.358681946000047], [84.53429370100008, 25.359630349000042], [84.53437113800004, 25.359973773000036], [84.53460901100004, 25.360074187000066], [84.53657443700007, 25.359519609000074], [84.53829045000003, 25.359139809000055], [84.53869238600004, 25.359213958000055], [84.53898847500005, 25.35955834600003], [84.53925503300007, 25.359853042000054], [84.53952137600004, 25.36017021300006], [84.53959887100007, 25.360509121000064], [84.53970190100006, 25.360730793000073], [84.54022188500005, 25.361004069000046], [84.54169386300003, 25.361597910000057], [84.54260538200003, 25.362040103000027], [84.54340689200006, 25.362603569000044], [84.54418347700005, 25.363167025000052], [84.54476603600006, 25.363806150000073], [84.54492809600004, 25.364122869000028], [84.54583779200004, 25.36402796300007], [84.54648424200008, 25.363909186000058], [84.54699061300005, 25.363961189000065], [84.54755621900006, 25.364085767000063], [84.54784764100003, 25.364380548000042], [84.54805874400006, 25.364819313000055], [84.54829865500005, 25.365429800000072], [84.54849240800007, 25.366292758000043], [84.54903629300009, 25.365880188000062], [84.54973562800006, 25.36520199200004]]]]}}, {"type": "Feature", "properties": {"OBJECTID": 3313, "GPCODE": "92259", "GPNAME_1": "MALAUR", "DIST_CEN_C": "29", "BLK_NAME": "CHARPOKHARI", "ST_NAME": "BIHAR", "ST_CODE_1": "10", "GPCODE2011": "94814", "REMARKS": "FINALIZED", "MAP_STATUS": "COMPLETED", "BLK_C_2001": "290010", "BLK_C_2011": "01430", "DIST_NAME": "BHOJPUR", "code2011": 33.0, "Shape_Leng": 0.22368979477, "Shape_Area": 0.00107312666, "Area": 11.9761}, "geometry": {"type": "MultiPolygon", "coordinates": [[[[84.49636904000005, 25.347101654000028], [84.49668842900007, 25.348470814000052], [84.49690464000008, 25.350462239000024], [84.49696145600007, 25.35171276400007], [84.49703211900004, 25.353143834000036], [84.49725784600008, 25.35439065500003], [84.49761017200007, 25.355254504000072], [84.49789964000007, 25.35582918700004], [84.49829998800004, 25.35615616700005], [84.49886192200006, 25.356867699000077], [84.49931307000008, 25.357817814000043], [84.49982716800008, 25.359039039000038], [84.50053898600004, 25.361213493000037], [84.50082138800008, 25.362943576000077], [84.50092904000007, 25.363214955000046], [84.50103779500006, 25.363310236000075], [84.50143984000005, 25.363361917000077], [84.50194657600008, 25.363364515000058], [84.50245817700005, 25.36336715400006], [84.50370565500003, 25.363274196000077], [84.50368435900003, 25.362700851000056], [84.50357698100004, 25.36077313800007], [84.50339745500008, 25.35926024300005], [84.50299655000003, 25.356599861000063], [84.50287045100004, 25.355285879000064], [84.50266151700004, 25.354526537000027], [84.50263920400005, 25.353307794000045], [84.50280729600007, 25.352627191000067], [84.50299261700007, 25.35238441200005], [84.50386727500006, 25.352312131000076], [84.50375193900004, 25.351684146000025], [84.50370021900005, 25.351196492000042], [84.50370416800007, 25.35056006800005], [84.50358332900004, 25.349205504000054], [84.50353222400008, 25.34862298300004], [84.50343227900004, 25.347913883000047], [84.50330277300003, 25.347159506000025], [84.50308676800006, 25.34674320000005], [84.50301383000004, 25.346499083000026], [84.50279117500008, 25.345536627000058], [84.50197330100008, 25.34606952300004], [84.50144019800007, 25.34634671200007], [84.50074228600005, 25.346758340000065], [84.49998522100003, 25.34709304100005], [84.49942285700007, 25.347261675000027], [84.49904474900006, 25.34735902500006], [84.49819031100003, 25.347377192000067], [84.49789728400003, 25.34736672500003], [84.49760951600007, 25.347315587000026], [84.49636904000005, 25.347101654000028]]], [[[84.49636904000005, 25.347101654000028], [84.49629364100008, 25.346446813000057], [84.49613841200005, 25.345051341000044], [84.49598038600004, 25.344098236000036], [84.49572779700009, 25.343176236000033], [84.49552381000007, 25.341627103000064], [84.49506195900005, 25.34162475100004], [84.49359161200005, 25.341644269000028], [84.49225445500008, 25.341817932000026], [84.49074992400006, 25.341746974000046], [84.48980129000006, 25.341742132000036], [84.48905130000009, 25.341738254000063], [84.48793740400004, 25.341944642000044], [84.48715210900008, 25.34202631200003], [84.48663226800005, 25.341757276000067], [84.48709860100007, 25.340274830000055], [84.48736361900006, 25.339978286000076], [84.48756252900006, 25.339148915000067], [84.48761575700007, 25.33858049500003], [84.48751958600008, 25.338074507000044], [84.48690397000007, 25.337240905000044], [84.48642120700003, 25.336615529000028], [84.48589824700008, 25.336048684000048], [84.48551112500007, 25.335211686000036], [84.48504530700006, 25.334256976000063], [84.48482062300008, 25.33366004000004], [84.48482244600007, 25.33336218200003], [84.48551460800007, 25.332287034000046], [84.48616999100005, 25.331518671000026], [84.48666522900004, 25.33095706900008], [84.48431172100004, 25.330868081000062], [84.48260752000004, 25.330976589000045], [84.48165900700008, 25.330967092000037], [84.48100694200008, 25.33120290000005], [84.47985668500007, 25.331670795000036], [84.47844636500008, 25.33243525300003], [84.47792398800004, 25.33258147600003], [84.47720131300008, 25.332965815000023], [84.47642945800004, 25.333291255000063], [84.47567767400005, 25.33358517000005], [84.47499212000008, 25.33360864800005], [84.47427148000008, 25.333695109000075], [84.47381090900006, 25.333485004000067], [84.47332475200005, 25.33339221700004], [84.47263407600008, 25.333451745000048], [84.47221209400004, 25.333417971000074], [84.47074159100003, 25.333482402000072], [84.46935007600007, 25.333623918000058], [84.46794411400003, 25.333679647000054], [84.46562486800008, 25.333667383000034], [84.46396111000007, 25.33365849200004], [84.46311254300008, 25.333554654000068], [84.46227779700007, 25.33360889200003], [84.46103811300009, 25.33330432200006], [84.46128516300007, 25.334267053000076], [84.46121477100007, 25.335160280000025], [84.46091192000006, 25.336675140000068], [84.46055580500007, 25.33874938300005], [84.46061418500005, 25.340473743000075], [84.46060453400008, 25.34195861300003], [84.46069546500007, 25.34249165400007], [84.46106925300006, 25.343057808000026], [84.46265403900009, 25.345322966000026], [84.46291104400007, 25.346276655000054], [84.46276454300005, 25.346663944000056], [84.46201050400003, 25.347282820000032], [84.46102144100007, 25.348139494000065], [84.46098916400007, 25.34852754700006], [84.46029607800006, 25.348939034000068], [84.45908095900006, 25.350178179000068], [84.45809532700008, 25.351274153000077], [84.45743438900007, 25.35207394200006], [84.45693787600004, 25.35281144700008], [84.45676978200004, 25.353437848000056], [84.45619125400003, 25.354567592000024], [84.45592365200008, 25.35522060900007], [84.45575691000005, 25.355661972000064], [84.45572201400006, 25.35643804600005], [84.45571796300004, 25.357060927000077], [84.45587621000004, 25.357923809000056], [84.45530282000004, 25.35825015100005], [84.45464581700008, 25.358454212000026], [84.45415775600009, 25.35863214400007], [84.45389434200007, 25.358657761000075], [84.45333795900007, 25.358654775000048], [84.45281605600007, 25.358710651000024], [84.45249554900005, 25.360622491000072], [84.45219382400006, 25.361929720000035], [84.45210923600007, 25.36270556000005], [84.45337981100005, 25.36288850300008], [84.45374150200007, 25.363039352000044], [84.45409973300008, 25.36295106500006], [84.45436536500006, 25.36259591000004], [84.45440211900006, 25.361526499000036], [84.45444622200006, 25.36010051200003], [84.45509737000003, 25.36004533700003], [84.45660175300003, 25.360170796000034], [84.45908604800007, 25.360098441000048], [84.46045760600003, 25.360015521000037], [84.46083320800005, 25.36031540600004], [84.46083193300007, 25.360522999000068], [84.46060126200007, 25.360851285000024], [84.46052935700004, 25.36120741700006], [84.46062505200007, 25.36177208400005], [84.46107550100004, 25.362785489000032], [84.46120657200004, 25.363260093000065], [84.46143240300006, 25.363676535000025], [84.46182369400003, 25.36385920300006], [84.46250786800005, 25.364070457000025], [84.46279866300006, 25.364428580000038], [84.46342547800003, 25.36583101900004], [84.46363119300008, 25.366283489000068], [84.46354512900007, 25.367294007000055], [84.46366471100004, 25.368783975000042], [84.46398490800004, 25.369972763000078], [84.46443382600006, 25.371225340000024], [84.46454334600008, 25.371970549000025], [84.46494634700008, 25.371878002000074], [84.46555437300003, 25.371578809000027], [84.46667009900005, 25.371137911000062], [84.46752164000003, 25.370817513000077], [84.46912424800007, 25.37037923500003], [84.46951780900008, 25.370205270000042], [84.46965438100005, 25.369817897000075], [84.46991480300005, 25.36949426600006], [84.47030857800007, 25.36928880100004], [84.47079988200005, 25.36937712400004], [84.47119103200004, 25.36958675300008], [84.47183950600004, 25.369946791000075], [84.47282328900008, 25.369924859000037], [84.47377294100005, 25.36980804600006], [84.47591492000004, 25.369688488000065], [84.47632022300007, 25.370015563000038], [84.47729599800005, 25.371270851000077], [84.47806765200005, 25.372583779000024], [84.47849186800005, 25.373059846000046], [84.47894811100008, 25.37317963600003], [84.48022471600007, 25.37321789300006], [84.48174427100008, 25.372544308000045], [84.48250161500005, 25.37219174200004], [84.48295871000005, 25.37219408900006], [84.48251284300005, 25.369927980000057], [84.48129359200004, 25.368630147000033], [84.48095415300008, 25.367932323000048], [84.47987231000008, 25.36570822400006], [84.47906592600003, 25.36370635000003], [84.47831939200006, 25.361874976000024], [84.47843530100005, 25.361604768000063], [84.47843837700003, 25.36113090500004], [84.47847309100007, 25.360359342000038], [84.47847589900005, 25.359912560000055], [84.47867699900007, 25.35952542900003], [84.47939918400004, 25.359235862000048], [84.48021551300008, 25.358969355000056], [84.48044474000005, 25.358853149000026], [84.48041763000003, 25.35843780400006], [84.48081076100004, 25.358322478000048], [84.48094166500005, 25.358052386000054], [84.48089700400004, 25.357248767000044], [84.48034763000004, 25.35614922600007], [84.48015272900005, 25.355552441000043], [84.48015407500003, 25.355344844000058], [84.48031910700007, 25.355169626000077], [84.48094246200003, 25.35478474400003], [84.48133741300006, 25.35437156200004], [84.48156764500004, 25.354102005000072], [84.48163672400005, 25.35338920600003], [84.48134762700005, 25.35276494200008], [84.48128757600006, 25.352051456000027], [84.48390115000007, 25.35191621000007], [84.48524269600006, 25.351864509000052], [84.48530372600004, 25.35242897300003], [84.48533636000008, 25.35275861300005], [84.48556342200004, 25.352994502000058], [84.48592101500003, 25.352996310000037], [84.48657862600004, 25.352701853000042], [84.48715074300009, 25.35255591500004], [84.48770730900003, 25.352527188000067], [84.48832764800005, 25.35262065200004], [84.48872021500006, 25.352591052000037], [84.48914312300008, 25.352475947000073], [84.48973541100008, 25.352298475000055], [84.49048488100004, 25.352392610000038], [84.49100599700006, 25.352453944000047], [84.49280521300005, 25.352287164000074], [84.49408325100006, 25.352054530000032], [84.49470528500007, 25.351881701000025], [84.49495001100007, 25.351670821000027], [84.49505167600006, 25.351287745000036], [84.49509051300004, 25.350633552000033], [84.49549136900004, 25.349268], [84.49589296200008, 25.347785199000043], [84.49636904000005, 25.347101654000028]]]]}}, {"type": "Feature", "properties": {"OBJECTID": 3326, "GPCODE": "92266", "GPNAME_1": "THAKURI", "DIST_CEN_C": "29", "BLK_NAME": "CHARPOKHARI", "ST_NAME": "BIHAR", "ST_CODE_1": "10", "GPCODE2011": "94821", "REMARKS": "FINALIZED", "MAP_STATUS": "COMPLETED", "BLK_C_2001": "290010", "BLK_C_2011": "01430", "DIST_NAME": "BHOJPUR", "code2011": 25.0, "Shape_Leng": 0.18175135672, "Shape_Area": 0.00096316801, "Area": 10.7458}, "geometry": {"type": "MultiPolygon", "coordinates": [[[[84.43921241400005, 25.412691856000038], [84.44177363200004, 25.412417056000038], [84.44257232900009, 25.412638103000063], [84.44369149900007, 25.41249987300006], [84.44409120400007, 25.41217709500006], [84.44433264600008, 25.411740619000057], [84.44429888400003, 25.410833208000042], [84.44397400300005, 25.408868208000058], [84.44362469800006, 25.40723304900007], [84.44327516700008, 25.40559679000006], [84.44349001000006, 25.403928016000066], [84.44369046200006, 25.40367190300003], [84.44476970000005, 25.40353333400003], [84.44760476100004, 25.403168251000068], [84.44910675800008, 25.402974810000046], [84.45114649500005, 25.40262484400006], [84.45108345500006, 25.400128663000032], [84.45106720800004, 25.397307837000028], [84.45109734700003, 25.39499267800005], [84.45118067900006, 25.392140717000075], [84.45234259000006, 25.392268873000035], [84.45358511100005, 25.39221698800003], [84.45561528900004, 25.391781132000062], [84.45728256800004, 25.391374926000026], [84.45852667300005, 25.391083726000033], [84.45947666700005, 25.390939925000055], [84.46057111800008, 25.390738187000068], [84.46042949200006, 25.39036279000004], [84.46014212000006, 25.389467635000074], [84.45969412600004, 25.388070646000074], [84.45934179400007, 25.387233803000072], [84.45903311400008, 25.386573148000025], [84.45903676500006, 25.386009037000065], [84.45910516700008, 25.385418110000046], [84.45921153900008, 25.384349103000034], [84.45921579100008, 25.383694641000034], [84.45902111800007, 25.383070762000045], [84.45873720800006, 25.38164308000006], [84.45850658800003, 25.380441309000048], [84.45667879500007, 25.380341181000063], [84.45311536900005, 25.380502401000058], [84.45229482600007, 25.380615376000037], [84.45199973200005, 25.38091160700003], [84.45186749900006, 25.381384749000063], [84.45166718300004, 25.381622917000072], [84.45124404400008, 25.381737921000024], [84.45052250600008, 25.38191452800004], [84.45006437500007, 25.382061012000065], [84.44992924300004, 25.382209183000043], [84.44989675100004, 25.382624303000057], [84.45008232800006, 25.383870931000047], [84.45022584200007, 25.38470669700007], [84.45018899000007, 25.385031424000033], [84.44979604000008, 25.385088005000057], [84.44803181900005, 25.38514156900004], [84.44805495600008, 25.38614810200005], [84.44711135300008, 25.386084281000024], [84.44432641100008, 25.386457223000036], [84.44200317200006, 25.38689129100004], [84.44028679700006, 25.387211354000044], [84.43815727700007, 25.387646355000072], [84.43769903600008, 25.387819876000037], [84.43757817700003, 25.38730472900005], [84.43744364800006, 25.385133047000068], [84.43731929500007, 25.38441477300006], [84.43673444800004, 25.381229716000064], [84.43599749800006, 25.378495050000026], [84.43560208400004, 25.37670559700007], [84.43502922800008, 25.374712097000042], [84.43455059300004, 25.37274619300007], [84.43207592100003, 25.371333315000072], [84.42852633600006, 25.371697176000055], [84.42698483700008, 25.37189617200005], [84.42505703700004, 25.37191243700005], [84.42450789800006, 25.37083969200006], [84.42421684700008, 25.370544677000055], [84.42385955500004, 25.37047954800005], [84.42274471800005, 25.37077111800005], [84.42143385700007, 25.371391112000026], [84.42036738700006, 25.371886076000067], [84.41941262600005, 25.372742680000044], [84.41921578700004, 25.37318844400005], [84.41921312400007, 25.373572043000024], [84.41949832400007, 25.374733544000037], [84.41952985600005, 25.375212118000036], [84.41920015600004, 25.375476583000022], [84.41818420800007, 25.37582736300004], [84.41762536600004, 25.37618076700005], [84.41750844700005, 25.376563753000028], [84.41750565300003, 25.376978940000072], [84.41765801900004, 25.37793658100003], [84.41773859700004, 25.378514771000027], [84.41777089200008, 25.379602629000033], [84.41796657100008, 25.380041533000053], [84.41924945900007, 25.37989981800007], [84.42000557500006, 25.379755153000076], [84.42108527100004, 25.37952658000006], [84.42196653100007, 25.379260747000046], [84.42288770700003, 25.37896808100004], [84.42343858000004, 25.37906139200004], [84.42367079900004, 25.379243259000077], [84.42373300800006, 25.37960014400005], [84.42373765000008, 25.381112092000023], [84.42369095300006, 25.382862983000052], [84.42387618100008, 25.384854404000066], [84.42390225900004, 25.385391602000027], [84.42394115100007, 25.386994005000076], [84.42408770600008, 25.389549328000044], [84.42333287300005, 25.38948642200006], [84.42264638000006, 25.389599926000074], [84.42241538000007, 25.38995522700003], [84.42247592600006, 25.390551294000034], [84.42261994100005, 25.391292218000046], [84.42348603000005, 25.39400058600006], [84.42448879800008, 25.397801826000034], [84.42500036200005, 25.400029776000054], [84.42570057700004, 25.402294879000067], [84.42553710200008, 25.40294383500003], [84.42510653700003, 25.40341532900004], [84.42438300100008, 25.40385807000007], [84.42379597900003, 25.403944981000052], [84.42307422400006, 25.404116948000024], [84.42278027200007, 25.404232698000044], [84.42257789500007, 25.404768578000073], [84.42260939500005, 25.40524272500005], [84.42312716300006, 25.405841310000028], [84.42345065500007, 25.40649755100003], [84.42378114100006, 25.40686050000005], [84.42493904300005, 25.406866971000056], [84.42613244600005, 25.408218641000076], [84.42704368300008, 25.40941979300004], [84.42763534800008, 25.410113582000065], [84.42877073100004, 25.41198392000007], [84.42933035600004, 25.412275949000048], [84.42956560300007, 25.41275108800005], [84.43150037100008, 25.416209981000065], [84.43241096100007, 25.41752391600005], [84.43304147400005, 25.41836242900007], [84.43328506100005, 25.41836375400004], [84.43360406100004, 25.418221119000066], [84.43360871400006, 25.417530568000075], [84.43390191800006, 25.415316215000075], [84.43481000100007, 25.41404854700005], [84.43573329600008, 25.413471410000056], [84.43753516600003, 25.41304813800008], [84.43921241400005, 25.412691856000038]]]]}}, {"type": "Feature", "properties": {"OBJECTID": 3369, "GPCODE": "92260", "GPNAME_1": "MUKUND PUR", "DIST_CEN_C": "29", "BLK_NAME": "CHARPOKHARI", "ST_NAME": "BIHAR", "ST_CODE_1": "10", "GPCODE2011": "94815", "REMARKS": "FINALIZED", "MAP_STATUS": "COMPLETED", "BLK_C_2001": "290010", "BLK_C_2011": "01430", "DIST_NAME": "BHOJPUR", "code2011": 22.0, "Shape_Leng": 0.13665470111, "Shape_Area": 0.00077801532, "Area": 8.68149}, "geometry": {"type": "MultiPolygon", "coordinates": [[[[84.44432641100008, 25.386457223000036], [84.44711135300008, 25.386084281000024], [84.44805495600008, 25.38614810200005], [84.44803181900005, 25.38514156900004], [84.44979604000008, 25.385088005000057], [84.45018899000007, 25.385031424000033], [84.45022584200007, 25.38470669700007], [84.45008232800006, 25.383870931000047], [84.44989675100004, 25.382624303000057], [84.44992924300004, 25.382209183000043], [84.45006437500007, 25.382061012000065], [84.45052250600008, 25.38191452800004], [84.45124404400008, 25.381737921000024], [84.45166718300004, 25.381622917000072], [84.45186749900006, 25.381384749000063], [84.45199973200005, 25.38091160700003], [84.45229482600007, 25.380615376000037], [84.45311536900005, 25.380502401000058], [84.45667879500007, 25.380341181000063], [84.45850658800003, 25.380441309000048], [84.45873720800006, 25.38164308000006], [84.45902111800007, 25.383070762000045], [84.46107942300006, 25.38270410900003], [84.46263729700007, 25.382161299000074], [84.46474781600006, 25.380703047000054], [84.46686328100003, 25.37950372800003], [84.46960271700004, 25.37787834200003], [84.46861195100007, 25.376654475000066], [84.46744304200007, 25.37531234200003], [84.46608085900004, 25.373905969000077], [84.46484692700005, 25.372653721000063], [84.46454334600008, 25.371970549000025], [84.46443382600006, 25.371225340000024], [84.46398490800004, 25.369972763000078], [84.46366471100004, 25.368783975000042], [84.46354512900007, 25.367294007000055], [84.46363119300008, 25.366283489000068], [84.46342547800003, 25.36583101900004], [84.46279866300006, 25.364428580000038], [84.46250786800005, 25.364070457000025], [84.46182369400003, 25.36385920300006], [84.46143240300006, 25.363676535000025], [84.46120657200004, 25.363260093000065], [84.46107550100004, 25.362785489000032], [84.46062505200007, 25.36177208400005], [84.46052935700004, 25.36120741700006], [84.46060126200007, 25.360851285000024], [84.46083193300007, 25.360522999000068], [84.46083320800005, 25.36031540600004], [84.46045760600003, 25.360015521000037], [84.45908604800007, 25.360098441000048], [84.45660175300003, 25.360170796000034], [84.45509737000003, 25.36004533700003], [84.45444622200006, 25.36010051200003], [84.45440211900006, 25.361526499000036], [84.45436536500006, 25.36259591000004], [84.45409973300008, 25.36295106500006], [84.45374150200007, 25.363039352000044], [84.45337981100005, 25.36288850300008], [84.45210923600007, 25.36270556000005], [84.45219382400006, 25.361929720000035], [84.45249554900005, 25.360622491000072], [84.45281605600007, 25.358710651000024], [84.45285399000005, 25.357465140000045], [84.45269459200006, 25.356778261000045], [84.45256774500007, 25.356421027000067], [84.45237365200006, 25.356478629000037], [84.45168663500004, 25.35671411100003], [84.45096435500005, 25.357008063000023], [84.45040707900006, 25.357153992000065], [84.44972095600008, 25.357240540000078], [84.44922936700004, 25.357206305000034], [84.44828728200008, 25.35694392000005], [84.44584913100005, 25.35755798300005], [84.44152606600005, 25.35851359700007], [84.43838624000006, 25.359299763000024], [84.43807786400004, 25.358616491000078], [84.43811637500005, 25.358052574000055], [84.43798944700006, 25.357726917000036], [84.43544141500007, 25.35768123400004], [84.43426347000008, 25.35776502500005], [84.43357765400003, 25.357819815000028], [84.43311502200004, 25.35790754100003], [84.43269084900004, 25.35819859000003], [84.43226041100007, 25.35867453700007], [84.43196577100008, 25.358907644000055], [84.43173729700004, 25.358906348000062], [84.43151032300005, 25.358670381000024], [84.43099280800004, 25.358071805000066], [84.43031657300008, 25.357431630000065], [84.43031314200005, 25.35793257000006], [84.43036815500005, 25.359354607000057], [84.43055440300003, 25.36047491000005], [84.43077527400004, 25.361599933000036], [84.43086945900006, 25.36236770100004], [84.43110241400007, 25.36318592400005], [84.43115984100007, 25.36425594600007], [84.43147660200003, 25.36589600800005], [84.43148338300006, 25.367110113000024], [84.43180846800004, 25.36752716500007], [84.43176725500007, 25.368479191000063], [84.43207592100003, 25.371333315000072], [84.43455059300004, 25.37274619300007], [84.43502922800008, 25.374712097000042], [84.43560208400004, 25.37670559700007], [84.43599749800006, 25.378495050000026], [84.43673444800004, 25.381229716000064], [84.43731929500007, 25.38441477300006], [84.43744364800006, 25.385133047000068], [84.43757817700003, 25.38730472900005], [84.43769903600008, 25.387819876000037], [84.43815727700007, 25.387646355000072], [84.44028679700006, 25.387211354000044], [84.44200317200006, 25.38689129100004], [84.44432641100008, 25.386457223000036]]]]}}, {"type": "Feature", "properties": {"OBJECTID": 3371, "GPCODE": "92264", "GPNAME_1": "SIYADIH", "DIST_CEN_C": "29", "BLK_NAME": "CHARPOKHARI", "ST_NAME": "BIHAR", "ST_CODE_1": "10", "GPCODE2011": "94819", "REMARKS": "FINALIZED", "MAP_STATUS": "COMPLETED", "BLK_C_2001": "290010", "BLK_C_2011": "01430", "DIST_NAME": "BHOJPUR", "code2011": 27.0, "Shape_Leng": 0.21491001441, "Shape_Area": 0.00087952172, "Area": 9.81363}, "geometry": {"type": "MultiPolygon", "coordinates": [[[[84.50367040400005, 25.39087296200006], [84.50340949400004, 25.389675630000056], [84.50302965200007, 25.388405414000033], [84.50284930000004, 25.387037043000078], [84.50264422600003, 25.38564581600008], [84.50282713000007, 25.384978793000073], [84.50300585700006, 25.384198904000073], [84.50314829500007, 25.382854675000033], [84.50333535200008, 25.382323076000034], [84.50363575000006, 25.381959], [84.50409489400005, 25.381618306000064], [84.50457937200008, 25.38120551000003], [84.50514277300005, 25.380892448000054], [84.50586976900007, 25.38062536800004], [84.50638254800003, 25.380460921000065], [84.50678675800003, 25.380169607000028], [84.50717699800003, 25.379729245000078], [84.50742507700005, 25.378976799000043], [84.50806522600004, 25.379101931000037], [84.50927233700008, 25.37913055300004], [84.51141920000003, 25.379042044000073], [84.51372900500007, 25.37913035100007], [84.51417109400006, 25.37914611900004], [84.51645103900006, 25.379229730000077], [84.51782263400008, 25.37919143000005], [84.51814656600004, 25.379021488000035], [84.51825204000005, 25.378827985000044], [84.51828315900008, 25.378606997000077], [84.51809669900007, 25.37821794200005], [84.51785547900005, 25.377851108000073], [84.51783156500005, 25.37770207600005], [84.51793731100008, 25.37745884000003], [84.51834197500006, 25.377095286000042], [84.51883119900003, 25.37670956100004], [84.51955432700004, 25.37624832100005], [84.52095540900007, 25.375424758000065], [84.52092893900004, 25.374865012000043], [84.52101109100005, 25.374427610000055], [84.52121857700007, 25.373796766000055], [84.52165454700008, 25.372332156000027], [84.52214722600007, 25.37053374000004], [84.52208781500008, 25.369675862000065], [84.51902592000005, 25.369940559000042], [84.51889861800004, 25.368807024000034], [84.51860051000006, 25.367144651000046], [84.51836342000007, 25.366096361000075], [84.51812573100005, 25.36514293500005], [84.51761388500006, 25.363529053000036], [84.51736270500004, 25.36315771900007], [84.51742288600008, 25.362232814000038], [84.51753091500007, 25.361624023000047], [84.51753271900003, 25.361330679000048], [84.51751047000005, 25.36089281900007], [84.51708466000008, 25.35984357700005], [84.51597205500008, 25.35982000300004], [84.51406928500006, 25.35983757200006], [84.51337435900007, 25.359757340000044], [84.51235054900008, 25.359828950000065], [84.51170933200007, 25.359897982000064], [84.51106353600005, 25.359894675000078], [84.51036857200006, 25.359819035000044], [84.50834123500005, 25.359908116000042], [84.50676156800006, 25.35990008300007], [84.50579320800006, 25.359845539000048], [84.50583161200007, 25.358446666000077], [84.50559808800006, 25.35683423100005], [84.50545471400005, 25.35590824700006], [84.50506083000005, 25.35451613300006], [84.50453218300004, 25.353245249000054], [84.50386727500006, 25.352312131000076], [84.50299261700007, 25.35238441200005], [84.50280729600007, 25.352627191000067], [84.50263920400005, 25.353307794000045], [84.50266151700004, 25.354526537000027], [84.50287045100004, 25.355285879000064], [84.50299655000003, 25.356599861000063], [84.50339745500008, 25.35926024300005], [84.50357698100004, 25.36077313800007], [84.50368435900003, 25.362700851000056], [84.50370565500003, 25.363274196000077], [84.50245817700005, 25.36336715400006], [84.50194657600008, 25.363364515000058], [84.50143984000005, 25.363361917000077], [84.50103779500006, 25.363310236000075], [84.50092904000007, 25.363214955000046], [84.50082138800008, 25.362943576000077], [84.50053898600004, 25.361213493000037], [84.49982716800008, 25.359039039000038], [84.49931307000008, 25.357817814000043], [84.49886192200006, 25.356867699000077], [84.49829998800004, 25.35615616700005], [84.49789964000007, 25.35582918700004], [84.49761017200007, 25.355254504000072], [84.49725784600008, 25.35439065500003], [84.49703211900004, 25.353143834000036], [84.49696145600007, 25.35171276400007], [84.49690464000008, 25.350462239000024], [84.49668842900007, 25.348470814000052], [84.49636904000005, 25.347101654000028], [84.49589296200008, 25.347785199000043], [84.49549136900004, 25.349268], [84.49509051300004, 25.350633552000033], [84.49505167600006, 25.351287745000036], [84.49495001100007, 25.351670821000027], [84.49470528500007, 25.351881701000025], [84.49408325100006, 25.352054530000032], [84.49280521300005, 25.352287164000074], [84.49100599700006, 25.352453944000047], [84.49048488100004, 25.352392610000038], [84.48973541100008, 25.352298475000055], [84.48914312300008, 25.352475947000073], [84.48872021500006, 25.352591052000037], [84.48832764800005, 25.35262065200004], [84.48770730900003, 25.352527188000067], [84.48715074300009, 25.35255591500004], [84.48657862600004, 25.352701853000042], [84.48592101500003, 25.352996310000037], [84.48556342200004, 25.352994502000058], [84.48533636000008, 25.35275861300005], [84.48530372600004, 25.35242897300003], [84.48524269600006, 25.351864509000052], [84.48390115000007, 25.35191621000007], [84.48128757600006, 25.352051456000027], [84.48134762700005, 25.35276494200008], [84.48163672400005, 25.35338920600003], [84.48156764500004, 25.354102005000072], [84.48133741300006, 25.35437156200004], [84.48094246200003, 25.35478474400003], [84.48031910700007, 25.355169626000077], [84.48015407500003, 25.355344844000058], [84.48015272900005, 25.355552441000043], [84.48034763000004, 25.35614922600007], [84.48089700400004, 25.357248767000044], [84.48094166500005, 25.358052386000054], [84.48081076100004, 25.358322478000048], [84.48041763000003, 25.35843780400006], [84.48044474000005, 25.358853149000026], [84.48021551300008, 25.358969355000056], [84.47939918400004, 25.359235862000048], [84.47867699900007, 25.35952542900003], [84.47847589900005, 25.359912560000055], [84.47847309100007, 25.360359342000038], [84.47843837700003, 25.36113090500004], [84.47843530100005, 25.361604768000063], [84.47831939200006, 25.361874976000024], [84.47906592600003, 25.36370635000003], [84.47987231000008, 25.36570822400006], [84.48095415300008, 25.367932323000048], [84.48160460100007, 25.36707535200003], [84.48295979600005, 25.366588716000024], [84.48500309900004, 25.366401008000025], [84.48704639600004, 25.366213273000028], [84.48957401200005, 25.36618968500005], [84.48995123900005, 25.366250310000055], [84.49096616500003, 25.366016303000038], [84.49168697500005, 25.36592976600008], [84.49263156900008, 25.365817311000058], [84.49368019800005, 25.36576399100005], [84.49465749400008, 25.365976646000036], [84.49541164400006, 25.36612946500003], [84.49589645800006, 25.36645685600007], [84.49671159500008, 25.367205711000054], [84.49789516800007, 25.36860642000005], [84.49854706200006, 25.36924609400006], [84.49875999100004, 25.369346549000056], [84.50001034400003, 25.370576810000045], [84.50056863000003, 25.372524095000074], [84.49970877900006, 25.372591963000048], [84.49879496600005, 25.372537631000057], [84.49789626400008, 25.372451823000063], [84.49714551600005, 25.372538243000065], [84.49655308200005, 25.372742817000074], [84.49537381900006, 25.373034664000045], [84.49360845900009, 25.37329634100007], [84.49247985300008, 25.373434943000063], [84.49188921500007, 25.373341647000075], [84.49136886700006, 25.37313139200006], [84.49075012600008, 25.372771586000056], [84.49039349700007, 25.372593788000074], [84.49012968800008, 25.37267813400007], [84.48996385500004, 25.37297521000005], [84.49002412500005, 25.373661515000038], [84.49027877000003, 25.375057406000053], [84.49046890900007, 25.37642597300004], [84.49030344300007, 25.376664289000075], [84.49000502000007, 25.376721459000066], [84.48951810100004, 25.376718892000042], [84.48906242300006, 25.376508966000074], [84.48921318200007, 25.377024230000075], [84.48983273200008, 25.377262191000057], [84.49038803100007, 25.377445564000027], [84.49090993200008, 25.377416636000078], [84.49120499100007, 25.377093255000034], [84.49149817400007, 25.377094708000072], [84.49192320400005, 25.377453493000075], [84.49185495500006, 25.378044345000035], [84.49168758400003, 25.37858060800005], [84.49142137700005, 25.379053157000044], [84.49102590500007, 25.37952493800003], [84.49060137400005, 25.379879324000058], [84.49030637400006, 25.380175720000068], [84.49070302700005, 25.38111195600004], [84.49099757900007, 25.381677658000058], [84.49119057400009, 25.381796012000052], [84.49184450500007, 25.38209724400008], [84.49196914600003, 25.38283812800006], [84.49176961500007, 25.383757744000036], [84.49166814500006, 25.38408675000005], [84.49137297000004, 25.384410133000074], [84.49127201700009, 25.384675955000034], [84.49136877500007, 25.38509618300003], [84.49159580500003, 25.385332062000032], [84.49192341000008, 25.385392371000023], [84.49247525600003, 25.386583649000045], [84.49300653800003, 25.387582484000063], [84.49346613800003, 25.38927987900007], [84.49368510000005, 25.39053307000006], [84.49456676200003, 25.39017657200003], [84.49604718900008, 25.39022030600006], [84.49640342900005, 25.39047480800008], [84.49731700700005, 25.391386734000037], [84.49762760100003, 25.392588802000034], [84.49789937800006, 25.393623759000036], [84.49875566100008, 25.394165231000045], [84.49924393400005, 25.39476350900003], [84.49961020500007, 25.39500003200004], [84.50022334200008, 25.39549063000004], [84.50046209700008, 25.39544217200006], [84.50129988400005, 25.394959007000068], [84.50205242600003, 25.394597283000053], [84.50382548100004, 25.393947351000065], [84.50420412100004, 25.393777787000033], [84.50433965400003, 25.393561783000052], [84.50434138800006, 25.393268447000025], [84.50417067400008, 25.392753044000074], [84.50388543100007, 25.391460838000057], [84.50367040400005, 25.39087296200006]]]]}}, {"type": "Feature", "properties": {"OBJECTID": 3375, "GPCODE": "92262", "GPNAME_1": "PASAUR", "DIST_CEN_C": "29", "BLK_NAME": "CHARPOKHARI", "ST_NAME": "BIHAR", "ST_CODE_1": "10", "GPCODE2011": "94817", "REMARKS": "FINALIZED", "MAP_STATUS": "COMPLETED", "BLK_C_2001": "290010", "BLK_C_2011": "01430", "DIST_NAME": "BHOJPUR", "code2011": 24.0, "Shape_Leng": 0.18113110887, "Shape_Area": 0.00100206719, "Area": 11.1799}, "geometry": {"type": "MultiPolygon", "coordinates": [[[[84.45514796600008, 25.401703311000063], [84.45909038400004, 25.400668452000048], [84.45992328000006, 25.401729041000067], [84.46028085100005, 25.401767101000075], [84.46104044700007, 25.401879508000036], [84.46295738300006, 25.40207030600004], [84.46507468200008, 25.40200936100007], [84.46607412800006, 25.40190636500006], [84.46695247900004, 25.401328853000052], [84.46799717500005, 25.40039119900007], [84.46854184500006, 25.39992016000008], [84.47134313800007, 25.39935276500006], [84.47258062700007, 25.399323250000066], [84.47317558900005, 25.399543017000042], [84.47365736800003, 25.399581699000066], [84.47493579100006, 25.399371793000057], [84.47581741000005, 25.399051504000056], [84.47661906100006, 25.39879843600005], [84.47758032000007, 25.398442411000076], [84.47903814500006, 25.39815675600005], [84.48343438600006, 25.397597486000052], [84.48635211200008, 25.39746826100003], [84.48928751800008, 25.39769556600004], [84.49001025600006, 25.39733826400004], [84.49029874700005, 25.395705941000074], [84.49094990700007, 25.394075453000028], [84.49179867400005, 25.392631137000024], [84.49308475400005, 25.391184457000065], [84.49368510000005, 25.39053307000006], [84.49346613800003, 25.38927987900007], [84.49300653800003, 25.387582484000063], [84.49247525600003, 25.386583649000045], [84.49192341000008, 25.385392371000023], [84.49159580500003, 25.385332062000032], [84.49136877500007, 25.38509618300003], [84.49127201700009, 25.384675955000034], [84.49137297000004, 25.384410133000074], [84.49166814500006, 25.38408675000005], [84.49176961500007, 25.383757744000036], [84.49196914600003, 25.38283812800006], [84.49184450500007, 25.38209724400008], [84.49119057400009, 25.381796012000052], [84.49099757900007, 25.381677658000058], [84.49070302700005, 25.38111195600004], [84.49030637400006, 25.380175720000068], [84.49060137400005, 25.379879324000058], [84.49102590500007, 25.37952493800003], [84.49142137700005, 25.379053157000044], [84.49168758400003, 25.37858060800005], [84.49185495500006, 25.378044345000035], [84.49192320400005, 25.377453493000075], [84.49149817400007, 25.377094708000072], [84.49120499100007, 25.377093255000034], [84.49090993200008, 25.377416636000078], [84.49038803100007, 25.377445564000027], [84.48983273200008, 25.377262191000057], [84.48921318200007, 25.377024230000075], [84.48906242300006, 25.376508966000074], [84.48951810100004, 25.376718892000042], [84.49000502000007, 25.376721459000066], [84.49030344300007, 25.376664289000075], [84.49046890900007, 25.37642597300004], [84.49027877000003, 25.375057406000053], [84.49002412500005, 25.373661515000038], [84.48996385500004, 25.37297521000005], [84.49012968800008, 25.37267813400007], [84.49039349700007, 25.372593788000074], [84.49075012600008, 25.372771586000056], [84.49136886700006, 25.37313139200006], [84.49188921500007, 25.373341647000075], [84.49247985300008, 25.373434943000063], [84.49360845900009, 25.37329634100007], [84.49537381900006, 25.373034664000045], [84.49655308200005, 25.372742817000074], [84.49714551600005, 25.372538243000065], [84.49789626400008, 25.372451823000063], [84.49879496600005, 25.372537631000057], [84.49970877900006, 25.372591963000048], [84.50056863000003, 25.372524095000074], [84.50001034400003, 25.370576810000045], [84.49875999100004, 25.369346549000056], [84.49854706200006, 25.36924609400006], [84.49789516800007, 25.36860642000005], [84.49671159500008, 25.367205711000054], [84.49589645800006, 25.36645685600007], [84.49541164400006, 25.36612946500003], [84.49465749400008, 25.365976646000036], [84.49368019800005, 25.36576399100005], [84.49263156900008, 25.365817311000058], [84.49168697500005, 25.36592976600008], [84.49096616500003, 25.366016303000038], [84.48995123900005, 25.366250310000055], [84.48957401200005, 25.36618968500005], [84.48704639600004, 25.366213273000028], [84.48500309900004, 25.366401008000025], [84.48295979600005, 25.366588716000024], [84.48160460100007, 25.36707535200003], [84.48095415300008, 25.367932323000048], [84.48129359200004, 25.368630147000033], [84.48251284300005, 25.369927980000057], [84.48295871000005, 25.37219408900006], [84.48250161500005, 25.37219174200004], [84.48174427100008, 25.372544308000045], [84.48022471600007, 25.37321789300006], [84.47894811100008, 25.37317963600003], [84.47849186800005, 25.373059846000046], [84.47806765200005, 25.372583779000024], [84.47729599800005, 25.371270851000077], [84.47632022300007, 25.370015563000038], [84.47591492000004, 25.369688488000065], [84.47377294100005, 25.36980804600006], [84.47282328900008, 25.369924859000037], [84.47183950600004, 25.369946791000075], [84.47119103200004, 25.36958675300008], [84.47079988200005, 25.36937712400004], [84.47030857800007, 25.36928880100004], [84.46991480300005, 25.36949426600006], [84.46965438100005, 25.369817897000075], [84.46951780900008, 25.370205270000042], [84.46912424800007, 25.37037923500003], [84.46752164000003, 25.370817513000077], [84.46667009900005, 25.371137911000062], [84.46555437300003, 25.371578809000027], [84.46494634700008, 25.371878002000074], [84.46454334600008, 25.371970549000025], [84.46484692700005, 25.372653721000063], [84.46608085900004, 25.373905969000077], [84.46744304200007, 25.37531234200003], [84.46861195100007, 25.376654475000066], [84.46960271700004, 25.37787834200003], [84.46686328100003, 25.37950372800003], [84.46474781600006, 25.380703047000054], [84.46263729700007, 25.382161299000074], [84.46107942300006, 25.38270410900003], [84.45902111800007, 25.383070762000045], [84.45921579100008, 25.383694641000034], [84.45921153900008, 25.384349103000034], [84.45910516700008, 25.385418110000046], [84.45903676500006, 25.386009037000065], [84.45903311400008, 25.386573148000025], [84.45934179400007, 25.387233803000072], [84.45969412600004, 25.388070646000074], [84.46014212000006, 25.389467635000074], [84.46042949200006, 25.39036279000004], [84.46057111800008, 25.390738187000068], [84.45947666700005, 25.390939925000055], [84.45852667300005, 25.391083726000033], [84.45728256800004, 25.391374926000026], [84.45561528900004, 25.391781132000062], [84.45358511100005, 25.39221698800003], [84.45234259000006, 25.392268873000035], [84.45118067900006, 25.392140717000075], [84.45109734700003, 25.39499267800005], [84.45106720800004, 25.397307837000028], [84.45108345500006, 25.400128663000032], [84.45114649500005, 25.40262484400006], [84.45412146400008, 25.401939716000072], [84.45514796600008, 25.401703311000063]]]]}}, {"type": "Feature", "properties": {"OBJECTID": 3378, "GPCODE": "92263", "GPNAME_1": "SEMRAWAN", "DIST_CEN_C": "29", "BLK_NAME": "CHARPOKHARI", "ST_NAME": "BIHAR", "ST_CODE_1": "10", "GPCODE2011": "94818", "REMARKS": "FINALIZED", "MAP_STATUS": "COMPLETED", "BLK_C_2001": "290010", "BLK_C_2011": "01430", "DIST_NAME": "BHOJPUR", "code2011": 13.0, "Shape_Leng": 0.11758565436, "Shape_Area": 0.00049460106, "Area": 5.51775}, "geometry": {"type": "MultiPolygon", "coordinates": [[[[84.51609674100007, 25.402521243000024], [84.51684300200003, 25.402380539000035], [84.51737412700004, 25.402477963000024], [84.51747116900003, 25.402045109000028], [84.51776764700008, 25.401509574000045], [84.51799366500006, 25.401108966000038], [84.51836236900004, 25.400939289000064], [84.51880407300007, 25.40104529900003], [84.51924606400007, 25.401079105000065], [84.51955997100004, 25.400945277000062], [84.51974583400005, 25.40060771700007], [84.51974801900008, 25.400242083000023], [84.51971612100004, 25.399772561000077], [84.51946297700005, 25.398900268000034], [84.51899261400007, 25.39695269500004], [84.51899484500007, 25.396582547000037], [84.51914499200007, 25.39641638200004], [84.51947811100007, 25.396381903000076], [84.52032322300005, 25.39632292400006], [84.52165472100006, 25.396361089000038], [84.52259506100006, 25.396162669000034], [84.52397718500004, 25.396038559000033], [84.52563801900004, 25.395843687000024], [84.52623087000006, 25.39558033700007], [84.52664314500004, 25.394783476000043], [84.52589008900009, 25.39440968100007], [84.52537703700006, 25.393770768000024], [84.52526892500003, 25.393571708000025], [84.52534467500004, 25.393368939000027], [84.52556470400003, 25.393135348000044], [84.52575753500008, 25.392468284000074], [84.52587081700005, 25.391796359000068], [84.52572374600004, 25.391461691000075], [84.52513485600008, 25.391057041000067], [84.52432495900007, 25.39105304800006], [84.52369956900003, 25.390946151000037], [84.52347709300005, 25.390746466000053], [84.52337046400004, 25.390308219000076], [84.52326433300004, 25.389775112000052], [84.52313916000008, 25.389101948000075], [84.52329116600004, 25.388601735000066], [84.52255009100008, 25.388728970000045], [84.52236746700004, 25.38852950200004], [84.52233491500004, 25.388159262000045], [84.52244821200009, 25.38748733700004], [84.52249631400008, 25.386083866000035], [84.52257174400006, 25.38510935200003], [84.52276359200005, 25.384609358000034], [84.52311311800008, 25.384308730000043], [84.52362987000004, 25.38431124300007], [84.52528976600007, 25.38425176000004], [84.52735058300004, 25.384433416000036], [84.53173963000006, 25.38415253000005], [84.53178033900008, 25.380623224000033], [84.53033853500006, 25.380783225000073], [84.52942073400004, 25.380544006000036], [84.52842355600006, 25.380304430000024], [84.52758248600009, 25.379695543000025], [84.52552663300008, 25.37784398200006], [84.52424089000004, 25.37683570200005], [84.52372505300008, 25.37669770800005], [84.52306506000008, 25.37655903800004], [84.52254997500006, 25.37629025900003], [84.52192560600008, 25.376020890000063], [84.52095540900007, 25.375424758000065], [84.51955432700004, 25.37624832100005], [84.51883119900003, 25.37670956100004], [84.51834197500006, 25.377095286000042], [84.51793731100008, 25.37745884000003], [84.51783156500005, 25.37770207600005], [84.51785547900005, 25.377851108000073], [84.51809669900007, 25.37821794200005], [84.51828315900008, 25.378606997000077], [84.51825204000005, 25.378827985000044], [84.51814656600004, 25.379021488000035], [84.51782263400008, 25.37919143000005], [84.51645103900006, 25.379229730000077], [84.51417109400006, 25.37914611900004], [84.51372900500007, 25.37913035100007], [84.51141920000003, 25.379042044000073], [84.50927233700008, 25.37913055300004], [84.50806522600004, 25.379101931000037], [84.50742507700005, 25.378976799000043], [84.50717699800003, 25.379729245000078], [84.50678675800003, 25.380169607000028], [84.50638254800003, 25.380460921000065], [84.50586976900007, 25.38062536800004], [84.50514277300005, 25.380892448000054], [84.50457937200008, 25.38120551000003], [84.50409489400005, 25.381618306000064], [84.50363575000006, 25.381959], [84.50333535200008, 25.382323076000034], [84.50314829500007, 25.382854675000033], [84.50300585700006, 25.384198904000073], [84.50282713000007, 25.384978793000073], [84.50264422600003, 25.38564581600008], [84.50284930000004, 25.387037043000078], [84.50302965200007, 25.388405414000033], [84.50340949400004, 25.389675630000056], [84.50367040400005, 25.39087296200006], [84.50388543100007, 25.391460838000057], [84.50417067400008, 25.392753044000074], [84.50434138800006, 25.393268447000025], [84.50433965400003, 25.393561783000052], [84.50420412100004, 25.393777787000033], [84.50382548100004, 25.393947351000065], [84.50205242600003, 25.394597283000053], [84.50129988400005, 25.394959007000068], [84.50046209700008, 25.39544217200006], [84.50022334200008, 25.39549063000004], [84.49961020500007, 25.39500003200004], [84.49924393400005, 25.39476350900003], [84.49891001500004, 25.395732148000036], [84.49890439900008, 25.39663030300005], [84.49922967000003, 25.397078702000044], [84.49988414500007, 25.397303272000045], [84.50044875900005, 25.39761304500007], [84.50063112500004, 25.39785766500006], [84.50073678600006, 25.39844042900006], [84.50078907500006, 25.39882879000004], [84.50110485700003, 25.399191548000033], [84.50134237800006, 25.39936421500005], [84.50168954700007, 25.399460770000076], [84.50215729600006, 25.39936836800007], [84.50290562800006, 25.398889266000026], [84.50319904000008, 25.398841059000063], [84.50362552700005, 25.398987701000067], [84.50434263500006, 25.39955095600004], [84.50505706700005, 25.400547534000054], [84.50532458400005, 25.40067070400005], [84.50633902600003, 25.400554028000045], [84.50698200100004, 25.400241323000046], [84.50762408400004, 25.40007311900007], [84.50877145100003, 25.400155605000066], [84.51087659100006, 25.40045507600007], [84.51322022700003, 25.401586085000076], [84.51481350200004, 25.402708886000028], [84.51539938100007, 25.40280656400006], [84.51609674100007, 25.402521243000024]]]]}}]}