{"type": "FeatureCollection", "features": [{"type": "Feature", "properties": {"OBJECTID": 284, "GPCODE": "92464", "GPNAME_1": "MASAHARIYA", "DIST_CEN_C": "30", "BLK_NAME": "CHAUGAIN", "ST_NAME": "BIHAR", "ST_CODE_1": "10", "GPCODE2011": "95019", "REMARKS": "FINALIZED", "MAP_STATUS": "COMPLETED", "BLK_C_2001": "300004", "BLK_C_2011": "01438", "DIST_NAME": "BUXAR", "code2011": 18.0, "Shape_Leng": 0.2216980811, "Shape_Area": 0.00134734918, "Area": 15.0237}, "geometry": {"type": "MultiPolygon", "coordinates": [[[[84.26741060000006, 25.50475252800004], [84.26701709100007, 25.50294869000004], [84.26690362200003, 25.50166411300006], [84.26717566000008, 25.50039755000006], [84.26729200900007, 25.499657273000025], [84.26710507300004, 25.497580004000042], [84.26668430800004, 25.494278146000056], [84.26651542500008, 25.492422085000044], [84.26615255200005, 25.489346230000024], [84.26689182000007, 25.488940489000072], [84.26917963500006, 25.488292450000074], [84.27130716700003, 25.48778763400003], [84.27371754800004, 25.487356946000034], [84.27539659500007, 25.486961928000028], [84.27590386700007, 25.486960751000026], [84.27668281400008, 25.48655976200007], [84.27864679700008, 25.485977036000065], [84.28158981600006, 25.48547749100004], [84.28224173400008, 25.48540960100007], [84.28444990900005, 25.484756163000043], [84.28557589500008, 25.48449286400006], [84.28515353000006, 25.483822075000035], [84.28489518100008, 25.483175023000058], [84.28497722500003, 25.482859707000046], [84.28516408200005, 25.482508902000063], [84.28541127400007, 25.48206371300006], [84.28559717600007, 25.48058014700007], [84.28565118300008, 25.478784224000037], [84.28556379300005, 25.47789913400004], [84.28482440900007, 25.477704741000025], [84.28390506500006, 25.47763998100004], [84.28305149700003, 25.477431238000065], [84.28274478600008, 25.477226182000038], [84.28227259100004, 25.476577660000032], [84.28203236300004, 25.47553804900008], [84.28169004200004, 25.474190872000065], [84.27877004400005, 25.474343135000026], [84.27628692700006, 25.474583850000045], [84.27308255200006, 25.474846873000047], [84.27171387700008, 25.475009314000033], [84.27146689200003, 25.474809038000046], [84.27109503300005, 25.474061963000054], [84.27046786600005, 25.474143491000063], [84.26836001800007, 25.47470254800004], [84.26678767800007, 25.474831968000046], [84.26326939300003, 25.475178366000023], [84.26205787300006, 25.475567417000036], [84.25998383800004, 25.47563918800006], [84.26008340500005, 25.47500795900004], [84.26004640200006, 25.474673734000078], [84.25976394700007, 25.474559029000034], [84.25816609900005, 25.47476935000003], [84.25756414500006, 25.47358292100006], [84.25653348800006, 25.47012794500006], [84.25637451900008, 25.469499480000025], [84.25582193800005, 25.467162511000026], [84.25540037600007, 25.466424035000045], [84.25499297500005, 25.466385118000062], [84.25343750000008, 25.46689365800006], [84.25290651600005, 25.466777190000073], [84.25258754200007, 25.466256045000023], [84.25211559000007, 25.463806729000055], [84.25179996700007, 25.462288141000045], [84.25176471400005, 25.461728282000024], [84.25138096600006, 25.46124730300005], [84.25044220600006, 25.46112809500005], [84.24836288900008, 25.461262841000064], [84.24793016800004, 25.461282422000068], [84.24616654100004, 25.46111698900006], [84.24344081500004, 25.46125628200008], [84.24269951900004, 25.46191913800004], [84.24214052700006, 25.462168013000053], [84.24133542900006, 25.46213091000004], [84.24121857600005, 25.463619352000023], [84.24151254900005, 25.46594115700003], [84.24159059300007, 25.467309084000078], [84.24112903600007, 25.467811441000038], [84.24087131200008, 25.469493030000024], [84.24109537300006, 25.471841324000025], [84.24145591700005, 25.472732870000073], [84.24183506500003, 25.47318232300006], [84.24213742000006, 25.474484172000075], [84.24209026600005, 25.47597309300005], [84.24197309000004, 25.477497716000073], [84.24139446300006, 25.477719407000052], [84.23985962200004, 25.477519286000074], [84.23944148400005, 25.47757960000007], [84.23905144600008, 25.477829645000043], [84.23865723700004, 25.479189838000025], [84.23847318100007, 25.480393565000043], [84.23867562500004, 25.481157675000077], [84.24026953000003, 25.482626435000043], [84.24123775100009, 25.48399599000004], [84.24191306800003, 25.484700214000043], [84.24190071000004, 25.486189371000023], [84.24191612100003, 25.488509185000055], [84.24210337300008, 25.49111], [84.24199822600008, 25.49298222300007], [84.24378195500003, 25.49318399200007], [84.24552770200006, 25.493164424000042], [84.24537412800004, 25.494878319000065], [84.24575367600005, 25.495291563000023], [84.24597226800006, 25.49830785900008], [84.24668788200006, 25.49972494900004], [84.24688856200004, 25.500417395000056], [84.24715481400006, 25.50128571600004], [84.24769078200006, 25.50401277800006], [84.24780672800006, 25.50400481300005], [84.24963543400008, 25.503879167000036], [84.25017001800006, 25.50492308300005], [84.25090632700005, 25.50701993200005], [84.25155933900004, 25.50911914900007], [84.25166266800005, 25.50972123100007], [84.25143561500005, 25.510407859000054], [84.25089808200005, 25.511783584000057], [84.24995697200006, 25.513548308000054], [84.24951964800005, 25.514324418000058], [84.25363509200008, 25.51436480500007], [84.25735276400007, 25.514393079000058], [84.25962602200008, 25.51477137100005], [84.26211260400004, 25.516956481000022], [84.26238561800005, 25.522135552000066], [84.26280936600006, 25.525584735000052], [84.26370369700004, 25.530111564000038], [84.26507264600008, 25.530127918000062], [84.26528610500003, 25.528056349000053], [84.26552469900008, 25.525403486000073], [84.26569230500007, 25.52418381700005], [84.26604799400008, 25.523701534000054], [84.26684319100008, 25.523463590000063], [84.26844439500007, 25.523311575000037], [84.26893426500004, 25.520437353000034], [84.26905787100003, 25.516653493000035], [84.26861888600007, 25.51349000700003], [84.26825560800006, 25.51259262700006], [84.26730715100007, 25.51163583400006], [84.26702973400006, 25.510811681000064], [84.26754428700008, 25.50875611400005], [84.26798064800005, 25.506853874000058], [84.26779907200006, 25.506405226000027], [84.26741060000006, 25.50475252800004]]]]}}, {"type": "Feature", "properties": {"OBJECTID": 288, "GPCODE": "92465", "GPNAME_1": "MURAR", "DIST_CEN_C": "30", "BLK_NAME": "CHAUGAIN", "ST_NAME": "BIHAR", "ST_CODE_1": "10", "GPCODE2011": "95020", "REMARKS": "FINALIZED", "MAP_STATUS": "COMPLETED", "BLK_C_2001": "300004", "BLK_C_2011": "01438", "DIST_NAME": "BUXAR", "code2011": 11.0, "Shape_Leng": 0.13409062316, "Shape_Area": 0.00100426905, "Area": 11.1997}, "geometry": {"type": "MultiPolygon", "coordinates": [[[[84.23126918200006, 25.49970475300006], [84.23048836800007, 25.497352512000077], [84.22983213700007, 25.496142984000073], [84.22907620300003, 25.49496434300005], [84.22870591800006, 25.493467946000067], [84.22878622100006, 25.492200317000027], [84.22878618100003, 25.489853486000072], [84.22876762000004, 25.487921851000067], [84.22874438600007, 25.486554193000075], [84.22902049500004, 25.48506678700005], [84.22924569300005, 25.483132279000074], [84.22960394700004, 25.48192980400006], [84.22937102900005, 25.480660021000062], [84.22912404500005, 25.478695101000028], [84.22880520500007, 25.477587219000043], [84.22866763900004, 25.476209779000044], [84.22875328400005, 25.474901571000032], [84.22906928600008, 25.473983092000026], [84.22885260000004, 25.47315122200007], [84.22884160000007, 25.47209507200006], [84.22876937800004, 25.47063233600005], [84.22865034800003, 25.468830755000056], [84.22877881700003, 25.465974905000053], [84.22851165500003, 25.464054989000033], [84.22820822900007, 25.46230179300005], [84.22809507900007, 25.46156994200004], [84.22808234500008, 25.458952257000078], [84.22767933400007, 25.457812127000068], [84.22712446800006, 25.456995907000078], [84.22695736600008, 25.456177868000054], [84.22481991400008, 25.456718090000038], [84.22082682600006, 25.45741226100006], [84.21796534100008, 25.45773517400005], [84.21534978500006, 25.45778443000006], [84.21426640200008, 25.458309308000025], [84.21283239000007, 25.459147633000043], [84.21026406900006, 25.460641353000028], [84.20831825200008, 25.462013091000074], [84.20709433500008, 25.462685822000026], [84.20681876000003, 25.46350528800008], [84.20659521200008, 25.465218665000066], [84.20453415800006, 25.46551989900007], [84.20438717300004, 25.46814990100006], [84.20478483200003, 25.47046793000004], [84.20528433100003, 25.47307552700005], [84.20498882700008, 25.47390381200006], [84.20477237800003, 25.474209189000078], [84.20413629000006, 25.474168509000037], [84.20284109900007, 25.47558993000007], [84.20236397700006, 25.476710300000036], [84.20205789600004, 25.47759714500006], [84.20148963500003, 25.47891084500003], [84.20071251700006, 25.480218594000064], [84.20078060400004, 25.482114546000048], [84.20042909100005, 25.48366000900006], [84.20091452500003, 25.48444872700003], [84.20206149700005, 25.48464647700007], [84.20196624300007, 25.485886873000027], [84.20255895800005, 25.486355953000043], [84.20336709600008, 25.486632566000026], [84.20365343700007, 25.48802909400007], [84.20360224700005, 25.48876438700006], [84.20470185200008, 25.489855301000034], [84.20563295400007, 25.490868370000044], [84.20660182800003, 25.491552264000063], [84.20687103400007, 25.49204151200007], [84.20693524500007, 25.49440233400003], [84.20722516200004, 25.496534498000074], [84.20762128900003, 25.49789571900004], [84.20886582000009, 25.497755635000033], [84.20946095800008, 25.49795393100004], [84.21009382300008, 25.498964838000063], [84.21046670200008, 25.500127347000046], [84.21170705100008, 25.49990596300006], [84.21384022200004, 25.49995717300004], [84.21580031100007, 25.49989428200007], [84.21641492600008, 25.500128759000063], [84.21790856900003, 25.499949795000077], [84.21996042900008, 25.499612194000065], [84.22209425300008, 25.49959099600005], [84.22358613100005, 25.49960150800007], [84.22499226100007, 25.49976478600007], [84.22546848900004, 25.49996300300006], [84.22564687000005, 25.50041365900006], [84.22745693500008, 25.50009828800006], [84.22863512100008, 25.50008138100003], [84.22981330600004, 25.500064466000026], [84.23126918200006, 25.49970475300006]]]]}}, {"type": "Feature", "properties": {"OBJECTID": 291, "GPCODE": "92462", "GPNAME_1": "CHAUGAIN", "DIST_CEN_C": "30", "BLK_NAME": "CHAUGAIN", "ST_NAME": "BIHAR", "ST_CODE_1": "10", "GPCODE2011": "95017", "REMARKS": "FINALIZED", "MAP_STATUS": "COMPLETED", "BLK_C_2001": "300004", "BLK_C_2011": "01438", "DIST_NAME": "BUXAR", "code2011": 14.0, "Shape_Leng": 0.15127101652, "Shape_Area": 0.00072081031, "Area": 8.03835}, "geometry": {"type": "MultiPolygon", "coordinates": [[[[84.24314423500005, 25.50681816100007], [84.24450117700007, 25.50634022400004], [84.24639134500006, 25.506353347000072], [84.24792664500006, 25.506562604000067], [84.24843775900007, 25.50605191300008], [84.24847132800005, 25.505614361000028], [84.24845682600005, 25.505178125000043], [84.24793059500007, 25.504892772000062], [84.24784676300004, 25.504806401000053], [84.24769078200006, 25.50401277800006], [84.24715481400006, 25.50128571600004], [84.24688856200004, 25.500417395000056], [84.24668788200006, 25.49972494900004], [84.24597226800006, 25.49830785900008], [84.24575367600005, 25.495291563000023], [84.24537412800004, 25.494878319000065], [84.24552770200006, 25.493164424000042], [84.24378195500003, 25.49318399200007], [84.24199822600008, 25.49298222300007], [84.24210337300008, 25.49111], [84.24191612100003, 25.488509185000055], [84.24190071000004, 25.486189371000023], [84.24191306800003, 25.484700214000043], [84.24123775100009, 25.48399599000004], [84.24026953000003, 25.482626435000043], [84.23867562500004, 25.481157675000077], [84.23847318100007, 25.480393565000043], [84.23865723700004, 25.479189838000025], [84.23905144600008, 25.477829645000043], [84.23944148400005, 25.47757960000007], [84.23985962200004, 25.477519286000074], [84.24139446300006, 25.477719407000052], [84.24197309000004, 25.477497716000073], [84.24209026600005, 25.47597309300005], [84.24213742000006, 25.474484172000075], [84.24183506500003, 25.47318232300006], [84.24145591700005, 25.472732870000073], [84.24109537300006, 25.471841324000025], [84.24087131200008, 25.469493030000024], [84.24112903600007, 25.467811441000038], [84.24159059300007, 25.467309084000078], [84.24151254900005, 25.46594115700003], [84.24121857600005, 25.463619352000023], [84.24133542900006, 25.46213091000004], [84.24214052700006, 25.462168013000053], [84.24269951900004, 25.46191913800004], [84.24344081500004, 25.46125628200008], [84.24313053600008, 25.46030185400008], [84.24326329500008, 25.45928734000006], [84.24345203500008, 25.457514994000064], [84.24270145800006, 25.45570010600005], [84.24309565200008, 25.454339882000056], [84.24370455200005, 25.452249984000048], [84.24271042600003, 25.452229568000064], [84.23726074500007, 25.45235455100004], [84.23558296300007, 25.452636348000055], [84.23195000800007, 25.453089598000076], [84.22803256700007, 25.453662568000027], [84.22635568200008, 25.453831449000063], [84.22656774900008, 25.45521838800005], [84.22695736600008, 25.456177868000054], [84.22712446800006, 25.456995907000078], [84.22767933400007, 25.457812127000068], [84.22808234500008, 25.458952257000078], [84.22809507900007, 25.46156994200004], [84.22820822900007, 25.46230179300005], [84.22851165500003, 25.464054989000033], [84.22877881700003, 25.465974905000053], [84.22865034800003, 25.468830755000056], [84.22876937800004, 25.47063233600005], [84.22884160000007, 25.47209507200006], [84.22885260000004, 25.47315122200007], [84.22906928600008, 25.473983092000026], [84.22875328400005, 25.474901571000032], [84.22866763900004, 25.476209779000044], [84.22880520500007, 25.477587219000043], [84.22912404500005, 25.478695101000028], [84.22937102900005, 25.480660021000062], [84.22960394700004, 25.48192980400006], [84.22924569300005, 25.483132279000074], [84.22902049500004, 25.48506678700005], [84.22874438600007, 25.486554193000075], [84.22876762000004, 25.487921851000067], [84.22878618100003, 25.489853486000072], [84.22878622100006, 25.492200317000027], [84.22870591800006, 25.493467946000067], [84.22907620300003, 25.49496434300005], [84.22983213700007, 25.496142984000073], [84.23048836800007, 25.497352512000077], [84.23126918200006, 25.49970475300006], [84.23161863100006, 25.500005988000055], [84.23203600800008, 25.500063167000064], [84.23227657700005, 25.500415060000023], [84.23246257800008, 25.50075940200003], [84.23336200900007, 25.500846926000065], [84.23407131300007, 25.502241895000054], [84.23613883200005, 25.50299194300004], [84.23694181600007, 25.503900137000073], [84.23729840300007, 25.504726387000062], [84.23764900900005, 25.505538769000054], [84.23763651100006, 25.507009955000058], [84.23826394600007, 25.507506309000064], [84.23961668500004, 25.507515682000076], [84.24069528300004, 25.507604439000033], [84.24169281000007, 25.50728642300004], [84.24314423500005, 25.50681816100007]]]]}}, {"type": "Feature", "properties": {"OBJECTID": 294, "GPCODE": "92463", "GPNAME_1": "KHEWALI", "DIST_CEN_C": "30", "BLK_NAME": "CHAUGAIN", "ST_NAME": "BIHAR", "ST_CODE_1": "10", "GPCODE2011": "95018", "REMARKS": "FINALIZED", "MAP_STATUS": "COMPLETED", "BLK_C_2001": "300004", "BLK_C_2011": "01438", "DIST_NAME": "BUXAR", "code2011": 14.0, "Shape_Leng": 0.13869958198, "Shape_Area": 0.00058213681, "Area": 6.49113}, "geometry": {"type": "MultiPolygon", "coordinates": [[[[84.19669925100004, 25.51358372900006], [84.19688407400008, 25.512930648000065], [84.19707036100004, 25.51211520700008], [84.19681553700008, 25.510556343000076], [84.19602069300004, 25.508754370000077], [84.19496259900006, 25.505799688000025], [84.19399535900004, 25.50325630900005], [84.19364239300006, 25.502112011000065], [84.19221176200006, 25.500792791000038], [84.19202346400004, 25.500663307000025], [84.19181941200003, 25.500571509000054], [84.19172425700003, 25.500417508000055], [84.19112524500008, 25.49839587200006], [84.19127962100004, 25.497810274000074], [84.19211776200007, 25.49750940000007], [84.19431321700006, 25.49724992700004], [84.19552905100005, 25.49698339100007], [84.19562894800004, 25.496361327000045], [84.19788622900006, 25.495863047000057], [84.20107517200006, 25.49516384700007], [84.20422250800004, 25.49467185700007], [84.20524405100008, 25.494439876000058], [84.20693524500007, 25.49440233400003], [84.20687103400007, 25.49204151200007], [84.20660182800003, 25.491552264000063], [84.20563295400007, 25.490868370000044], [84.20470185200008, 25.489855301000034], [84.20360224700005, 25.48876438700006], [84.20365343700007, 25.48802909400007], [84.20336709600008, 25.486632566000026], [84.20255895800005, 25.486355953000043], [84.20196624300007, 25.485886873000027], [84.20206149700005, 25.48464647700007], [84.20091452500003, 25.48444872700003], [84.20042909100005, 25.48366000900006], [84.19860584400004, 25.483452923000073], [84.19712907300004, 25.483442319000062], [84.19663497500005, 25.48364636200006], [84.19642877500007, 25.485052906000078], [84.19510549000006, 25.485111145000076], [84.19472487600007, 25.485419746000048], [84.19414838400007, 25.48651680300003], [84.19371180400003, 25.488675440000065], [84.19335607100004, 25.490117044000044], [84.19144216200004, 25.49004002500004], [84.19086920000007, 25.49072642300007], [84.19002971000003, 25.491749261000052], [84.18900528900008, 25.49174183300005], [84.18898840300005, 25.49366879300004], [84.18932100600006, 25.494871660000058], [84.18906373800007, 25.49528951800005], [84.18886113800005, 25.49626735100003], [84.18875047000006, 25.496979655000075], [84.18836437800007, 25.49734243000006], [84.18791999600006, 25.49753322300006], [84.18726408300006, 25.497469804000048], [84.18644402100006, 25.496845584000027], [84.18462453500007, 25.496200523000027], [84.18243120700004, 25.49564754900007], [84.18031235600006, 25.49566826100005], [84.17933549300005, 25.495909277000067], [84.17439375200007, 25.49572424400003], [84.17452487500003, 25.497191921000024], [84.17445585500008, 25.497687830000075], [84.17392978200007, 25.49867682300004], [84.17292182200003, 25.500163247000046], [84.17278039900003, 25.500414903000035], [84.17257589300004, 25.500732480000067], [84.17228281400008, 25.500949915000035], [84.17182414100006, 25.501046065000025], [84.17131932800004, 25.501143453000054], [84.17102626900004, 25.50116556100005], [84.16949894600003, 25.505613181000058], [84.16844592400008, 25.507649792000052], [84.16754203900007, 25.508053851000057], [84.16659207500004, 25.508046759000024], [84.16553733300003, 25.508625645000052], [84.16534012400007, 25.510627937000038], [84.16568633100007, 25.51193930000005], [84.16567660900006, 25.513004350000074], [84.16676271700004, 25.51281380300003], [84.16815828800009, 25.513049786000067], [84.17227302100008, 25.51291328800005], [84.17560313700005, 25.513186047000033], [84.17668442800004, 25.513518978000036], [84.17893898700004, 25.513373047000073], [84.18371578000006, 25.513733003000027], [84.18921020500005, 25.513940130000037], [84.19479771600004, 25.51430558000004], [84.19606247800004, 25.51415226000006], [84.19669925100004, 25.51358372900006]]]]}}, {"type": "Feature", "properties": {"OBJECTID": 298, "GPCODE": "92466", "GPNAME_1": "NACHAP", "DIST_CEN_C": "30", "BLK_NAME": "CHAUGAIN", "ST_NAME": "BIHAR", "ST_CODE_1": "10", "GPCODE2011": "95021", "REMARKS": "FINALIZED", "MAP_STATUS": "COMPLETED", "BLK_C_2001": "300004", "BLK_C_2011": "01438", "DIST_NAME": "BUXAR", "code2011": 20.0, "Shape_Leng": 0.17268078888, "Shape_Area": 0.00121014335, "Area": 13.4902}, "geometry": {"type": "MultiPolygon", "coordinates": [[[[84.24761072200005, 25.546276774000034], [84.24757994800007, 25.544001928000057], [84.24701331300008, 25.542138558000033], [84.24748711900008, 25.541982594000046], [84.24792836800003, 25.542235151000057], [84.24961621600005, 25.542039811000052], [84.25045959400006, 25.54194220200003], [84.25391608200005, 25.54151016700007], [84.25688839400004, 25.54142870900006], [84.25923398100008, 25.54113946600006], [84.26066989000003, 25.541724930000044], [84.26286849400003, 25.541637609000077], [84.26350796900005, 25.541188058000046], [84.26466087800009, 25.540967377000072], [84.26615784500007, 25.539468044000046], [84.26627579300003, 25.538101148000067], [84.26551748600008, 25.536771859000055], [84.26503295800006, 25.53562406800006], [84.26516715800005, 25.53340617300006], [84.26507264600008, 25.530127918000062], [84.26370369700004, 25.530111564000038], [84.26280936600006, 25.525584735000052], [84.26238561800005, 25.522135552000066], [84.26211260400004, 25.516956481000022], [84.25962602200008, 25.51477137100005], [84.25735276400007, 25.514393079000058], [84.25363509200008, 25.51436480500007], [84.24951964800005, 25.514324418000058], [84.24995697200006, 25.513548308000054], [84.25089808200005, 25.511783584000057], [84.25143561500005, 25.510407859000054], [84.25166266800005, 25.50972123100007], [84.25155933900004, 25.50911914900007], [84.25090632700005, 25.50701993200005], [84.25017001800006, 25.50492308300005], [84.24963543400008, 25.503879167000036], [84.24780672800006, 25.50400481300005], [84.24769078200006, 25.50401277800006], [84.24784676300004, 25.504806401000053], [84.24793059500007, 25.504892772000062], [84.24845682600005, 25.505178125000043], [84.24847132800005, 25.505614361000028], [84.24843775900007, 25.50605191300008], [84.24792664500006, 25.506562604000067], [84.24639134500006, 25.506353347000072], [84.24450117700007, 25.50634022400004], [84.24314423500005, 25.50681816100007], [84.24169281000007, 25.50728642300004], [84.24069528300004, 25.507604439000033], [84.23961668500004, 25.507515682000076], [84.23826394600007, 25.507506309000064], [84.23763651100006, 25.507009955000058], [84.23764900900005, 25.505538769000054], [84.23729840300007, 25.504726387000062], [84.23694181600007, 25.503900137000073], [84.23613883200005, 25.50299194300004], [84.23407131300007, 25.502241895000054], [84.23336200900007, 25.500846926000065], [84.23246257800008, 25.50075940200003], [84.23227657700005, 25.500415060000023], [84.23203600800008, 25.500063167000064], [84.23161863100006, 25.500005988000055], [84.23126918200006, 25.49970475300006], [84.22981330600004, 25.500064466000026], [84.22863512100008, 25.50008138100003], [84.22745693500008, 25.50009828800006], [84.22564687000005, 25.50041365900006], [84.22533603400007, 25.50128243900008], [84.22395437700004, 25.50462596600005], [84.22367595900005, 25.50577025700005], [84.22411302400008, 25.507000960000028], [84.22552922300008, 25.51003465200006], [84.22578936900004, 25.51159351800004], [84.22693490000006, 25.514300341000023], [84.22799578900003, 25.520504191000043], [84.22813747700008, 25.522572290000028], [84.22813051000008, 25.523389054000063], [84.22792239000006, 25.523879565000072], [84.22735118300005, 25.525531857000033], [84.22732055800003, 25.526204160000077], [84.22748486600005, 25.526778441000033], [84.22744014200003, 25.527355835000037], [84.22770262000006, 25.529253253000036], [84.22782586500006, 25.53056751400004], [84.22704882000005, 25.531848283000045], [84.22699879100009, 25.532461726000065], [84.22848796600005, 25.532860351000068], [84.23011220200004, 25.533178772000042], [84.23299478400008, 25.53354656600004], [84.23836095500008, 25.53380997900007], [84.23789860200003, 25.537909222000053], [84.23750925500008, 25.541016065000065], [84.23717931300007, 25.54297703900005], [84.23699127500004, 25.544036275000053], [84.23964467800005, 25.544465630000047], [84.24130002700008, 25.546440432000054], [84.24761072200005, 25.546276774000034]]]]}}]}