{"type": "FeatureCollection", "features": [{"type": "Feature", "properties": {"OBJECTID": 319, "GPCODE": "92550", "GPNAME_1": "PARARI", "DIST_CEN_C": "30", "BLK_NAME": "SIMRI", "ST_NAME": "BIHAR", "ST_CODE_1": "10", "GPCODE2011": "95105", "REMARKS": "FINALIZED", "MAP_STATUS": "COMPLETED", "BLK_C_2001": "300001", "BLK_C_2011": "01435", "DIST_NAME": "BUXAR", "code2011": 27.0, "Shape_Leng": 0.14648680131, "Shape_Area": 0.00066397647, "Area": 7.39656}, "geometry": {"type": "MultiPolygon", "coordinates": [[[[84.14248513300004, 25.649653616000023], [84.14238308900008, 25.64883146300008], [84.14197260300006, 25.647975366000026], [84.14149324900006, 25.647037510000075], [84.14101119900005, 25.646379500000023], [84.14027533400008, 25.64571499400006], [84.14039744300004, 25.643260868000027], [84.14127871300008, 25.642735096000024], [84.14135972400004, 25.642045234000022], [84.14147889800006, 25.64099466700003], [84.14307702700006, 25.64048328900003], [84.14351830000004, 25.640148202000034], [84.14341275200007, 25.63971869200003], [84.14266382900007, 25.63830046000004], [84.14195023100007, 25.63737887900004], [84.14296589300005, 25.636858627000038], [84.14247124100007, 25.63541069000007], [84.14197979300008, 25.634161336000034], [84.14137561600006, 25.63270811900003], [84.14099025000007, 25.63129712500006], [84.13977372800008, 25.62984364500005], [84.13920287600007, 25.628571169000054], [84.13852081600004, 25.627482832000055], [84.13660530200008, 25.626791256000047], [84.13596030500008, 25.625996523000026], [84.13517520700003, 25.624744923000037], [84.13503933900006, 25.623823213000037], [84.13563271200007, 25.622645401000057], [84.13572001300008, 25.620741604000045], [84.13616042600006, 25.619955169000036], [84.13734088500007, 25.617730331000075], [84.13438648000005, 25.616331169000034], [84.13294946000008, 25.61507001600006], [84.13157740000008, 25.614337500000033], [84.13050033000007, 25.61347634200007], [84.12876430800003, 25.612804204000042], [84.12818751400005, 25.612736581000036], [84.12774898500004, 25.613324458000022], [84.12694820300004, 25.613778612000033], [84.12550351000004, 25.61337037900006], [84.12470517700007, 25.613039340000057], [84.12362006600006, 25.613030949000063], [84.12231845600007, 25.61275468200006], [84.12138144800008, 25.612354851000077], [84.12094520300008, 25.61268091100004], [84.11956087400006, 25.61326144000003], [84.11833270200003, 25.613121104000072], [84.11695210200008, 25.61330444200007], [84.11506490100004, 25.613881038000045], [84.11204055800005, 25.611560558000065], [84.11014077600004, 25.61398265100007], [84.10918944900004, 25.615089923000028], [84.11055320600008, 25.61615197800006], [84.11170238000005, 25.617275582000048], [84.11190952100003, 25.618527220000033], [84.11233763800004, 25.619054090000077], [84.11348816700007, 25.619518750000054], [84.11427331700008, 25.620707208000056], [84.11470393700006, 25.621500251000043], [84.11527574400003, 25.62209585200003], [84.11534477600009, 25.62268755300005], [84.11533612200003, 25.623603622000076], [84.11576101700007, 25.624464294000063], [84.11633290000003, 25.62505537800007], [84.11726750400004, 25.62572154700007], [84.11769436900005, 25.62690714100006], [84.11804911100006, 25.627830518000053], [84.11810514700005, 25.629274966000025], [84.11990986200004, 25.630078706000063], [84.12093351000004, 25.629229261000035], [84.12216264500006, 25.629306491000023], [84.12368976900007, 25.628925710000033], [84.12644366600006, 25.628879303000076], [84.12795056000004, 25.630141046000062], [84.12805728800004, 25.63152283100004], [84.12566371800006, 25.631901434000042], [84.12387532500009, 25.633070040000064], [84.12303403200008, 25.63411047900007], [84.12201036200008, 25.634960027000034], [84.12109689900007, 25.635738151000055], [84.12112593300003, 25.63688926100008], [84.12111977900008, 25.637548036000055], [84.12024239800007, 25.63819566500007], [84.12109806200004, 25.639876582000056], [84.12199448200005, 25.640934995000066], [84.12337030200007, 25.64078323600006], [84.12470971800008, 25.640793631000065], [84.12638233600006, 25.64031009400003], [84.12783300400008, 25.640127216000053], [84.12946152200004, 25.640108256000076], [84.12969392400004, 25.642438705000075], [84.12941898400004, 25.644702077000034], [84.12922991500005, 25.645752092000066], [84.12936161800008, 25.647129610000036], [84.12957033400005, 25.648250345000065], [84.13078996400003, 25.649374411000053], [84.13246252600004, 25.649987543000066], [84.13431753400005, 25.649180451000063], [84.13630985800006, 25.64913250400008], [84.13897031200008, 25.649545552000063], [84.14030637100007, 25.649934830000063], [84.14169744800006, 25.650288384000078], [84.14226284700004, 25.64999934100007], [84.14248513300004, 25.649653616000023]]]]}}, {"type": "Feature", "properties": {"OBJECTID": 320, "GPCODE": "92549", "GPNAME_1": "PAIGAMBARPUR", "DIST_CEN_C": "30", "BLK_NAME": "SIMRI", "ST_NAME": "BIHAR", "ST_CODE_1": "10", "GPCODE2011": "95104", "REMARKS": "FINALIZED", "MAP_STATUS": "COMPLETED", "BLK_C_2001": "300001", "BLK_C_2011": "01435", "DIST_NAME": "BUXAR", "code2011": 23.0, "Shape_Leng": 0.10811162036, "Shape_Area": 0.00049668485, "Area": 5.53225}, "geometry": {"type": "MultiPolygon", "coordinates": [[[[84.18052758800007, 25.648390930000062], [84.18112305300008, 25.64695125700007], [84.18229427400007, 25.64570976400006], [84.18354223900008, 25.64368366000008], [84.18492693000007, 25.642511428000034], [84.18566776400007, 25.64094187200004], [84.18688551300005, 25.64007534600006], [84.18652866600007, 25.639076298000077], [84.18560587600007, 25.639497320000032], [84.18467180600004, 25.63870072000003], [84.18366474500004, 25.637709432000065], [84.18185822200007, 25.63703729300005], [84.18231958700005, 25.63441414700003], [84.18419815100003, 25.63482509000005], [84.18485851900004, 25.63390932200008], [84.18552698300005, 25.63207297200006], [84.18502547600008, 25.63134720900007], [84.18387121400008, 25.630684316000043], [84.17874386900007, 25.628872928000078], [84.17499162000007, 25.627531887000032], [84.17110684700003, 25.625436078000064], [84.17032175300005, 25.62414855700007], [84.16946365600006, 25.623221580000063], [84.16889006400004, 25.622677147000047], [84.16831342300009, 25.62212981400006], [84.16792101500005, 25.621472510000046], [84.16759649800008, 25.621009755000046], [84.16580059500006, 25.620301425000036], [84.16549026600006, 25.621589800000038], [84.16511951500007, 25.622408335000046], [84.16452867400005, 25.623879698000053], [84.16367371200005, 25.625940252000078], [84.16256509100003, 25.62852231900007], [84.16204596500006, 25.629768584000033], [84.16156762900005, 25.63091128600007], [84.16136914100008, 25.632489316000033], [84.16150210300003, 25.633767456000044], [84.16287271000004, 25.63472999800007], [84.16402830100003, 25.635230517000025], [84.16341272400007, 25.638903930000026], [84.16253314900007, 25.639253946000053], [84.16154631500007, 25.640460526000027], [84.16095076100004, 25.64190012800003], [84.16116296800004, 25.64265543500005], [84.16188115600005, 25.643089519000057], [84.16198629000007, 25.643582183000035], [84.16172969400003, 25.64387362000008], [84.16121794800006, 25.64429847400004], [84.16085524700009, 25.64475606800005], [84.16091466700004, 25.64590286200007], [84.16047572300005, 25.64652682700006], [84.15978388500008, 25.647045152000032], [84.16017568100006, 25.647779171000025], [84.16082742300006, 25.64784725000004], [84.16212899700008, 25.648186447000057], [84.16357689600005, 25.648328199000048], [84.16429891200005, 25.648333528000023], [84.16459065000004, 25.648010858000077], [84.16517735700006, 25.647554894000052], [84.16597113600005, 25.64788575600005], [84.16690811500007, 25.64835307900006], [84.16756044200008, 25.648357959000066], [84.16778485500004, 25.647768450000058], [84.16807425800005, 25.647707385000047], [84.16887094400005, 25.64771335900008], [84.16938122400006, 25.647455430000036], [84.17047031200008, 25.64706633700007], [84.17134055800005, 25.647203723000075], [84.17292451800006, 25.648266963000026], [84.17414216700007, 25.649656996000033], [84.17535869100004, 25.651173266000058], [84.17614905900007, 25.651901234000036], [84.17752841900005, 25.651911392000045], [84.17831990300004, 25.65250849800003], [84.18035415500003, 25.651670531000036], [84.18001163500008, 25.649303246000045], [84.18052758800007, 25.648390930000062]]]]}}, {"type": "Feature", "properties": {"OBJECTID": 323, "GPCODE": "92537", "GPNAME_1": "DHAKAICH", "DIST_CEN_C": "30", "BLK_NAME": "SIMRI", "ST_NAME": "BIHAR", "ST_CODE_1": "10", "GPCODE2011": "95092", "REMARKS": "FINALIZED", "MAP_STATUS": "COMPLETED", "BLK_C_2001": "300001", "BLK_C_2011": "01435", "DIST_NAME": "BUXAR", "code2011": 12.0, "Shape_Leng": 0.15428650043, "Shape_Area": 0.00073644916, "Area": 8.20626}, "geometry": {"type": "MultiPolygon", "coordinates": [[[[84.18592957000004, 25.597163394000063], [84.18555711400006, 25.594240678000062], [84.18693927500004, 25.593862788000024], [84.18762615200006, 25.59386775100006], [84.18850032600005, 25.593513114000075], [84.19041984000006, 25.59316618400004], [84.19154469700004, 25.593174413000042], [84.19368483600005, 25.592630359000054], [84.19517330300005, 25.592050018000066], [84.19596834200007, 25.591636159000075], [84.19645096900007, 25.590520354000034], [84.19768401800007, 25.590105148000077], [84.19866111400006, 25.590504916000043], [84.20036244500005, 25.590616539000052], [84.20221132400007, 25.590368132000037], [84.20362757100008, 25.589489340000057], [84.20490273700005, 25.58881257300004], [84.20513108200004, 25.587731055000063], [84.20488383300005, 25.586971110000036], [84.20438698500004, 25.58572186600003], [84.20359837800004, 25.584827146000066], [84.20468930000004, 25.584149010000033], [84.20512541300008, 25.58379112600005], [84.20557086000008, 25.58293683900007], [84.20543901800005, 25.581491738000068], [84.20557018300008, 25.580147784000076], [84.20516737200006, 25.57953107000003], [84.20491166600004, 25.57801732200005], [84.20483450100005, 25.57658611000005], [84.20462519100005, 25.574905750000028], [84.20463288300004, 25.574007702000074], [84.20397457200005, 25.571872804000066], [84.20390241100006, 25.56986842400005], [84.20240950900006, 25.56985763600005], [84.20295750100007, 25.572077560000025], [84.20150728700008, 25.57288390100007], [84.19996028800006, 25.573933233000048], [84.19852059000004, 25.573516609000023], [84.19833145400008, 25.574661605000074], [84.19705736300006, 25.575794122000048], [84.19633433500007, 25.57595581000004], [84.19508243000007, 25.57512530300005], [84.19412520000003, 25.574179662000063], [84.19222107200005, 25.57224315600007], [84.18857574100008, 25.57363357500003], [84.18495390500004, 25.57516404100005], [84.18494168500007, 25.57655393400006], [84.18393828800004, 25.578017851000027], [84.18329975800003, 25.578748750000045], [84.17887534700003, 25.579289327000026], [84.17580673900005, 25.57959152500007], [84.17255467100006, 25.57981563800007], [84.17138730200008, 25.579558733000056], [84.17124281800005, 25.57514397700004], [84.16911080000006, 25.571526840000047], [84.16895024700005, 25.569481375000066], [84.16851447700003, 25.567596217000073], [84.16825571900006, 25.566506737000054], [84.16766113000006, 25.56731916500007], [84.16697513000008, 25.568338523000023], [84.16642251100006, 25.570008709000035], [84.16604700700003, 25.571355222000022], [84.16607910000005, 25.57275], [84.16634466500005, 25.573650008000072], [84.16665033500004, 25.574509720000037], [84.16673067100004, 25.57553475000003], [84.16622598500004, 25.57630719200006], [84.16558973200006, 25.577322348000052], [84.16566961400008, 25.578383479000024], [84.16593131700006, 25.57916169300006], [84.16624387400003, 25.57981830400007], [84.16673347900007, 25.580151432000036], [84.16686873100008, 25.58060371600004], [84.16663575800004, 25.581048752000072], [84.16576795400005, 25.582351010000025], [84.16530881800009, 25.583042586000033], [84.16512117400003, 25.583984481000073], [84.16510933700005, 25.585293147000073], [84.16536695700006, 25.587091281000028], [84.16553445100004, 25.588401304000058], [84.16574663000006, 25.589711693000027], [84.16573420300006, 25.591101664000064], [84.16594453000005, 25.592619616000036], [84.16715736500004, 25.593364302000055], [84.16935962900004, 25.594238202000042], [84.17057399700008, 25.59482041800004], [84.17151713900006, 25.595111707000058], [84.17517091000008, 25.595098250000035], [84.17614196100004, 25.595064829000023], [84.17711283900007, 25.595031408000068], [84.17828677900008, 25.59512136400008], [84.17878130900004, 25.595490502000075], [84.17949173900007, 25.596763990000056], [84.17952894700005, 25.597621684000046], [84.17880468700008, 25.597905211000068], [84.17969078200008, 25.598462306000044], [84.17997710000003, 25.59872619500004], [84.18099018200007, 25.59899998700007], [84.18240213800004, 25.59920438900008], [84.18467781000004, 25.599681505000035], [84.18581001800004, 25.59886844700003], [84.18599582700006, 25.598116145000063], [84.18592957000004, 25.597163394000063]]]]}}, {"type": "Feature", "properties": {"OBJECTID": 325, "GPCODE": "92543", "GPNAME_1": "KATHAR", "DIST_CEN_C": "30", "BLK_NAME": "SIMRI", "ST_NAME": "BIHAR", "ST_CODE_1": "10", "GPCODE2011": "95098", "REMARKS": "FINALIZED", "MAP_STATUS": "COMPLETED", "BLK_C_2001": "300001", "BLK_C_2011": "01435", "DIST_NAME": "BUXAR", "code2011": 19.0, "Shape_Leng": 0.16659989528, "Shape_Area": 0.00112146309, "Area": 12.4948}, "geometry": {"type": "MultiPolygon", "coordinates": [[[[84.21308534900004, 25.606215072000055], [84.21499326200006, 25.606066284000065], [84.21649654200007, 25.606077049000078], [84.21919749100005, 25.607490858000062], [84.21906338200006, 25.603965170000038], [84.21892928300008, 25.600439546000075], [84.22065155200005, 25.600451871000075], [84.22354579400007, 25.600801873000023], [84.22471656800008, 25.60127502100005], [84.22565156100006, 25.599620850000065], [84.22617107400004, 25.598825720000036], [84.22705623100006, 25.598335598000062], [84.22816058400008, 25.597842451000076], [84.22941777900007, 25.596921629000065], [84.23147508200003, 25.596168937000073], [84.23258121400005, 25.595445634000043], [84.23158730000006, 25.594080203000033], [84.23141512100005, 25.593253163000043], [84.23080389700004, 25.590193492000026], [84.23010435800006, 25.586397565000027], [84.23086811500008, 25.58260744100005], [84.22997477500007, 25.580538713000067], [84.22953442000005, 25.57847311000006], [84.22811751200004, 25.57535809700005], [84.22644883000004, 25.57551325700007], [84.22642728300008, 25.578049476000047], [84.21966451700007, 25.577347014000054], [84.21856597700008, 25.579505450000056], [84.21337983700005, 25.579508945000043], [84.21017116900003, 25.57989664100006], [84.20674361900006, 25.58027813800004], [84.20557018300008, 25.580147784000076], [84.20543901800005, 25.581491738000068], [84.20557086000008, 25.58293683900007], [84.20512541300008, 25.58379112600005], [84.20468930000004, 25.584149010000033], [84.20359837800004, 25.584827146000066], [84.20438698500004, 25.58572186600003], [84.20488383300005, 25.586971110000036], [84.20513108200004, 25.587731055000063], [84.20490273700005, 25.58881257300004], [84.20362757100008, 25.589489340000057], [84.20221132400007, 25.590368132000037], [84.20036244500005, 25.590616539000052], [84.19866111400006, 25.590504916000043], [84.19768401800007, 25.590105148000077], [84.19645096900007, 25.590520354000034], [84.19596834200007, 25.591636159000075], [84.19517330300005, 25.592050018000066], [84.19368483600005, 25.592630359000054], [84.19154469700004, 25.593174413000042], [84.19041984000006, 25.59316618400004], [84.18850032600005, 25.593513114000075], [84.18762615200006, 25.59386775100006], [84.18693927500004, 25.593862788000024], [84.18555711400006, 25.594240678000062], [84.18592957000004, 25.597163394000063], [84.18599582700006, 25.598116145000063], [84.18581001800004, 25.59886844700003], [84.18467781000004, 25.599681505000035], [84.18640341900004, 25.601007433000063], [84.18781188400004, 25.601609050000036], [84.18819990100008, 25.602762664000068], [84.18739546200004, 25.603672963000065], [84.18610238100007, 25.604665288000035], [84.18681865200006, 25.60585296000005], [84.18738689200006, 25.606904220000047], [84.18853862200007, 25.607833320000054], [84.18947083500007, 25.608823938000057], [84.19019030000004, 25.609095461000038], [84.19186473500008, 25.611161158000073], [84.19279448900005, 25.613009222000073], [84.19379440800003, 25.614794622000034], [84.19573510600009, 25.617178074000037], [84.19840466600004, 25.618777028000068], [84.20037299300003, 25.620853744000044], [84.20037465800004, 25.62085550100005], [84.20184598800006, 25.620368049000035], [84.20575259400005, 25.618266117000076], [84.20906440300007, 25.616994784000042], [84.20950750100008, 25.612376675000064], [84.20962909600007, 25.610983012000077], [84.21002732800008, 25.60752446600003], [84.21205175300008, 25.606573152000067], [84.21308534900004, 25.606215072000055]]]]}}, {"type": "Feature", "properties": {"OBJECTID": 326, "GPCODE": "92547", "GPNAME_1": "MAJHWARI", "DIST_CEN_C": "30", "BLK_NAME": "SIMRI", "ST_NAME": "BIHAR", "ST_CODE_1": "10", "GPCODE2011": "95102", "REMARKS": "FINALIZED", "MAP_STATUS": "COMPLETED", "BLK_C_2001": "300001", "BLK_C_2011": "01435", "DIST_NAME": "BUXAR", "code2011": 26.0, "Shape_Leng": 0.19630190762, "Shape_Area": 0.00113792234, "Area": 12.6793}, "geometry": {"type": "MultiPolygon", "coordinates": [[[[84.11014077600004, 25.61398265100007], [84.11204055800005, 25.611560558000065], [84.11506490100004, 25.613881038000045], [84.11695210200008, 25.61330444200007], [84.11833270200003, 25.613121104000072], [84.11956087400006, 25.61326144000003], [84.12094520300008, 25.61268091100004], [84.12138144800008, 25.612354851000077], [84.12231845600007, 25.61275468200006], [84.12362006600006, 25.613030949000063], [84.12470517700007, 25.613039340000057], [84.12550351000004, 25.61337037900006], [84.12694820300004, 25.613778612000033], [84.12774898500004, 25.613324458000022], [84.12818751400005, 25.612736581000036], [84.12876430800003, 25.612804204000042], [84.13050033000007, 25.61347634200007], [84.13043428500004, 25.61255525300004], [84.13072782600005, 25.61203401000006], [84.13138606200005, 25.611380164000025], [84.13176104200005, 25.610137551000037], [84.13162597100006, 25.609148235000077], [84.13096025600004, 25.608475182000063], [84.13177143100006, 25.606906477000052], [84.13281078100005, 25.604351122000025], [84.13325843500007, 25.60277955300006], [84.13363287800007, 25.601600099000052], [84.13464992400003, 25.600885774000062], [84.13602862800008, 25.60089630400006], [84.13762065600008, 25.600976081000056], [84.13941818300003, 25.601973588000078], [84.14035588100006, 25.602833616000055], [84.14100171800004, 25.60349731100007], [84.14178956000006, 25.60441941700003], [84.14278594600006, 25.605938794000053], [84.14371116600006, 25.60765174000005], [84.14508466500007, 25.608253382000044], [84.14652484000004, 25.609185033000074], [84.14756665900006, 25.606304614000067], [84.14764829900008, 25.604991899000026], [84.14765677600008, 25.60407130400006], [84.14840809100008, 25.601382754000042], [84.15071192300007, 25.602582596000047], [84.15173396200004, 25.601868300000035], [84.15332734300006, 25.601817149000055], [84.15455565100007, 25.601957296000023], [84.15556396400007, 25.602750164000042], [84.15793013100006, 25.605331412000055], [84.15832020900007, 25.602378309000073], [84.15862137300007, 25.60100409900008], [84.15899659100006, 25.599693638000076], [84.15958407000005, 25.598578746000044], [84.16097021200005, 25.596671139000023], [84.16097208100007, 25.596668566000062], [84.16018747700008, 25.596254609000027], [84.15888246800006, 25.595793504000028], [84.15753566700005, 25.595002625000063], [84.15695390600007, 25.59438441700007], [84.15606438100008, 25.59310954500006], [84.15476453300005, 25.592115947000025], [84.15355656000008, 25.59141191200007], [84.15193403400008, 25.590871777000075], [84.14981887500005, 25.59032333500005], [84.14806777600006, 25.58969637100006], [84.14644880100008, 25.58931416000007], [84.14464649100006, 25.588853782000058], [84.14203799900008, 25.587832200000037], [84.13964286500004, 25.588508925000042], [84.13756302700006, 25.58898507400005], [84.13670402400004, 25.58930348100006], [84.13557320300004, 25.589416725000035], [84.13480827900008, 25.589248354000063], [84.13404459300006, 25.588958236000053], [84.13296394200006, 25.589031275000025], [84.13119993500004, 25.589794003000065], [84.12970381800005, 25.590644507000036], [84.12865912900008, 25.591123854000045], [84.12807374800008, 25.590916338000056], [84.12704246800007, 25.59049768600005], [84.12636779500008, 25.590269172000035], [84.12569300700005, 25.590040617000056], [84.12407377800008, 25.589698690000034], [84.12217845000004, 25.589602889000048], [84.12033319400007, 25.58946679400003], [84.11871016100008, 25.589003019000074], [84.11645962500006, 25.588579426000024], [84.11461334100005, 25.588565092000067], [84.11424614400005, 25.58896839500005], [84.11329238000008, 25.589822971000046], [84.11251862300008, 25.590593139000077], [84.11120665200008, 25.590907926000057], [84.10993834200008, 25.59134933300004], [84.10794746300007, 25.592398866000053], [84.10700602800006, 25.592991703000052], [84.10550433700007, 25.594410611000058], [84.10305385000004, 25.596151379000048], [84.10096470200006, 25.597565591000034], [84.10010517200004, 25.597928915000068], [84.09711917200008, 25.59892538500003], [84.09571192400006, 25.599812332000056], [84.09610961300007, 25.600388569000074], [84.09714144100008, 25.601258705000077], [84.09708725500008, 25.60223748100003], [84.09577506800008, 25.602556648000075], [84.09468297200004, 25.603283645000033], [84.09381236600007, 25.604788533000033], [84.09312355500003, 25.606010594000054], [84.09149513000006, 25.607121420000055], [84.09240547300004, 25.60717827600007], [84.09394323700008, 25.60721748900005], [84.09466805000005, 25.60741271200004], [84.09517906300005, 25.60810269800004], [84.09557875800004, 25.608981309000058], [84.09596536000004, 25.610708257000056], [84.09605592500003, 25.613186507000023], [84.09351979000007, 25.614985139000055], [84.09644618300007, 25.614529911000034], [84.09833398800004, 25.61389037300006], [84.10044208800008, 25.613117213000066], [84.10167279900008, 25.61299598000005], [84.10324057800005, 25.613549772000056], [84.10433184200008, 25.613427413000068], [84.10448250800005, 25.614854645000037], [84.10636334200007, 25.614937059000056], [84.10781186700007, 25.614948300000037], [84.10918944900004, 25.615089923000028], [84.11014077600004, 25.61398265100007]]]]}}, {"type": "Feature", "properties": {"OBJECTID": 330, "GPCODE": "92544", "GPNAME_1": "KAZIPUR", "DIST_CEN_C": "30", "BLK_NAME": "SIMRI", "ST_NAME": "BIHAR", "ST_CODE_1": "10", "GPCODE2011": "95099", "REMARKS": "FINALIZED", "MAP_STATUS": "COMPLETED", "BLK_C_2001": "300001", "BLK_C_2011": "01435", "DIST_NAME": "BUXAR", "code2011": 23.0, "Shape_Leng": 0.13435657015, "Shape_Area": 0.0005233616, "Area": 5.83083}, "geometry": {"type": "MultiPolygon", "coordinates": [[[[84.17017538200008, 25.62046938000003], [84.17029753800006, 25.619057799000075], [84.17070902100005, 25.617585054000074], [84.17159107500004, 25.61581804700006], [84.17186023300007, 25.614114076000078], [84.17227864200004, 25.612406830000054], [84.17461306400008, 25.614134594000063], [84.17627524100004, 25.614769636000062], [84.17771956000007, 25.615272238000045], [84.17970670600005, 25.61518767700005], [84.18058482900005, 25.614408939000043], [84.18160971300006, 25.613364967000052], [84.18227519800007, 25.611858002000076], [84.18221044400008, 25.610742816000027], [84.18244112800005, 25.609431220000033], [84.18071099200006, 25.60803743200006], [84.17949021900006, 25.60704458200007], [84.18102624000005, 25.60561178300003], [84.18297639200006, 25.605757045000075], [84.18406361100006, 25.606094464000023], [84.18486357500007, 25.605703276000042], [84.18610238100007, 25.604665288000035], [84.18739546200004, 25.603672963000065], [84.18819990100008, 25.602762664000068], [84.18781188400004, 25.601609050000036], [84.18640341900004, 25.601007433000063], [84.18467781000004, 25.599681505000035], [84.18240213800004, 25.59920438900008], [84.18099018200007, 25.59899998700007], [84.17997710000003, 25.59872619500004], [84.17969078200008, 25.598462306000044], [84.17880468700008, 25.597905211000068], [84.17799516500008, 25.597696084000063], [84.17699965000008, 25.597688790000063], [84.17645806200005, 25.598131547000037], [84.17595563200007, 25.598660343000063], [84.17585945300004, 25.59939521600006], [84.17526083400008, 25.600658973000066], [84.17453938100005, 25.600612995000063], [84.17377573000005, 25.600282377000042], [84.17278572500004, 25.599661293000054], [84.17098819500006, 25.599155976000077], [84.16932334100005, 25.598854777000042], [84.16702546800008, 25.59863452700006], [84.16535670000007, 25.598215916000072], [84.16427884600006, 25.59795959400003], [84.16288453800007, 25.597457278000036], [84.16175798400008, 25.597083203000068], [84.16097208100007, 25.596668566000062], [84.16097021200005, 25.596671139000023], [84.15958407000005, 25.598578746000044], [84.15899659100006, 25.599693638000076], [84.15862137300007, 25.60100409900008], [84.15832020900007, 25.602378309000073], [84.15793013100006, 25.605331412000055], [84.15556396400007, 25.602750164000042], [84.15455565100007, 25.601957296000023], [84.15332734300006, 25.601817149000055], [84.15173396200004, 25.601868300000035], [84.15071192300007, 25.602582596000047], [84.15097790300007, 25.60508038100005], [84.15154653500008, 25.606596495000076], [84.15306062700006, 25.607068275000074], [84.15494138300005, 25.607736919000047], [84.15732834500005, 25.608016650000025], [84.15809269200008, 25.60827505900005], [84.15898327800005, 25.608886557000062], [84.15852283900006, 25.61190229600004], [84.15821579100003, 25.61393537200007], [84.15859820300005, 25.615684757000054], [84.15656437800004, 25.616522367000073], [84.15481244500006, 25.617560751000042], [84.15462824500008, 25.618109958000048], [84.15425228700008, 25.619488077000028], [84.15406174900005, 25.62073216400006], [84.15456860100005, 25.62139491100004], [84.15558269300004, 25.62156499400004], [84.15674665600005, 25.62058993200003], [84.15802321000007, 25.619814295000026], [84.15944067700008, 25.619427803000065], [84.16131744100005, 25.62000156000005], [84.16359486300007, 25.620311936000064], [84.16580059500006, 25.620301425000036], [84.16759649800008, 25.621009755000046], [84.16792101500005, 25.621472510000046], [84.16831342300009, 25.62212981400006], [84.16889006400004, 25.622677147000047], [84.16946365600006, 25.623221580000063], [84.16987458500006, 25.62181201100003], [84.17017538200008, 25.62046938000003]]]]}}, {"type": "Feature", "properties": {"OBJECTID": 332, "GPCODE": "92542", "GPNAME_1": "GAYGHAT", "DIST_CEN_C": "30", "BLK_NAME": "SIMRI", "ST_NAME": "BIHAR", "ST_CODE_1": "10", "GPCODE2011": "95097", "REMARKS": "FINALIZED", "MAP_STATUS": "COMPLETED", "BLK_C_2001": "300001", "BLK_C_2011": "01435", "DIST_NAME": "BUXAR", "code2011": 35.0, "Shape_Leng": 0.18625957964, "Shape_Area": 0.00099895744, "Area": 11.1283}, "geometry": {"type": "MultiPolygon", "coordinates": [[[[84.14681573700005, 25.646590678000052], [84.14715873000006, 25.645018313000037], [84.14833502000005, 25.645442350000053], [84.14872705100004, 25.646135792000052], [84.14941372500004, 25.646204183000066], [84.15072213400003, 25.645789948000072], [84.15255522800004, 25.64518547700004], [84.15304993100006, 25.646633376000068], [84.15387199600008, 25.64769111000004], [84.15466099100007, 25.648549949000028], [84.15523443500007, 25.649014630000067], [84.15664861100004, 25.649025331000075], [84.15745073200003, 25.64844018100007], [84.15806874600008, 25.648377064000044], [84.15904766800008, 25.64805949400005], [84.15978388500008, 25.647045152000032], [84.16047572300005, 25.64652682700006], [84.16091466700004, 25.64590286200007], [84.16085524700009, 25.64475606800005], [84.16121794800006, 25.64429847400004], [84.16172969400003, 25.64387362000008], [84.16198629000007, 25.643582183000035], [84.16188115600005, 25.643089519000057], [84.16116296800004, 25.64265543500005], [84.16095076100004, 25.64190012800003], [84.16154631500007, 25.640460526000027], [84.16253314900007, 25.639253946000053], [84.16341272400007, 25.638903930000026], [84.16402830100003, 25.635230517000025], [84.16287271000004, 25.63472999800007], [84.16150210300003, 25.633767456000044], [84.16136914100008, 25.632489316000033], [84.16156762900005, 25.63091128600007], [84.16204596500006, 25.629768584000033], [84.16256509100003, 25.62852231900007], [84.16367371200005, 25.625940252000078], [84.16452867400005, 25.623879698000053], [84.16511951500007, 25.622408335000046], [84.16549026600006, 25.621589800000038], [84.16580059500006, 25.620301425000036], [84.16359486300007, 25.620311936000064], [84.16131744100005, 25.62000156000005], [84.15944067700008, 25.619427803000065], [84.15802321000007, 25.619814295000026], [84.15674665600005, 25.62058993200003], [84.15558269300004, 25.62156499400004], [84.15456860100005, 25.62139491100004], [84.15406174900005, 25.62073216400006], [84.15425228700008, 25.619488077000028], [84.15462824500008, 25.618109958000048], [84.15481244500006, 25.617560751000042], [84.15656437800004, 25.616522367000073], [84.15859820300005, 25.615684757000054], [84.15821579100003, 25.61393537200007], [84.15852283900006, 25.61190229600004], [84.15898327800005, 25.608886557000062], [84.15809269200008, 25.60827505900005], [84.15732834500005, 25.608016650000025], [84.15494138300005, 25.607736919000047], [84.15306062700006, 25.607068275000074], [84.15154653500008, 25.606596495000076], [84.15097790300007, 25.60508038100005], [84.15071192300007, 25.602582596000047], [84.14840809100008, 25.601382754000042], [84.14765677600008, 25.60407130400006], [84.14764829900008, 25.604991899000026], [84.14756665900006, 25.606304614000067], [84.14652484000004, 25.609185033000074], [84.14508466500007, 25.608253382000044], [84.14371116600006, 25.60765174000005], [84.14278594600006, 25.605938794000053], [84.14178956000006, 25.60441941700003], [84.14100171800004, 25.60349731100007], [84.14035588100006, 25.602833616000055], [84.13941818300003, 25.601973588000078], [84.13762065600008, 25.600976081000056], [84.13602862800008, 25.60089630400006], [84.13464992400003, 25.600885774000062], [84.13363287800007, 25.601600099000052], [84.13325843500007, 25.60277955300006], [84.13281078100005, 25.604351122000025], [84.13177143100006, 25.606906477000052], [84.13096025600004, 25.608475182000063], [84.13162597100006, 25.609148235000077], [84.13176104200005, 25.610137551000037], [84.13138606200005, 25.611380164000025], [84.13072782600005, 25.61203401000006], [84.13043428500004, 25.61255525300004], [84.13050033000007, 25.61347634200007], [84.13157740000008, 25.614337500000033], [84.13294946000008, 25.61507001600006], [84.13438648000005, 25.616331169000034], [84.13734088500007, 25.617730331000075], [84.13616042600006, 25.619955169000036], [84.13572001300008, 25.620741604000045], [84.13563271200007, 25.622645401000057], [84.13503933900006, 25.623823213000037], [84.13517520700003, 25.624744923000037], [84.13596030500008, 25.625996523000026], [84.13660530200008, 25.626791256000047], [84.13852081600004, 25.627482832000055], [84.13920287600007, 25.628571169000054], [84.13977372800008, 25.62984364500005], [84.14099025000007, 25.63129712500006], [84.14137561600006, 25.63270811900003], [84.14197979300008, 25.634161336000034], [84.14247124100007, 25.63541069000007], [84.14296589300005, 25.636858627000038], [84.14195023100007, 25.63737887900004], [84.14266382900007, 25.63830046000004], [84.14341275200007, 25.63971869200003], [84.14351830000004, 25.640148202000034], [84.14307702700006, 25.64048328900003], [84.14147889800006, 25.64099466700003], [84.14135972400004, 25.642045234000022], [84.14127871300008, 25.642735096000024], [84.14039744300004, 25.643260868000027], [84.14107716200004, 25.64408291500007], [84.14204656300006, 25.645340426000075], [84.14289911600008, 25.646858726000062], [84.14361804700007, 25.64774876200005], [84.14533879300006, 25.649634701000025], [84.14601812500007, 25.650492824000025], [84.14785305200007, 25.651883157000043], [84.14797636400004, 25.65037677400005], [84.14697068700008, 25.64924998500004], [84.14665751300004, 25.648101308000037], [84.14681573700005, 25.646590678000052]]]]}}, {"type": "Feature", "properties": {"OBJECTID": 337, "GPCODE": "92538", "GPNAME_1": "DULLAHPUR", "DIST_CEN_C": "30", "BLK_NAME": "SIMRI", "ST_NAME": "BIHAR", "ST_CODE_1": "10", "GPCODE2011": "95093", "REMARKS": "FINALIZED", "MAP_STATUS": "COMPLETED", "BLK_C_2001": "300001", "BLK_C_2011": "01435", "DIST_NAME": "BUXAR", "code2011": 19.0, "Shape_Leng": 0.15697896479, "Shape_Area": 0.00050004347, "Area": 5.5706}, "geometry": {"type": "MultiPolygon", "coordinates": [[[[84.11576101700007, 25.624464294000063], [84.11533612200003, 25.623603622000076], [84.11534477600009, 25.62268755300005], [84.11527574400003, 25.62209585200003], [84.11470393700006, 25.621500251000043], [84.11427331700008, 25.620707208000056], [84.11348816700007, 25.619518750000054], [84.11233763800004, 25.619054090000077], [84.11190952100003, 25.618527220000033], [84.11170238000005, 25.617275582000048], [84.11055320600008, 25.61615197800006], [84.10918944900004, 25.615089923000028], [84.10781186700007, 25.614948300000037], [84.10636334200007, 25.614937059000056], [84.10448250800005, 25.614854645000037], [84.10433184200008, 25.613427413000068], [84.10324057800005, 25.613549772000056], [84.10167279900008, 25.61299598000005], [84.10044208800008, 25.613117213000066], [84.09833398800004, 25.61389037300006], [84.09644618300007, 25.614529911000034], [84.09351979000007, 25.614985139000055], [84.09254376600006, 25.616042505000053], [84.09107449800007, 25.61766900200007], [84.09053362000003, 25.61851318600003], [84.08990167800005, 25.62003347700005], [84.08989235500007, 25.620994578000023], [84.08984995600008, 25.622289445000035], [84.08855108400007, 25.622238562000064], [84.08780427800008, 25.623785062000024], [84.08792797400008, 25.62438168400007], [84.08796477800007, 25.624684337000076], [84.08755811900005, 25.625037598000063], [84.08744216100007, 25.625190157000077], [84.08797438500005, 25.626259358000027], [84.08864735100008, 25.62668437900004], [84.09032012700004, 25.626169643000026], [84.09126922200005, 25.625324199000033], [84.09308882200008, 25.62455331600006], [84.09475897800007, 25.624300240000025], [84.09620940900004, 25.624117658000046], [84.09708004400005, 25.62366422100007], [84.09823804500007, 25.623871849000068], [84.09851726700003, 25.624857837000036], [84.10011465300005, 25.624410070000067], [84.10127323400008, 25.624549994000063], [84.10126001200007, 25.62593081800003], [84.10146389400006, 25.627507342000058], [84.10217627000003, 25.628496711000025], [84.10237765600004, 25.63033954100007], [84.10243347800008, 25.63230745800007], [84.10249307800007, 25.63335944100004], [84.10262861700005, 25.634281084000065], [84.10319105800005, 25.635864980000065], [84.10332404800005, 25.63704832800005], [84.10265934400007, 25.63835630500006], [84.10134168000008, 25.63972689800005], [84.10278537400006, 25.640261690000045], [84.10379596000007, 25.640797595000038], [84.10466598700003, 25.640935266000042], [84.10560381900007, 25.641267507000066], [84.10639218500006, 25.64213102100007], [84.10769371600009, 25.642466160000026], [84.10848786400004, 25.642738660000077], [84.10929383700005, 25.641756689000033], [84.11082745400006, 25.640717170000073], [84.11098349400004, 25.639472788000035], [84.11070216500008, 25.638680858000043], [84.11106436500006, 25.638291062000064], [84.11101394200006, 25.636255344000062], [84.11066050000005, 25.635201195000036], [84.11095864900005, 25.634219752000035], [84.11212616800003, 25.633439017000057], [84.11343106300006, 25.633385978000035], [84.11372538500007, 25.632797091000043], [84.11417851100003, 25.631221142000072], [84.11533908300004, 25.63063905100006], [84.11621451000008, 25.630189984000026], [84.11810514700005, 25.629274966000025], [84.11804911100006, 25.627830518000053], [84.11769436900005, 25.62690714100006], [84.11726750400004, 25.62572154700007], [84.11633290000003, 25.62505537800007], [84.11576101700007, 25.624464294000063]]], [[[84.10717140200006, 25.649263036000036], [84.10750821900007, 25.648408278000034], [84.10831387100006, 25.647462321000035], [84.10853952500008, 25.64677363100003], [84.10771159200004, 25.645846548000065], [84.10720654900007, 25.64554467800008], [84.10640921600003, 25.645606162000036], [84.10545314900008, 25.646650170000044], [84.10431913600007, 25.647561883000037], [84.10274966500003, 25.648700321000035], [84.10120045900004, 25.64770423400006], [84.10015724300007, 25.646409946000063], [84.09929190600008, 25.645780428000023], [84.09839435400005, 25.64488431700005], [84.09753056900007, 25.644096863000073], [84.09651678400007, 25.643894817000046], [84.09625315600005, 25.64489906400007], [84.09620909400007, 25.645855450000056], [84.09615686900008, 25.64713665900007], [84.09702024300003, 25.647964729000023], [84.09825154500004, 25.648335400000065], [84.09922322300008, 25.649299798000072], [84.09931811000007, 25.65084391700003], [84.09974349900006, 25.651673120000055], [84.09977675700009, 25.652363895000065], [84.09915238200006, 25.65308103700005], [84.09791059900004, 25.653793282000038], [84.09688717400007, 25.65457497400007], [84.09658650400007, 25.65529913000006], [84.09665428700004, 25.656021767000027], [84.09636081300005, 25.65651134600006], [84.09693252900007, 25.657143094000048], [84.09779386300005, 25.657687019000036], [84.09918777400009, 25.65670066100006], [84.10032288000008, 25.65568972400007], [84.10185878900006, 25.654420189000064], [84.10420521300006, 25.652231828000026], [84.10573956300004, 25.65112468700005], [84.10665358900008, 25.650310472000058], [84.10717140200006, 25.649263036000036]]]]}}, {"type": "Feature", "properties": {"OBJECTID": 339, "GPCODE": "92555", "GPNAME_1": "SIMRI", "DIST_CEN_C": "30", "BLK_NAME": "SIMRI", "ST_NAME": "BIHAR", "ST_CODE_1": "10", "GPCODE2011": "95110", "REMARKS": "FINALIZED", "MAP_STATUS": "COMPLETED", "BLK_C_2001": "300001", "BLK_C_2011": "01435", "DIST_NAME": "BUXAR", "code2011": 28.0, "Shape_Leng": 0.18060668557, "Shape_Area": 0.00092301874, "Area": 10.2805}, "geometry": {"type": "MultiPolygon", "coordinates": [[[[84.10002102000004, 25.67121615900004], [84.10089760900007, 25.67069499400003], [84.10187377800008, 25.670702748000053], [84.10245015700008, 25.671366109000076], [84.10335104700005, 25.67196437900003], [84.10641458900005, 25.670345808000036], [84.10835156700006, 25.668817619000038], [84.10944347000003, 25.668167353000058], [84.11081989500008, 25.66850748400003], [84.11205901300008, 25.668088518000047], [84.11279347500005, 25.666780983000024], [84.11313359700006, 25.665565167000068], [84.11368693200006, 25.664450312000042], [84.11398690700008, 25.66379832000007], [84.11482665300008, 25.662947365000036], [84.11584714700007, 25.662463451000065], [84.11693806100004, 25.662440360000062], [84.11864952800005, 25.661564635000047], [84.12021381800008, 25.660985636000078], [84.12141552000008, 25.660304473000053], [84.12279889600006, 25.65988647100005], [84.12403783000008, 25.65947182800005], [84.12556722100004, 25.65889250200007], [84.12727466700005, 25.658445327000038], [84.12919779900005, 25.65836092400008], [84.13040305400006, 25.657810597000037], [84.13156946800007, 25.65716518100004], [84.13288484900005, 25.656020046000037], [84.13266150100003, 25.652701286000024], [84.13251966300004, 25.651350835000073], [84.13246252600004, 25.649987543000066], [84.13078996400003, 25.649374411000053], [84.12957033400005, 25.648250345000065], [84.12936161800008, 25.647129610000036], [84.12922991500005, 25.645752092000066], [84.12941898400004, 25.644702077000034], [84.12969392400004, 25.642438705000075], [84.12946152200004, 25.640108256000076], [84.12783300400008, 25.640127216000053], [84.12638233600006, 25.64031009400003], [84.12470971800008, 25.640793631000065], [84.12337030200007, 25.64078323600006], [84.12199448200005, 25.640934995000066], [84.12109806200004, 25.639876582000056], [84.12024239800007, 25.63819566500007], [84.12111977900008, 25.637548036000055], [84.12112593300003, 25.63688926100008], [84.12109689900007, 25.635738151000055], [84.12201036200008, 25.634960027000034], [84.12303403200008, 25.63411047900007], [84.12387532500009, 25.633070040000064], [84.12566371800006, 25.631901434000042], [84.12805728800004, 25.63152283100004], [84.12795056000004, 25.630141046000062], [84.12644366600006, 25.628879303000076], [84.12368976900007, 25.628925710000033], [84.12216264500006, 25.629306491000023], [84.12093351000004, 25.629229261000035], [84.11990986200004, 25.630078706000063], [84.11810514700005, 25.629274966000025], [84.11621451000008, 25.630189984000026], [84.11533908300004, 25.63063905100006], [84.11417851100003, 25.631221142000072], [84.11372538500007, 25.632797091000043], [84.11343106300006, 25.633385978000035], [84.11212616800003, 25.633439017000057], [84.11095864900005, 25.634219752000035], [84.11066050000005, 25.635201195000036], [84.11101394200006, 25.636255344000062], [84.11106436500006, 25.638291062000064], [84.11070216500008, 25.638680858000043], [84.11098349400004, 25.639472788000035], [84.11082745400006, 25.640717170000073], [84.10929383700005, 25.641756689000033], [84.10848786400004, 25.642738660000077], [84.10769371600009, 25.642466160000026], [84.10639218500006, 25.64213102100007], [84.10560381900007, 25.641267507000066], [84.10466598700003, 25.640935266000042], [84.10379596000007, 25.640797595000038], [84.10278537400006, 25.640261690000045], [84.10134168000008, 25.63972689800005], [84.09944472700005, 25.640763479000043], [84.09842578200005, 25.64160841100005], [84.09783444300007, 25.642524363000064], [84.09753056900007, 25.644096863000073], [84.09839435400005, 25.64488431700005], [84.09929190600008, 25.645780428000023], [84.10015724300007, 25.646409946000063], [84.10120045900004, 25.64770423400006], [84.10274966500003, 25.648700321000035], [84.10431913600007, 25.647561883000037], [84.10545314900008, 25.646650170000044], [84.10640921600003, 25.645606162000036], [84.10720654900007, 25.64554467800008], [84.10771159200004, 25.645846548000065], [84.10853952500008, 25.64677363100003], [84.10831387100006, 25.647462321000035], [84.10750821900007, 25.648408278000034], [84.10717140200006, 25.649263036000036], [84.10665358900008, 25.650310472000058], [84.10573956300004, 25.65112468700005], [84.10420521300006, 25.652231828000026], [84.10185878900006, 25.654420189000064], [84.10032288000008, 25.65568972400007], [84.09918777400009, 25.65670066100006], [84.09779386300005, 25.657687019000036], [84.09596208500005, 25.659152661000064], [84.09314604900004, 25.661991500000056], [84.09022106200007, 25.663710293000065], [84.09078896900007, 25.665262666000046], [84.09103259600005, 25.66634771500003], [84.09138891300006, 25.66710418200006], [84.09213825700004, 25.66842788300005], [84.09296460400003, 25.668994112000064], [84.09379031100008, 25.670151376000035], [84.09417588800005, 25.67149928300006], [84.09402618600006, 25.67205770000004], [84.09576397600006, 25.672626604000072], [84.09674391000004, 25.67224175000007], [84.09878024400007, 25.671797463000075], [84.10002102000004, 25.67121615900004]]]]}}, {"type": "Feature", "properties": {"OBJECTID": 340, "GPCODE": "92539", "GPNAME_1": "DUMRI", "DIST_CEN_C": "30", "BLK_NAME": "SIMRI", "ST_NAME": "BIHAR", "ST_CODE_1": "10", "GPCODE2011": "95094", "REMARKS": "FINALIZED", "MAP_STATUS": "COMPLETED", "BLK_C_2001": "300001", "BLK_C_2011": "01435", "DIST_NAME": "BUXAR", "code2011": 14.0, "Shape_Leng": 0.11626421044, "Shape_Area": 0.00047815668, "Area": 5.32654}, "geometry": {"type": "MultiPolygon", "coordinates": [[[[84.18612279300004, 25.635082958000055], [84.18915994200006, 25.631711499000062], [84.19234986300006, 25.62794393200005], [84.19664957200007, 25.623056183000074], [84.19738721400006, 25.62239806900004], [84.19890003700004, 25.62134402600003], [84.20037465800004, 25.62085550100005], [84.20037299300003, 25.620853744000044], [84.19840466600004, 25.618777028000068], [84.19573510600009, 25.617178074000037], [84.19379440800003, 25.614794622000034], [84.19279448900005, 25.613009222000073], [84.19186473500008, 25.611161158000073], [84.19019030000004, 25.609095461000038], [84.18947083500007, 25.608823938000057], [84.18853862200007, 25.607833320000054], [84.18738689200006, 25.606904220000047], [84.18681865200006, 25.60585296000005], [84.18610238100007, 25.604665288000035], [84.18486357500007, 25.605703276000042], [84.18406361100006, 25.606094464000023], [84.18297639200006, 25.605757045000075], [84.18102624000005, 25.60561178300003], [84.17949021900006, 25.60704458200007], [84.18071099200006, 25.60803743200006], [84.18244112800005, 25.609431220000033], [84.18221044400008, 25.610742816000027], [84.18227519800007, 25.611858002000076], [84.18160971300006, 25.613364967000052], [84.18058482900005, 25.614408939000043], [84.17970670600005, 25.61518767700005], [84.17771956000007, 25.615272238000045], [84.17627524100004, 25.614769636000062], [84.17461306400008, 25.614134594000063], [84.17227864200004, 25.612406830000054], [84.17186023300007, 25.614114076000078], [84.17159107500004, 25.61581804700006], [84.17070902100005, 25.617585054000074], [84.17029753800006, 25.619057799000075], [84.17017538200008, 25.62046938000003], [84.16987458500006, 25.62181201100003], [84.16946365600006, 25.623221580000063], [84.17032175300005, 25.62414855700007], [84.17110684700003, 25.625436078000064], [84.17499162000007, 25.627531887000032], [84.17874386900007, 25.628872928000078], [84.18387121400008, 25.630684316000043], [84.18502547600008, 25.63134720900007], [84.18552698300005, 25.63207297200006], [84.18485851900004, 25.63390932200008], [84.18419815100003, 25.63482509000005], [84.18231958700005, 25.63441414700003], [84.18185822200007, 25.63703729300005], [84.18366474500004, 25.637709432000065], [84.18467180600004, 25.63870072000003], [84.18560587600007, 25.639497320000032], [84.18652866600007, 25.639076298000077], [84.18617115400008, 25.638075369000035], [84.18581622400006, 25.636542870000028], [84.18612279300004, 25.635082958000055]]]]}}, {"type": "Feature", "properties": {"OBJECTID": 343, "GPCODE": "92536", "GPNAME_1": "BALIHAR", "DIST_CEN_C": "30", "BLK_NAME": "SIMRI", "ST_NAME": "BIHAR", "ST_CODE_1": "10", "GPCODE2011": "95091", "REMARKS": "FINALIZED", "MAP_STATUS": "COMPLETED", "BLK_C_2001": "300001", "BLK_C_2011": "01435", "DIST_NAME": "BUXAR", "code2011": 11.0, "Shape_Leng": 0.10774684232, "Shape_Area": 0.00051143689, "Area": 5.69701}, "geometry": {"type": "MultiPolygon", "coordinates": [[[[84.09625315600005, 25.64489906400007], [84.09651678400007, 25.643894817000046], [84.09753056900007, 25.644096863000073], [84.09783444300007, 25.642524363000064], [84.09842578200005, 25.64160841100005], [84.09944472700005, 25.640763479000043], [84.10134168000008, 25.63972689800005], [84.10265934400007, 25.63835630500006], [84.10332404800005, 25.63704832800005], [84.10319105800005, 25.635864980000065], [84.10262861700005, 25.634281084000065], [84.10249307800007, 25.63335944100004], [84.10243347800008, 25.63230745800007], [84.10237765600004, 25.63033954100007], [84.10217627000003, 25.628496711000025], [84.10146389400006, 25.627507342000058], [84.10126001200007, 25.62593081800003], [84.10127323400008, 25.624549994000063], [84.10011465300005, 25.624410070000067], [84.09851726700003, 25.624857837000036], [84.09823804500007, 25.623871849000068], [84.09708004400005, 25.62366422100007], [84.09620940900004, 25.624117658000046], [84.09475897800007, 25.624300240000025], [84.09308882200008, 25.62455331600006], [84.09126922200005, 25.625324199000033], [84.09032012700004, 25.626169643000026], [84.08864735100008, 25.62668437900004], [84.08797438500005, 25.626259358000027], [84.08734139000006, 25.62787890000004], [84.08727388600005, 25.629196148000062], [84.08641678700008, 25.630813936000038], [84.08499813300006, 25.63283341400006], [84.08506970200006, 25.63930068700006], [84.08346729400006, 25.640240119000055], [84.08422738000007, 25.64296734000004], [84.08614330600005, 25.65178684600005], [84.08534479700006, 25.659140621000063], [84.08717634800007, 25.66026531500006], [84.08871978800005, 25.66185703900004], [84.09022106200007, 25.663710293000065], [84.09314604900004, 25.661991500000056], [84.09596208500005, 25.659152661000064], [84.09779386300005, 25.657687019000036], [84.09693252900007, 25.657143094000048], [84.09636081300005, 25.65651134600006], [84.09665428700004, 25.656021767000027], [84.09658650400007, 25.65529913000006], [84.09688717400007, 25.65457497400007], [84.09791059900004, 25.653793282000038], [84.09915238200006, 25.65308103700005], [84.09977675700009, 25.652363895000065], [84.09974349900006, 25.651673120000055], [84.09931811000007, 25.65084391700003], [84.09922322300008, 25.649299798000072], [84.09825154500004, 25.648335400000065], [84.09702024300003, 25.647964729000023], [84.09615686900008, 25.64713665900007], [84.09620909400007, 25.645855450000056], [84.09625315600005, 25.64489906400007]]]]}}, {"type": "Feature", "properties": {"OBJECTID": 344, "GPCODE": "92554", "GPNAME_1": "SAHIYAR", "DIST_CEN_C": "30", "BLK_NAME": "SIMRI", "ST_NAME": "BIHAR", "ST_CODE_1": "10", "GPCODE2011": "95109", "REMARKS": "FINALIZED", "MAP_STATUS": "COMPLETED", "BLK_C_2001": "300001", "BLK_C_2011": "01435", "DIST_NAME": "BUXAR", "code2011": 31.0, "Shape_Leng": 0.14240008003, "Shape_Area": 0.00083121398, "Area": 9.25682}, "geometry": {"type": "MultiPolygon", "coordinates": [[[[84.14486907400004, 25.677583755000057], [84.14700989000005, 25.677139731000068], [84.14845509300005, 25.67761100100006], [84.15008379000005, 25.67762331800003], [84.15153432100004, 25.677498972000024], [84.15273002100008, 25.677476426000055], [84.15396609100003, 25.677386416000047], [84.15516262200003, 25.67726458800007], [84.15799785200005, 25.67604041800007], [84.15807672900007, 25.675034666000045], [84.15852031000009, 25.67444677700007], [84.15972660300008, 25.673250949000078], [84.16017792400004, 25.67181018200006], [84.16090596700008, 25.671161277000067], [84.16177636700007, 25.671298714000045], [84.16266686200004, 25.66920239700005], [84.16382988700008, 25.66835816500003], [84.16434973600008, 25.667048848000036], [84.16436572100008, 25.665275415000053], [84.16380567800007, 25.663303644000052], [84.16265781200008, 25.661914067000055], [84.16216984400006, 25.659681112000044], [84.16218946400005, 25.657510512000044], [84.16169154400006, 25.656392131000075], [84.16213562500008, 25.655741056000068], [84.16300809500007, 25.655088724000052], [84.16526571300005, 25.653792400000043], [84.16434050200007, 25.652011859000027], [84.16347674800005, 25.65115249300004], [84.16333593000007, 25.650758834000044], [84.16247457800006, 25.64963315500006], [84.16212899700008, 25.648186447000057], [84.16082742300006, 25.64784725000004], [84.16017568100006, 25.647779171000025], [84.15978388500008, 25.647045152000032], [84.15904766800008, 25.64805949400005], [84.15806874600008, 25.648377064000044], [84.15745073200003, 25.64844018100007], [84.15664861100004, 25.649025331000075], [84.15523443500007, 25.649014630000067], [84.15466099100007, 25.648549949000028], [84.15387199600008, 25.64769111000004], [84.15304993100006, 25.646633376000068], [84.15255522800004, 25.64518547700004], [84.15072213400003, 25.645789948000072], [84.14941372500004, 25.646204183000066], [84.14872705100004, 25.646135792000052], [84.14833502000005, 25.645442350000053], [84.14715873000006, 25.645018313000037], [84.14681573700005, 25.646590678000052], [84.14665751300004, 25.648101308000037], [84.14697068700008, 25.64924998500004], [84.14797636400004, 25.65037677400005], [84.14785305200007, 25.651883157000043], [84.14601812500007, 25.650492824000025], [84.14533879300006, 25.649634701000025], [84.14361804700007, 25.64774876200005], [84.14289911600008, 25.646858726000062], [84.14204656300006, 25.645340426000075], [84.14107716200004, 25.64408291500007], [84.14039744300004, 25.643260868000027], [84.14027533400008, 25.64571499400006], [84.14101119900005, 25.646379500000023], [84.14149324900006, 25.647037510000075], [84.14197260300006, 25.647975366000026], [84.14238308900008, 25.64883146300008], [84.14248513300004, 25.649653616000023], [84.14226284700004, 25.64999934100007], [84.14169744800006, 25.650288384000078], [84.14030637100007, 25.649934830000063], [84.13897031200008, 25.649545552000063], [84.13630985800006, 25.64913250400008], [84.13431753400005, 25.649180451000063], [84.13246252600004, 25.649987543000066], [84.13251966300004, 25.651350835000073], [84.13266150100003, 25.652701286000024], [84.13288484900005, 25.656020046000037], [84.13156946800007, 25.65716518100004], [84.13144284800006, 25.659005439000055], [84.13150040600004, 25.66031918300007], [84.13254651500006, 25.66137870400007], [84.13307505600005, 25.66292618600005], [84.13465779300003, 25.668430468000054], [84.13518865300006, 25.669734283000025], [84.13510380200006, 25.671376318000057], [84.13555867500008, 25.672823832000063], [84.13620874000009, 25.67309063500005], [84.13848704800006, 25.673401368000043], [84.13851480700004, 25.674714788000074], [84.13904263100005, 25.676361499000052], [84.13937995500004, 25.67921622700004], [84.139858, 25.67869182800007], [84.14156680100007, 25.678113746000065], [84.14312319000004, 25.67786385100004], [84.14486907400004, 25.677583755000057]]]]}}, {"type": "Feature", "properties": {"OBJECTID": 345, "GPCODE": "92540", "GPNAME_1": "EKAUNA", "DIST_CEN_C": "30", "BLK_NAME": "SIMRI", "ST_NAME": "BIHAR", "ST_CODE_1": "10", "GPCODE2011": "95095", "REMARKS": "FINALIZED", "MAP_STATUS": "COMPLETED", "BLK_C_2001": "300001", "BLK_C_2011": "01435", "DIST_NAME": "BUXAR", "code2011": 19.0, "Shape_Leng": 0.0982508934, "Shape_Area": 0.00040825442, "Area": 4.54643}, "geometry": {"type": "MultiPolygon", "coordinates": [[[[84.17668568000005, 25.664911261000043], [84.17792545800006, 25.66439241100005], [84.17922677800004, 25.66479472000003], [84.17896376800007, 25.661313301000064], [84.18085234500006, 25.661196414000074], [84.18193979500006, 25.66100586700003], [84.18317265800005, 25.660689971000068], [84.18534030800004, 25.66168977600006], [84.18585404100008, 25.661034640000025], [84.18528413100006, 25.659586294000064], [84.18435506500003, 25.65820312900007], [84.18371382200007, 25.656948278000073], [84.18285391500007, 25.655628696000065], [84.18228263700007, 25.654902509000067], [84.18171777400005, 25.65345419500005], [84.18035415500003, 25.651670531000036], [84.17831990300004, 25.65250849800003], [84.17752841900005, 25.651911392000045], [84.17614905900007, 25.651901234000036], [84.17535869100004, 25.651173266000058], [84.17414216700007, 25.649656996000033], [84.17292451800006, 25.648266963000026], [84.17134055800005, 25.647203723000075], [84.17047031200008, 25.64706633700007], [84.16938122400006, 25.647455430000036], [84.16887094400005, 25.64771335900008], [84.16807425800005, 25.647707385000047], [84.16778485500004, 25.647768450000058], [84.16756044200008, 25.648357959000066], [84.16690811500007, 25.64835307900006], [84.16597113600005, 25.64788575600005], [84.16517735700006, 25.647554894000052], [84.16459065000004, 25.648010858000077], [84.16429891200005, 25.648333528000023], [84.16357689600005, 25.648328199000048], [84.16212899700008, 25.648186447000057], [84.16247457800006, 25.64963315500006], [84.16333593000007, 25.650758834000044], [84.16347674800005, 25.65115249300004], [84.16434050200007, 25.652011859000027], [84.16526571300005, 25.653792400000043], [84.16300809500007, 25.655088724000052], [84.16213562500008, 25.655741056000068], [84.16169154400006, 25.656392131000075], [84.16218946400005, 25.657510512000044], [84.16216984400006, 25.659681112000044], [84.16265781200008, 25.661914067000055], [84.16380567800007, 25.663303644000052], [84.16436572100008, 25.665275415000053], [84.16434973600008, 25.667048848000036], [84.16382988700008, 25.66835816500003], [84.16266686200004, 25.66920239700005], [84.16177636700007, 25.671298714000045], [84.16393709600004, 25.672497296000074], [84.16508580500005, 25.673819078000065], [84.16696014500008, 25.67475371200004], [84.16833447500005, 25.67535512300003], [84.17065220400008, 25.67517383200004], [84.17146808800004, 25.673604951000073], [84.17270593800004, 25.67275671300007], [84.17379748700006, 25.672110417000056], [84.17525673200004, 25.67100654400008], [84.17795520900006, 25.669447068000068], [84.17717466700003, 25.66760454200005], [84.17631946900008, 25.665761530000054], [84.17668568000005, 25.664911261000043]]]]}}, {"type": "Feature", "properties": {"OBJECTID": 346, "GPCODE": "92546", "GPNAME_1": "KHARHATANR", "DIST_CEN_C": "30", "BLK_NAME": "SIMRI", "ST_NAME": "BIHAR", "ST_CODE_1": "10", "GPCODE2011": "95101", "REMARKS": "FINALIZED", "MAP_STATUS": "COMPLETED", "BLK_C_2001": "300001", "BLK_C_2011": "01435", "DIST_NAME": "BUXAR", "code2011": 17.0, "Shape_Leng": 0.15860205223, "Shape_Area": 0.00092318072, "Area": 10.2804}, "geometry": {"type": "MultiPolygon", "coordinates": [[[[84.20658752400004, 25.678234993000046], [84.20912967500004, 25.669376514000078], [84.21312454800005, 25.668746389000034], [84.21685042500008, 25.667545493000034], [84.21994185900007, 25.666547696000066], [84.22488913700005, 25.664024012000027], [84.22412203800008, 25.66345446400004], [84.22300257900008, 25.662738072000025], [84.22038223400006, 25.660490096000046], [84.21802212700004, 25.658104007000077], [84.21875589000007, 25.657319512000072], [84.21832992800006, 25.656463474000077], [84.21775018500006, 25.656129922000048], [84.21710347500004, 25.655466389000026], [84.21632634400004, 25.654910331000053], [84.21563234200005, 25.65453982300005], [84.21551681200003, 25.654074173000026], [84.21561216400005, 25.65282477900007], [84.20927175700007, 25.651781948000064], [84.20073572000007, 25.65068691600004], [84.19773439400007, 25.64992950000004], [84.19642772900005, 25.649590552000063], [84.19458986800004, 25.64904461100008], [84.19261739300003, 25.64796518600008], [84.19079516100004, 25.64622343600007], [84.18890910100004, 25.643813351000063], [84.18688551300005, 25.64007534600006], [84.18566776400007, 25.64094187200004], [84.18492693000007, 25.642511428000034], [84.18354223900008, 25.64368366000008], [84.18229427400007, 25.64570976400006], [84.18112305300008, 25.64695125700007], [84.18052758800007, 25.648390930000062], [84.18001163500008, 25.649303246000045], [84.18035415500003, 25.651670531000036], [84.18171777400005, 25.65345419500005], [84.18228263700007, 25.654902509000067], [84.18285391500007, 25.655628696000065], [84.18371382200007, 25.656948278000073], [84.18435506500003, 25.65820312900007], [84.18528413100006, 25.659586294000064], [84.18585404100008, 25.661034640000025], [84.18534030800004, 25.66168977600006], [84.18317265800005, 25.660689971000068], [84.18193979500006, 25.66100586700003], [84.18085234500006, 25.661196414000074], [84.17896376800007, 25.661313301000064], [84.17922677800004, 25.66479472000003], [84.17792545800006, 25.66439241100005], [84.17668568000005, 25.664911261000043], [84.17631946900008, 25.665761530000054], [84.17717466700003, 25.66760454200005], [84.17795520900006, 25.669447068000068], [84.17940068400009, 25.669326829000056], [84.18026341600006, 25.67032155100003], [84.18169995800008, 25.671776237000074], [84.18342474600007, 25.673296249000032], [84.18406616700008, 25.67455099400007], [84.18590404100007, 25.671739497000033], [84.18805981600008, 25.673528824000073], [84.18928424100005, 25.674196693000056], [84.19057933200008, 25.675320835000036], [84.19180763000008, 25.676114980000023], [84.19303380500008, 25.676584288000072], [84.19419832200003, 25.676132430000052], [84.19500497600006, 25.675023698000075], [84.19566773800005, 25.67384611600005], [84.19618321500008, 25.672996930000068], [84.19619124600007, 25.672076376000064], [84.19761500200008, 25.671594844000026], [84.19934110300005, 25.672988341000064], [84.20041708900004, 25.67411077400004], [84.20142394800007, 25.675169520000054], [84.20279004000008, 25.676163219000046], [84.20401175700005, 25.67715583900008], [84.20516710400005, 25.67775539400003], [84.20658752400004, 25.678234993000046]]]]}}, {"type": "Feature", "properties": {"OBJECTID": 347, "GPCODE": "92545", "GPNAME_1": "KESHOPUR", "DIST_CEN_C": "30", "BLK_NAME": "SIMRI", "ST_NAME": "BIHAR", "ST_CODE_1": "10", "GPCODE2011": "95100", "REMARKS": "FINALIZED", "MAP_STATUS": "COMPLETED", "BLK_C_2001": "300001", "BLK_C_2011": "01435", "DIST_NAME": "BUXAR", "code2011": 11.0, "Shape_Leng": 0.11100703897, "Shape_Area": 0.00029069103, "Area": 3.23721}, "geometry": {"type": "MultiPolygon", "coordinates": [[[[84.10256125200004, 25.683294429000057], [84.10242714200007, 25.682210291000047], [84.10243369700004, 25.681519860000037], [84.10215442300006, 25.68050233500003], [84.10283474700003, 25.67966376700008], [84.10313019700004, 25.678975652000076], [84.10306323700007, 25.678153766000037], [84.10246149800008, 25.677002795000078], [84.10214434600005, 25.67578631500004], [84.10182439900007, 25.675386658000036], [84.10177189000007, 25.674091111000052], [84.10257534700008, 25.67340238500003], [84.10388395200005, 25.67354358600005], [84.10591101600005, 25.673559564000072], [84.10805350700008, 25.673481603000027], [84.10932131800007, 25.67372169500004], [84.11087033800004, 25.674785271000076], [84.11282619400004, 25.675491004000037], [84.11342419300007, 25.67493157000007], [84.11219451900007, 25.674330825000027], [84.11189829700004, 25.673520710000048], [84.11103639300006, 25.672485004000066], [84.10919333200007, 25.671974195000075], [84.10775021900008, 25.67130853900005], [84.10641458900005, 25.670345808000036], [84.10335104700005, 25.67196437900003], [84.10245015700008, 25.671366109000076], [84.10187377800008, 25.670702748000053], [84.10089760900007, 25.67069499400003], [84.10002102000004, 25.67121615900004], [84.09878024400007, 25.671797463000075], [84.09674391000004, 25.67224175000007], [84.09576397600006, 25.672626604000072], [84.09402618600006, 25.67205770000004], [84.09417588800005, 25.67149928300006], [84.09379031100008, 25.670151376000035], [84.09296460400003, 25.668994112000064], [84.09213825700004, 25.66842788300005], [84.09138891300006, 25.66710418200006], [84.09103259600005, 25.66634771500003], [84.09078896900007, 25.665262666000046], [84.09022106200007, 25.663710293000065], [84.08871978800005, 25.66185703900004], [84.08717634800007, 25.66026531500006], [84.08534479700006, 25.659140621000063], [84.08293881000003, 25.667930365000075], [84.08188878600004, 25.672488917000067], [84.08384045800005, 25.67309578800007], [84.08616437800003, 25.673312923000026], [84.08731597100007, 25.674242734000075], [84.08744724900004, 25.67562016900007], [84.08736177400004, 25.67673863300007], [84.08669981100007, 25.677721735000034], [84.08611009100008, 25.678962540000043], [84.08582107300003, 25.680016201000058], [84.08625525400004, 25.680443910000065], [84.08679601700004, 25.680678346000036], [84.08872012800003, 25.680531276000067], [84.09035254400004, 25.680675121000036], [84.09208851300008, 25.68144710300004], [84.09324621100006, 25.68174960300007], [84.09421518800008, 25.682515425000076], [84.09491009600004, 25.682259243000033], [84.09622351100006, 25.682946568000034], [84.09791791500004, 25.683912168000063], [84.09953539300005, 25.685107255000048], [84.10087086400006, 25.685578174000057], [84.10191998800008, 25.685784970000043], [84.10270544100007, 25.687005105000026], [84.10350180200004, 25.687079092000033], [84.10348093100004, 25.686126743000045], [84.10287540300004, 25.684840276000045], [84.10256125200004, 25.683294429000057]]]]}}, {"type": "Feature", "properties": {"OBJECTID": 348, "GPCODE": "92551", "GPNAME_1": "RAJAPUR", "DIST_CEN_C": "30", "BLK_NAME": "SIMRI", "ST_NAME": "BIHAR", "ST_CODE_1": "10", "GPCODE2011": "95106", "REMARKS": "FINALIZED", "MAP_STATUS": "COMPLETED", "BLK_C_2001": "300001", "BLK_C_2011": "01435", "DIST_NAME": "BUXAR", "code2011": 19.0, "Shape_Leng": 0.19957126207, "Shape_Area": 0.0009075044, "Area": 10.1031}, "geometry": {"type": "MultiPolygon", "coordinates": [[[[84.16310407400005, 25.721314607000068], [84.16484539500004, 25.721061313000064], [84.16709238100003, 25.721078172000034], [84.16905511600004, 25.720569327000078], [84.17036514200004, 25.72005559300004], [84.17246718900003, 25.720134349000034], [84.17442285700008, 25.72041060400005], [84.17631026500004, 25.719964263000065], [84.17915393400006, 25.720116174000054], [84.18100197000007, 25.71624893300003], [84.18436086400004, 25.713908953000043], [84.18837125200008, 25.711700114000053], [84.19391311200008, 25.709245035000038], [84.19690509400004, 25.70722710700005], [84.20114105100004, 25.70423429400006], [84.20245487800008, 25.70325545600008], [84.20126282600006, 25.701698995000072], [84.20090661200004, 25.70083902400006], [84.20005069700005, 25.699587302000054], [84.19890319000007, 25.698067179000077], [84.19833352900008, 25.696555748000037], [84.19776141700004, 25.695892806000074], [84.19668526700008, 25.694770278000078], [84.19538936000004, 25.693709369000032], [84.19481348100004, 25.69291551500004], [84.19489678100007, 25.691932275000056], [84.19490884100009, 25.690556017000063], [84.19577589200009, 25.68824722200003], [84.19385530300008, 25.688558193000063], [84.19247265100006, 25.68887755700007], [84.19113272500005, 25.688867746000028], [84.19008353300006, 25.688661549000074], [84.18809882700003, 25.68776247900007], [84.18683970600006, 25.687062764000075], [84.18619385600005, 25.686304455000027], [84.18518383800006, 25.68560658100006], [84.18399943100007, 25.684352285000045], [84.18295807400006, 25.68326158900004], [84.18162874100005, 25.68206944900004], [84.18098495500004, 25.681080911000038], [84.18117675500008, 25.679669802000035], [84.18144324100007, 25.67825926200004], [84.18196036900008, 25.677243177000037], [84.18294786500007, 25.675973327000065], [84.18406616700008, 25.67455099400007], [84.18342474600007, 25.673296249000032], [84.18169995800008, 25.671776237000074], [84.18026341600006, 25.67032155100003], [84.17940068400009, 25.669326829000056], [84.17795520900006, 25.669447068000068], [84.17525673200004, 25.67100654400008], [84.17379748700006, 25.672110417000056], [84.17270593800004, 25.67275671300007], [84.17146808800004, 25.673604951000073], [84.17065220400008, 25.67517383200004], [84.16833447500005, 25.67535512300003], [84.16696014500008, 25.67475371200004], [84.16508580500005, 25.673819078000065], [84.16393709600004, 25.672497296000074], [84.16177636700007, 25.671298714000045], [84.16090596700008, 25.671161277000067], [84.16017792400004, 25.67181018200006], [84.15972660300008, 25.673250949000078], [84.15852031000009, 25.67444677700007], [84.15807672900007, 25.675034666000045], [84.15799785200005, 25.67604041800007], [84.15872032200008, 25.676569312000026], [84.16010846500006, 25.678944520000073], [84.16107690700005, 25.680364224000073], [84.16205681600007, 25.67996993500003], [84.16300902000006, 25.679318245000047], [84.16417223600007, 25.678474014000074], [84.16547840900006, 25.678352852000046], [84.16670827400003, 25.678953269000033], [84.16763841400007, 25.68020576600003], [84.16879018600008, 25.681198135000045], [84.16950464300004, 25.682060912000054], [84.17080084600008, 25.68305427200005], [84.17180642600005, 25.684244143000058], [84.17244600300006, 25.685692945000028], [84.17236300800005, 25.686613011000077], [84.17375362100006, 25.689872537000042], [84.17388936200007, 25.690857248000043], [84.17395199100008, 25.691647465000074], [84.17430684900006, 25.692633932000035], [84.17458869200004, 25.69342572000005], [84.17516397800006, 25.69428290600007], [84.17558919900006, 25.695202117000065], [84.17623175500006, 25.696326030000023], [84.17665809500005, 25.697114483000064], [84.17708595600004, 25.698299946000077], [84.17758327400009, 25.698962485000038], [84.17822759600006, 25.699887861000036], [84.17835402200006, 25.701924038000072], [84.17877605800004, 25.703768333000028], [84.17896579200004, 25.706527032000054], [84.17894943100004, 25.708363587000065], [84.17936307300005, 25.710595943000044], [84.17667637100004, 25.711302599000078], [84.17471675000007, 25.711482170000068], [84.17326518000004, 25.711669992000054], [84.17137435800004, 25.712508839000066], [84.16919463700003, 25.71334546500003], [84.16766183600004, 25.714254663000077], [84.16605870400008, 25.71522648800004], [84.16387031800008, 25.71646013000003], [84.16343149500005, 25.71704807100008], [84.16124575200007, 25.71853890400007], [84.15825411800006, 25.720420775000036], [84.15941022400006, 25.72095748600003], [84.16114549700006, 25.721363068000073], [84.16310407400005, 25.721314607000068]]]]}}, {"type": "Feature", "properties": {"OBJECTID": 349, "GPCODE": "92552", "GPNAME_1": "RAJPUR KALAN", "DIST_CEN_C": "30", "BLK_NAME": "SIMRI", "ST_NAME": "BIHAR", "ST_CODE_1": "10", "GPCODE2011": "95107", "REMARKS": "FINALIZED", "MAP_STATUS": "COMPLETED", "BLK_C_2001": "300001", "BLK_C_2011": "01435", "DIST_NAME": "BUXAR", "code2011": 19.0, "Shape_Leng": 0.16083953627, "Shape_Area": 0.00073725629, "Area": 8.20843}, "geometry": {"type": "MultiPolygon", "coordinates": [[[[84.14094566300008, 25.686087660000055], [84.14017255300007, 25.683486854000023], [84.13971579800005, 25.682237800000053], [84.13936824400008, 25.68049322400003], [84.13937995500004, 25.67921622700004], [84.13904263100005, 25.676361499000052], [84.13851480700004, 25.674714788000074], [84.13848704800006, 25.673401368000043], [84.13620874000009, 25.67309063500005], [84.13555867500008, 25.672823832000063], [84.13510380200006, 25.671376318000057], [84.13518865300006, 25.669734283000025], [84.13465779300003, 25.668430468000054], [84.13302404000007, 25.668449519000035], [84.13142168700006, 25.668829792000054], [84.12931791100004, 25.669043759000033], [84.12720789500008, 25.669388497000057], [84.12328600700005, 25.670147952000036], [84.12171980500005, 25.670925600000032], [84.11895215000004, 25.67182022700007], [84.11749730300005, 25.672404592000078], [84.11498624800004, 25.673007792000078], [84.11485681600004, 25.673006760000078], [84.11485679500004, 25.673006800000053], [84.11433464600003, 25.673977489000038], [84.11624232600008, 25.67556730700005], [84.11739820900004, 25.676068249000025], [84.11872637800008, 25.67732410900004], [84.11962268700006, 25.678418699000076], [84.11998288600006, 25.678782455000032], [84.12102800800005, 25.679413348000026], [84.12160424200005, 25.679580257000055], [84.12217614500008, 25.68020748500004], [84.12260741900008, 25.680968980000046], [84.12276865200005, 25.682906237000054], [84.12281822500006, 25.685072734000073], [84.12346581000008, 25.685601286000065], [84.12495713500005, 25.684859221000067], [84.12710561900008, 25.68362568200007], [84.12822946400007, 25.683832989000052], [84.13028952600007, 25.684602480000024], [84.13104115300007, 25.685199400000045], [84.13164541800006, 25.686648190000028], [84.13180978600008, 25.68826047400006], [84.13191274500008, 25.68898334800008], [84.13257372500004, 25.69184050900003], [84.13454199700004, 25.694482100000073], [84.13595551800006, 25.695156304000022], [84.13561434600007, 25.696498483000028], [84.13687551800007, 25.697496451000063], [84.13773453700009, 25.698879421000072], [84.13952893000004, 25.70040484900005], [84.14159553400003, 25.70430161200005], [84.14099774300007, 25.70538458200008], [84.14184463600003, 25.70756166600006], [84.14227268600007, 25.708151588000078], [84.14284356300004, 25.70946919800008], [84.14369892700006, 25.710725738000065], [84.14455271800006, 25.712699722000025], [84.14533424500007, 25.71441602400006], [84.14570680800006, 25.718353896000053], [84.14990294000006, 25.719897541000023], [84.15438292200008, 25.722034260000044], [84.15825411800006, 25.720420775000036], [84.16124575200007, 25.71853890400007], [84.16003914000004, 25.715312334000032], [84.15918586700008, 25.713798616000076], [84.15832413000004, 25.71267305200007], [84.15775576000004, 25.711621755000067], [84.15696635400008, 25.71076296700005], [84.15646475700004, 25.71003263600005], [84.15574455300003, 25.709241956000028], [84.15560722400005, 25.708451254000067], [84.15489314100006, 25.70752977500007], [84.15461437800008, 25.706408494000073], [84.15440593000005, 25.705224575000045], [84.15320156400008, 25.70343748600004], [84.15162710500005, 25.70125493300003], [84.15009272000003, 25.698522162000074], [84.14891361400004, 25.696708124000054], [84.14761843600007, 25.695610722000026], [84.14679936400006, 25.694196540000064], [84.14514868200007, 25.691674868000064], [84.14419101500005, 25.69016484900004], [84.14218010400003, 25.68781642500005], [84.14094566300008, 25.686087660000055]]]]}}, {"type": "Feature", "properties": {"OBJECTID": 350, "GPCODE": "92541", "GPNAME_1": "GANGAULI", "DIST_CEN_C": "30", "BLK_NAME": "SIMRI", "ST_NAME": "BIHAR", "ST_CODE_1": "10", "GPCODE2011": "95096", "REMARKS": "FINALIZED", "MAP_STATUS": "COMPLETED", "BLK_C_2001": "300001", "BLK_C_2011": "01435", "DIST_NAME": "BUXAR", "code2011": 10.0, "Shape_Leng": 0.09917678661, "Shape_Area": 0.00040441006, "Area": 4.50261}, "geometry": {"type": "MultiPolygon", "coordinates": [[[[84.20283281400003, 25.701615600000025], [84.20542090700008, 25.68696778900005], [84.20658752400004, 25.678234993000046], [84.20516710400005, 25.67775539400003], [84.20401175700005, 25.67715583900008], [84.20279004000008, 25.676163219000046], [84.20142394800007, 25.675169520000054], [84.20041708900004, 25.67411077400004], [84.19934110300005, 25.672988341000064], [84.19761500200008, 25.671594844000026], [84.19619124600007, 25.672076376000064], [84.19618321500008, 25.672996930000068], [84.19566773800005, 25.67384611600005], [84.19500497600006, 25.675023698000075], [84.19419832200003, 25.676132430000052], [84.19303380500008, 25.676584288000072], [84.19180763000008, 25.676114980000023], [84.19057933200008, 25.675320835000036], [84.18928424100005, 25.674196693000056], [84.18805981600008, 25.673528824000073], [84.18590404100007, 25.671739497000033], [84.18406616700008, 25.67455099400007], [84.18294786500007, 25.675973327000065], [84.18196036900008, 25.677243177000037], [84.18144324100007, 25.67825926200004], [84.18117675500008, 25.679669802000035], [84.18098495500004, 25.681080911000038], [84.18162874100005, 25.68206944900004], [84.18295807400006, 25.68326158900004], [84.18399943100007, 25.684352285000045], [84.18518383800006, 25.68560658100006], [84.18619385600005, 25.686304455000027], [84.18683970600006, 25.687062764000075], [84.18809882700003, 25.68776247900007], [84.19008353300006, 25.688661549000074], [84.19113272500005, 25.688867746000028], [84.19247265100006, 25.68887755700007], [84.19385530300008, 25.688558193000063], [84.19577589200009, 25.68824722200003], [84.19490884100009, 25.690556017000063], [84.19489678100007, 25.691932275000056], [84.19481348100004, 25.69291551500004], [84.19538936000004, 25.693709369000032], [84.19668526700008, 25.694770278000078], [84.19776141700004, 25.695892806000074], [84.19833352900008, 25.696555748000037], [84.19890319000007, 25.698067179000077], [84.20005069700005, 25.699587302000054], [84.20090661200004, 25.70083902400006], [84.20126282600006, 25.701698995000072], [84.20245487800008, 25.70325545600008], [84.20283281400003, 25.701615600000025]]]]}}, {"type": "Feature", "properties": {"OBJECTID": 352, "GPCODE": "92548", "GPNAME_1": "NIYAZIPUR", "DIST_CEN_C": "30", "BLK_NAME": "SIMRI", "ST_NAME": "BIHAR", "ST_CODE_1": "10", "GPCODE2011": "95103", "REMARKS": "FINALIZED", "MAP_STATUS": "COMPLETED", "BLK_C_2001": "300001", "BLK_C_2011": "01435", "DIST_NAME": "BUXAR", "code2011": 14.0, "Shape_Leng": 0.20242163785, "Shape_Area": 0.0010880531, "Area": 12.1133}, "geometry": {"type": "MultiPolygon", "coordinates": [[[[84.16879018600008, 25.681198135000045], [84.16763841400007, 25.68020576600003], [84.16670827400003, 25.678953269000033], [84.16547840900006, 25.678352852000046], [84.16417223600007, 25.678474014000074], [84.16300902000006, 25.679318245000047], [84.16205681600007, 25.67996993500003], [84.16107690700005, 25.680364224000073], [84.16010846500006, 25.678944520000073], [84.15872032200008, 25.676569312000026], [84.15799785200005, 25.67604041800007], [84.15516262200003, 25.67726458800007], [84.15396609100003, 25.677386416000047], [84.15273002100008, 25.677476426000055], [84.15153432100004, 25.677498972000024], [84.15008379000005, 25.67762331800003], [84.14845509300005, 25.67761100100006], [84.14700989000005, 25.677139731000068], [84.14486907400004, 25.677583755000057], [84.14312319000004, 25.67786385100004], [84.14156680100007, 25.678113746000065], [84.139858, 25.67869182800007], [84.13937995500004, 25.67921622700004], [84.13936824400008, 25.68049322400003], [84.13971579800005, 25.682237800000053], [84.14017255300007, 25.683486854000023], [84.14094566300008, 25.686087660000055], [84.14218010400003, 25.68781642500005], [84.14419101500005, 25.69016484900004], [84.14514868200007, 25.691674868000064], [84.14679936400006, 25.694196540000064], [84.14761843600007, 25.695610722000026], [84.14891361400004, 25.696708124000054], [84.15009272000003, 25.698522162000074], [84.15162710500005, 25.70125493300003], [84.15320156400008, 25.70343748600004], [84.15440593000005, 25.705224575000045], [84.15461437800008, 25.706408494000073], [84.15489314100006, 25.70752977500007], [84.15560722400005, 25.708451254000067], [84.15574455300003, 25.709241956000028], [84.15646475700004, 25.71003263600005], [84.15696635400008, 25.71076296700005], [84.15775576000004, 25.711621755000067], [84.15832413000004, 25.71267305200007], [84.15918586700008, 25.713798616000076], [84.16003914000004, 25.715312334000032], [84.16124575200007, 25.71853890400007], [84.16343149500005, 25.71704807100008], [84.16387031800008, 25.71646013000003], [84.16605870400008, 25.71522648800004], [84.16766183600004, 25.714254663000077], [84.16919463700003, 25.71334546500003], [84.17137435800004, 25.712508839000066], [84.17326518000004, 25.711669992000054], [84.17471675000007, 25.711482170000068], [84.17667637100004, 25.711302599000078], [84.17936307300005, 25.710595943000044], [84.17894943100004, 25.708363587000065], [84.17896579200004, 25.706527032000054], [84.17877605800004, 25.703768333000028], [84.17835402200006, 25.701924038000072], [84.17822759600006, 25.699887861000036], [84.17758327400009, 25.698962485000038], [84.17708595600004, 25.698299946000077], [84.17665809500005, 25.697114483000064], [84.17623175500006, 25.696326030000023], [84.17558919900006, 25.695202117000065], [84.17516397800006, 25.69428290600007], [84.17458869200004, 25.69342572000005], [84.17430684900006, 25.692633932000035], [84.17395199100008, 25.691647465000074], [84.17388936200007, 25.690857248000043], [84.17375362100006, 25.689872537000042], [84.17236300800005, 25.686613011000077], [84.17244600300006, 25.685692945000028], [84.17180642600005, 25.684244143000058], [84.17080084600008, 25.68305427200005], [84.16950464300004, 25.682060912000054], [84.16879018600008, 25.681198135000045]]], [[[84.16269300200008, 25.726568753000038], [84.16451610600006, 25.72553097100007], [84.16574763300008, 25.72600043800003], [84.16676152200006, 25.725746263000076], [84.16859368200005, 25.724243665000074], [84.17085014800006, 25.723209009000072], [84.17782881200003, 25.722340184000075], [84.17915393400006, 25.720116174000054], [84.17631026500004, 25.719964263000065], [84.17442285700008, 25.72041060400005], [84.17246718900003, 25.720134349000034], [84.17036514200004, 25.72005559300004], [84.16905511600004, 25.720569327000078], [84.16709238100003, 25.721078172000034], [84.16484539500004, 25.721061313000064], [84.16310407400005, 25.721314607000068], [84.16114549700006, 25.721363068000073], [84.15941022400006, 25.72095748600003], [84.15825411800006, 25.720420775000036], [84.15438292200008, 25.722034260000044], [84.15538679000008, 25.723422732000074], [84.15930020800005, 25.724309577000042], [84.15388791100008, 25.728804032000028], [84.15387422700007, 25.730315699000073], [84.15575307100005, 25.731381330000033], [84.15822015000003, 25.731332144000078], [84.16028044300003, 25.72832421800007], [84.16269300200008, 25.726568753000038]]]]}}, {"type": "Feature", "properties": {"OBJECTID": 361, "GPCODE": "0", "GPNAME_1": "RAJPUR KALAN PARSANPAH", "DIST_CEN_C": "30", "BLK_NAME": "SIMRI", "ST_NAME": "BIHAR", "ST_CODE_1": "10", "GPCODE2011": "95108", "REMARKS": "FINALIZED", "MAP_STATUS": "COMPLETED", "BLK_C_2001": "300001", "BLK_C_2011": "01435", "DIST_NAME": "BUXAR", "code2011": 30.0, "Shape_Leng": 0.33630016185, "Shape_Area": 0.00266941028, "Area": 29.7206}, "geometry": {"type": "MultiPolygon", "coordinates": [[[[84.14533604200005, 25.727290766000067], [84.14537335000006, 25.72321605600007], [84.14326775900008, 25.72352946700005], [84.14079401100008, 25.723772378000035], [84.13744918200007, 25.724468886000068], [84.13687964500008, 25.723543950000078], [84.13586989900006, 25.722814189000076], [84.13390929600007, 25.722537397000053], [84.13422632000004, 25.72003974200004], [84.13735493400003, 25.719012306000025], [84.14142825600004, 25.718190529000026], [84.14570680800006, 25.718353896000053], [84.14533424500007, 25.71441602400006], [84.14455271800006, 25.712699722000025], [84.14369892700006, 25.710725738000065], [84.14284356300004, 25.70946919800008], [84.14227268600007, 25.708151588000078], [84.14184463600003, 25.70756166600006], [84.14099774300007, 25.70538458200008], [84.14159553400003, 25.70430161200005], [84.13952893000004, 25.70040484900005], [84.13773453700009, 25.698879421000072], [84.13687551800007, 25.697496451000063], [84.13561434600007, 25.696498483000028], [84.13595551800006, 25.695156304000022], [84.13454199700004, 25.694482100000073], [84.13257372500004, 25.69184050900003], [84.13191274500008, 25.68898334800008], [84.13180978600008, 25.68826047400006], [84.13164541800006, 25.686648190000028], [84.13104115300007, 25.685199400000045], [84.13028952600007, 25.684602480000024], [84.12822946400007, 25.683832989000052], [84.12710561900008, 25.68362568200007], [84.12495713500005, 25.684859221000067], [84.12346581000008, 25.685601286000065], [84.12281822500006, 25.685072734000073], [84.12276865200005, 25.682906237000054], [84.12260741900008, 25.680968980000046], [84.12217614500008, 25.68020748500004], [84.12160424200005, 25.679580257000055], [84.12102800800005, 25.679413348000026], [84.11998288600006, 25.678782455000032], [84.11962268700006, 25.678418699000076], [84.11872637800008, 25.67732410900004], [84.11739820900004, 25.676068249000025], [84.11624232600008, 25.67556730700005], [84.11433464600003, 25.673977489000038], [84.11485679500004, 25.673006800000053], [84.11485681600004, 25.673006760000078], [84.11498624800004, 25.673007792000078], [84.11749730300005, 25.672404592000078], [84.11895215000004, 25.67182022700007], [84.12171980500005, 25.670925600000032], [84.12328600700005, 25.670147952000036], [84.12720789500008, 25.669388497000057], [84.12931791100004, 25.669043759000033], [84.13142168700006, 25.668829792000054], [84.13302404000007, 25.668449519000035], [84.13465779300003, 25.668430468000054], [84.13307505600005, 25.66292618600005], [84.13254651500006, 25.66137870400007], [84.13150040600004, 25.66031918300007], [84.13144284800006, 25.659005439000055], [84.13156946800007, 25.65716518100004], [84.13040305400006, 25.657810597000037], [84.12919779900005, 25.65836092400008], [84.12727466700005, 25.658445327000038], [84.12556722100004, 25.65889250200007], [84.12403783000008, 25.65947182800005], [84.12279889600006, 25.65988647100005], [84.12141552000008, 25.660304473000053], [84.12021381800008, 25.660985636000078], [84.11864952800005, 25.661564635000047], [84.11693806100004, 25.662440360000062], [84.11584714700007, 25.662463451000065], [84.11482665300008, 25.662947365000036], [84.11398690700008, 25.66379832000007], [84.11368693200006, 25.664450312000042], [84.11313359700006, 25.665565167000068], [84.11279347500005, 25.666780983000024], [84.11205901300008, 25.668088518000047], [84.11081989500008, 25.66850748400003], [84.10944347000003, 25.668167353000058], [84.10835156700006, 25.668817619000038], [84.10641458900005, 25.670345808000036], [84.10775021900008, 25.67130853900005], [84.10919333200007, 25.671974195000075], [84.11103639300006, 25.672485004000066], [84.11189829700004, 25.673520710000048], [84.11219451900007, 25.674330825000027], [84.11342419300007, 25.67493157000007], [84.11282619400004, 25.675491004000037], [84.11087033800004, 25.674785271000076], [84.10932131800007, 25.67372169500004], [84.10805350700008, 25.673481603000027], [84.10591101600005, 25.673559564000072], [84.10388395200005, 25.67354358600005], [84.10257534700008, 25.67340238500003], [84.10177189000007, 25.674091111000052], [84.10182439900007, 25.675386658000036], [84.10214434600005, 25.67578631500004], [84.10246149800008, 25.677002795000078], [84.10306323700007, 25.678153766000037], [84.10313019700004, 25.678975652000076], [84.10283474700003, 25.67966376700008], [84.10215442300006, 25.68050233500003], [84.10243369700004, 25.681519860000037], [84.10242714200007, 25.682210291000047], [84.10256125200004, 25.683294429000057], [84.10287540300004, 25.684840276000045], [84.10348093100004, 25.686126743000045], [84.10350180200004, 25.687079092000033], [84.10270544100007, 25.687005105000026], [84.10191998800008, 25.685784970000043], [84.10087086400006, 25.685578174000057], [84.09953539300005, 25.685107255000048], [84.09791791500004, 25.683912168000063], [84.09622351100006, 25.682946568000034], [84.09491009600004, 25.682259243000033], [84.09421518800008, 25.682515425000076], [84.09324621100006, 25.68174960300007], [84.09208851300008, 25.68144710300004], [84.09035254400004, 25.680675121000036], [84.08872012800003, 25.680531276000067], [84.08679601700004, 25.680678346000036], [84.08625525400004, 25.680443910000065], [84.08582107300003, 25.680016201000058], [84.08611009100008, 25.678962540000043], [84.08669981100007, 25.677721735000034], [84.08736177400004, 25.67673863300007], [84.08744724900004, 25.67562016900007], [84.08731597100007, 25.674242734000075], [84.08616437800003, 25.673312923000026], [84.08384045800005, 25.67309578800007], [84.08188878600004, 25.672488917000067], [84.08097655400007, 25.675672243000065], [84.07931671600005, 25.682495841000048], [84.07718016700005, 25.693264328000055], [84.07670241200003, 25.697330986000054], [84.08201400100006, 25.703425303000074], [84.08689016500006, 25.709773074000054], [84.09264257900008, 25.715211574000023], [84.09697184100008, 25.71840020600007], [84.10347487100006, 25.721475036000072], [84.10651412300007, 25.722550399000056], [84.11521828100007, 25.723146435000046], [84.12276181300007, 25.723728571000038], [84.12725969100006, 25.723894184000073], [84.13059060100005, 25.724709566000058], [84.13536186700009, 25.72711534700005], [84.13852306300004, 25.730686468000044], [84.14183850700005, 25.733211792000077], [84.14324838300007, 25.733258656000032], [84.14441774900007, 25.732346978000066], [84.14508854700006, 25.73038007400004], [84.14533604200005, 25.727290766000067]]]]}}]}