{"type": "FeatureCollection", "features": [{"type": "Feature", "properties": {"OBJECTID": 237, "GPCODE": "92459", "GPNAME_1": "RAMPURKALA", "DIST_CEN_C": "30", "BLK_NAME": "CHAUSA", "ST_NAME": "BIHAR", "ST_CODE_1": "10", "GPCODE2011": "95014", "REMARKS": "FINALIZED", "MAP_STATUS": "COMPLETED", "BLK_C_2001": "300008", "BLK_C_2011": "01442", "DIST_NAME": "BUXAR", "code2011": 28.0, "Shape_Leng": 0.21447634618, "Shape_Area": 0.00167308534, "Area": 18.6838}, "geometry": {"type": "MultiPolygon", "coordinates": [[[[83.81753933400006, 25.40564444900008], [83.81805943300003, 25.405365291000066], [83.81868443500008, 25.405466097000044], [83.81982251700003, 25.405887833000065], [83.82102910800006, 25.40640040200003], [83.82255776700003, 25.40572939300006], [83.82367069500003, 25.405329449000078], [83.82425969000008, 25.405114033000075], [83.82582728200003, 25.404501968000034], [83.82648657300007, 25.404224043000056], [83.82808865200008, 25.40364388000006], [83.83013394600005, 25.403410906000033], [83.83007761400006, 25.402277724000044], [83.83008563000004, 25.40158737200005], [83.83020000700003, 25.400735481000027], [83.83024131200006, 25.40017182300005], [83.83073388200006, 25.399702716000036], [83.83177897100006, 25.399148789000037], [83.83154948100008, 25.397950645000037], [83.83107659100006, 25.397160858000063], [83.83108953700008, 25.39605993400005], [83.83113678400008, 25.39499084700003], [83.83145923100005, 25.39376645300007], [83.83400564800007, 25.393150183000046], [83.83377882100007, 25.388743599000065], [83.83355021800008, 25.387892995000072], [83.83310027600004, 25.38769916800004], [83.83237778000006, 25.38744394200006], [83.83154991900005, 25.387278047000052], [83.83023623300005, 25.38701264900004], [83.82920000300004, 25.38681312600005], [83.82889393900007, 25.386214491000032], [83.82886698400006, 25.385550868000053], [83.82873665500006, 25.384795978000056], [83.82853529100004, 25.384166767000067], [83.82847319200005, 25.383534395000027], [83.82858553300008, 25.382844959000067], [83.82838707600007, 25.38240083000005], [83.82838550300005, 25.38168778200003], [83.82744090100005, 25.381304054000054], [83.82676623100008, 25.38121629500006], [83.82626291800005, 25.381337818000077], [83.82532724300006, 25.381048966000037], [83.82425853600006, 25.380659533000028], [83.82349952800007, 25.380557452000062], [83.82279270900005, 25.380234676000043], [83.82234600400005, 25.379774562000023], [83.82176341400003, 25.37945755800007], [83.82090730900006, 25.378740708000066], [83.81917008400006, 25.377744576000055], [83.81828206200004, 25.37677916900003], [83.81713845100006, 25.37558572900008], [83.81795831300008, 25.374736264000035], [83.81725868900008, 25.374242035000066], [83.81589449000006, 25.373633140000038], [83.81501397600005, 25.373308618000067], [83.81471192000004, 25.37280026800005], [83.81438533600004, 25.37226453200003], [83.81402611500005, 25.371976715000073], [83.81368365500003, 25.37194177200007], [83.81319403500004, 25.372171653000066], [83.81280978400008, 25.37231230200007], [83.81199232800003, 25.372539007000057], [83.81126674600006, 25.372550029000024], [83.81090790700006, 25.372230615000035], [83.81025587300007, 25.371488619000047], [83.81015464700005, 25.37164560100007], [83.80981181100003, 25.37164224000003], [83.80953735100007, 25.37132811600003], [83.80930403900004, 25.37088813200006], [83.80899532300003, 25.370948288000022], [83.80899048700007, 25.37135434700008], [83.80902011500007, 25.371787918000052], [83.80843097200005, 25.372034867000025], [83.80788818700006, 25.37171812300005], [83.80754302800005, 25.371493659000066], [83.80716686500006, 25.371368103000066], [83.80692329300007, 25.37179899000006], [83.80643663400008, 25.372200304000046], [83.80517056000008, 25.37212475900003], [83.80372749200006, 25.371893987000078], [83.80322198900006, 25.37220036800005], [83.80255346100006, 25.37243294500007], [83.80176326300005, 25.372032570000044], [83.80305345800008, 25.369667031000063], [83.80253121200008, 25.368881216000034], [83.80130666400004, 25.368657033000034], [83.79993149100005, 25.369816856000057], [83.79919190800007, 25.37059474600005], [83.79859575500006, 25.370588911000027], [83.79800066900003, 25.370492727000055], [83.79759709900009, 25.370177417000036], [83.79648752900005, 25.369480543000066], [83.79604586700003, 25.368605175000027], [83.79507124000008, 25.368261577000055], [83.79453286700004, 25.367579342000056], [83.79364560900007, 25.368233946000032], [83.79325729600004, 25.368713006000064], [83.79279657500007, 25.36985020800006], [83.79221698800006, 25.369709060000048], [83.79120338100006, 25.368467045000045], [83.79065464900003, 25.368655671000056], [83.79022505800003, 25.36926058000006], [83.78989512000004, 25.36983948200003], [83.78934599900003, 25.37005969200004], [83.78836384500005, 25.369102218000023], [83.78776165400006, 25.36918653400005], [83.78769110200005, 25.369682216000058], [83.78723425800007, 25.370489968000072], [83.78683268300006, 25.370833531000073], [83.78624721700004, 25.37117513800007], [83.78540124200003, 25.371288599000025], [83.78512212200008, 25.370951897000054], [83.78509874200006, 25.37000395800004], [83.78490406400005, 25.36966804900004], [83.78394699700004, 25.369509660000062], [83.78371786800005, 25.36914632500003], [83.78380743000008, 25.36872752000005], [83.78399683800006, 25.367853936000074], [83.78378541800004, 25.367671271000063], [83.78268815100006, 25.36802139400004], [83.78044497200005, 25.36822470100003], [83.77931289000009, 25.369400231000043], [83.77920439100006, 25.37015278900003], [83.77886631900003, 25.370993344000055], [83.77832784300006, 25.37156109700004], [83.77851715200006, 25.372343685000033], [83.77910454000005, 25.373071641000024], [83.77975083900003, 25.37385874200004], [83.77990738200003, 25.37447860900005], [83.77944326400007, 25.37464091700008], [83.77858263500008, 25.374736098000028], [83.77770105700006, 25.374907835000045], [83.77733180100006, 25.37503956000006], [83.77721549000006, 25.375205357000027], [83.77674492100004, 25.37550297200005], [83.77661171300008, 25.37583113100004], [83.77647622300003, 25.376353246000065], [83.77714540400007, 25.376892406000024], [83.77839958300007, 25.377130605000048], [83.77954595300008, 25.377245839000068], [83.77979106800007, 25.37751902100007], [83.77932029200008, 25.377830275000065], [83.77880441900004, 25.378172548000066], [83.77784519600004, 25.378190119000067], [83.77698177800005, 25.37851093000006], [83.77583699700006, 25.380719758000055], [83.77582553700006, 25.38166734200007], [83.77609792900006, 25.382559034000053], [83.77656969300006, 25.38340315000005], [83.77684104700006, 25.383974463000072], [83.77688452400008, 25.384489362000068], [83.77635350800006, 25.38484506800006], [83.77532738200006, 25.384640706000027], [83.77369198700006, 25.38551337000007], [83.77236823800007, 25.386492969000074], [83.77252584600006, 25.387022494000064], [83.77313096100005, 25.387931137000066], [83.77355810300008, 25.388355127000068], [83.77409002400003, 25.388743975000068], [83.77451815100005, 25.38909124500003], [83.77474138900004, 25.389120614000035], [83.77548766700005, 25.389457468000046], [83.77600882500008, 25.389913965000062], [83.77661814500004, 25.390479626000058], [83.77714417200008, 25.390949719000048], [83.77769619100008, 25.391740407000043], [83.77805489500008, 25.39207343100003], [83.77875474300004, 25.392549780000024], [83.77995729800006, 25.392548281000074], [83.78058494100009, 25.39283432600007], [83.78100907600003, 25.39310028600005], [83.78153642000007, 25.393466571000033], [83.78203024900006, 25.393724200000065], [83.78180562900008, 25.394629009000028], [83.78157471000003, 25.395646571000043], [83.78115901100006, 25.39591321100005], [83.77983362100008, 25.395796181000037], [83.77910321300004, 25.39578893600003], [83.77848252000007, 25.39615723600008], [83.77862320100007, 25.396853625000062], [83.77904833000008, 25.39744457000006], [83.77963555000008, 25.39820400800005], [83.77961215100004, 25.398907801000064], [83.78120395900004, 25.398774725000067], [83.78446945600007, 25.397494041000073], [83.78801645500005, 25.39759242100007], [83.79118482800004, 25.399009290000038], [83.79483039500008, 25.402086946000054], [83.79967425800004, 25.403876584000045], [83.80315968300005, 25.406663624000032], [83.80479583200008, 25.40740175700006], [83.80718813500005, 25.40850828200007], [83.81028724500004, 25.414978184000063], [83.81119609400008, 25.41460802200004], [83.81150720700003, 25.414362840000024], [83.81137784600008, 25.413950973000055], [83.81256198400007, 25.413430043000062], [83.81329494900007, 25.41280538600006], [83.81378602400008, 25.412462694000055], [83.81282573500005, 25.41129354900005], [83.81259439000007, 25.41069112100007], [83.81354460600005, 25.40934657400004], [83.81413647400007, 25.40888300100005], [83.81620838800006, 25.40682742000007], [83.81753933400006, 25.40564444900008]]]]}}, {"type": "Feature", "properties": {"OBJECTID": 248, "GPCODE": "92457", "GPNAME_1": "PALIYA", "DIST_CEN_C": "30", "BLK_NAME": "CHAUSA", "ST_NAME": "BIHAR", "ST_CODE_1": "10", "GPCODE2011": "95012", "REMARKS": "FINALIZED", "MAP_STATUS": "COMPLETED", "BLK_C_2001": "300008", "BLK_C_2011": "01442", "DIST_NAME": "BUXAR", "code2011": 22.0, "Shape_Leng": 0.18999078632, "Shape_Area": 0.00093482852, "Area": 10.4361}, "geometry": {"type": "MultiPolygon", "coordinates": [[[[83.87180909600005, 25.43578416300005], [83.87357534000006, 25.43564285100007], [83.87471856500008, 25.435653525000077], [83.87700419400005, 25.435738120000053], [83.87700917500007, 25.435300393000034], [83.87665249200006, 25.43343791600006], [83.87645550300005, 25.43239813300005], [83.87633232000007, 25.43098003500006], [83.87647265400005, 25.429568886000027], [83.87706012900009, 25.42947962900007], [83.87830657600006, 25.429586026000038], [83.87955482500007, 25.429534469000032], [83.87993963000008, 25.42934853400004], [83.88070185100008, 25.42919771800007], [83.88129540400007, 25.42901825000007], [83.88140936500008, 25.428166429000044], [83.88169477000008, 25.42754178000007], [83.88224647000004, 25.42754694100006], [83.88342512900005, 25.42749479200006], [83.88424163800005, 25.427376021000043], [83.88393059900005, 25.42410144400003], [83.88348187900004, 25.42069929200005], [83.88365793500003, 25.417429264000077], [83.88362241900006, 25.414409894000073], [83.88336256100007, 25.41276945100003], [83.88296783400006, 25.411190848000047], [83.88277543200007, 25.409745007000026], [83.88266326500008, 25.407352239000033], [83.88247939000007, 25.405148351000037], [83.88210180500005, 25.40206257600005], [83.87772903300004, 25.402459588000056], [83.87704825200007, 25.401573212000073], [83.87447995100007, 25.40192823900003], [83.87379140300004, 25.40128998800003], [83.87324346800006, 25.40097350800005], [83.87157595100007, 25.40120609400003], [83.87111260800003, 25.39956812500003], [83.87112764100004, 25.398246077000067], [83.87094252700007, 25.396168428000067], [83.87067717800005, 25.395033282000043], [83.86671549600004, 25.396002354000075], [83.86561248700008, 25.39554970100005], [83.86471382100007, 25.39548260400005], [83.86276957400008, 25.396028312000055], [83.86325208400007, 25.402070842000057], [83.86117567200006, 25.401992635000056], [83.86070138000008, 25.406956613000034], [83.85912147200008, 25.40734782000004], [83.85914236500008, 25.405520356000068], [83.85636781600004, 25.405651970000065], [83.85564836500004, 25.405112649000046], [83.85443486000008, 25.405195933000073], [83.85325713000003, 25.405184776000056], [83.85173050700007, 25.405265046000068], [83.85009850700004, 25.405434461000027], [83.84850471700008, 25.40573521600004], [83.84819086500005, 25.405795390000037], [83.84815357000008, 25.40644936600006], [83.84834956000003, 25.407114587000024], [83.84905539400006, 25.40926034200004], [83.84948307500008, 25.41096121000004], [83.84994317200005, 25.41329406400007], [83.85027620800008, 25.414587935000043], [83.85033372400005, 25.41562633800004], [83.85009416100007, 25.41830008200003], [83.84976582700006, 25.41961469100005], [83.84961944900004, 25.42024503700003], [83.84868119000004, 25.42057905100006], [83.84736375000006, 25.420602615000064], [83.84744700400006, 25.422426554000026], [83.84733252100006, 25.42330542800005], [83.84733503300004, 25.423941653000043], [83.84732711100008, 25.424632089000056], [83.84724225900004, 25.42595344600005], [83.84729912400007, 25.427055111000072], [83.84749512900004, 25.428158019000023], [83.84758641400003, 25.42929160500006], [83.84754139700004, 25.430171147000067], [83.84899543900008, 25.430374458000074], [83.84979065400006, 25.430382071000054], [83.85103965500008, 25.430267567000044], [83.85218816200006, 25.429809185000067], [83.85246655200007, 25.429811847000053], [83.85261259400005, 25.432236528000033], [83.85278439600006, 25.43242321200006], [83.85430600700005, 25.43237446100005], [83.85514025600008, 25.432445526000038], [83.85558974300005, 25.43226476600006], [83.85635807700004, 25.43201936500003], [83.85670243600003, 25.431896272000074], [83.85749648500007, 25.432436307000046], [83.85784730900008, 25.432191428000067], [83.85878526500005, 25.43188895000003], [83.85893068100006, 25.431348757000023], [83.85911502900007, 25.430438953000078], [83.85930601700005, 25.428522947000033], [83.85924440700006, 25.427831939000043], [83.85945567400006, 25.42761280700006], [83.85977166000004, 25.427363081000067], [83.86084769100006, 25.427152168000077], [83.86171573500008, 25.42687608500006], [83.86206799200005, 25.426504841000053], [83.86224800500008, 25.425969490000057], [83.86208384700006, 25.42511954500003], [83.86159858200006, 25.424957062000033], [83.86171406100004, 25.42398341100005], [83.86172164500005, 25.423324653000066], [83.86134826000006, 25.422942101000046], [83.86114455400008, 25.422497874000044], [83.86139817800006, 25.421620311000027], [83.86158332400004, 25.42064731800008], [83.86173934500005, 25.41917318000003], [83.86189652200005, 25.417599761000076], [83.86150052200009, 25.416151976000037], [83.86144327700003, 25.41508189700005], [83.86346393000008, 25.413968272000034], [83.86427515100007, 25.415609553000024], [83.86412517900004, 25.416551293000055], [83.86489406200008, 25.416247183000053], [83.86593203900009, 25.416320109000026], [83.86718151600007, 25.41614239000006], [83.86689080600007, 25.417669429000057], [83.86699948400008, 25.420341888000053], [83.86747495400004, 25.423536807000062], [83.86739849200006, 25.424136334000025], [83.86803480300006, 25.426312820000078], [83.86853335100005, 25.427919514000052], [83.86902621000007, 25.43047382800006], [83.86931134900004, 25.432931306000057], [83.86945492100006, 25.435166467000045], [83.86976274000006, 25.435638651000033], [83.87180909600005, 25.43578416300005]]]]}}, {"type": "Feature", "properties": {"OBJECTID": 256, "GPCODE": "92455", "GPNAME_1": "DEHARI", "DIST_CEN_C": "30", "BLK_NAME": "CHAUSA", "ST_NAME": "BIHAR", "ST_CODE_1": "10", "GPCODE2011": "95010", "REMARKS": "FINALIZED", "MAP_STATUS": "COMPLETED", "BLK_C_2001": "300008", "BLK_C_2011": "01442", "DIST_NAME": "BUXAR", "code2011": 17.0, "Shape_Leng": 0.16783903145, "Shape_Area": 0.00115413332, "Area": 12.885}, "geometry": {"type": "MultiPolygon", "coordinates": [[[[83.83277034000008, 25.432574603000035], [83.83390699500006, 25.431863558000032], [83.83602708500007, 25.43206443100007], [83.83567653100005, 25.430585461000078], [83.83588851700006, 25.430307697000046], [83.83619847500006, 25.43015272400004], [83.83616850800007, 25.429741828000033], [83.83617400100007, 25.42927260400006], [83.83617871600006, 25.42886195500006], [83.83618353500003, 25.428451395000025], [83.83629264100006, 25.428046266000024], [83.83643696900003, 25.427605372000073], [83.83675189000007, 25.427450459000056], [83.83710169600005, 25.42729587900004], [83.83754856600007, 25.42733178000003], [83.83799976700004, 25.427430917000038], [83.83834724800005, 25.427465776000076], [83.83858840200008, 25.42725155100004], [83.83859126000004, 25.426998844000025], [83.83880367000006, 25.426684975000057], [83.83932961600004, 25.42634253800003], [83.84009038900007, 25.426318277000064], [83.84192637500007, 25.426588523000078], [83.84300021600006, 25.426567266000063], [83.84390271100006, 25.426323206000063], [83.84432890800008, 25.42557361000007], [83.84430400800005, 25.424724986000058], [83.84466403700003, 25.423248304000026], [83.84501696800004, 25.422813923000035], [83.84557361600008, 25.42281927500005], [83.84636915100003, 25.422795318000055], [83.84733252100006, 25.42330542800005], [83.84744700400006, 25.422426554000026], [83.84736375000006, 25.420602615000064], [83.84868119000004, 25.42057905100006], [83.84961944900004, 25.42024503700003], [83.84976582700006, 25.41961469100005], [83.85009416100007, 25.41830008200003], [83.85033372400005, 25.41562633800004], [83.85027620800008, 25.414587935000043], [83.84994317200005, 25.41329406400007], [83.84948307500008, 25.41096121000004], [83.84905539400006, 25.40926034200004], [83.84834956000003, 25.407114587000024], [83.84815357000008, 25.40644936600006], [83.84819086500005, 25.405795390000037], [83.84850471700008, 25.40573521600004], [83.84863123500008, 25.403818498000078], [83.84887367500005, 25.400896627000066], [83.84935890500003, 25.400616937000052], [83.84927967700008, 25.39844549700007], [83.84876178200005, 25.398535412000058], [83.84839990700004, 25.396735856000078], [83.84812242500004, 25.39667000600008], [83.84668862700005, 25.39775747500005], [83.84639534900003, 25.396468492000054], [83.84448118900008, 25.396982747000038], [83.84298869800006, 25.397126444000037], [83.84160660800006, 25.39717633400005], [83.83955868600003, 25.39721995600007], [83.83775630700006, 25.397518493000064], [83.83626387000004, 25.397657612000046], [83.83504782500006, 25.397961777000035], [83.83358637600008, 25.398421520000056], [83.83257905400006, 25.398723269000072], [83.83177897100006, 25.399148789000037], [83.83073388200006, 25.399702716000036], [83.83024131200006, 25.40017182300005], [83.83020000700003, 25.400735481000027], [83.83008563000004, 25.40158737200005], [83.83007761400006, 25.402277724000044], [83.83013394600005, 25.403410906000033], [83.82808865200008, 25.40364388000006], [83.82648657300007, 25.404224043000056], [83.82582728200003, 25.404501968000034], [83.82425969000008, 25.405114033000075], [83.82367069500003, 25.405329449000078], [83.82255776700003, 25.40572939300006], [83.82102910800006, 25.40640040200003], [83.81982251700003, 25.405887833000065], [83.81868443500008, 25.405466097000044], [83.81805943300003, 25.405365291000066], [83.81753933400006, 25.40564444900008], [83.81620838800006, 25.40682742000007], [83.81413647400007, 25.40888300100005], [83.81354460600005, 25.40934657400004], [83.81259439000007, 25.41069112100007], [83.81282573500005, 25.41129354900005], [83.81378602400008, 25.412462694000055], [83.81329494900007, 25.41280538600006], [83.81256198400007, 25.413430043000062], [83.81137784600008, 25.413950973000055], [83.81150720700003, 25.414362840000024], [83.81119609400008, 25.41460802200004], [83.81028724500004, 25.414978184000063], [83.81247508000007, 25.417833519000055], [83.81348918400005, 25.419075363000047], [83.81461347400005, 25.421094494000045], [83.81407135800004, 25.423228248000044], [83.80990206400008, 25.42482560700006], [83.80472557900003, 25.425014056000066], [83.80146237300005, 25.426065], [83.80084002500007, 25.428229479000038], [83.80154555700005, 25.430343836000077], [83.80352210000007, 25.43132894300004], [83.80538021400008, 25.431825565000054], [83.80930176000004, 25.431020130000036], [83.81222204500006, 25.430809470000042], [83.81426544700008, 25.432034293000072], [83.81776877500005, 25.433390642000063], [83.82086592700006, 25.435049784000057], [83.82436579500006, 25.43628859200004], [83.82740991800006, 25.436976860000073], [83.82993273300008, 25.437181785000064], [83.83225818000005, 25.436843189000058], [83.83292971700007, 25.435947076000048], [83.83261434700006, 25.434436850000054], [83.83277034000008, 25.432574603000035]]]]}}, {"type": "Feature", "properties": {"OBJECTID": 264, "GPCODE": "92460", "GPNAME_1": "SARENJA", "DIST_CEN_C": "30", "BLK_NAME": "CHAUSA", "ST_NAME": "BIHAR", "ST_CODE_1": "10", "GPCODE2011": "95015", "REMARKS": "FINALIZED", "MAP_STATUS": "COMPLETED", "BLK_C_2001": "300008", "BLK_C_2011": "01442", "DIST_NAME": "BUXAR", "code2011": 11.0, "Shape_Leng": 0.11786854523, "Shape_Area": 0.00053815417, "Area": 6.00609}, "geometry": {"type": "MultiPolygon", "coordinates": [[[[83.90011841300003, 25.457617260000063], [83.90147201600007, 25.45750331800008], [83.90289308200005, 25.457579630000055], [83.90445667800003, 25.456903553000075], [83.90468926200003, 25.45476669100003], [83.90746669300006, 25.45447627300007], [83.90982431600008, 25.454376008000054], [83.91162697200008, 25.454108139000027], [83.91232715100006, 25.453735471000073], [83.91250843900008, 25.453078319000042], [83.91257033700003, 25.451521998000032], [83.91260407800007, 25.450719139000057], [83.91215590300004, 25.450335925000047], [83.91084140300006, 25.45007122000004], [83.91074958200005, 25.44579252500006], [83.91165353100007, 25.445863925000026], [83.91214647200007, 25.444893705000027], [83.91343859300008, 25.44088024200005], [83.91421167100003, 25.439754622000066], [83.91480589100007, 25.439507339000045], [83.91484939600008, 25.438722548000044], [83.91482392400007, 25.437873944000046], [83.91424155800007, 25.43704740000004], [83.91414902300005, 25.436419244000035], [83.91485414900006, 25.435135131000038], [83.91310532900008, 25.435055969000075], [83.91164901800005, 25.435042699000064], [83.91033256200006, 25.434967520000043], [83.90922130600006, 25.435210045000076], [83.90803922800006, 25.43557385300005], [83.90679581000006, 25.43518791100007], [83.90534303300007, 25.43485869600005], [83.90402799800006, 25.434657108000067], [83.90208811900004, 25.434765663000064], [83.89993880200007, 25.434935437000036], [83.89989241900008, 25.43285924500003], [83.89670642100003, 25.43282982900007], [83.89630239600007, 25.43162576700007], [83.89609717100006, 25.431312546000072], [83.89547019900004, 25.431369905000054], [83.89456847900004, 25.43155108700006], [83.89381008100008, 25.431354589000023], [83.89270392100008, 25.431154845000037], [83.89178737500004, 25.432658036000078], [83.89100917600007, 25.433783581000057], [83.89029791300004, 25.43560007800005], [83.89028307300003, 25.43692209900007], [83.89068212400008, 25.438563900000077], [83.88790516800003, 25.438849505000064], [83.88637780700003, 25.43896170200003], [83.88346935200008, 25.438997793000055], [83.88152010800007, 25.43948509300003], [83.88176448000007, 25.442064080000023], [83.88187754100005, 25.44437557400005], [83.88214770000008, 25.44773989400005], [83.88275155000008, 25.449740156000075], [83.88453330600004, 25.449562614000058], [83.88781486700003, 25.449529959000074], [83.89305911500009, 25.448251852000055], [83.89682132200005, 25.44834974400004], [83.89595330500003, 25.457957950000036], [83.89810788400007, 25.457788296000047], [83.90011841300003, 25.457617260000063]]]]}}, {"type": "Feature", "properties": {"OBJECTID": 271, "GPCODE": "92461", "GPNAME_1": "SIKRAUL", "DIST_CEN_C": "30", "BLK_NAME": "CHAUSA", "ST_NAME": "BIHAR", "ST_CODE_1": "10", "GPCODE2011": "95016", "REMARKS": "FINALIZED", "MAP_STATUS": "COMPLETED", "BLK_C_2001": "300008", "BLK_C_2011": "01442", "DIST_NAME": "BUXAR", "code2011": 21.0, "Shape_Leng": 0.27891768026, "Shape_Area": 0.00129999271, "Area": 14.5082}, "geometry": {"type": "MultiPolygon", "coordinates": [[[[83.86936681300006, 25.47562976200004], [83.87020000700005, 25.475384897000026], [83.87092063900008, 25.47586095400004], [83.87181293000003, 25.47653260100003], [83.87271217900008, 25.47704194100004], [83.87473958800007, 25.478477843000064], [83.87553004800003, 25.47892746100007], [83.87646701500006, 25.479184404000023], [83.87753948600005, 25.47932075500006], [83.87798983000005, 25.47907685200005], [83.87848494800005, 25.478386502000035], [83.87856482700005, 25.47747571800005], [83.87878940600007, 25.476092514000072], [83.87901561400008, 25.47455588400004], [83.87933734200004, 25.473363036000023], [83.87956504300007, 25.471695539000052], [83.87944719000006, 25.470254969000052], [83.87924590100005, 25.469142952000027], [83.87939121000005, 25.468607357000053], [83.88005522500004, 25.46792308600004], [83.88096327200003, 25.467647288000023], [83.88238551300003, 25.467628931000036], [83.88411533500005, 25.467676609000023], [83.88467218000005, 25.467681821000042], [83.88475908200007, 25.466139362000035], [83.88484223700004, 25.46494427300007], [83.88490144900004, 25.462774328000023], [83.88588523300007, 25.462833110000076], [83.88806840200004, 25.462790211000026], [83.89087655100008, 25.46287938100005], [83.89218724100004, 25.46304943000007], [83.89423406400005, 25.463194736000048], [83.89582526000004, 25.463177814000062], [83.89628642700006, 25.462396827000077], [83.89695047800006, 25.462150260000044], [83.89951424500003, 25.461857989000066], [83.90124754800007, 25.46203188800007], [83.90173432300008, 25.462067985000033], [83.90191683000006, 25.463987427000063], [83.90207193600008, 25.465690092000045], [83.90335486800006, 25.465670258000046], [83.90341209700006, 25.463658245000033], [83.90326158100004, 25.461545025000078], [83.90289308200005, 25.457579630000055], [83.90147201600007, 25.45750331800008], [83.90011841300003, 25.457617260000063], [83.89810788400007, 25.457788296000047], [83.89595330500003, 25.457957950000036], [83.89682132200005, 25.44834974400004], [83.89305911500009, 25.448251852000055], [83.88781486700003, 25.449529959000074], [83.88453330600004, 25.449562614000058], [83.88275155000008, 25.449740156000075], [83.88214770000008, 25.44773989400005], [83.88187754100005, 25.44437557400005], [83.88176448000007, 25.442064080000023], [83.88152010800007, 25.43948509300003], [83.88104865400004, 25.438537532000055], [83.88017034300003, 25.436200885000062], [83.87950297800006, 25.434118866000063], [83.87909756800008, 25.433041025000023], [83.87814113800005, 25.431903947000023], [83.87830657600006, 25.429586026000038], [83.87706012900009, 25.42947962900007], [83.87647265400005, 25.429568886000027], [83.87633232000007, 25.43098003500006], [83.87645550300005, 25.43239813300005], [83.87665249200006, 25.43343791600006], [83.87700917500007, 25.435300393000034], [83.87700419400005, 25.435738120000053], [83.87471856500008, 25.435653525000077], [83.87357534000006, 25.43564285100007], [83.87180909600005, 25.43578416300005], [83.86976274000006, 25.435638651000033], [83.86945492100006, 25.435166467000045], [83.86931134900004, 25.432931306000057], [83.86902621000007, 25.43047382800006], [83.86853335100005, 25.427919514000052], [83.86803480300006, 25.426312820000078], [83.86739849200006, 25.424136334000025], [83.86747495400004, 25.423536807000062], [83.86699948400008, 25.420341888000053], [83.86689080600007, 25.417669429000057], [83.86718151600007, 25.41614239000006], [83.86593203900009, 25.416320109000026], [83.86489406200008, 25.416247183000053], [83.86412517900004, 25.416551293000055], [83.86427515100007, 25.415609553000024], [83.86346393000008, 25.413968272000034], [83.86144327700003, 25.41508189700005], [83.86150052200009, 25.416151976000037], [83.86189652200005, 25.417599761000076], [83.86173934500005, 25.41917318000003], [83.86158332400004, 25.42064731800008], [83.86139817800006, 25.421620311000027], [83.86114455400008, 25.422497874000044], [83.86134826000006, 25.422942101000046], [83.86172164500005, 25.423324653000066], [83.86171406100004, 25.42398341100005], [83.86159858200006, 25.424957062000033], [83.86208384700006, 25.42511954500003], [83.86224800500008, 25.425969490000057], [83.86206799200005, 25.426504841000053], [83.86171573500008, 25.42687608500006], [83.86084769100006, 25.427152168000077], [83.85977166000004, 25.427363081000067], [83.85945567400006, 25.42761280700006], [83.85924440700006, 25.427831939000043], [83.85930601700005, 25.428522947000033], [83.85911502900007, 25.430438953000078], [83.85893068100006, 25.431348757000023], [83.85878526500005, 25.43188895000003], [83.85784730900008, 25.432191428000067], [83.85749648500007, 25.432436307000046], [83.85670243600003, 25.431896272000074], [83.85635807700004, 25.43201936500003], [83.85558974300005, 25.43226476600006], [83.85514025600008, 25.432445526000038], [83.85506126900003, 25.43326606900007], [83.85477023000004, 25.434364403000075], [83.85493298900008, 25.435340703000065], [83.85523416800004, 25.436381417000064], [83.85501426400003, 25.43735405800004], [83.85383550600005, 25.43740608300004], [83.85241359600008, 25.43742417900006], [83.85148101900006, 25.437257303000024], [83.84982082900007, 25.437241517000075], [83.84857386400006, 25.43718001700006], [83.84740447400003, 25.44072482100006], [83.84854526000004, 25.44138096100005], [83.85020466700007, 25.441459941000062], [83.85180753800006, 25.440843443000063], [83.85320002600008, 25.440355801000067], [83.85507411200007, 25.43993130800004], [83.85583810500003, 25.440064973000062], [83.85673196300007, 25.44057435700006], [83.85783825000004, 25.44077435400004], [83.85977815600006, 25.440666355000076], [83.86151221100005, 25.440745935000052], [83.86365658100004, 25.441018840000027], [83.86399948000007, 25.441464289000066], [83.86432152100008, 25.44373265300004], [83.86403162900007, 25.44473623300007], [83.86367433600003, 25.44554971200006], [83.86359036600004, 25.446807886000045], [83.86337943900008, 25.44699543200005], [83.86377688600004, 25.44875903800005], [83.86356641100008, 25.450210111000047], [83.86351686800003, 25.45150029100006], [83.86316246200005, 25.45206096900006], [83.86221854200005, 25.45286888100003], [83.86272566500008, 25.454164261000074], [83.86315834300007, 25.455458914000076], [83.86325451800008, 25.456181827000023], [83.86539939800008, 25.45686541200007], [83.86553079600003, 25.457119375000048], [83.86559536000004, 25.457557665000024], [83.86555548000007, 25.457999569000037], [83.86534557400006, 25.458530041000074], [83.86534058500007, 25.458972181000036], [83.86563838900008, 25.45988654000007], [83.86556407800003, 25.460296525000047], [83.86440879700007, 25.46132349000004], [83.86437043200004, 25.461634528000047], [83.86491680400007, 25.462555678000058], [83.86497737000008, 25.463341435000075], [83.86500360700006, 25.464095271000076], [83.86437537000006, 25.464247267000076], [83.86364771900008, 25.464398422000045], [83.86288794300003, 25.463885834000052], [83.86170894100007, 25.463937826000063], [83.86063151100007, 25.464243596000074], [83.85998303600007, 25.466597488000048], [83.85969670500003, 25.467285166000067], [83.85818641000003, 25.468908937000037], [83.85772030200008, 25.47009584600005], [83.85967450800007, 25.473124211000027], [83.86122487600005, 25.477114377000078], [83.86263064700006, 25.481586033000042], [83.86450804700007, 25.485701047000077], [83.86524829900003, 25.48402036500005], [83.86610592700004, 25.481636776000073], [83.86679304800003, 25.479378033000046], [83.86747236800005, 25.477371831000028], [83.86849137400003, 25.476090834000047], [83.86936681300006, 25.47562976200004]]]]}}, {"type": "Feature", "properties": {"OBJECTID": 273, "GPCODE": "92456", "GPNAME_1": "JALILPUR", "DIST_CEN_C": "30", "BLK_NAME": "CHAUSA", "ST_NAME": "BIHAR", "ST_CODE_1": "10", "GPCODE2011": "95011", "REMARKS": "FINALIZED", "MAP_STATUS": "COMPLETED", "BLK_C_2001": "300008", "BLK_C_2011": "01442", "DIST_NAME": "BUXAR", "code2011": 12.0, "Shape_Leng": 0.22107835571, "Shape_Area": 0.00107414348, "Area": 11.9883}, "geometry": {"type": "MultiPolygon", "coordinates": [[[[83.85514025600008, 25.432445526000038], [83.85430600700005, 25.43237446100005], [83.85278439600006, 25.43242321200006], [83.85261259400005, 25.432236528000033], [83.85246655200007, 25.429811847000053], [83.85218816200006, 25.429809185000067], [83.85103965500008, 25.430267567000044], [83.84979065400006, 25.430382071000054], [83.84899543900008, 25.430374458000074], [83.84754139700004, 25.430171147000067], [83.84758641400003, 25.42929160500006], [83.84749512900004, 25.428158019000023], [83.84729912400007, 25.427055111000072], [83.84724225900004, 25.42595344600005], [83.84732711100008, 25.424632089000056], [83.84733503300004, 25.423941653000043], [83.84733252100006, 25.42330542800005], [83.84636915100003, 25.422795318000055], [83.84557361600008, 25.42281927500005], [83.84501696800004, 25.422813923000035], [83.84466403700003, 25.423248304000026], [83.84430400800005, 25.424724986000058], [83.84432890800008, 25.42557361000007], [83.84390271100006, 25.426323206000063], [83.84300021600006, 25.426567266000063], [83.84192637500007, 25.426588523000078], [83.84009038900007, 25.426318277000064], [83.83932961600004, 25.42634253800003], [83.83880367000006, 25.426684975000057], [83.83859126000004, 25.426998844000025], [83.83858840200008, 25.42725155100004], [83.83834724800005, 25.427465776000076], [83.83799976700004, 25.427430917000038], [83.83754856600007, 25.42733178000003], [83.83710169600005, 25.42729587900004], [83.83675189000007, 25.427450459000056], [83.83643696900003, 25.427605372000073], [83.83629264100006, 25.428046266000024], [83.83618353500003, 25.428451395000025], [83.83617871600006, 25.42886195500006], [83.83617400100007, 25.42927260400006], [83.83616850800007, 25.429741828000033], [83.83619847500006, 25.43015272400004], [83.83588851700006, 25.430307697000046], [83.83567653100005, 25.430585461000078], [83.83602708500007, 25.43206443100007], [83.83834189400005, 25.432628179000062], [83.84152018500004, 25.433317548000048], [83.84582175200006, 25.434446166000043], [83.84726701400007, 25.43542115100007], [83.84857386400006, 25.43718001700006], [83.84982082900007, 25.437241517000075], [83.85148101900006, 25.437257303000024], [83.85241359600008, 25.43742417900006], [83.85383550600005, 25.43740608300004], [83.85501426400003, 25.43735405800004], [83.85523416800004, 25.436381417000064], [83.85493298900008, 25.435340703000065], [83.85477023000004, 25.434364403000075], [83.85506126900003, 25.43326606900007], [83.85514025600008, 25.432445526000038]]], [[[83.86170894100007, 25.463937826000063], [83.86288794300003, 25.463885834000052], [83.86364771900008, 25.464398422000045], [83.86437537000006, 25.464247267000076], [83.86500360700006, 25.464095271000076], [83.86497737000008, 25.463341435000075], [83.86491680400007, 25.462555678000058], [83.86437043200004, 25.461634528000047], [83.86440879700007, 25.46132349000004], [83.86556407800003, 25.460296525000047], [83.86563838900008, 25.45988654000007], [83.86534058500007, 25.458972181000036], [83.86534557400006, 25.458530041000074], [83.86555548000007, 25.457999569000037], [83.86559536000004, 25.457557665000024], [83.86553079600003, 25.457119375000048], [83.86539939800008, 25.45686541200007], [83.86325451800008, 25.456181827000023], [83.86315834300007, 25.455458914000076], [83.86272566500008, 25.454164261000074], [83.86221854200005, 25.45286888100003], [83.86316246200005, 25.45206096900006], [83.86351686800003, 25.45150029100006], [83.86356641100008, 25.450210111000047], [83.86377688600004, 25.44875903800005], [83.86337943900008, 25.44699543200005], [83.86359036600004, 25.446807886000045], [83.86367433600003, 25.44554971200006], [83.86403162900007, 25.44473623300007], [83.86432152100008, 25.44373265300004], [83.86399948000007, 25.441464289000066], [83.86365658100004, 25.441018840000027], [83.86151221100005, 25.440745935000052], [83.85977815600006, 25.440666355000076], [83.85783825000004, 25.44077435400004], [83.85673196300007, 25.44057435700006], [83.85583810500003, 25.440064973000062], [83.85507411200007, 25.43993130800004], [83.85320002600008, 25.440355801000067], [83.85180753800006, 25.440843443000063], [83.85020466700007, 25.441459941000062], [83.84854526000004, 25.44138096100005], [83.84740447400003, 25.44072482100006], [83.84530559600006, 25.444256186000075], [83.84314531200005, 25.44748917000004], [83.84074326200005, 25.448851491000028], [83.83695769900004, 25.449054339000043], [83.83232259000005, 25.448350961000074], [83.82954239700007, 25.44759762600006], [83.82728996800006, 25.44721486900005], [83.82535697000003, 25.447981304000052], [83.82360885900005, 25.44994997400005], [83.82160274600005, 25.451437664000025], [83.81888217900007, 25.451533092000034], [83.81658490100006, 25.44946204000007], [83.81399725700004, 25.449256370000057], [83.81311445700004, 25.451174551000065], [83.81372788600004, 25.455214827000077], [83.81578865600005, 25.460474006000027], [83.81638946200007, 25.463074557000027], [83.81782969800008, 25.464893620000055], [83.81966566700004, 25.466477275000045], [83.82204555100003, 25.467466116000026], [83.82376796500006, 25.467721981000068], [83.82562728000005, 25.467739960000074], [83.82722667900003, 25.46703341400007], [83.82870948400006, 25.465238190000036], [83.82979097600008, 25.463321842000028], [83.83048814000006, 25.460679636000066], [83.83276196200006, 25.459257593000075], [83.83435274500005, 25.459272889000033], [83.83699338800005, 25.46050309000003], [83.84028409200005, 25.462700708000057], [83.84346240100007, 25.463453109000056], [83.84874398600004, 25.465913242000056], [83.85429356300006, 25.468014663000076], [83.85772030200008, 25.47009584600005], [83.85818641000003, 25.468908937000037], [83.85969670500003, 25.467285166000067], [83.85998303600007, 25.466597488000048], [83.86063151100007, 25.464243596000074], [83.86170894100007, 25.463937826000063]]]]}}, {"type": "Feature", "properties": {"OBJECTID": 281, "GPCODE": "92454", "GPNAME_1": "CHUNNI", "DIST_CEN_C": "30", "BLK_NAME": "CHAUSA", "ST_NAME": "BIHAR", "ST_CODE_1": "10", "GPCODE2011": "95009", "REMARKS": "FINALIZED", "MAP_STATUS": "COMPLETED", "BLK_C_2001": "300008", "BLK_C_2011": "01442", "DIST_NAME": "BUXAR", "code2011": 28.0, "Shape_Leng": 0.23239311459, "Shape_Area": 0.00129116804, "Area": 14.405}, "geometry": {"type": "MultiPolygon", "coordinates": [[[[83.93358721700008, 25.50463402200006], [83.93349214700004, 25.503766683000038], [83.93395989900006, 25.503287963000048], [83.93647471200006, 25.503436977000035], [83.93666065800005, 25.50279774100005], [83.93680475100007, 25.50234775000007], [83.93680584200007, 25.500407058000064], [83.93682795600006, 25.49986689600007], [83.93736667800005, 25.49926253500007], [83.93818469800004, 25.499044301000026], [83.93928681700004, 25.498765363000075], [83.93887742500004, 25.49753874700008], [83.93845707200006, 25.496858177000036], [83.93807405300004, 25.496408023000072], [83.93807901800005, 25.495956771000067], [83.93822796400008, 25.495055618000038], [83.93855107500008, 25.494611853000038], [83.93877365800006, 25.49380605400006], [83.93896975400008, 25.49223299700003], [83.93887158200005, 25.49120332700005], [83.93907412500005, 25.490866654000058], [83.93761116400003, 25.49049711400005], [83.93646392000005, 25.49035598200004], [83.93567678700003, 25.490023971000028], [83.93535821200004, 25.48959694000007], [83.93526123200007, 25.48891469800003], [83.93530770900009, 25.48784121600005], [83.93523807000008, 25.48738476400007], [83.93474369800003, 25.487118611000028], [83.93273407600003, 25.48716825400004], [83.93137163100005, 25.487155999000038], [83.92918419900008, 25.48710026400005], [83.92685176100008, 25.487115283000037], [83.92588319200007, 25.487007300000073], [83.92542399200005, 25.486709846000053], [83.92464164000006, 25.485953691000077], [83.92414835100004, 25.485137009000027], [83.92383620300006, 25.484127929000067], [83.92362911500004, 25.483507845000076], [83.92345589300004, 25.482527107000067], [83.92332529300006, 25.481745260000025], [83.92319066900006, 25.48086859400007], [83.92344568100003, 25.48028424200004], [83.92363220600004, 25.47960007100005], [83.92355632700009, 25.47699565700003], [83.92283573800006, 25.476957527000025], [83.92169224200006, 25.476947205000045], [83.92076252900006, 25.476483014000053], [83.91670316600005, 25.477096024000048], [83.91648975100009, 25.477062465000074], [83.91621395000004, 25.47592282000005], [83.91604930400007, 25.47461722500003], [83.91314594300007, 25.47456819200005], [83.91214169100004, 25.474550054000076], [83.91038416300006, 25.474764119000042], [83.90967035500006, 25.474559115000034], [83.90913205000004, 25.47422926400003], [83.90831674000003, 25.47376607700005], [83.90767257100003, 25.473566124000058], [83.90688205600009, 25.473558867000065], [83.90672656400005, 25.47144109000004], [83.90663415300008, 25.46991049500008], [83.90677022800008, 25.467506594000042], [83.90670313600003, 25.467275812000025], [83.90497873700008, 25.467196855000054], [83.90412075900008, 25.46699499400006], [83.90335486800006, 25.465670258000046], [83.90207193600008, 25.465690092000045], [83.90191683000006, 25.463987427000063], [83.90173432300008, 25.462067985000033], [83.90124754800007, 25.46203188800007], [83.89951424500003, 25.461857989000066], [83.89695047800006, 25.462150260000044], [83.89628642700006, 25.462396827000077], [83.89582526000004, 25.463177814000062], [83.89423406400005, 25.463194736000048], [83.89218724100004, 25.46304943000007], [83.89087655100008, 25.46287938100005], [83.88806840200004, 25.462790211000026], [83.88588523300007, 25.462833110000076], [83.88490144900004, 25.462774328000023], [83.88484223700004, 25.46494427300007], [83.88475908200007, 25.466139362000035], [83.88467218000005, 25.467681821000042], [83.88574068700007, 25.468161072000044], [83.88623211600003, 25.46867999400007], [83.88743475800004, 25.469174011000064], [83.88835016700006, 25.469570628000042], [83.88899009500005, 25.46970291300005], [83.88920127700004, 25.469930459000068], [83.88975933100005, 25.470711748000042], [83.89028194800005, 25.47155146500006], [83.89084371800004, 25.472007845000064], [83.89094009900003, 25.47316851100004], [83.89068066300007, 25.474131774000057], [83.89049507400006, 25.474712213000032], [83.89002336300007, 25.475542603000065], [83.88962543500008, 25.476441390000048], [83.88928992000007, 25.477534896000066], [83.88892817500005, 25.478303143000062], [83.88770656700007, 25.47948310700008], [83.88709112700008, 25.480704777000028], [83.88651161900003, 25.481827586000065], [83.88538417700005, 25.484362135000026], [83.88451618100004, 25.485482211000033], [83.88483240800008, 25.48654557800006], [83.88554890500006, 25.48871366000003], [83.88643761500003, 25.488848291000068], [83.88680759600004, 25.49043103200006], [83.88932941900003, 25.490391248000037], [83.88862710300003, 25.492699628000025], [83.89091342200004, 25.494588975000056], [83.89058248200007, 25.495714028000066], [83.89032699700005, 25.496325395000042], [83.89028572800004, 25.496902576000025], [83.89021248000006, 25.497222314000055], [83.88942662600004, 25.49766624500006], [83.88929406300008, 25.499727232000055], [83.89050285700006, 25.49970679200004], [83.89263124400009, 25.499726442000053], [83.89260941300006, 25.498566595000057], [83.89272177300006, 25.49785919900006], [83.89302173200008, 25.496833154000058], [83.89365867700008, 25.496802908000063], [83.89365229300006, 25.494262329000037], [83.89356412000006, 25.492813029000047], [83.89333069600008, 25.491457137000054], [83.89319983600006, 25.49026466500004], [83.89328126900006, 25.489204967000035], [83.89399233100005, 25.489211528000055], [83.89480825800007, 25.489187465000043], [83.89569872400006, 25.489159595000046], [83.89585965000003, 25.489161070000023], [83.89676277900008, 25.48916934300007], [83.89822183900003, 25.48899331800004], [83.89896560100004, 25.48873839500004], [83.90028692900006, 25.488430196000024], [83.90185115400004, 25.488187324000023], [83.90302399000007, 25.487810009000043], [83.90366738600005, 25.48897568500007], [83.90397602500008, 25.48984485400007], [83.90181874400008, 25.48975740800006], [83.90123013400006, 25.489914446000057], [83.90122478300003, 25.490397192000046], [83.90140411400006, 25.491702970000063], [83.90191142900005, 25.49393681500004], [83.90199608500006, 25.495706405000078], [83.90221276300008, 25.497238182000046], [83.90221550300004, 25.498334709000062], [83.90195838700004, 25.49909040400007], [83.90162708500003, 25.500260601000036], [83.90255613100004, 25.500407292000034], [83.90361298300007, 25.500581676000024], [83.90377239600008, 25.50060797900005], [83.90480077600006, 25.50069866900003], [83.90639914000008, 25.500970650000056], [83.90657896700003, 25.500405260000036], [83.90666709800007, 25.49963447700003], [83.90713423200003, 25.49921910300003], [83.90749730100003, 25.498319872000025], [83.90754677400008, 25.496998217000055], [83.90728015500008, 25.495484090000048], [83.90823950000004, 25.49552447700006], [83.90831453100003, 25.495042279000074], [83.90913003800006, 25.49504973200004], [83.90944613100004, 25.495242199000074], [83.90939808800005, 25.496437506000063], [83.90978922000005, 25.496599081000056], [83.91042102900008, 25.49702443900003], [83.91062561000007, 25.497865648000072], [83.91072567600008, 25.498705898000026], [83.91121975500005, 25.49899920100006], [83.91196217700008, 25.498875077000037], [83.91247171800006, 25.50002134600004], [83.91265647500006, 25.500406588000033], [83.91315484600005, 25.501217462000056], [83.91364931700008, 25.501930568000034], [83.91452543600008, 25.503667117000077], [83.91507371300008, 25.505364516000043], [83.91624946700006, 25.505181109000034], [83.91734811500004, 25.50522271500006], [83.91738639200008, 25.50490264900003], [83.91792512200004, 25.50429826800007], [83.91845838200004, 25.50420388200007], [83.91959137800006, 25.504277380000076], [83.92058493700006, 25.504385694000064], [83.92186153300008, 25.504523585000072], [83.92292286200006, 25.50479045800006], [83.92412516600007, 25.50490065500003], [83.92561663100008, 25.50494571300004], [83.92631790600007, 25.505403406000028], [83.92706032000007, 25.505730518000064], [83.92737226000008, 25.506311019000066], [83.92793637200003, 25.50657340500004], [83.92843080700004, 25.506839669000044], [83.92874490500003, 25.507226038000056], [83.92917229200003, 25.50726153000005], [83.93016748200006, 25.507207338000057], [83.93115814600003, 25.507121491000078], [83.93166083700004, 25.505713410000055], [83.93287058200008, 25.505593370000042], [83.93326230900004, 25.505244919000063], [83.93358721700008, 25.50463402200006]]]]}}, {"type": "Feature", "properties": {"OBJECTID": 282, "GPCODE": "92452", "GPNAME_1": "BANARPUR", "DIST_CEN_C": "30", "BLK_NAME": "CHAUSA", "ST_NAME": "BIHAR", "ST_CODE_1": "10", "GPCODE2011": "95007", "REMARKS": "FINALIZED", "MAP_STATUS": "COMPLETED", "BLK_C_2001": "300008", "BLK_C_2011": "01442", "DIST_NAME": "BUXAR", "code2011": 14.0, "Shape_Leng": 0.16664723098, "Shape_Area": 0.00074166794, "Area": 8.27435}, "geometry": {"type": "MultiPolygon", "coordinates": [[[[83.87885635800006, 25.51788349000003], [83.88552991400007, 25.517557620000048], [83.88729508900008, 25.517601171000024], [83.88781586100004, 25.51551640300005], [83.88801504300005, 25.513713024000026], [83.88796419100004, 25.51203816700007], [83.88805472000007, 25.51017508500007], [83.88855454600008, 25.509954039000036], [83.89075401400004, 25.509843600000067], [83.89231806100008, 25.509632417000034], [83.89298469000005, 25.510058350000065], [83.89354952300005, 25.51025308000004], [83.89472273100006, 25.51030006600007], [83.89525735400008, 25.510079322000024], [83.89530009200007, 25.509371190000024], [83.89530510700007, 25.50891994500006], [83.89502519800004, 25.508596915000055], [83.89460222200006, 25.508173256000077], [83.89457595900006, 25.50740130400004], [83.89463236000006, 25.505470202000026], [83.89464996800007, 25.50389074800006], [83.89497136500006, 25.503604831000075], [83.89625262000004, 25.50332787600007], [83.89746273200006, 25.50317652500007], [83.89747064900007, 25.502468067000052], [83.89719650400008, 25.501179312000033], [83.89711055800007, 25.50040673700005], [83.89708613900007, 25.500187225000047], [83.89514777600004, 25.50016940100005], [83.89440579700005, 25.49980603700004], [83.89408829300004, 25.49973998200005], [83.89263124400009, 25.499726442000053], [83.89050285700006, 25.49970679200004], [83.88929406300008, 25.499727232000055], [83.88942662600004, 25.49766624500006], [83.89021248000006, 25.497222314000055], [83.89028572800004, 25.496902576000025], [83.89032699700005, 25.496325395000042], [83.89058248200007, 25.495714028000066], [83.89091342200004, 25.494588975000056], [83.88862710300003, 25.492699628000025], [83.88932941900003, 25.490391248000037], [83.88680759600004, 25.49043103200006], [83.88643761500003, 25.488848291000068], [83.88554890500006, 25.48871366000003], [83.88483240800008, 25.48654557800006], [83.88451618100004, 25.485482211000033], [83.88538417700005, 25.484362135000026], [83.88651161900003, 25.481827586000065], [83.88709112700008, 25.480704777000028], [83.88770656700007, 25.47948310700008], [83.88892817500005, 25.478303143000062], [83.88928992000007, 25.477534896000066], [83.88962543500008, 25.476441390000048], [83.89002336300007, 25.475542603000065], [83.89049507400006, 25.474712213000032], [83.89068066300007, 25.474131774000057], [83.89094009900003, 25.47316851100004], [83.89084371800004, 25.472007845000064], [83.89028194800005, 25.47155146500006], [83.88975933100005, 25.470711748000042], [83.88920127700004, 25.469930459000068], [83.88899009500005, 25.46970291300005], [83.88835016700006, 25.469570628000042], [83.88743475800004, 25.469174011000064], [83.88623211600003, 25.46867999400007], [83.88574068700007, 25.468161072000044], [83.88467218000005, 25.467681821000042], [83.88411533500005, 25.467676609000023], [83.88238551300003, 25.467628931000036], [83.88096327200003, 25.467647288000023], [83.88005522500004, 25.46792308600004], [83.87939121000005, 25.468607357000053], [83.87924590100005, 25.469142952000027], [83.87944719000006, 25.470254969000052], [83.87956504300007, 25.471695539000052], [83.87933734200004, 25.473363036000023], [83.87901561400008, 25.47455588400004], [83.87878940600007, 25.476092514000072], [83.87856482700005, 25.47747571800005], [83.87848494800005, 25.478386502000035], [83.87798983000005, 25.47907685200005], [83.87753948600005, 25.47932075500006], [83.87646701500006, 25.479184404000023], [83.87553004800003, 25.47892746100007], [83.87473958800007, 25.478477843000064], [83.87271217900008, 25.47704194100004], [83.87181293000003, 25.47653260100003], [83.87092063900008, 25.47586095400004], [83.87020000700005, 25.475384897000026], [83.86936681300006, 25.47562976200004], [83.86849137400003, 25.476090834000047], [83.86747236800005, 25.477371831000028], [83.86679304800003, 25.479378033000046], [83.86610592700004, 25.481636776000073], [83.86524829900003, 25.48402036500005], [83.86450804700007, 25.485701047000077], [83.86670509200007, 25.486218058000077], [83.87095832100005, 25.486966507000034], [83.87187805100007, 25.48742636000003], [83.87264108000005, 25.488981281000065], [83.87244855600005, 25.493230219000054], [83.87349289600007, 25.49498185500005], [83.876385, 25.496940254000037], [83.87862992900006, 25.498960252000074], [83.87909795300004, 25.50040641100003], [83.87944879000008, 25.50282420600007], [83.87864558800004, 25.504811523000058], [83.87713549000006, 25.50685994400004], [83.87626188700006, 25.508909671000026], [83.87631704700004, 25.510196463000057], [83.87650106800004, 25.512838358000067], [83.87683308800007, 25.514709932000073], [83.87885635800006, 25.51788349000003]]]]}}, {"type": "Feature", "properties": {"OBJECTID": 287, "GPCODE": "92453", "GPNAME_1": "CHAUSA", "DIST_CEN_C": "30", "BLK_NAME": "CHAUSA", "ST_NAME": "BIHAR", "ST_CODE_1": "10", "GPCODE2011": "95008", "REMARKS": "FINALIZED", "MAP_STATUS": "COMPLETED", "BLK_C_2001": "300008", "BLK_C_2011": "01442", "DIST_NAME": "BUXAR", "code2011": 19.0, "Shape_Leng": 0.18070291173, "Shape_Area": 0.00060466738, "Area": 6.74477}, "geometry": {"type": "MultiPolygon", "coordinates": [[[[83.91979884100004, 25.524398615000052], [83.91872291000004, 25.522267686000077], [83.91840319500005, 25.521939902000042], [83.91624087500008, 25.521825429000046], [83.91507105700003, 25.52190952600006], [83.91382482200004, 25.522155457000054], [83.91300671600004, 25.52237364900003], [83.91251148400005, 25.522175025000024], [83.91284144300005, 25.52156875000003], [83.91309550100004, 25.52108821300004], [83.91252708600007, 25.520762543000046], [83.91129261300006, 25.520394731000067], [83.91086564300008, 25.520327692000023], [83.91021013500006, 25.518873007000025], [83.91004279600008, 25.517810835000034], [83.90805989400008, 25.51766180900006], [83.90784859600006, 25.51743420400004], [83.90718643700006, 25.516141983000068], [83.90474067300005, 25.516024725000022], [83.90460815000006, 25.51540975100005], [83.90521137100006, 25.515288888000043], [83.90609835700008, 25.515134553000053], [83.90929178400006, 25.515100666000023], [83.90992916800008, 25.51503876700008], [83.91011097200004, 25.514783219000037], [83.90953377300008, 25.51255744300005], [83.90915217300005, 25.51152496700007], [83.90873735400004, 25.510812608000037], [83.90927195700004, 25.510591908000038], [83.91058161000007, 25.510445867000044], [83.91359841600007, 25.510631403000048], [83.91519472000004, 25.510645932000045], [83.91661593700007, 25.510306911000043], [83.91722048900004, 25.510055142000056], [83.91730823500006, 25.50885994400005], [83.91746010800006, 25.507701518000033], [83.91743415700006, 25.506897888000026], [83.91734811500004, 25.50522271500006], [83.91624946700006, 25.505181109000034], [83.91507371300008, 25.505364516000043], [83.91452543600008, 25.503667117000077], [83.91364931700008, 25.501930568000034], [83.91315484600005, 25.501217462000056], [83.91265647500006, 25.500406588000033], [83.91247171800006, 25.50002134600004], [83.91196217700008, 25.498875077000037], [83.91121975500005, 25.49899920100006], [83.91072567600008, 25.498705898000026], [83.91062561000007, 25.497865648000072], [83.91042102900008, 25.49702443900003], [83.90978922000005, 25.496599081000056], [83.90939808800005, 25.496437506000063], [83.90944613100004, 25.495242199000074], [83.90913003800006, 25.49504973200004], [83.90831453100003, 25.495042279000074], [83.90823950000004, 25.49552447700006], [83.90728015500008, 25.495484090000048], [83.90754677400008, 25.496998217000055], [83.90749730100003, 25.498319872000025], [83.90713423200003, 25.49921910300003], [83.90666709800007, 25.49963447700003], [83.90657896700003, 25.500405260000036], [83.90639914000008, 25.500970650000056], [83.90480077600006, 25.50069866900003], [83.90377239600008, 25.50060797900005], [83.90361298300007, 25.500581676000024], [83.90255613100004, 25.500407292000034], [83.90162708500003, 25.500260601000036], [83.90195838700004, 25.49909040400007], [83.90221550300004, 25.498334709000062], [83.90221276300008, 25.497238182000046], [83.90199608500006, 25.495706405000078], [83.90191142900005, 25.49393681500004], [83.90140411400006, 25.491702970000063], [83.90122478300003, 25.490397192000046], [83.90123013400006, 25.489914446000057], [83.90181874400008, 25.48975740800006], [83.90397602500008, 25.48984485400007], [83.90366738600005, 25.48897568500007], [83.90302399000007, 25.487810009000043], [83.90185115400004, 25.488187324000023], [83.90028692900006, 25.488430196000024], [83.89896560100004, 25.48873839500004], [83.89822183900003, 25.48899331800004], [83.89676277900008, 25.48916934300007], [83.89585965000003, 25.489161070000023], [83.89569872400006, 25.489159595000046], [83.89480825800007, 25.489187465000043], [83.89399233100005, 25.489211528000055], [83.89328126900006, 25.489204967000035], [83.89319983600006, 25.49026466500004], [83.89333069600008, 25.491457137000054], [83.89356412000006, 25.492813029000047], [83.89365229300006, 25.494262329000037], [83.89365867700008, 25.496802908000063], [83.89302173200008, 25.496833154000058], [83.89272177300006, 25.49785919900006], [83.89260941300006, 25.498566595000057], [83.89263124400009, 25.499726442000053], [83.89408829300004, 25.49973998200005], [83.89440579700005, 25.49980603700004], [83.89514777600004, 25.50016940100005], [83.89708613900007, 25.500187225000047], [83.89711055800007, 25.50040673700005], [83.89719650400008, 25.501179312000033], [83.89747064900007, 25.502468067000052], [83.89746273200006, 25.50317652500007], [83.89625262000004, 25.50332787600007], [83.89497136500006, 25.503604831000075], [83.89464996800007, 25.50389074800006], [83.89463236000006, 25.505470202000026], [83.89457595900006, 25.50740130400004], [83.89460222200006, 25.508173256000077], [83.89502519800004, 25.508596915000055], [83.89530510700007, 25.50891994500006], [83.89530009200007, 25.509371190000024], [83.89525735400008, 25.510079322000024], [83.89472273100006, 25.51030006600007], [83.89354952300005, 25.51025308000004], [83.89298469000005, 25.510058350000065], [83.89231806100008, 25.509632417000034], [83.89075401400004, 25.509843600000067], [83.88855454600008, 25.509954039000036], [83.88805472000007, 25.51017508500007], [83.88796419100004, 25.51203816700007], [83.88801504300005, 25.513713024000026], [83.88781586100004, 25.51551640300005], [83.88729508900008, 25.517601171000024], [83.89254849900004, 25.51794772900007], [83.89693629400006, 25.51876005200006], [83.89881160600004, 25.519639324000025], [83.90138162900007, 25.52111620100004], [83.90296993800007, 25.52231326100008], [83.90419216900005, 25.523339984000074], [83.90587530000005, 25.525413384000046], [83.90643034200008, 25.527097681000043], [83.90683299300008, 25.528319512000053], [83.91003474700005, 25.528470734000052], [83.91135381100008, 25.52793668100003], [83.91299156900004, 25.527369452000073], [83.91459025400007, 25.52718995300006], [83.91590399400008, 25.52713878000003], [83.91658319300006, 25.526436413000056], [83.91815338700007, 25.525678970000058], [83.91961556000007, 25.52524093900007], [83.91982726100008, 25.524981127000046], [83.91979884100004, 25.524398615000052]]]]}}, {"type": "Feature", "properties": {"OBJECTID": 289, "GPCODE": "92458", "GPNAME_1": "PAWNI", "DIST_CEN_C": "30", "BLK_NAME": "CHAUSA", "ST_NAME": "BIHAR", "ST_CODE_1": "10", "GPCODE2011": "95013", "REMARKS": "FINALIZED", "MAP_STATUS": "COMPLETED", "BLK_C_2001": "300007", "BLK_C_2011": "01441", "DIST_NAME": "BUXAR", "code2011": 30.0, "Shape_Leng": 0.2176515792, "Shape_Area": 0.0011374598, "Area": 12.6865}, "geometry": {"type": "MultiPolygon", "coordinates": [[[[83.95456324800006, 25.53362837000003], [83.95326560100006, 25.532168214000023], [83.95147166900006, 25.530608818000076], [83.95027874000004, 25.52959626100005], [83.94932641400004, 25.52887927200004], [83.94883305700006, 25.528491246000044], [83.94847690500006, 25.528776958000037], [83.94776630700005, 25.528707474000043], [83.94741522300006, 25.52851026600007], [83.94720586000005, 25.528088684000068], [83.94721137900007, 25.527574268000023], [83.94856238400007, 25.527297417000057], [83.94888348100005, 25.527043069000058], [83.94844628000004, 25.525139142000057], [83.94824548300005, 25.52391434900005], [83.94814573000008, 25.52301078000005], [83.94872256200006, 25.522564600000067], [83.94992814000005, 25.522390312000027], [83.95013917900008, 25.52264944600006], [83.95063521900005, 25.522780263000072], [83.95137487600005, 25.52291767500003], [83.95208435400008, 25.523086418000048], [83.95261172700003, 25.52353792300005], [83.95318248400008, 25.523190944000078], [83.95421951900005, 25.522491629000058], [83.95460329600007, 25.522883168000078], [83.95577881400004, 25.52273105100005], [83.95677158900008, 25.522451008000075], [83.95598035100005, 25.52015590700006], [83.95533093900008, 25.518092138000043], [83.95453386000008, 25.51634754400004], [83.95780314200005, 25.51573108100007], [83.95714923100007, 25.514082554000026], [83.95663273200006, 25.512146406000056], [83.95615385300005, 25.51088754600005], [83.95595402500004, 25.509567898000057], [83.95539607400008, 25.508723506000024], [83.95516008800007, 25.507529988000044], [83.95492209600008, 25.50653050300008], [83.95441469100007, 25.504210744000034], [83.95432149000004, 25.502693561000058], [83.95353264900007, 25.50040821500005], [83.95304135300006, 25.498919304000026], [83.95224453500003, 25.497174951000034], [83.94884524400004, 25.496950739000056], [83.94693172400008, 25.496839025000043], [83.94568987800005, 25.496701562000055], [83.94511571400005, 25.49736881700005], [83.94486083000004, 25.49794868500004], [83.94463696300005, 25.498876237000047], [83.94265865500006, 25.49831259700005], [83.94152659700006, 25.49814008900006], [83.94095936600007, 25.49817106300003], [83.93988889100007, 25.49873912700008], [83.93928681700004, 25.498765363000075], [83.93818469800004, 25.499044301000026], [83.93736667800005, 25.49926253500007], [83.93682795600006, 25.49986689600007], [83.93680584200007, 25.500407058000064], [83.93680475100007, 25.50234775000007], [83.93666065800005, 25.50279774100005], [83.93647471200006, 25.503436977000035], [83.93395989900006, 25.503287963000048], [83.93349214700004, 25.503766683000038], [83.93358721700008, 25.50463402200006], [83.93326230900004, 25.505244919000063], [83.93287058200008, 25.505593370000042], [83.93166083700004, 25.505713410000055], [83.93115814600003, 25.507121491000078], [83.93016748200006, 25.507207338000057], [83.92917229200003, 25.50726153000005], [83.92874490500003, 25.507226038000056], [83.92843080700004, 25.506839669000044], [83.92793637200003, 25.50657340500004], [83.92737226000008, 25.506311019000066], [83.92706032000007, 25.505730518000064], [83.92631790600007, 25.505403406000028], [83.92561663100008, 25.50494571300004], [83.92412516600007, 25.50490065500003], [83.92292286200006, 25.50479045800006], [83.92186153300008, 25.504523585000072], [83.92058493700006, 25.504385694000064], [83.91959137800006, 25.504277380000076], [83.91845838200004, 25.50420388200007], [83.91792512200004, 25.50429826800007], [83.91738639200008, 25.50490264900003], [83.91734811500004, 25.50522271500006], [83.91743415700006, 25.506897888000026], [83.91746010800006, 25.507701518000033], [83.91730823500006, 25.50885994400005], [83.91722048900004, 25.510055142000056], [83.91661593700007, 25.510306911000043], [83.91519472000004, 25.510645932000045], [83.91359841600007, 25.510631403000048], [83.91058161000007, 25.510445867000044], [83.90927195700004, 25.510591908000038], [83.90873735400004, 25.510812608000037], [83.90915217300005, 25.51152496700007], [83.90953377300008, 25.51255744300005], [83.91011097200004, 25.514783219000037], [83.90992916800008, 25.51503876700008], [83.90929178400006, 25.515100666000023], [83.90609835700008, 25.515134553000053], [83.90521137100006, 25.515288888000043], [83.90460815000006, 25.51540975100005], [83.90474067300005, 25.516024725000022], [83.90718643700006, 25.516141983000068], [83.90784859600006, 25.51743420400004], [83.90805989400008, 25.51766180900006], [83.91004279600008, 25.517810835000034], [83.91021013500006, 25.518873007000025], [83.91086564300008, 25.520327692000023], [83.91129261300006, 25.520394731000067], [83.91252708600007, 25.520762543000046], [83.91309550100004, 25.52108821300004], [83.91284144300005, 25.52156875000003], [83.91251148400005, 25.522175025000024], [83.91300671600004, 25.52237364900003], [83.91382482200004, 25.522155457000054], [83.91507105700003, 25.52190952600006], [83.91624087500008, 25.521825429000046], [83.91840319500005, 25.521939902000042], [83.91872291000004, 25.522267686000077], [83.91979884100004, 25.524398615000052], [83.91982726100008, 25.524981127000046], [83.91961556000007, 25.52524093900007], [83.91815338700007, 25.525678970000058], [83.91658319300006, 25.526436413000056], [83.91590399400008, 25.52713878000003], [83.91459025400007, 25.52718995300006], [83.91299156900004, 25.527369452000073], [83.91135381100008, 25.52793668100003], [83.91003474700005, 25.528470734000052], [83.90683299300008, 25.528319512000053], [83.90857454900004, 25.531426946000067], [83.91065260500005, 25.530182299000046], [83.91333118400007, 25.52859556800007], [83.91585457100007, 25.528009299000075], [83.91799149100007, 25.527288660000067], [83.92045125700008, 25.526597954000067], [83.92218701100006, 25.52661368300005], [83.92360242400008, 25.52682060400008], [83.92555460100004, 25.52706393300008], [83.92725589700007, 25.527047701000072], [83.92888732200004, 25.52706240300006], [83.93140423200003, 25.527053564000028], [83.93424843900004, 25.526690965000057], [83.93510163100007, 25.526445902000034], [83.93543737900006, 25.52806012700006], [83.93532315300007, 25.528957155000057], [83.93516112600008, 25.53059853900004], [83.93536180700005, 25.53182334400003], [83.93559686000003, 25.53308005100007], [83.93690612900008, 25.53344835400003], [83.93706607600006, 25.533837874000028], [83.93846379900003, 25.53384597400003], [83.94051968200006, 25.53370635300007], [83.94174858600007, 25.533685840000032], [83.94261586100004, 25.533531064000044], [83.94505379100008, 25.533480651000048], [83.94746925400005, 25.533208802000047], [83.94841845200006, 25.533298460000026], [83.94937942700005, 25.53320773400003], [83.94988061100008, 25.53286023800007], [83.95073049000007, 25.532930957000076], [83.95154234900008, 25.533294669000043], [83.95189671600008, 25.533649858000047], [83.95224983600008, 25.533653023000056], [83.95288340300004, 25.53394743000007], [83.95394101600004, 25.534602149000023], [83.95456324800006, 25.53362837000003]]]]}}]}