{"type": "FeatureCollection", "features": [{"type": "Feature", "properties": {"OBJECTID": 3582, "GPCODE": "92724", "GPNAME_1": "RUPOULI", "DIST_CEN_C": "13", "BLK_NAME": "HANUMANNAGAR", "ST_NAME": "BIHAR", "ST_CODE_1": "10", "GPCODE2011": "95279", "REMARKS": "FINALIZED", "MAP_STATUS": "COMPLETED", "BLK_C_2001": "130010", "BLK_C_2011": "01190", "DIST_NAME": "DARBHANGA", "code2011": 14.0, "Shape_Leng": 0.14459113546, "Shape_Area": 0.00064975562, "Area": 7.20056}, "geometry": {"type": "MultiPolygon", "coordinates": [[[[85.81707388300003, 26.06276340000005], [85.81499829000006, 26.057152879000057], [85.80891744500008, 26.057176447000074], [85.80825888400005, 26.05315792700003], [85.80754273200006, 26.049649604000024], [85.80506714300003, 26.049144612000077], [85.80169577000004, 26.050452806000067], [85.79541252600006, 26.051979499000026], [85.79470054500007, 26.051436120000062], [85.79423224300007, 26.04958746500006], [85.79425896400005, 26.047800237000047], [85.79467650100008, 26.046264206000046], [85.79386189100006, 26.042963790000044], [85.78897847500008, 26.044629357000076], [85.78687052900005, 26.04471839300004], [85.78630156800006, 26.043763712000043], [85.78565985500006, 26.042173010000056], [85.78459516900006, 26.040962982000053], [85.78320856000005, 26.04034532600008], [85.78257680700005, 26.039851213000077], [85.78159228500004, 26.039782582000043], [85.77896088500006, 26.04121384900003], [85.77701055600005, 26.04299908200005], [85.77505245800006, 26.045325968000043], [85.77474228400007, 26.04634704500006], [85.77396991900008, 26.049053151000066], [85.77322528200006, 26.05012539200004], [85.77072352000005, 26.051569651000023], [85.76846914800007, 26.052471334000074], [85.76891150400007, 26.056490797000038], [85.76847088900007, 26.058536841000034], [85.76911108600007, 26.059811745000047], [85.76989110700003, 26.059939772000064], [85.77039319600004, 26.061598751000076], [85.77109907000005, 26.06191209600007], [85.77194688100008, 26.061525497000048], [85.77286685500007, 26.061653024000066], [85.77506784500008, 26.06330579200005], [85.77691009600005, 26.06406628900004], [85.77895876800005, 26.064058872000032], [85.78142986100005, 26.063535259000048], [85.79053113100008, 26.059606763000033], [85.79243979300009, 26.058516521000058], [85.79314756900004, 26.05595949600007], [85.79654812600006, 26.057670612000038], [85.79832734100006, 26.059897815000056], [85.79938816500004, 26.06021422300006], [85.80059292000004, 26.060335966000025], [85.80130493600007, 26.061930885000038], [85.80222707700005, 26.06250047900005], [85.80456025600006, 26.062428366000063], [85.80632072500003, 26.061717565000038], [85.80697028500003, 26.063822662000064], [85.80881887900006, 26.065859884000076], [85.80924782700004, 26.066751836000037], [85.81094366300005, 26.06712884500007], [85.81397699200005, 26.065072654000062], [85.81693924600006, 26.06384706500006], [85.81707388300003, 26.06276340000005]]]]}}, {"type": "Feature", "properties": {"OBJECTID": 3585, "GPCODE": "92719", "GPNAME_1": "NARSARA", "DIST_CEN_C": "13", "BLK_NAME": "HANUMANNAGAR", "ST_NAME": "BIHAR", "ST_CODE_1": "10", "GPCODE2011": "95274", "REMARKS": "FINALIZED", "MAP_STATUS": "COMPLETED", "BLK_C_2001": "130010", "BLK_C_2011": "01190", "DIST_NAME": "DARBHANGA", "code2011": 17.0, "Shape_Leng": 0.11888298745, "Shape_Area": 0.00054502672, "Area": 6.04017}, "geometry": {"type": "MultiPolygon", "coordinates": [[[[85.82794363700003, 26.059019609000075], [85.82758326800007, 26.056850368000028], [85.82630227900006, 26.055447430000072], [85.82742236500007, 26.053592621000064], [85.82887363100008, 26.046948115000077], [85.82893035300003, 26.044262649000075], [85.83025072200007, 26.042515312000035], [85.83045135500004, 26.040664181000068], [85.82896891500008, 26.04092743500007], [85.82825503600003, 26.039012255000046], [85.82627050500008, 26.03876740000004], [85.82507373100003, 26.039219008000032], [85.82380720000003, 26.040753901000073], [85.82210281000005, 26.038526732000037], [85.82103768400003, 26.035240927000075], [85.81999104900007, 26.035736980000024], [85.81787765000007, 26.03880519300003], [85.81536197200006, 26.040308826000057], [85.81381471700007, 26.040621772000065], [85.81168710400004, 26.04073839800003], [85.80971699600008, 26.040389487000027], [85.80406474500006, 26.041056638000043], [85.79867061000004, 26.041361520000066], [85.79603669400007, 26.042224429000044], [85.79386189100006, 26.042963790000044], [85.79467650100008, 26.046264206000046], [85.79425896400005, 26.047800237000047], [85.79423224300007, 26.04958746500006], [85.79470054500007, 26.051436120000062], [85.79541252600006, 26.051979499000026], [85.80169577000004, 26.050452806000067], [85.80506714300003, 26.049144612000077], [85.80754273200006, 26.049649604000024], [85.80825888400005, 26.05315792700003], [85.80891744500008, 26.057176447000074], [85.81499829000006, 26.057152879000057], [85.81707388300003, 26.06276340000005], [85.82124780100008, 26.063067342000068], [85.82265932000007, 26.06254726900005], [85.82328863600009, 26.06146169400006], [85.82519648300007, 26.061260048000065], [85.82794363700003, 26.059019609000075]]]]}}, {"type": "Feature", "properties": {"OBJECTID": 3586, "GPCODE": "92720", "GPNAME_1": "NEYAM CHHATOUNA", "DIST_CEN_C": "13", "BLK_NAME": "HANUMANNAGAR", "ST_NAME": "BIHAR", "ST_CODE_1": "10", "GPCODE2011": "95275", "REMARKS": "FINALIZED", "MAP_STATUS": "COMPLETED", "BLK_C_2001": "130010", "BLK_C_2011": "01190", "DIST_NAME": "DARBHANGA", "code2011": 17.0, "Shape_Leng": 0.19727056846, "Shape_Area": 0.00108476769, "Area": 12.0217}, "geometry": {"type": "MultiPolygon", "coordinates": [[[[85.86605384600006, 26.056213008000043], [85.86554744300008, 26.053981277000048], [85.86632389100004, 26.053400254000053], [85.86638108400007, 26.050006217000032], [85.86743352500008, 26.048724598000035], [85.86756471200005, 26.047063213000058], [85.86585102700008, 26.043239052000047], [85.86498769200006, 26.040562005000027], [85.86483273600004, 26.037687865000066], [85.86361683500007, 26.035395872000038], [85.86374944500005, 26.033035005000045], [85.86267341000007, 26.030738014000065], [85.86281000200006, 26.029144270000074], [85.86407446000004, 26.02830852200003], [85.86461752800005, 26.02707874500004], [85.86179391500008, 26.02683341100004], [85.85706304300004, 26.026790181000024], [85.85529013800004, 26.025904070000024], [85.85269354600007, 26.02609090900006], [85.85151207500007, 26.026556153000058], [85.85042703700003, 26.027327883000055], [85.84987980500006, 26.030714936000038], [85.84988295700003, 26.03231253200005], [85.85200588800006, 26.033260420000033], [85.85328399400004, 26.034080989000074], [85.85428133000005, 26.035674395000058], [85.85435943500005, 26.037267238000027], [85.85407925800007, 26.038161970000033], [85.85281684800003, 26.039444393000053], [85.85183229300009, 26.04034208400003], [85.85028572900006, 26.04076374300007], [85.84837371400005, 26.04105591800004], [85.84604424700007, 26.040781254000024], [85.84430809300005, 26.040264895000064], [85.84339802000005, 26.039126886000076], [85.84228503300005, 26.038337157000058], [85.84050807600005, 26.03566816700004], [85.84028100500007, 26.03222114600004], [85.83780563200008, 26.031721271000038], [85.83229951100003, 26.032510786000046], [85.83143803100006, 26.033069324000053], [85.83029720200005, 26.03371933300008], [85.82794346600008, 26.034563665000064], [85.82565737700008, 26.03495186600003], [85.82394022000005, 26.035229464000054], [85.82258671300008, 26.035297983000078], [85.82189145200005, 26.035138328000073], [85.82103768400003, 26.035240927000075], [85.82210281000005, 26.038526732000037], [85.82380720000003, 26.040753901000073], [85.82507373100003, 26.039219008000032], [85.82627050500008, 26.03876740000004], [85.82825503600003, 26.039012255000046], [85.82896891500008, 26.04092743500007], [85.83045135500004, 26.040664181000068], [85.83025072200007, 26.042515312000035], [85.82893035300003, 26.044262649000075], [85.82887363100008, 26.046948115000077], [85.82742236500007, 26.053592621000064], [85.82630227900006, 26.055447430000072], [85.82758326800007, 26.056850368000028], [85.82794363700003, 26.059019609000075], [85.82936521100004, 26.060543878000033], [85.83599110900008, 26.060566791000042], [85.83733322700004, 26.060177714000076], [85.83781708500004, 26.058004965000066], [85.83986025000007, 26.05690899700005], [85.84096805700005, 26.055636366000044], [85.84224247200007, 26.055694317000075], [85.84253695600006, 26.05761114200004], [85.84394790700009, 26.057988986000055], [85.84819031500007, 26.058034590000034], [85.84967558200003, 26.05828566300005], [85.85067282200004, 26.06080884100004], [85.85082348200007, 26.062915746000044], [85.85202440300003, 26.06323123900006], [85.86044153700004, 26.063705823000078], [85.86101385000006, 26.065170119000072], [85.86074923800004, 26.069065977000037], [85.86258449900004, 26.06835411900005], [85.86700368200007, 26.062017136000065], [85.86605384600006, 26.056213008000043]]]]}}, {"type": "Feature", "properties": {"OBJECTID": 3593, "GPCODE": "92731", "GPNAME_1": "MALHI PATTI NORTH", "DIST_CEN_C": "13", "BLK_NAME": "HANUMANNAGAR", "ST_NAME": "BIHAR", "ST_CODE_1": "10", "GPCODE2011": "95286", "REMARKS": "FINALIZED", "MAP_STATUS": "COMPLETED", "BLK_C_2001": "130010", "BLK_C_2011": "01190", "DIST_NAME": "DARBHANGA", "code2011": 19.0, "Shape_Leng": 0.1951585509, "Shape_Area": 0.00086758252, "Area": 9.61301}, "geometry": {"type": "MultiPolygon", "coordinates": [[[[85.89080274100007, 26.071034240000074], [85.88983942000004, 26.070329980000054], [85.88871160100007, 26.07152185800004], [85.88846797200006, 26.07267831100006], [85.89102896600008, 26.073113676000048], [85.89170302500008, 26.073015929000064], [85.89187600300005, 26.07266319100006], [85.89151717200008, 26.07192468200003], [85.89080274100007, 26.071034240000074]]], [[[85.89075675400005, 26.07635071900006], [85.88951501300005, 26.07591395700007], [85.88799107900007, 26.076881942000057], [85.88797090900005, 26.079607922000037], [85.88733524700007, 26.08034632700003], [85.88745193800008, 26.081595880000066], [85.88820250900005, 26.082684676000042], [85.88933711100003, 26.082706742000028], [85.89055074800007, 26.08346857600003], [85.89144145800003, 26.08458834000004], [85.89169712000006, 26.08564324100007], [85.89289863900007, 26.084193712000058], [85.89299758100003, 26.083105707000072], [85.89202986800007, 26.081602701000065], [85.89173834500008, 26.080385445000047], [85.89261942500008, 26.078842592000058], [85.89211780700003, 26.078492880000056], [85.89126572400005, 26.078045367000072], [85.89075675400005, 26.07635071900006]]], [[[85.91217273400008, 26.087319784000044], [85.91243200700006, 26.086339305000024], [85.91266233600004, 26.085521421000067], [85.91071815200007, 26.086405840000054], [85.90950146000006, 26.085129762000065], [85.90871108900006, 26.083210862000044], [85.90883198900008, 26.079812037000067], [85.90971416900004, 26.078494713000055], [85.91120080500008, 26.07803664000005], [85.91276605700006, 26.07822350400005], [85.91382724000005, 26.077640939000048], [85.91481156100008, 26.07584027200005], [85.91622861900004, 26.07545016100005], [85.91779569800008, 26.075948396000058], [85.91713170800006, 26.071659671000077], [85.91555658300007, 26.068846307000058], [85.91640027500006, 26.067817941000044], [85.91767915800006, 26.067748875000063], [85.91788609000008, 26.06723801000004], [85.91738703500005, 26.06646859600005], [85.91562450400005, 26.06583588500007], [85.91561113100005, 26.06346662900006], [85.91283273800008, 26.060789662000047], [85.91254028800006, 26.05944612500008], [85.91316668800005, 26.05620751600003], [85.90961838900006, 26.053416690000063], [85.90869438200008, 26.052590519000034], [85.90802602500008, 26.047421695000025], [85.90752460600004, 26.046209994000037], [85.90532987500006, 26.045069167000065], [85.90398457900005, 26.044822530000033], [85.90273744300004, 26.044263983000064], [85.90256716700009, 26.044188113000075], [85.89973839600003, 26.04401123100007], [85.89896714700006, 26.04458790900003], [85.89762186800004, 26.044341217000067], [85.89747150200003, 26.04242838600004], [85.89394522400005, 26.04442078900007], [85.89360135900006, 26.046403499000064], [85.89162949700005, 26.047626324000078], [85.89249174200006, 26.04998275400004], [85.89249523700005, 26.05062356700006], [85.89122706200004, 26.051712328000065], [85.88890005500008, 26.052873487000056], [85.88741824300007, 26.053263598000058], [85.88678053000007, 26.052688724000063], [85.88585229100005, 26.051032055000064], [85.88486302600006, 26.05103643900003], [85.88450967200004, 26.051295252000045], [85.88359963100004, 26.05302315600005], [85.88379459700008, 26.05396095900005], [85.88468531500007, 26.054214341000034], [85.88667364700007, 26.05417398900005], [85.88738678600004, 26.054843247000065], [85.88778421700005, 26.056254127000045], [85.88916180500007, 26.05506108900005], [85.88990606000004, 26.055026160000068], [85.89072881300007, 26.055631781000045], [85.89226972500006, 26.058734428000037], [85.89074842300005, 26.059224028000074], [85.89004272400007, 26.059931223000035], [85.88897823500008, 26.059904311000025], [85.88848778300007, 26.061607912000056], [85.88935042400004, 26.063111426000034], [85.88988617900003, 26.064228228000047], [85.89149251700007, 26.065570492000063], [85.89170805100008, 26.066598472000067], [85.89186508000006, 26.06973884100006], [85.89254998800004, 26.071626739000067], [85.89372469700004, 26.071689148000075], [85.89613662000005, 26.077739265000048], [85.89861221400008, 26.077155063000077], [85.89965692500004, 26.07990779800008], [85.90044790700006, 26.081957558000056], [85.90135890800008, 26.08583458800007], [85.90262218800007, 26.08651038800008], [85.90270065500005, 26.088048924000077], [85.90376984600005, 26.088874499000042], [85.90419964000006, 26.089770590000057], [85.90656949700008, 26.089899709000065], [85.91164140100005, 26.089718667000056], [85.91248459200006, 26.088568459000044], [85.91217273400008, 26.087319784000044]]]]}}, {"type": "Feature", "properties": {"OBJECTID": 3594, "GPCODE": "92716", "GPNAME_1": "GORHALLA", "DIST_CEN_C": "13", "BLK_NAME": "HANUMANNAGAR", "ST_NAME": "BIHAR", "ST_CODE_1": "10", "GPCODE2011": "95271", "REMARKS": "FINALIZED", "MAP_STATUS": "COMPLETED", "BLK_C_2001": "130010", "BLK_C_2011": "01190", "DIST_NAME": "DARBHANGA", "code2011": 15.0, "Shape_Leng": 0.17094989719, "Shape_Area": 0.00108053051, "Area": 11.9722}, "geometry": {"type": "MultiPolygon", "coordinates": [[[[85.78857930300006, 26.094914837000033], [85.79026371400005, 26.093820934000064], [85.79281037500004, 26.094384484000045], [85.79498317500008, 26.09406944400007], [85.79709073300006, 26.09157029800008], [85.79828961100003, 26.090351731000055], [85.80033677300008, 26.087803122000025], [85.80186742100005, 26.085937901000023], [85.80688380000004, 26.084578287000056], [85.80985388500005, 26.08488272200003], [85.81076948900005, 26.084048780000046], [85.81079335200008, 26.081715431000077], [85.81481923900003, 26.081252961000075], [85.81729641500004, 26.08194732800007], [85.81920736400008, 26.082323408000036], [85.82098277200004, 26.083593574000076], [85.82308367900004, 26.078855628000042], [85.82413374100008, 26.07693343300008], [85.82425243000006, 26.072591445000057], [85.82481202100007, 26.069502294000074], [85.82571582200006, 26.06630350300003], [85.82647721500007, 26.063619740000036], [85.82519648300007, 26.061260048000065], [85.82328863600009, 26.06146169400006], [85.82265932000007, 26.06254726900005], [85.82124780100008, 26.063067342000068], [85.81707388300003, 26.06276340000005], [85.81693924600006, 26.06384706500006], [85.81397699200005, 26.065072654000062], [85.81094366300005, 26.06712884500007], [85.80924782700004, 26.066751836000037], [85.80881887900006, 26.065859884000076], [85.80697028500003, 26.063822662000064], [85.80632072500003, 26.061717565000038], [85.80456025600006, 26.062428366000063], [85.80222707700005, 26.06250047900005], [85.80130493600007, 26.061930885000038], [85.80059292000004, 26.060335966000025], [85.79938816500004, 26.06021422300006], [85.79832734100006, 26.059897815000056], [85.79654812600006, 26.057670612000038], [85.79314756900004, 26.05595949600007], [85.79243979300009, 26.058516521000058], [85.79053113100008, 26.059606763000033], [85.78142986100005, 26.063535259000048], [85.78401445300005, 26.071509267000067], [85.78401820400006, 26.07342726400003], [85.78381095000003, 26.07400119400006], [85.78218439000005, 26.074580343000036], [85.78105421600003, 26.07439501400006], [85.77914729100007, 26.074848811000038], [85.77978886800008, 26.07638085900004], [85.78353391800005, 26.07572621500003], [85.78397616400008, 26.07955610500005], [85.78483906500009, 26.082490913000072], [85.78195880500004, 26.083241679000025], [85.78246573100006, 26.08592507700007], [85.78269077300007, 26.088158200000066], [85.78212917200005, 26.088864306000062], [85.78106663800008, 26.08931497800006], [85.78192931700005, 26.092186628000036], [85.78285983600006, 26.096786399000052], [85.78554332500005, 26.096650139000076], [85.78857930300006, 26.094914837000033]]]]}}, {"type": "Feature", "properties": {"OBJECTID": 3595, "GPCODE": "92722", "GPNAME_1": "PATORI", "DIST_CEN_C": "13", "BLK_NAME": "HANUMANNAGAR", "ST_NAME": "BIHAR", "ST_CODE_1": "10", "GPCODE2011": "95277", "REMARKS": "FINALIZED", "MAP_STATUS": "COMPLETED", "BLK_C_2001": "130010", "BLK_C_2011": "01190", "DIST_NAME": "DARBHANGA", "code2011": 14.0, "Shape_Leng": 0.15191401312, "Shape_Area": 0.00050764743, "Area": 5.62466}, "geometry": {"type": "MultiPolygon", "coordinates": [[[[85.75003115100003, 26.07683898600004], [85.74889559600007, 26.076585676000036], [85.74830386900004, 26.07619759100004], [85.74773172100004, 26.07480364500003], [85.74756837000007, 26.074532349000037], [85.74705879100009, 26.07433743400003], [85.74634754900006, 26.07460247800003], [85.74542810200006, 26.075577690000046], [85.74543300100004, 26.076728485000046], [85.74269801100007, 26.076408376000074], [85.74211464000007, 26.076708281000037], [85.74186487500003, 26.077927653000074], [85.74288696800005, 26.07855144900003], [85.74340020300008, 26.079375544000072], [85.74348448400008, 26.081613708000077], [85.74592129100006, 26.08209670900004], [85.74773214300006, 26.082999752000035], [85.75041503800009, 26.083674880000046], [85.75153854300004, 26.082262979000063], [85.75188894900003, 26.081241791000025], [85.75025730900006, 26.080669809000028], [85.75003115100003, 26.07683898600004]]], [[[85.78269077300007, 26.088158200000066], [85.78246573100006, 26.08592507700007], [85.78195880500004, 26.083241679000025], [85.78483906500009, 26.082490913000072], [85.78397616400008, 26.07955610500005], [85.78353391800005, 26.07572621500003], [85.77978886800008, 26.07638085900004], [85.77914729100007, 26.074848811000038], [85.78105421600003, 26.07439501400006], [85.78218439000005, 26.074580343000036], [85.78381095000003, 26.07400119400006], [85.78401820400006, 26.07342726400003], [85.78401445300005, 26.071509267000067], [85.78142986100005, 26.063535259000048], [85.77895876800005, 26.064058872000032], [85.77691009600005, 26.06406628900004], [85.77506784500008, 26.06330579200005], [85.77286685500007, 26.061653024000066], [85.77194688100008, 26.061525497000048], [85.77109907000005, 26.06191209600007], [85.77039319600004, 26.061598751000076], [85.76989110700003, 26.059939772000064], [85.76911108600007, 26.059811745000047], [85.76895011600004, 26.060701320000078], [85.76882210500008, 26.063387111000054], [85.76805184900007, 26.065497452000045], [85.76735382200008, 26.066971197000044], [85.76750269200005, 26.06901051500006], [85.76775899900008, 26.07160454600006], [85.76896415300007, 26.071789774000024], [85.76889838800008, 26.072746806000055], [85.76826823700009, 26.073773514000038], [85.76664425700005, 26.074930151000046], [85.76629642900008, 26.076524522000057], [85.76566677000005, 26.077677610000023], [85.76688046800007, 26.079785352000044], [85.76766804800008, 26.082720448000032], [85.76754275100006, 26.08604248300003], [85.76769218500004, 26.088212767000073], [85.77122870400007, 26.08775324000004], [85.77263994600008, 26.087044083000023], [85.77391163200008, 26.086403149000034], [85.77476433700008, 26.087104090000025], [85.77512992900006, 26.09061391000006], [85.77565489200003, 26.09958834400004], [85.77932277700006, 26.09827066200006], [85.78285983600006, 26.096786399000052], [85.78192931700005, 26.092186628000036], [85.78106663800008, 26.08931497800006], [85.78212917200005, 26.088864306000062], [85.78269077300007, 26.088158200000066]]]]}}, {"type": "Feature", "properties": {"OBJECTID": 3598, "GPCODE": "92725", "GPNAME_1": "SINUARA", "DIST_CEN_C": "13", "BLK_NAME": "HANUMANNAGAR", "ST_NAME": "BIHAR", "ST_CODE_1": "10", "GPCODE2011": "95280", "REMARKS": "FINALIZED", "MAP_STATUS": "COMPLETED", "BLK_C_2001": "130010", "BLK_C_2011": "01190", "DIST_NAME": "DARBHANGA", "code2011": 21.0, "Shape_Leng": 0.25583193868, "Shape_Area": 0.00092809444, "Area": 10.2831}, "geometry": {"type": "MultiPolygon", "coordinates": [[[[85.89923392500003, 26.090181147000067], [85.89731186900008, 26.089675343000067], [85.89567864900005, 26.089872168000056], [85.89396879300006, 26.090701197000044], [85.89585480900007, 26.093734444000063], [85.89714738500004, 26.096102501000075], [85.89740559400008, 26.09760863300005], [85.89741068700005, 26.098538288000043], [85.89992187800004, 26.098897047000037], [85.90055739900004, 26.09902511000007], [85.90055490600008, 26.09857376900004], [85.89969024500004, 26.09588350200005], [85.89923392500003, 26.090181147000067]]], [[[85.89635191800005, 26.100501635000057], [85.89209304800005, 26.09865687100006], [85.89055816000007, 26.09767083400004], [85.88874499000008, 26.096970312000053], [85.88696835900004, 26.09656293300003], [85.88443908800008, 26.089136735000068], [85.88569337400008, 26.09002928900003], [85.88903270400004, 26.090149980000035], [85.88819724200005, 26.08723378800005], [85.88702701300008, 26.087112605000073], [85.88659809900008, 26.086342762000072], [85.88581668100005, 26.086034807000033], [85.88475221800007, 26.08603953100004], [85.88443629400007, 26.085846865000065], [85.88520812000007, 26.084399249000057], [85.88494994600006, 26.08286150500004], [85.88518993400004, 26.081037208000055], [85.88464364100008, 26.078895922000072], [85.88346030000008, 26.07723591100006], [85.88308962300005, 26.074290532000077], [85.88279834200006, 26.07310492000005], [85.88204914100004, 26.07224622900003], [85.88057235200006, 26.072703929000056], [85.88081466600005, 26.07129488700008], [85.88144687300007, 26.069911097000045], [85.88267843900007, 26.068466111000077], [85.88511371000004, 26.06599582000007], [85.88546251300005, 26.06490215100007], [85.88538721700007, 26.063909659000046], [85.88321119600005, 26.061613016000024], [85.88080817200006, 26.057972590000077], [85.88026409100007, 26.05621485300003], [85.87906133000007, 26.056472817000042], [85.87715438900005, 26.05680160600008], [85.87201455300004, 26.05995126600004], [85.86841, 26.06054441200007], [85.86700368200007, 26.062017136000065], [85.86258449900004, 26.06835411900005], [85.86074923800004, 26.069065977000037], [85.86101385000006, 26.065170119000072], [85.86044153700004, 26.063705823000078], [85.85202440300003, 26.06323123900006], [85.85082348200007, 26.062915746000044], [85.85067282200004, 26.06080884100004], [85.84967558200003, 26.05828566300005], [85.84819031500007, 26.058034590000034], [85.84394790700009, 26.057988986000055], [85.84253695600006, 26.05761114200004], [85.84224247200007, 26.055694317000075], [85.84096805700005, 26.055636366000044], [85.83986025000007, 26.05690899700005], [85.83781708500004, 26.058004965000066], [85.83733322700004, 26.060177714000076], [85.83599110900008, 26.060566791000042], [85.83658065300006, 26.064567441000065], [85.83800213900008, 26.066028379000045], [85.83850383000004, 26.067434345000038], [85.83843964600004, 26.06858095000007], [85.84050408700006, 26.071704484000065], [85.84149483500005, 26.071957678000047], [85.84340017100004, 26.071245822000037], [85.84545027000007, 26.071490133000054], [85.84715065900008, 26.071740350000027], [85.84821911000006, 26.07352306300004], [85.85062895000004, 26.076681203000078], [85.85203499200009, 26.07603898600007], [85.85550271300008, 26.076913605000072], [85.85887706900007, 26.074227665000024], [85.85987422100004, 26.07473794200007], [85.86165649900005, 26.077280235000046], [85.86306846700006, 26.077802244000054], [85.86329670700007, 26.081307929000047], [85.87573886800004, 26.081877276000057], [85.87729172200005, 26.081613340000047], [85.87786200800008, 26.082635226000036], [85.87857929700004, 26.085005972000033], [85.87865783900008, 26.086598739000067], [85.88092695100005, 26.087545513000066], [85.88106896100004, 26.087928523000073], [85.87880954800005, 26.08787523600006], [85.87955774000005, 26.089446989000066], [85.88088305200006, 26.090533294000068], [85.88254199900007, 26.09231771700007], [85.88354987900004, 26.09478187800005], [85.88423657800007, 26.096990215000062], [85.88655647300004, 26.09710182300006], [85.88658016500005, 26.097111823000034], [85.88759349200006, 26.09753952400007], [85.88854570300003, 26.10168267100005], [85.88997157800009, 26.101012955000044], [85.89047960400006, 26.099760636000042], [85.89082455600004, 26.100688776000027], [85.89114990800005, 26.101680174000023], [85.89168467300004, 26.102575914000056], [85.89239603300007, 26.102861535000045], [85.89293244500004, 26.103147963000026], [85.89355547900004, 26.103745452000055], [85.89456933500009, 26.10358293200005], [85.89509777600006, 26.103327897000042], [85.89676368400006, 26.10176339700007], [85.89635191800005, 26.100501635000057]]]]}}, {"type": "Feature", "properties": {"OBJECTID": 3601, "GPCODE": "92713", "GPNAME_1": "ARAILA", "DIST_CEN_C": "13", "BLK_NAME": "HANUMANNAGAR", "ST_NAME": "BIHAR", "ST_CODE_1": "10", "GPCODE2011": "95268", "REMARKS": "FINALIZED", "MAP_STATUS": "COMPLETED", "BLK_C_2001": "130010", "BLK_C_2011": "01190", "DIST_NAME": "DARBHANGA", "code2011": 16.0, "Shape_Leng": 0.1362617754, "Shape_Area": 0.00101111799, "Area": 11.2015}, "geometry": {"type": "MultiPolygon", "coordinates": [[[[85.76009175100006, 26.110380607000025], [85.76361726600004, 26.10839141400004], [85.76735791700008, 26.107610873000056], [85.76898496700005, 26.107031894000045], [85.77017726100007, 26.106499548000045], [85.77094634100007, 26.104091379000067], [85.77164381200004, 26.10356084700004], [85.77241937900004, 26.10260123000006], [85.77432706400003, 26.102210674000048], [85.77453128700006, 26.100932828000055], [85.77487875500003, 26.099275228000067], [85.77565489200003, 26.09958834400004], [85.77512992900006, 26.09061391000006], [85.77476433700008, 26.087104090000025], [85.77391163200008, 26.086403149000034], [85.77263994600008, 26.087044083000023], [85.77122870400007, 26.08775324000004], [85.76769218500004, 26.088212767000073], [85.76754275100006, 26.08604248300003], [85.76766804800008, 26.082720448000032], [85.76688046800007, 26.079785352000044], [85.76566677000005, 26.077677610000023], [85.76163476600004, 26.077886025000055], [85.76078240500004, 26.077248160000067], [85.75993256800007, 26.077187942000023], [85.75937172700003, 26.07808351600005], [85.75803325900006, 26.07942865800004], [85.75471377700006, 26.080338399000027], [85.75153854300004, 26.082262979000063], [85.75041503800009, 26.083674880000046], [85.74773214300006, 26.082999752000035], [85.74592129100006, 26.08209670900004], [85.74348448400008, 26.081613708000077], [85.74208150800007, 26.081929985000045], [85.74073508600009, 26.082625060000055], [85.73818644500005, 26.083888243000047], [85.73665727100007, 26.085111949000066], [85.73750772100004, 26.087713121000036], [85.73789809300007, 26.089043159000028], [85.73764765800007, 26.09013161300004], [85.73792663000006, 26.091100968000035], [85.73858979300007, 26.093138646000057], [85.73874192200003, 26.094853086000057], [85.73809083100008, 26.095744334000074], [85.73728724900008, 26.096013276000065], [85.73725539900005, 26.09677162400004], [85.73689082200008, 26.096836041000074], [85.73673379900004, 26.098763571000063], [85.73599462900006, 26.101079577000064], [85.73599367800006, 26.101081279000027], [85.73599463000005, 26.101082801000075], [85.73748818600006, 26.10346815400004], [85.73856616800003, 26.10547729700005], [85.73889877300007, 26.10731747500006], [85.73918642300004, 26.109162342000047], [85.73967508400005, 26.110063294000042], [85.74070161200007, 26.110479505000058], [85.74288082700008, 26.110426907000033], [85.74482930400006, 26.110172033000026], [85.74691489700007, 26.10923970700003], [85.74773291200006, 26.108812659000023], [85.74957981400007, 26.109367710000072], [85.75171230000007, 26.112395754000033], [85.75353410400004, 26.112917435000043], [85.75761739600006, 26.11270453000003], [85.76009175100006, 26.110380607000025]]]]}}, {"type": "Feature", "properties": {"OBJECTID": 3604, "GPCODE": "92714", "GPNAME_1": "DIHLAHI", "DIST_CEN_C": "13", "BLK_NAME": "HANUMANNAGAR", "ST_NAME": "BIHAR", "ST_CODE_1": "10", "GPCODE2011": "95269", "REMARKS": "FINALIZED", "MAP_STATUS": "COMPLETED", "BLK_C_2001": "130010", "BLK_C_2011": "01190", "DIST_NAME": "DARBHANGA", "code2011": 12.0, "Shape_Leng": 0.15655625299, "Shape_Area": 0.00105607671, "Area": 11.6999}, "geometry": {"type": "MultiPolygon", "coordinates": [[[[85.84447781700004, 26.114317775000075], [85.84554291800004, 26.11339729900004], [85.84695341300005, 26.112561003000053], [85.84843229100005, 26.11044740600005], [85.84963244200009, 26.109548810000035], [85.84941326000006, 26.10871936700005], [85.84848534900004, 26.107125607000057], [85.84896519500006, 26.104181125000025], [85.84999047000008, 26.103323973000045], [85.85011281400006, 26.099880045000077], [85.84619787400004, 26.095708212000034], [85.84666999000007, 26.09124296600004], [85.84881375700007, 26.08134615000006], [85.84852534700008, 26.07968657600003], [85.84964957300008, 26.078661984000064], [85.85062895000004, 26.076681203000078], [85.84821911000006, 26.07352306300004], [85.84715065900008, 26.071740350000027], [85.84545027000007, 26.071490133000054], [85.84340017100004, 26.071245822000037], [85.84149483500005, 26.071957678000047], [85.84050408700006, 26.071704484000065], [85.83843964600004, 26.06858095000007], [85.83850383000004, 26.067434345000038], [85.83800213900008, 26.066028379000045], [85.83658065300006, 26.064567441000065], [85.83599110900008, 26.060566791000042], [85.82936521100004, 26.060543878000033], [85.82794363700003, 26.059019609000075], [85.82519648300007, 26.061260048000065], [85.82647721500007, 26.063619740000036], [85.82571582200006, 26.06630350300003], [85.82481202100007, 26.069502294000074], [85.82425243000006, 26.072591445000057], [85.82413374100008, 26.07693343300008], [85.82308367900004, 26.078855628000042], [85.82098277200004, 26.083593574000076], [85.82206830100006, 26.08791717500003], [85.82571125100003, 26.09594936600007], [85.82807015000003, 26.102000917000055], [85.82964483400008, 26.10505885500004], [85.83205011400008, 26.105238704000044], [85.83383392300004, 26.10810629300005], [85.83609453400004, 26.10835437700007], [85.83802094400005, 26.110706785000048], [85.83943746800009, 26.111084652000045], [85.83995455100006, 26.115487167000026], [85.84046416400008, 26.11642377800007], [85.84109960800004, 26.116547573000048], [85.84138617100007, 26.116866822000077], [85.84025401800005, 26.117381352000052], [85.84040285600008, 26.11814797200003], [85.84110932100003, 26.118465494000077], [85.84118321900007, 26.119232434000025], [85.84181729000005, 26.118078987000047], [85.84307908900007, 26.11551949400007], [85.84447781700004, 26.114317775000075]]]]}}, {"type": "Feature", "properties": {"OBJECTID": 3621, "GPCODE": "92715", "GPNAME_1": "GODAI PATTI", "DIST_CEN_C": "13", "BLK_NAME": "HANUMANNAGAR", "ST_NAME": "BIHAR", "ST_CODE_1": "10", "GPCODE2011": "95270", "REMARKS": "FINALIZED", "MAP_STATUS": "COMPLETED", "BLK_C_2001": "130010", "BLK_C_2011": "01190", "DIST_NAME": "DARBHANGA", "code2011": 28.0, "Shape_Leng": 0.17480145241, "Shape_Area": 0.00124685957, "Area": 13.8175}, "geometry": {"type": "MultiPolygon", "coordinates": [[[[85.75937172700003, 26.07808351600005], [85.75993256800007, 26.077187942000023], [85.76078240500004, 26.077248160000067], [85.76163476600004, 26.077886025000055], [85.76566677000005, 26.077677610000023], [85.76629642900008, 26.076524522000057], [85.76664425700005, 26.074930151000046], [85.76826823700009, 26.073773514000038], [85.76889838800008, 26.072746806000055], [85.76896415300007, 26.071789774000024], [85.76775899900008, 26.07160454600006], [85.76750269200005, 26.06901051500006], [85.76735382200008, 26.066971197000044], [85.76805184900007, 26.065497452000045], [85.76882210500008, 26.063387111000054], [85.76895011600004, 26.060701320000078], [85.76911108600007, 26.059811745000047], [85.76847088900007, 26.058536841000034], [85.76891150400007, 26.056490797000038], [85.76587618200006, 26.057074860000057], [85.76442151200007, 26.05121306700005], [85.76224536500007, 26.050579949000053], [85.76139402900003, 26.050136224000028], [85.76073758800004, 26.045097472000066], [85.75989504900008, 26.042036043000053], [85.75964825000005, 26.040434795000067], [85.75858580700003, 26.039657813000076], [85.75723811900008, 26.03964673200005], [85.75586947100004, 26.039987766000024], [85.75431936600006, 26.040636749000043], [85.75196356500004, 26.041788521000058], [85.74864116900005, 26.04446656400006], [85.74778784800003, 26.04533460400006], [85.74748060100006, 26.04547307300004], [85.74717352100004, 26.045611466000025], [85.74644937800008, 26.045979935000048], [85.74529915300008, 26.04700207600007], [85.74517450200005, 26.04721429400007], [85.74455573200004, 26.04795047500005], [85.74403663400005, 26.048417995000023], [85.74351753400003, 26.048885515000052], [85.74252387000007, 26.049509174000036], [85.74194942400004, 26.049608963000026], [85.74132983000004, 26.049469550000026], [85.74076987000007, 26.049131549000037], [85.74046981300006, 26.04883839000007], [85.73995437700006, 26.047990338000034], [85.73943892300008, 26.047142251000025], [85.73854790500008, 26.04533323100003], [85.73778675500006, 26.04349695800005], [85.73713050300006, 26.04164706000006], [85.73669996800004, 26.04069290600006], [85.73626942200008, 26.03973867800005], [85.73574381300006, 26.038651392000077], [85.73501873700008, 26.037916257000063], [85.73415412300005, 26.037551413000074], [85.73331476500005, 26.03742115800003], [85.73157167700003, 26.03781506400003], [85.73064787700008, 26.038240062000057], [85.72992890700004, 26.038764145000073], [85.72918533100005, 26.039586064000048], [85.72888095200005, 26.04005568100007], [85.72870648100007, 26.040933849000055], [85.72860743700005, 26.041432369000063], [85.72857283900004, 26.041811507000034], [85.72840936900008, 26.04335512700004], [85.72836958900007, 26.04362148100006], [85.72830608600003, 26.045277897000062], [85.72798225400004, 26.046275523000077], [85.72744330400008, 26.046948393000037], [85.72705873100006, 26.047093080000025], [85.72629930600004, 26.04710265400007], [85.72305677700007, 26.046942468000054], [85.72148806800004, 26.04707895400003], [85.72020946300006, 26.047540106000042], [85.71973031900006, 26.048095571000033], [85.71952579200007, 26.048438678000025], [85.71941624500005, 26.048853982000026], [85.71946659900004, 26.049354939000068], [85.71981179600004, 26.04999110600005], [85.72014685100004, 26.05036091100004], [85.72179684600007, 26.051889799000037], [85.72302673800004, 26.052800638000065], [85.72396185800005, 26.053801931000066], [85.72422709600005, 26.05428008100006], [85.72421745900004, 26.05463666000003], [85.72356382100008, 26.055711287000065], [85.72291990100007, 26.056497], [85.72235132800006, 26.05769785700005], [85.72221681100007, 26.058099622000043], [85.72214730000007, 26.05864125100004], [85.72217244600006, 26.05883082400004], [85.72265771600007, 26.059579691000067], [85.72326778100006, 26.060188539000023], [85.72484784500006, 26.061500826000042], [85.72776813200005, 26.063940355000057], [85.72830335300006, 26.064623690000076], [85.72883859400008, 26.065307045000054], [85.72969429300008, 26.06669644300007], [85.72974460800003, 26.06705293400006], [85.72981117900008, 26.068799558000023], [85.72989182200007, 26.06958472100007], [85.72991730100006, 26.07009699100007], [85.73260296400008, 26.07025063900005], [85.73362135400004, 26.070016992000035], [85.73611873200008, 26.069724334000057], [85.74082528800005, 26.06954596500003], [85.74292807200004, 26.069304093000028], [85.74410687100004, 26.069169153000075], [85.74773216000006, 26.070444802000054], [85.74965512500006, 26.071857910000062], [85.75073170000007, 26.075879830000076], [85.75159019400007, 26.077984395000044], [85.75471377700006, 26.080338399000027], [85.75803325900006, 26.07942865800004], [85.75937172700003, 26.07808351600005]]]]}}, {"type": "Feature", "properties": {"OBJECTID": 3631, "GPCODE": "92718", "GPNAME_1": "MORO", "DIST_CEN_C": "13", "BLK_NAME": "HANUMANNAGAR", "ST_NAME": "BIHAR", "ST_CODE_1": "10", "GPCODE2011": "95273", "REMARKS": "FINALIZED", "MAP_STATUS": "COMPLETED", "BLK_C_2001": "130010", "BLK_C_2011": "01190", "DIST_NAME": "DARBHANGA", "code2011": 20.0, "Shape_Leng": 0.14872750266, "Shape_Area": 0.00068313914, "Area": 7.56897}, "geometry": {"type": "MultiPolygon", "coordinates": [[[[85.73599462900006, 26.101079577000064], [85.73673379900004, 26.098763571000063], [85.73689082200008, 26.096836041000074], [85.73725539900005, 26.09677162400004], [85.73728724900008, 26.096013276000065], [85.73809083100008, 26.095744334000074], [85.73874192200003, 26.094853086000057], [85.73858979300007, 26.093138646000057], [85.73792663000006, 26.091100968000035], [85.73764765800007, 26.09013161300004], [85.73789809300007, 26.089043159000028], [85.73750772100004, 26.087713121000036], [85.73665727100007, 26.085111949000066], [85.73818644500005, 26.083888243000047], [85.74073508600009, 26.082625060000055], [85.74208150800007, 26.081929985000045], [85.74348448400008, 26.081613708000077], [85.74340020300008, 26.079375544000072], [85.74288696800005, 26.07855144900003], [85.74186487500003, 26.077927653000074], [85.74211464000007, 26.076708281000037], [85.74269801100007, 26.076408376000074], [85.74543300100004, 26.076728485000046], [85.74542810200006, 26.075577690000046], [85.74634754900006, 26.07460247800003], [85.74705879100009, 26.07433743400003], [85.74756837000007, 26.074532349000037], [85.74773172100004, 26.07480364500003], [85.74830386900004, 26.07619759100004], [85.74889559600007, 26.076585676000036], [85.75003115100003, 26.07683898600004], [85.75025730900006, 26.080669809000028], [85.75188894900003, 26.081241791000025], [85.75153854300004, 26.082262979000063], [85.75471377700006, 26.080338399000027], [85.75159019400007, 26.077984395000044], [85.75073170000007, 26.075879830000076], [85.74965512500006, 26.071857910000062], [85.74773216000006, 26.070444802000054], [85.74410687100004, 26.069169153000075], [85.74292807200004, 26.069304093000028], [85.74082528800005, 26.06954596500003], [85.73611873200008, 26.069724334000057], [85.73362135400004, 26.070016992000035], [85.73260296400008, 26.07025063900005], [85.72991730100006, 26.07009699100007], [85.72994278000004, 26.070609253000043], [85.72978800400006, 26.070848523000052], [85.72906368600007, 26.07106572400005], [85.72806933500004, 26.07115666800007], [85.72688480900007, 26.070904815000063], [85.72374020000007, 26.069173986000067], [85.72085568600005, 26.067646051000054], [85.71999091100008, 26.06725848700006], [85.71982097100005, 26.06729013300003], [85.71970624100004, 26.067556559000025], [85.71971665100006, 26.068016898000053], [85.71999246900003, 26.069230766000032], [85.72039375900005, 26.071080840000036], [85.72080505500008, 26.072940027000072], [85.72089056600004, 26.073589853000044], [85.72095660000008, 26.074826418000043], [85.72066817500007, 26.076595815000076], [85.72023986600004, 26.078383321000047], [85.71982661300007, 26.08026556300007], [85.71956807400005, 26.081818318000046], [85.71936381900008, 26.082576637000045], [85.71893480900007, 26.08360596400007], [85.71858541800003, 26.08411162400006], [85.71753205100003, 26.085570141000062], [85.71726741500004, 26.08586811200007], [85.71666087500006, 26.08667637900004], [85.71605432100006, 26.087484662000065], [85.71566975400003, 26.087918224000077], [85.71493562000006, 26.088591085000076], [85.71372387600007, 26.089411889000075], [85.71350664000005, 26.090008365000074], [85.71337627300005, 26.09118223100006], [85.71334764700003, 26.091511781000065], [85.71322490900008, 26.09271492000005], [85.71641099500005, 26.093875441000023], [85.71826600600008, 26.094036413000026], [85.71993705600005, 26.09445067100006], [85.72091567500007, 26.095453864000035], [85.72190075600008, 26.098045641000056], [85.72241276200003, 26.098590039000044], [85.72352916600005, 26.099006102000033], [85.72589293900006, 26.09891262000008], [85.73025717500008, 26.099069606000057], [85.73427472500003, 26.099999429000036], [85.73599367800006, 26.101081279000027], [85.73599462900006, 26.101079577000064]]]]}}, {"type": "Feature", "properties": {"OBJECTID": 3637, "GPCODE": "92723", "GPNAME_1": "RAMPUR DIH", "DIST_CEN_C": "13", "BLK_NAME": "HANUMANNAGAR", "ST_NAME": "BIHAR", "ST_CODE_1": "10", "GPCODE2011": "95278", "REMARKS": "FINALIZED", "MAP_STATUS": "COMPLETED", "BLK_C_2001": "130010", "BLK_C_2011": "01190", "DIST_NAME": "DARBHANGA", "code2011": 33.0, "Shape_Leng": 0.28360349292, "Shape_Area": 0.00188557241, "Area": 20.886}, "geometry": {"type": "MultiPolygon", "coordinates": [[[[85.82852945900004, 26.132290067000042], [85.82844596900009, 26.129551095000068], [85.82653042100009, 26.128407890000062], [85.82630666400007, 26.126621727000042], [85.82460568300007, 26.126375709000058], [85.82403316300008, 26.12484359900003], [85.82225901400005, 26.12395709200007], [85.82203938500004, 26.121976774000075], [85.82146480800003, 26.119997823000062], [85.82082647400006, 26.120320778000064], [85.81977287800004, 26.121602198000062], [85.81941547800005, 26.121093590000044], [85.81905206700003, 26.119366573000036], [85.81826145600007, 26.116111293000074], [85.81763050700005, 26.11382571400003], [85.81780972400009, 26.110575677000043], [85.82048392000007, 26.10743758800004], [85.82175756800007, 26.107238506000044], [85.82401730500004, 26.10729271100007], [85.82529133300005, 26.108185728000024], [85.82593233000006, 26.109428769000033], [85.82611569400007, 26.110127548000037], [85.82696694300006, 26.110412933000077], [85.82813163900005, 26.11040827200003], [85.82933901500007, 26.110949551000033], [85.83026198500005, 26.111582105000025], [85.83083868000006, 26.113985221000064], [85.83169363100006, 26.115001756000026], [85.83272596500007, 26.115507569000044], [85.83385905700004, 26.116175333000058], [85.83450637500005, 26.117675528000063], [85.83530691300007, 26.11880962600003], [85.83813615100007, 26.11873488300006], [85.83920411900004, 26.11936683700003], [85.84040285600008, 26.11814797200003], [85.84025401800005, 26.117381352000052], [85.84138617100007, 26.116866822000077], [85.84109960800004, 26.116547573000048], [85.84046416400008, 26.11642377800007], [85.83995455100006, 26.115487167000026], [85.83943746800009, 26.111084652000045], [85.83802094400005, 26.110706785000048], [85.83609453400004, 26.10835437700007], [85.83383392300004, 26.10810629300005], [85.83205011400008, 26.105238704000044], [85.82964483400008, 26.10505885500004], [85.82807015000003, 26.102000917000055], [85.82571125100003, 26.09594936600007], [85.82206830100006, 26.08791717500003], [85.82098277200004, 26.083593574000076], [85.81920736400008, 26.082323408000036], [85.81729641500004, 26.08194732800007], [85.81481923900003, 26.081252961000075], [85.81079335200008, 26.081715431000077], [85.81076948900005, 26.084048780000046], [85.80985388500005, 26.08488272200003], [85.80688380000004, 26.084578287000056], [85.80186742100005, 26.085937901000023], [85.80033677300008, 26.087803122000025], [85.79828961100003, 26.090351731000055], [85.79709073300006, 26.09157029800008], [85.79498317500008, 26.09406944400007], [85.79281037500004, 26.094384484000045], [85.79026371400005, 26.093820934000064], [85.78857930300006, 26.094914837000033], [85.78554332500005, 26.096650139000076], [85.78285983600006, 26.096786399000052], [85.77932277700006, 26.09827066200006], [85.77565489200003, 26.09958834400004], [85.77679511000008, 26.101944441000057], [85.77659145500007, 26.10334877300005], [85.77567721200006, 26.104566092000027], [85.77646064700008, 26.10539360200005], [85.77957731500004, 26.107038514000067], [85.77979647700005, 26.109077554000066], [85.78260549500004, 26.11562460600004], [85.78471671500006, 26.11926783900003], [85.78663867800003, 26.121941396000068], [85.78827195700006, 26.12378560700006], [85.79589891700005, 26.12653239900004], [85.79801234900003, 26.127314152000054], [85.79954464100007, 26.12783188700007], [85.80173136200006, 26.128220680000027], [85.80304496000008, 26.129005410000048], [85.80399733200005, 26.130576759000064], [85.80546381400006, 26.13195661900005], [85.80880416400004, 26.132070001000045], [85.80895417900007, 26.132073990000038], [85.81193208700006, 26.130613723000067], [85.81274163900008, 26.130529333000027], [85.81390105500003, 26.130412014000058], [85.81535873300004, 26.13099746900008], [85.81581357400006, 26.133035576000054], [85.81653926400008, 26.136291037000035], [85.81673924400008, 26.136382911000055], [85.82711991100007, 26.13338337600004], [85.82824735900004, 26.132868855000027], [85.82852945900004, 26.132290067000042]]], [[[85.83179308600006, 26.14211068700007], [85.83056954000006, 26.13937622800006], [85.82886133100004, 26.137722336000024], [85.82921126500008, 26.136696507000067], [85.82723872600008, 26.137614838000047], [85.82646795100004, 26.13906782500004], [85.82781444000005, 26.13937825800008], [85.82855537600005, 26.139560404000065], [85.82889251100005, 26.13998771100006], [85.82934781100005, 26.140049051000062], [85.83015205300006, 26.13988338300004], [85.83002544000004, 26.140565369000058], [85.82979228000005, 26.142962700000055], [85.83126514900005, 26.143525344000068], [85.83154746800005, 26.143998058000022], [85.83172673900003, 26.144850353000038], [85.83260569300006, 26.14664293100003], [85.83362993100008, 26.148466529000075], [85.83369263400004, 26.149016868000047], [85.83346407700003, 26.149320123000052], [85.83350296600008, 26.15009167000005], [85.83392498400008, 26.150482646000057], [85.83437185400004, 26.152845610000043], [85.83465290100008, 26.15306554600005], [85.83592838100003, 26.153110007000066], [85.83695158300003, 26.148741879000056], [85.83838154700004, 26.147698003000073], [85.83848123700005, 26.146655100000032], [85.83774368500008, 26.14615266100003], [85.83554060300008, 26.144573152000078], [85.83295481100004, 26.14445274700006], [85.83179308600006, 26.14211068700007]]]]}}, {"type": "Feature", "properties": {"OBJECTID": 3641, "GPCODE": "92726", "GPNAME_1": "THALWARA", "DIST_CEN_C": "13", "BLK_NAME": "HANUMANNAGAR", "ST_NAME": "BIHAR", "ST_CODE_1": "10", "GPCODE2011": "95281", "REMARKS": "FINALIZED", "MAP_STATUS": "COMPLETED", "BLK_C_2001": "130010", "BLK_C_2011": "01190", "DIST_NAME": "DARBHANGA", "code2011": 13.0, "Shape_Leng": 0.18381831382, "Shape_Area": 0.00045251276, "Area": 5.01345}, "geometry": {"type": "MultiPolygon", "coordinates": [[[[85.89396879300006, 26.090701197000044], [85.89567864900005, 26.089872168000056], [85.89731186900008, 26.089675343000067], [85.89923392500003, 26.090181147000067], [85.90064974600006, 26.089529379000055], [85.90221512800008, 26.08971643900003], [85.90419964000006, 26.089770590000057], [85.90376984600005, 26.088874499000042], [85.90270065500005, 26.088048924000077], [85.90262218800007, 26.08651038800008], [85.90135890800008, 26.08583458800007], [85.90044790700006, 26.081957558000056], [85.89965692500004, 26.07990779800008], [85.89861221400008, 26.077155063000077], [85.89613662000005, 26.077739265000048], [85.89372469700004, 26.071689148000075], [85.89254998800004, 26.071626739000067], [85.89186508000006, 26.06973884100006], [85.89170805100008, 26.066598472000067], [85.89149251700007, 26.065570492000063], [85.88988617900003, 26.064228228000047], [85.88935042400004, 26.063111426000034], [85.88848778300007, 26.061607912000056], [85.88897823500008, 26.059904311000025], [85.89004272400007, 26.059931223000035], [85.89074842300005, 26.059224028000074], [85.89226972500006, 26.058734428000037], [85.89072881300007, 26.055631781000045], [85.88990606000004, 26.055026160000068], [85.88916180500007, 26.05506108900005], [85.88778421700005, 26.056254127000045], [85.88738678600004, 26.054843247000065], [85.88667364700007, 26.05417398900005], [85.88468531500007, 26.054214341000034], [85.88379459700008, 26.05396095900005], [85.88359963100004, 26.05302315600005], [85.88204407400008, 26.052709591000053], [85.88126640400003, 26.053033390000053], [85.88046299600006, 26.054169621000028], [85.88026409100007, 26.05621485300003], [85.88080817200006, 26.057972590000077], [85.88321119600005, 26.061613016000024], [85.88538721700007, 26.063909659000046], [85.88546251300005, 26.06490215100007], [85.88511371000004, 26.06599582000007], [85.88267843900007, 26.068466111000077], [85.88144687300007, 26.069911097000045], [85.88081466600005, 26.07129488700008], [85.88057235200006, 26.072703929000056], [85.88204914100004, 26.07224622900003], [85.88279834200006, 26.07310492000005], [85.88308962300005, 26.074290532000077], [85.88346030000008, 26.07723591100006], [85.88464364100008, 26.078895922000072], [85.88518993400004, 26.081037208000055], [85.88494994600006, 26.08286150500004], [85.88520812000007, 26.084399249000057], [85.88443629400007, 26.085846865000065], [85.88475221800007, 26.08603953100004], [85.88581668100005, 26.086034807000033], [85.88659809900008, 26.086342762000072], [85.88702701300008, 26.087112605000073], [85.88819724200005, 26.08723378800005], [85.88903270400004, 26.090149980000035], [85.88569337400008, 26.09002928900003], [85.88443908800008, 26.089136735000068], [85.88696835900004, 26.09656293300003], [85.88874499000008, 26.096970312000053], [85.89055816000007, 26.09767083400004], [85.89209304800005, 26.09865687100006], [85.89635191800005, 26.100501635000057], [85.89741068700005, 26.098538288000043], [85.89740559400008, 26.09760863300005], [85.89714738500004, 26.096102501000075], [85.89585480900007, 26.093734444000063], [85.89396879300006, 26.090701197000044]], [[85.88799107900007, 26.076881942000057], [85.88951501300005, 26.07591395700007], [85.89075675400005, 26.07635071900006], [85.89126572400005, 26.078045367000072], [85.89211780700003, 26.078492880000056], [85.89261942500008, 26.078842592000058], [85.89173834500008, 26.080385445000047], [85.89202986800007, 26.081602701000065], [85.89299758100003, 26.083105707000072], [85.89289863900007, 26.084193712000058], [85.89169712000006, 26.08564324100007], [85.89144145800003, 26.08458834000004], [85.89055074800007, 26.08346857600003], [85.88933711100003, 26.082706742000028], [85.88820250900005, 26.082684676000042], [85.88745193800008, 26.081595880000066], [85.88733524700007, 26.08034632700003], [85.88797090900005, 26.079607922000037], [85.88799107900007, 26.076881942000057]], [[85.88846797200006, 26.07267831100006], [85.88871160100007, 26.07152185800004], [85.88983942000004, 26.070329980000054], [85.89080274100007, 26.071034240000074], [85.89151717200008, 26.07192468200003], [85.89187600300005, 26.07266319100006], [85.89170302500008, 26.073015929000064], [85.89102896600008, 26.073113676000048], [85.88846797200006, 26.07267831100006]]]]}}, {"type": "Feature", "properties": {"OBJECTID": 3649, "GPCODE": "92717", "GPNAME_1": "GORHIYARI \u00a0\u00a0\u00a0\u00a0\u00a0", "DIST_CEN_C": "13", "BLK_NAME": "HANUMANNAGAR", "ST_NAME": "BIHAR", "ST_CODE_1": "10", "GPCODE2011": "95272", "REMARKS": "FINALIZED", "MAP_STATUS": "COMPLETED", "BLK_C_2001": "130010", "BLK_C_2011": "01190", "DIST_NAME": "DARBHANGA", "code2011": 33.0, "Shape_Leng": 0.31839944989, "Shape_Area": 0.00102146771, "Area": 11.3117}, "geometry": {"type": "MultiPolygon", "coordinates": [[[[85.84447781700004, 26.114317775000075], [85.84307908900007, 26.11551949400007], [85.84181729000005, 26.118078987000047], [85.84118321900007, 26.119232434000025], [85.84110932100003, 26.118465494000077], [85.84040285600008, 26.11814797200003], [85.83920411900004, 26.11936683700003], [85.83907345100005, 26.121222244000023], [85.83621928300005, 26.12229891800007], [85.83629400500007, 26.123255398000026], [85.83750080200008, 26.12363404000007], [85.83955804400006, 26.124135610000053], [85.84048404900005, 26.12535033000006], [85.84168647600006, 26.125837286000035], [85.84204216900008, 26.125980301000027], [85.84268204700004, 26.12597760400007], [85.84395341000004, 26.125272880000068], [85.84581351600008, 26.12632128200005], [85.84551362400003, 26.123384534000024], [85.84827326600004, 26.123373169000047], [85.84912380500003, 26.123495958000035], [85.84969251200005, 26.122275143000024], [85.85018285200005, 26.12137499800008], [85.85125065000005, 26.121948229000054], [85.85471283100009, 26.12052565600004], [85.85485087100005, 26.12014151300008], [85.85251388800003, 26.119704501000058], [85.85194446400004, 26.11881786500004], [85.85080529300006, 26.117978653000023], [85.85078470000008, 26.113953174000073], [85.85392523600007, 26.112238648000073], [85.85385993400007, 26.113132531000076], [85.85675263700006, 26.112799934000066], [85.85674072300003, 26.110502929000063], [85.85587443300005, 26.10732041600005], [85.85529743900008, 26.104962581000052], [85.85444318200007, 26.10311583400005], [85.85190193300008, 26.103699550000044], [85.84999047000008, 26.103323973000045], [85.84896519500006, 26.104181125000025], [85.84848534900004, 26.107125607000057], [85.84941326000006, 26.10871936700005], [85.84963244200009, 26.109548810000035], [85.84843229100005, 26.11044740600005], [85.84695341300005, 26.112561003000053], [85.84554291800004, 26.11339729900004], [85.84447781700004, 26.114317775000075]], [[85.85024658800006, 26.12015175500005], [85.84487096100008, 26.12087797600003], [85.84457417200008, 26.117557717000068], [85.84952440800004, 26.116770020000047], [85.84960214600005, 26.118304039000066], [85.85024658800006, 26.12015175500005]]], [[[85.85423084200005, 26.151161589000026], [85.85504780600007, 26.151510164000058], [85.85528811700004, 26.153512927000065], [85.85670099200007, 26.154016914000067], [85.86002671200004, 26.15406605900006], [85.86093690000007, 26.152148710000063], [85.86050386400007, 26.15062062000004], [85.86263637900004, 26.152971851000075], [85.86476461600006, 26.154492665000078], [85.86755751000004, 26.15400236100004], [85.86928489500008, 26.153466925000032], [85.87166135700005, 26.15272557800006], [85.87447477700005, 26.151422789000037], [85.87618904800007, 26.152173508000033], [85.87764550400004, 26.151472144000024], [85.87582005000007, 26.14863695200006], [85.87525648100006, 26.147976035000056], [85.87282772400005, 26.14449353400005], [85.87106770400004, 26.14356238700003], [85.87283286400003, 26.13887489600006], [85.87279914500004, 26.136284587000034], [85.87066836700006, 26.134249477000026], [85.87011598600003, 26.132852754000055], [85.86949727700005, 26.129317339000067], [85.86913791800004, 26.12848850900008], [85.86977104000005, 26.128133787000024], [85.87149818300009, 26.12761635700008], [85.87213229500009, 26.12653054900005], [85.87296675500005, 26.126441131000036], [85.87324714400006, 26.126503127000035], [85.87359587100008, 26.12628044400003], [85.87339748700003, 26.12563145000007], [85.87321607800004, 26.12442276400003], [85.87218776700007, 26.12378641400005], [85.87080474400005, 26.123187622000046], [85.87002849400005, 26.122933716000034], [85.86938789500005, 26.122810139000023], [85.86936464500008, 26.122187419000056], [85.86752203800006, 26.123553737000066], [85.86636185200007, 26.124452246000033], [85.86532178700008, 26.12536381500007], [85.86497194800006, 26.125396855000076], [85.86483068100006, 26.125144737000028], [85.86524585900008, 26.124226837000037], [85.86503516700003, 26.124096930000064], [85.86437180500008, 26.12438850500007], [85.86377580500005, 26.12419703000006], [85.86332128100008, 26.124266686000055], [85.86262805400008, 26.12556478500005], [85.86196481000007, 26.125883505000047], [85.86161322500004, 26.125569131000077], [85.86160233000004, 26.123479727000074], [85.86004859500008, 26.125616405000073], [85.85941006800005, 26.125876274000063], [85.85799680800005, 26.12620270700006], [85.85771719000007, 26.127228279000065], [85.85665493800008, 26.126781480000034], [85.85678966300009, 26.12576098100004], [85.85615369200008, 26.125569597000037], [85.85409992600006, 26.125772265000023], [85.85176330600007, 26.12539847800008], [85.85119570100005, 26.124886315000026], [85.84892358000008, 26.12541483900003], [85.84772654500006, 26.126954194000064], [85.84689522600007, 26.130599548000077], [85.84718377300004, 26.131297853000035], [85.84831381900005, 26.130336456000066], [85.84950818600004, 26.129243832000043], [85.85092994800004, 26.129621585000052], [85.85100755700006, 26.13109243300005], [85.85355801000009, 26.13120814900003], [85.85539654100006, 26.130947741000057], [85.85519282900003, 26.132162605000076], [85.85108666600007, 26.132883810000067], [85.85031561200003, 26.134610946000066], [85.84962218500004, 26.13589544200005], [85.85096102200004, 26.13665710400005], [85.85118036900008, 26.137486615000057], [85.85098672100008, 26.140677992000064], [85.85148993600006, 26.14227354700006], [85.85085778400008, 26.143810588000065], [85.84964940600008, 26.14414950400004], [85.84851902800006, 26.144091066000044], [85.84744972800007, 26.143260636000036], [85.84688375100006, 26.143073404000063], [85.84574935200004, 26.143204481000055], [85.84497399900005, 26.143144499000073], [85.84468278800006, 26.141931725000063], [85.84453502900004, 26.140397963000055], [85.84616004900005, 26.140391217000058], [85.84587490300004, 26.139372480000077], [85.84495383800004, 26.139182249000044], [85.84472653900008, 26.13675517300004], [85.84309824400003, 26.137082337000038], [85.84182194700008, 26.13683035500003], [85.84053918100005, 26.135301149000043], [85.84031828900004, 26.133131340000034], [85.83806658700007, 26.135758104000047], [85.83708012700004, 26.13646610400008], [85.83623166800004, 26.13678998000006], [85.83481082400004, 26.136601721000034], [85.83460074300007, 26.136602581000034], [85.83296612900006, 26.136681381000074], [85.82921126500008, 26.136696507000067], [85.82886133100004, 26.137722336000024], [85.83056954000006, 26.13937622800006], [85.83179308600006, 26.14211068700007], [85.83295481100004, 26.14445274700006], [85.83554060300008, 26.144573152000078], [85.83774368500008, 26.14615266100003], [85.83811482100003, 26.143375715000047], [85.83923257800006, 26.142933388000074], [85.83999793600003, 26.14299349600003], [85.84112130800008, 26.143647757000053], [85.84096552700004, 26.14547157100003], [85.84076075000007, 26.14751228700004], [85.84190588100006, 26.149484234000056], [85.84283226700006, 26.151714326000047], [85.84327052500004, 26.15432552900006], [85.84648409900007, 26.15493957900003], [85.847049, 26.155880427000056], [85.84987624000007, 26.15523687600006], [85.85130253600005, 26.154472818000045], [85.85161785600008, 26.154534648000038], [85.85197021700003, 26.154975420000028], [85.85239010900005, 26.15494208700005], [85.85375216500006, 26.15434070500004], [85.85423084200005, 26.151161589000026]]]]}}, {"type": "Feature", "properties": {"OBJECTID": 3655, "GPCODE": "92721", "GPNAME_1": "PANCHOBH \u00a0\u00a0\u00a0", "DIST_CEN_C": "13", "BLK_NAME": "HANUMANNAGAR", "ST_NAME": "BIHAR", "ST_CODE_1": "10", "GPCODE2011": "95276", "REMARKS": "FINALIZED", "MAP_STATUS": "COMPLETED", "BLK_C_2001": "130010", "BLK_C_2011": "01190", "DIST_NAME": "DARBHANGA", "code2011": 22.0, "Shape_Leng": 0.1854582945, "Shape_Area": 0.00058765234, "Area": 6.50825}, "geometry": {"type": "MultiPolygon", "coordinates": [[[[85.85085778400008, 26.143810588000065], [85.85148993600006, 26.14227354700006], [85.85098672100008, 26.140677992000064], [85.85118036900008, 26.137486615000057], [85.85096102200004, 26.13665710400005], [85.84962218500004, 26.13589544200005], [85.85031561200003, 26.134610946000066], [85.85108666600007, 26.132883810000067], [85.85519282900003, 26.132162605000076], [85.85539654100006, 26.130947741000057], [85.85355801000009, 26.13120814900003], [85.85100755700006, 26.13109243300005], [85.85092994800004, 26.129621585000052], [85.84950818600004, 26.129243832000043], [85.84831381900005, 26.130336456000066], [85.84718377300004, 26.131297853000035], [85.84689522600007, 26.130599548000077], [85.84772654500006, 26.126954194000064], [85.84892358000008, 26.12541483900003], [85.85119570100005, 26.124886315000026], [85.85069354500007, 26.12348496800007], [85.84969251200005, 26.122275143000024], [85.84912380500003, 26.123495958000035], [85.84827326600004, 26.123373169000047], [85.84551362400003, 26.123384534000024], [85.84581351600008, 26.12632128200005], [85.84395341000004, 26.125272880000068], [85.84268204700004, 26.12597760400007], [85.84204216900008, 26.125980301000027], [85.84168647600006, 26.125837286000035], [85.84048404900005, 26.12535033000006], [85.83955804400006, 26.124135610000053], [85.83750080200008, 26.12363404000007], [85.83629400500007, 26.123255398000026], [85.83621928300005, 26.12229891800007], [85.83907345100005, 26.121222244000023], [85.83920411900004, 26.11936683700003], [85.83813615100007, 26.11873488300006], [85.83530691300007, 26.11880962600003], [85.83450637500005, 26.117675528000063], [85.83385905700004, 26.116175333000058], [85.83272596500007, 26.115507569000044], [85.83169363100006, 26.115001756000026], [85.83083868000006, 26.113985221000064], [85.83026198500005, 26.111582105000025], [85.82933901500007, 26.110949551000033], [85.82813163900005, 26.11040827200003], [85.82696694300006, 26.110412933000077], [85.82611569400007, 26.110127548000037], [85.82593233000006, 26.109428769000033], [85.82529133300005, 26.108185728000024], [85.82401730500004, 26.10729271100007], [85.82175756800007, 26.107238506000044], [85.82048392000007, 26.10743758800004], [85.81780972400009, 26.110575677000043], [85.81763050700005, 26.11382571400003], [85.81826145600007, 26.116111293000074], [85.81905206700003, 26.119366573000036], [85.81941547800005, 26.121093590000044], [85.81977287800004, 26.121602198000062], [85.82082647400006, 26.120320778000064], [85.82146480800003, 26.119997823000062], [85.82203938500004, 26.121976774000075], [85.82225901400005, 26.12395709200007], [85.82403316300008, 26.12484359900003], [85.82460568300007, 26.126375709000058], [85.82630666400007, 26.126621727000042], [85.82653042100009, 26.128407890000062], [85.82844596900009, 26.129551095000068], [85.82852945900004, 26.132290067000042], [85.82824735900004, 26.132868855000027], [85.82711991100007, 26.13338337600004], [85.81673924400008, 26.136382911000055], [85.81930544800008, 26.13756181800005], [85.81980291800005, 26.138069892000033], [85.82200755300005, 26.139017882000076], [85.82646795100004, 26.13906782500004], [85.82723872600008, 26.137614838000047], [85.82921126500008, 26.136696507000067], [85.83296612900006, 26.136681381000074], [85.83460074300007, 26.136602581000034], [85.83481082400004, 26.136601721000034], [85.83623166800004, 26.13678998000006], [85.83708012700004, 26.13646610400008], [85.83806658700007, 26.135758104000047], [85.84031828900004, 26.133131340000034], [85.84053918100005, 26.135301149000043], [85.84182194700008, 26.13683035500003], [85.84309824400003, 26.137082337000038], [85.84472653900008, 26.13675517300004], [85.84495383800004, 26.139182249000044], [85.84587490300004, 26.139372480000077], [85.84616004900005, 26.140391217000058], [85.84453502900004, 26.140397963000055], [85.84468278800006, 26.141931725000063], [85.84497399900005, 26.143144499000073], [85.84574935200004, 26.143204481000055], [85.84688375100006, 26.143073404000063], [85.84744972800007, 26.143260636000036], [85.84851902800006, 26.144091066000044], [85.84964940600008, 26.14414950400004], [85.85085778400008, 26.143810588000065]]]]}}]}