{"type": "FeatureCollection", "features": [{"type": "Feature", "properties": {"OBJECTID": 2773, "GPCODE": "92899", "GPNAME_1": "NARAWAT", "DIST_CEN_C": "35", "BLK_NAME": "ATRI", "ST_NAME": "BIHAR", "ST_CODE_1": "10", "GPCODE2011": "95454", "REMARKS": "FINALIZED", "MAP_STATUS": "COMPLETED", "BLK_C_2001": "350007", "BLK_C_2011": "01493", "DIST_NAME": "GAYA", "code2011": 23.0, "Shape_Leng": 0.21691425333, "Shape_Area": 0.00152501745, "Area": 17.0687}, "geometry": {"type": "MultiPolygon", "coordinates": [[[[85.19526819500004, 24.913930522000044], [85.19471475900008, 24.911908124000036], [85.19388419500007, 24.90978634100003], [85.19394419700006, 24.908472806000077], [85.19399909200007, 24.907407615000068], [85.19269261900007, 24.907064001000037], [85.19269292300004, 24.90643204500003], [85.19298557800005, 24.904996824000023], [85.19271415600008, 24.903200206000065], [85.19198749000003, 24.901340222000044], [85.19243846800003, 24.90017124800005], [85.19292427400006, 24.898280164000028], [85.19297417000007, 24.89741347300003], [85.19112335100004, 24.89717806300007], [85.19140626200004, 24.89544939500007], [85.19183815500008, 24.892502023000077], [85.19214104200006, 24.890376097000058], [85.19215098000006, 24.890367103000074], [85.19288362200007, 24.889658651000047], [85.19364102800006, 24.889108271000055], [85.19473976200004, 24.888657317000025], [85.19529913200006, 24.88838212400003], [85.19562086800005, 24.888106910000033], [85.19560144000008, 24.887222187000077], [85.19511167300004, 24.887023380000073], [85.19464164000004, 24.886793047000026], [85.19453800800005, 24.88611594200006], [85.19462297500007, 24.884184065000056], [85.19462349500003, 24.883100701000046], [85.19348045800007, 24.882946805000074], [85.19218900100003, 24.882995952000044], [85.18934847900005, 24.88322953900007], [85.18532040100007, 24.88353474200005], [85.18129718900008, 24.884038566000072], [85.17946109400003, 24.884425818000068], [85.17762027700007, 24.884533343000044], [85.17621988800005, 24.884613829000045], [85.17550741800005, 24.884338136000054], [85.17471122100005, 24.883588428000053], [85.17234236300004, 24.881366442000058], [85.17121909900004, 24.881383893000077], [85.17055104300005, 24.881523445000028], [85.16926938800003, 24.881617581000057], [85.16802738100006, 24.881562708000047], [85.16733964100007, 24.881408855000075], [85.16705303900005, 24.880916666000076], [85.16674163600004, 24.880415447000075], [85.16687066300005, 24.87986485400006], [85.16670788800008, 24.879079352000076], [85.16635686300003, 24.878609675000064], [85.16549606300003, 24.878320384000062], [85.16549654200008, 24.87767939200006], [85.16591233000008, 24.87735908600007], [85.16591265800008, 24.87695291500006], [85.16514612300006, 24.87634311200003], [85.16524543800006, 24.875819490000026], [85.16562688900007, 24.87512005900004], [85.16566156900006, 24.87508849900007], [85.16338562200008, 24.874798268000063], [85.16177289000007, 24.874386618000074], [85.16008600900005, 24.87393873800005], [85.15869545400005, 24.874077790000058], [85.15753256200009, 24.874316360000023], [85.15633518900006, 24.874211726000055], [85.15541483900006, 24.874364614000058], [85.15353882500006, 24.87525264900006], [85.15275197300008, 24.875491434000025], [85.15196530200006, 24.875319352000076], [85.15057489100008, 24.875422214000025], [85.14769021700005, 24.875420314000053], [85.14682509200009, 24.874426620000065], [85.14615240700005, 24.874155364000046], [85.14468786700007, 24.87415433700005], [85.14394035700008, 24.874528473000055], [85.14382558800008, 24.875656810000066], [85.14399311500006, 24.87649652500005], [85.14354153500005, 24.878103132000035], [85.14275394100008, 24.879027909000058], [85.14215502700006, 24.87923513800007], [85.14144201300007, 24.879780744000072], [85.14095141300004, 24.88063804500007], [85.14117804000006, 24.88183441600006], [85.14109803100007, 24.88275966300006], [85.14051799500004, 24.883968982000056], [85.13972977200007, 24.885611374000064], [85.14025365500004, 24.88632951200003], [85.14175270700008, 24.886772993000022], [85.14284050600008, 24.887735160000034], [85.14332969000003, 24.888557065000043], [85.14381287300006, 24.89067897900003], [85.14414851100008, 24.891703776000043], [85.14501368400005, 24.89272907700007], [85.14575965500006, 24.89423727600007], [85.14579332700004, 24.895392809000043], [85.14579339300008, 24.895395054000062], [85.14484796900007, 24.89554563200005], [85.14342748800004, 24.895788339000035], [85.14004680200009, 24.896544181000024], [85.13807177500007, 24.897007682000037], [85.13698799500008, 24.89697529500006], [85.13478559800006, 24.897163144000046], [85.13403322300007, 24.89731602200004], [85.13382451600006, 24.898254748000056], [85.13375726300006, 24.898719507000067], [85.13373199400007, 24.898894133000056], [85.13368998300007, 24.899184466000065], [85.13415436600008, 24.90014180600008], [85.13435659100008, 24.900900317000037], [85.13488027100004, 24.901857617000076], [85.13524584500004, 24.902611707000062], [85.13621084300007, 24.90261250100008], [85.13706698100003, 24.902735006000057], [85.13769510500003, 24.903186866000055], [85.13881749500007, 24.904311603000053], [85.13989123900006, 24.904578756000035], [85.14109384400007, 24.904701499000055], [85.14363808800005, 24.904143652000073], [85.14535119100003, 24.90333691400008], [85.14635660200008, 24.902493497000023], [85.14763942400003, 24.901203443000043], [85.14833811600005, 24.90017475800005], [85.14881821200004, 24.90010283400005], [85.14943653200004, 24.90051849400004], [85.14975825500005, 24.900469075000046], [85.15050567100008, 24.900252908000027], [85.15227306300005, 24.89954542600003], [85.15377302600007, 24.898959603000037], [85.15523307200004, 24.898725798000044], [85.15651780000007, 24.90138532800006], [85.15619562000006, 24.90217053600003], [85.15556595000004, 24.903619045000028], [85.15541190000005, 24.90424674800005], [85.15854966700005, 24.90665501700005], [85.15876120400003, 24.906252619000043], [85.15912234100006, 24.906464957000026], [85.15933404700007, 24.907364167000026], [85.15938381800004, 24.907575566000048], [85.15961620200005, 24.907936833000065], [85.15989153200007, 24.90786817700007], [85.15997751600008, 24.907846736000067], [85.16030455500004, 24.907278208000037], [85.16004282100005, 24.906465524000055], [85.16001332100006, 24.906312025000034], [85.16238380300007, 24.90652564800007], [85.16445719500007, 24.906946676000075], [85.16577407600005, 24.906468931000063], [85.16643729400005, 24.906379036000033], [85.16841117500007, 24.907702705000077], [85.17226464800007, 24.91104043300004], [85.17290740600004, 24.91214221300004], [85.17385720400006, 24.912891939000076], [85.17485676900003, 24.91333480000003], [85.17661860400005, 24.91368329100004], [85.17808854600008, 24.913729172000046], [85.18111272900006, 24.91371700800005], [85.18160284300006, 24.913419323000028], [85.18338976200005, 24.91321251900007], [85.18511198100003, 24.913569891000066], [85.18780921800004, 24.91401342000006], [85.19232792600008, 24.914579454000034], [85.19441156400006, 24.914878143000067], [85.19603470800007, 24.91561899800007], [85.19526819500004, 24.913930522000044]]]]}}, {"type": "Feature", "properties": {"OBJECTID": 2831, "GPCODE": "92896", "GPNAME_1": "DHUSRI", "DIST_CEN_C": "35", "BLK_NAME": "ATRI", "ST_NAME": "BIHAR", "ST_CODE_1": "10", "GPCODE2011": "95451", "REMARKS": "FINALIZED", "MAP_STATUS": "COMPLETED", "BLK_C_2001": "350007", "BLK_C_2011": "01493", "DIST_NAME": "GAYA", "code2011": 38.0, "Shape_Leng": 0.27367495059, "Shape_Area": 0.00218059645, "Area": 24.4103}, "geometry": {"type": "MultiPolygon", "coordinates": [[[[85.20470472100004, 24.906431713000075], [85.20487934500005, 24.902585959000078], [85.20519240600004, 24.898961412000062], [85.20555456200003, 24.896217170000057], [85.20570805800008, 24.89598243000006], [85.20778175900006, 24.89579348500007], [85.20913287000008, 24.89554109900007], [85.20888563600005, 24.894647296000073], [85.20819797300004, 24.894037711000067], [85.20720356100009, 24.893170764000047], [85.20664448200006, 24.892777928000044], [85.20575911900005, 24.891658199000062], [85.20546251300004, 24.89069668700006], [85.20694700200005, 24.89087316000007], [85.21072772600007, 24.891000611000038], [85.21318704000004, 24.891393958000037], [85.21433017300006, 24.891475485000058], [85.21561182000005, 24.89164278800007], [85.21733890200005, 24.891873333000035], [85.21720103500007, 24.888939313000037], [85.21694425200008, 24.887070550000033], [85.21691976200003, 24.885933030000047], [85.21614287600005, 24.885752280000077], [85.21366383500003, 24.885634356000025], [85.21140240700004, 24.885498362000078], [85.21127388600007, 24.885223018000033], [85.21116549100003, 24.883706301000075], [85.21097285300004, 24.882388185000025], [85.21143809900008, 24.882027209000057], [85.21171536800006, 24.88135918000006], [85.21190881800004, 24.879964466000047], [85.21204283600008, 24.878411742000026], [85.21184093900007, 24.875414461000048], [85.21378055400004, 24.875333770000054], [85.21765488900007, 24.875081833000024], [85.22026253000007, 24.874942463000025], [85.22141534300005, 24.87509168400004], [85.22286008600008, 24.875367270000027], [85.22266266700007, 24.873141917000055], [85.22349437500003, 24.870609800000068], [85.22552863300007, 24.866773327000033], [85.22624626600003, 24.865703626000027], [85.22698353500004, 24.865193730000044], [85.22772570600006, 24.865067448000048], [85.22707773700006, 24.864223251000055], [85.22546007300008, 24.863044862000038], [85.22485683300005, 24.861437839000075], [85.22508442400004, 24.861388220000038], [85.22323430000006, 24.860575389000076], [85.21982594900004, 24.858624732000067], [85.21764442600005, 24.857058520000066], [85.21748633900006, 24.856945019000023], [85.21637835500007, 24.85622715100004], [85.21493389000005, 24.855743763000078], [85.21379591700008, 24.855833793000045], [85.21283620100007, 24.85576588400005], [85.21164909100008, 24.85512002300004], [85.21050659000008, 24.854289230000063], [85.20974990100007, 24.85350353800004], [85.20927028300008, 24.85281286700007], [85.20802885500007, 24.851864530000057], [85.20633730900005, 24.85066338100006], [85.20431451700006, 24.84939434100005], [85.20277633100005, 24.848518152000054], [85.20129273500004, 24.847131958000034], [85.19926504300008, 24.845971172000077], [85.19686638500008, 24.844476284000052], [85.19544700200004, 24.84386640400004], [85.19453213200006, 24.84322958300004], [85.19352323600003, 24.842674040000077], [85.19210886300004, 24.841730016000042], [85.19066990400006, 24.84066419100003], [85.18970559600007, 24.84019436500006], [85.18967596900006, 24.840180321000048], [85.18840000800003, 24.839575436000075], [85.18617944500005, 24.838572416000034], [85.18335080500003, 24.837216967000074], [85.18267819100004, 24.836864615000025], [85.18170843500008, 24.837347195000063], [85.18043187300003, 24.838150060000032], [85.17959078000007, 24.83838888100007], [85.17884391600006, 24.838230527000064], [85.17721171200003, 24.83806723300006], [85.17654874000004, 24.83838739400005], [85.17677116800007, 24.838631244000055], [85.17729968700007, 24.839877344000058], [85.17782836800006, 24.840884195000058], [85.17813441400006, 24.842012838000073], [85.17802466400008, 24.843723547000025], [85.17696558500006, 24.844571684000073], [85.17599557000005, 24.845252756000036], [85.17583834000004, 24.85195576700005], [85.17547670700003, 24.861091729000066], [85.17420038100005, 24.86085179400004], [85.17344830900004, 24.86097335900007], [85.17279009400005, 24.86137468100003], [85.17183978400004, 24.86199711300003], [85.17183696800004, 24.866547086000026], [85.17189746100007, 24.872722158000045], [85.17007640800006, 24.872982963000027], [85.16880485500008, 24.872982243000024], [85.16733573100004, 24.87236759800004], [85.16633157700005, 24.87203299600003], [85.16527753500003, 24.872235557000067], [85.16499017100006, 24.872763444000043], [85.16483155100008, 24.873138063000056], [85.16527628300008, 24.873982397000077], [85.16566156900006, 24.87508849900007], [85.16562688900007, 24.87512005900004], [85.16524543800006, 24.875819490000026], [85.16514612300006, 24.87634311200003], [85.16591265800008, 24.87695291500006], [85.16591233000008, 24.87735908600007], [85.16549654200008, 24.87767939200006], [85.16549606300003, 24.878320384000062], [85.16635686300003, 24.878609675000064], [85.16670788800008, 24.879079352000076], [85.16687066300005, 24.87986485400006], [85.16674163600004, 24.880415447000075], [85.16705303900005, 24.880916666000076], [85.16733964100007, 24.881408855000075], [85.16802738100006, 24.881562708000047], [85.16926938800003, 24.881617581000057], [85.17055104300005, 24.881523445000028], [85.17121909900004, 24.881383893000077], [85.17234236300004, 24.881366442000058], [85.17471122100005, 24.883588428000053], [85.17550741800005, 24.884338136000054], [85.17621988800005, 24.884613829000045], [85.17762027700007, 24.884533343000044], [85.17946109400003, 24.884425818000068], [85.18129718900008, 24.884038566000072], [85.18532040100007, 24.88353474200005], [85.18934847900005, 24.88322953900007], [85.19218900100003, 24.882995952000044], [85.19348045800007, 24.882946805000074], [85.19462349500003, 24.883100701000046], [85.19462297500007, 24.884184065000056], [85.19453800800005, 24.88611594200006], [85.19464164000004, 24.886793047000026], [85.19511167300004, 24.887023380000073], [85.19560144000008, 24.887222187000077], [85.19562086800005, 24.888106910000033], [85.19529913200006, 24.88838212400003], [85.19473976200004, 24.888657317000025], [85.19364102800006, 24.889108271000055], [85.19288362200007, 24.889658651000047], [85.19215098000006, 24.890367103000074], [85.19214104200006, 24.890376097000058], [85.19183815500008, 24.892502023000077], [85.19140626200004, 24.89544939500007], [85.19112335100004, 24.89717806300007], [85.19297417000007, 24.89741347300003], [85.19292427400006, 24.898280164000028], [85.19243846800003, 24.90017124800005], [85.19198749000003, 24.901340222000044], [85.19271415600008, 24.903200206000065], [85.19298557800005, 24.904996824000023], [85.19269292300004, 24.90643204500003], [85.19269261900007, 24.907064001000037], [85.19399909200007, 24.907407615000068], [85.19577134500008, 24.906451297000046], [85.19682568200005, 24.906045403000064], [85.19682719200006, 24.906030415000032], [85.19771630000008, 24.906555808000064], [85.19871070100004, 24.907671077000032], [85.19948750100008, 24.908276227000044], [85.20042771500005, 24.90857896500006], [85.20081837500004, 24.909490883000046], [85.20208979800003, 24.911057588000062], [85.20302457500009, 24.912768647000064], [85.20460391200004, 24.911523299000066], [85.20487720600005, 24.90844951400004], [85.20470472100004, 24.906431713000075]]]]}}, {"type": "Feature", "properties": {"OBJECTID": 2837, "GPCODE": "92898", "GPNAME_1": "JIRI", "DIST_CEN_C": "35", "BLK_NAME": "ATRI", "ST_NAME": "BIHAR", "ST_CODE_1": "10", "GPCODE2011": "95453", "REMARKS": "FINALIZED", "MAP_STATUS": "COMPLETED", "BLK_C_2001": "350007", "BLK_C_2011": "01493", "DIST_NAME": "GAYA", "code2011": 22.0, "Shape_Leng": 0.22836719851, "Shape_Area": 0.00129080719, "Area": 14.4501}, "geometry": {"type": "MultiPolygon", "coordinates": [[[[85.13375726300006, 24.898719507000067], [85.13382451600006, 24.898254748000056], [85.13403322300007, 24.89731602200004], [85.13478559800006, 24.897163144000046], [85.13698799500008, 24.89697529500006], [85.13807177500007, 24.897007682000037], [85.14004680200009, 24.896544181000024], [85.14342748800004, 24.895788339000035], [85.14484796900007, 24.89554563200005], [85.14579339300008, 24.895395054000062], [85.14579332700004, 24.895392809000043], [85.14575965500006, 24.89423727600007], [85.14501368400005, 24.89272907700007], [85.14414851100008, 24.891703776000043], [85.14381287300006, 24.89067897900003], [85.14332969000003, 24.888557065000043], [85.14284050600008, 24.887735160000034], [85.14175270700008, 24.886772993000022], [85.14025365500004, 24.88632951200003], [85.13972977200007, 24.885611374000064], [85.14051799500004, 24.883968982000056], [85.14109803100007, 24.88275966300006], [85.14117804000006, 24.88183441600006], [85.14095141300004, 24.88063804500007], [85.14144201300007, 24.879780744000072], [85.14215502700006, 24.87923513800007], [85.14275394100008, 24.879027909000058], [85.14354153500005, 24.878103132000035], [85.14399311500006, 24.87649652500005], [85.14382558800008, 24.875656810000066], [85.14394035700008, 24.874528473000055], [85.14468786700007, 24.87415433700005], [85.14615240700005, 24.874155364000046], [85.14682509200009, 24.874426620000065], [85.14769021700005, 24.875420314000053], [85.15057489100008, 24.875422214000025], [85.15196530200006, 24.875319352000076], [85.15275197300008, 24.875491434000025], [85.15353882500006, 24.87525264900006], [85.15541483900006, 24.874364614000058], [85.15633518900006, 24.874211726000055], [85.15753256200009, 24.874316360000023], [85.15869545400005, 24.874077790000058], [85.16008600900005, 24.87393873800005], [85.16177289000007, 24.874386618000074], [85.16338562200008, 24.874798268000063], [85.16566156900006, 24.87508849900007], [85.16527628300008, 24.873982397000077], [85.16483155100008, 24.873138063000056], [85.16499017100006, 24.872763444000043], [85.16527753500003, 24.872235557000067], [85.16633157700005, 24.87203299600003], [85.16733573100004, 24.87236759800004], [85.16880485500008, 24.872982243000024], [85.17007640800006, 24.872982963000027], [85.17189746100007, 24.872722158000045], [85.17183696800004, 24.866547086000026], [85.17183978400004, 24.86199711300003], [85.16987514900006, 24.86274084300004], [85.16762836600003, 24.86366496900007], [85.16586187000007, 24.864147021000065], [85.16418411800004, 24.864872785000045], [85.16446028200005, 24.866186499000037], [85.16419769400005, 24.866664825000043], [85.16359355900005, 24.86741822500005], [85.16277256600006, 24.867074712000033], [85.16161030200004, 24.866460161000077], [85.15975090200004, 24.865140963000044], [85.15892604400005, 24.863222103000055], [85.15776417400008, 24.862092922000045], [85.15720623100003, 24.860657153000034], [85.15581683300007, 24.859523307000075], [85.15503035700004, 24.859351236000066], [85.15375408900007, 24.85911122300007], [85.15272541700006, 24.85865013500006], [85.14969288100008, 24.858476533000044], [85.14631886600006, 24.858370450000052], [85.14377099800004, 24.858391253000036], [85.14250939600004, 24.858345219000057], [85.14144146100006, 24.857590579000032], [85.14119965400005, 24.856881747000045], [85.13969116000004, 24.85643830400005], [85.13876621800006, 24.856261549000067], [85.13760462800008, 24.85505999000003], [85.13638793400008, 24.85470693900004], [85.13522061200007, 24.854525516000024], [85.13429998300006, 24.855057462000048], [85.13191998300005, 24.855457277000028], [85.12870827100005, 24.856429769000044], [85.12491747200005, 24.857667933000073], [85.12229438200006, 24.858685782000066], [85.12248631200004, 24.859706095000035], [85.12270342400006, 24.86026147000007], [85.12294555600005, 24.860573185000078], [85.12211786200004, 24.86198982600007], [85.12090390400004, 24.863762698000073], [85.12058650700004, 24.86445307400004], [85.11951671600008, 24.865603209000028], [85.11868982800007, 24.86618021700008], [85.11686849100005, 24.866783459000033], [85.11478000400007, 24.86731418900007], [85.11366178900005, 24.86727256200004], [85.11156800400005, 24.868155321000074], [85.11006241600006, 24.86944039800005], [85.10986321000007, 24.870636442000034], [85.11005940300004, 24.872144212000023], [85.11025127800008, 24.87311939600005], [85.11025075700007, 24.873652049000043], [85.10889000900005, 24.873695886000064], [85.10558495500004, 24.873557325000036], [85.10505041100004, 24.873647039000048], [85.10470849800004, 24.874089095000045], [85.10417387800004, 24.874354849000042], [85.10291213300007, 24.87430849100008], [85.10300359100006, 24.87652941500005], [85.10436372200007, 24.877018193000026], [85.10538709100007, 24.87772794400007], [85.10587152700003, 24.878170770000054], [85.10927535100006, 24.87861631800007], [85.11418336400004, 24.879108424000037], [85.11445072200007, 24.878914592000058], [85.11440476700005, 24.875718735000078], [85.11459792500006, 24.87549769700007], [85.11581517400003, 24.875498822000054], [85.11640014900007, 24.874434062000034], [85.12166522200005, 24.874009844000057], [85.12356012800007, 24.87902636700005], [85.12454944400008, 24.884326526000052], [85.12459651400007, 24.886678249000056], [85.12410853600005, 24.889693116000046], [85.12408066000006, 24.89285732600007], [85.12510437800006, 24.893521707000048], [85.12756454700008, 24.892774470000063], [85.12912742700007, 24.89372813800003], [85.13128221200003, 24.896718041000042], [85.13209725000007, 24.898348181000074], [85.13276988900003, 24.89875491600003], [85.13375482400005, 24.898719595000046], [85.13375726300006, 24.898719507000067]]]]}}, {"type": "Feature", "properties": {"OBJECTID": 2843, "GPCODE": "92897", "GPNAME_1": "DIHURI", "DIST_CEN_C": "35", "BLK_NAME": "ATRI", "ST_NAME": "BIHAR", "ST_CODE_1": "10", "GPCODE2011": "95452", "REMARKS": "FINALIZED", "MAP_STATUS": "COMPLETED", "BLK_C_2001": "350007", "BLK_C_2011": "01493", "DIST_NAME": "GAYA", "code2011": 17.0, "Shape_Leng": 0.21769794025, "Shape_Area": 0.00104177455, "Area": 11.66}, "geometry": {"type": "MultiPolygon", "coordinates": [[[[85.12408066000006, 24.89285732600007], [85.12410853600005, 24.889693116000046], [85.12459651400007, 24.886678249000056], [85.12454944400008, 24.884326526000052], [85.12356012800007, 24.87902636700005], [85.12166522200005, 24.874009844000057], [85.11640014900007, 24.874434062000034], [85.11581517400003, 24.875498822000054], [85.11459792500006, 24.87549769700007], [85.11440476700005, 24.875718735000078], [85.11445072200007, 24.878914592000058], [85.11418336400004, 24.879108424000037], [85.10927535100006, 24.87861631800007], [85.10587152700003, 24.878170770000054], [85.10538709100007, 24.87772794400007], [85.10436372200007, 24.877018193000026], [85.10300359100006, 24.87652941500005], [85.10293367500003, 24.877039395000054], [85.10079550800003, 24.877524771000026], [85.09991925900005, 24.87792560400004], [85.09938402800003, 24.878588670000056], [85.09911371900006, 24.88118384200004], [85.09916119400003, 24.88282236200007], [85.09899254900006, 24.88320138200004], [85.09874968600008, 24.883557704000054], [85.09792331900007, 24.883511756000075], [85.09724061100007, 24.883375667000053], [85.09694963900006, 24.88262151400005], [85.09500490500005, 24.882619559000034], [85.09486086700008, 24.88306169300006], [85.09451905400005, 24.883372818000055], [85.09457189700004, 24.883463343000074], [85.09568444600006, 24.88536917500005], [85.09597520500006, 24.88630379800003], [85.09674939200005, 24.88852096900007], [85.09678315200006, 24.88857067300006], [85.09762374700006, 24.889808298000048], [85.09917550800003, 24.891493499000035], [85.09975859700006, 24.892207323000036], [85.10082743600003, 24.892249030000073], [85.10296534800005, 24.892165403000035], [85.10454473300007, 24.891498859000023], [85.10604411000008, 24.891622192000057], [85.10821162200006, 24.891574637000076], [85.11122549400005, 24.891442016000042], [85.11366000100008, 24.89168806500004], [85.11687147700007, 24.89179023400004], [85.12076562200008, 24.89221800100006], [85.12408066000006, 24.89285732600007]]], [[[85.12408066000006, 24.89285732600007], [85.12458954100003, 24.89361608200005], [85.12413353200003, 24.894324320000067], [85.12330189700003, 24.89463960300003], [85.12252922500005, 24.895248260000074], [85.12217713800004, 24.89593406700004], [85.12186863700003, 24.897604009000077], [85.12130015600007, 24.901778809000064], [85.12107045300007, 24.903791761000036], [85.12082624100003, 24.90540300200007], [85.12071374400006, 24.908896646000073], [85.12056459600007, 24.909591652000074], [85.12018408200004, 24.913771062000023], [85.12013199600005, 24.91620397500003], [85.12021751000003, 24.91968873600007], [85.12121202700007, 24.920104930000036], [85.12333429500006, 24.921212644000036], [85.12457620400005, 24.921737232000055], [85.12566502300007, 24.921878153000023], [85.12866975300005, 24.921668416000045], [85.13321336800004, 24.922037757000055], [85.13572368500007, 24.92125881100003], [85.13735693300004, 24.921499272000062], [85.14019340800007, 24.921253085000046], [85.14033512000003, 24.92123757300004], [85.14005586600007, 24.920025208000027], [85.13926908500008, 24.919695168000032], [85.13912816400006, 24.91675206000008], [85.14127704700007, 24.915900478000026], [85.14510329200004, 24.915663987000073], [85.14569323600006, 24.914517903000046], [85.14582760700006, 24.913737139000034], [85.14630785100007, 24.913493695000057], [85.14970884800005, 24.912715134000052], [85.15455503200008, 24.911838155000055], [85.15495594900005, 24.911815837000063], [85.15519907600003, 24.910985465000067], [85.15573493400007, 24.909297544000026], [85.15572099200006, 24.90809235100005], [85.15516387200006, 24.905257365000068], [85.15541190000005, 24.90424674800005], [85.15556595000004, 24.903619045000028], [85.15619562000006, 24.90217053600003], [85.15651780000007, 24.90138532800006], [85.15523307200004, 24.898725798000044], [85.15377302600007, 24.898959603000037], [85.15227306300005, 24.89954542600003], [85.15050567100008, 24.900252908000027], [85.14975825500005, 24.900469075000046], [85.14943653200004, 24.90051849400004], [85.14881821200004, 24.90010283400005], [85.14833811600005, 24.90017475800005], [85.14763942400003, 24.901203443000043], [85.14635660200008, 24.902493497000023], [85.14535119100003, 24.90333691400008], [85.14363808800005, 24.904143652000073], [85.14109384400007, 24.904701499000055], [85.13989123900006, 24.904578756000035], [85.13881749500007, 24.904311603000053], [85.13769510500003, 24.903186866000055], [85.13706698100003, 24.902735006000057], [85.13621084300007, 24.90261250100008], [85.13524584500004, 24.902611707000062], [85.13488027100004, 24.901857617000076], [85.13435659100008, 24.900900317000037], [85.13415436600008, 24.90014180600008], [85.13368998300007, 24.899184466000065], [85.13373199400007, 24.898894133000056], [85.13375726300006, 24.898719507000067], [85.13375482400005, 24.898719595000046], [85.13276988900003, 24.89875491600003], [85.13209725000007, 24.898348181000074], [85.13128221200003, 24.896718041000042], [85.12912742700007, 24.89372813800003], [85.12756454700008, 24.892774470000063], [85.12510437800006, 24.893521707000048], [85.12408066000006, 24.89285732600007]]]]}}, {"type": "Feature", "properties": {"OBJECTID": 2859, "GPCODE": "92901", "GPNAME_1": "SIRH", "DIST_CEN_C": "35", "BLK_NAME": "ATRI", "ST_NAME": "BIHAR", "ST_CODE_1": "10", "GPCODE2011": "95456", "REMARKS": "FINALIZED", "MAP_STATUS": "COMPLETED", "BLK_C_2001": "350007", "BLK_C_2011": "01493", "DIST_NAME": "GAYA", "code2011": 17.0, "Shape_Leng": 0.19144212861, "Shape_Area": 0.00110538718, "Area": 12.3688}, "geometry": {"type": "MultiPolygon", "coordinates": [[[[85.15854966700005, 24.90665501700005], [85.15541190000005, 24.90424674800005], [85.15516387200006, 24.905257365000068], [85.15572099200006, 24.90809235100005], [85.15573493400007, 24.909297544000026], [85.15519907600003, 24.910985465000067], [85.15495594900005, 24.911815837000063], [85.15455503200008, 24.911838155000055], [85.14970884800005, 24.912715134000052], [85.14630785100007, 24.913493695000057], [85.14582760700006, 24.913737139000034], [85.14569323600006, 24.914517903000046], [85.14510329200004, 24.915663987000073], [85.14127704700007, 24.915900478000026], [85.13912816400006, 24.91675206000008], [85.13926908500008, 24.919695168000032], [85.14005586600007, 24.920025208000027], [85.14033512000003, 24.92123757300004], [85.14019340800007, 24.921253085000046], [85.13735693300004, 24.921499272000062], [85.13572368500007, 24.92125881100003], [85.13321336800004, 24.922037757000055], [85.12866975300005, 24.921668416000045], [85.12566502300007, 24.921878153000023], [85.12457620400005, 24.921737232000055], [85.12333429500006, 24.921212644000036], [85.12121202700007, 24.920104930000036], [85.12021751000003, 24.91968873600007], [85.12024349400008, 24.923304338000037], [85.12056115800004, 24.92716395700006], [85.12037953900006, 24.93044992500006], [85.12025865600003, 24.93246744100003], [85.11999705000005, 24.936529654000026], [85.12135354100008, 24.936458617000028], [85.12160008000006, 24.937366091000058], [85.12245138700007, 24.937592567000024], [85.12352094700003, 24.937336197000036], [85.12571578800004, 24.935473812000055], [85.12631524400007, 24.935068038000054], [85.12681190500007, 24.938476396000056], [85.12740568200007, 24.93874777900004], [85.12760867100008, 24.93870281100004], [85.12830670400007, 24.938703314000065], [85.13498481000005, 24.938889265000057], [85.13951914500007, 24.93925828500005], [85.13953455500007, 24.939285175000066], [85.14056210000007, 24.94107809700006], [85.14160887000008, 24.94430174000007], [85.14200452400007, 24.94466763500003], [85.14290049300007, 24.944803713000056], [85.14385148800005, 24.944303354000056], [85.14684234300006, 24.943623944000024], [85.14893558600005, 24.94467259000004], [85.14952404600007, 24.945580233000044], [85.15118271100005, 24.945423326000025], [85.15395564900007, 24.944779693000044], [85.15686721300006, 24.944041291000076], [85.16037302200004, 24.943041355000048], [85.16145255000004, 24.942608720000067], [85.16290886300004, 24.941435933000037], [85.16450398800004, 24.94001502200007], [85.16504409300006, 24.939306627000065], [85.16524720600006, 24.93903140200007], [85.16592550900003, 24.938905454000064], [85.16937658600006, 24.93807681900006], [85.16848142000003, 24.936758249000036], [85.16762581600005, 24.935498412000072], [85.16556861500004, 24.93229249500007], [85.16487629400007, 24.93124034500005], [85.16553479600003, 24.931060156000058], [85.16596562900008, 24.930757968000023], [85.16668915400004, 24.929557686000066], [85.16863519700007, 24.92859736500003], [85.16962026900006, 24.928625013000044], [85.16865205800008, 24.925573087000032], [85.16816242500005, 24.924940862000028], [85.16662805900006, 24.924682768000025], [85.16500920800007, 24.92501133600007], [85.16389100300006, 24.924320064000028], [85.16303566100004, 24.92287512400003], [85.16297163700006, 24.922337999000035], [85.16372974100005, 24.921282210000072], [85.16372997700006, 24.920912228000077], [85.16372339000003, 24.92089739200003], [85.16275146600003, 24.918708680000066], [85.16166427200005, 24.91621643800005], [85.15972788900007, 24.910834773000033], [85.15862582300008, 24.908595227000035], [85.15849276200004, 24.907787177000046], [85.15842912300008, 24.906884321000064], [85.15854966700005, 24.90665501700005]], [[85.15711601600003, 24.935699876000058], [85.15520476800003, 24.936150111000075], [85.15519950800007, 24.936140928000043], [85.15387000400005, 24.933820025000045], [85.15390489100008, 24.93346346900006], [85.15541996400003, 24.933103390000042], [85.15766255200003, 24.932892649000053], [85.16047940600004, 24.93278603600004], [85.16031039900008, 24.93368864100006], [85.16037866100004, 24.935133175000033], [85.15974975900008, 24.935462320000056], [85.15711601600003, 24.935699876000058]]]]}}, {"type": "Feature", "properties": {"OBJECTID": 2862, "GPCODE": "92900", "GPNAME_1": "SAHORA", "DIST_CEN_C": "35", "BLK_NAME": "ATRI", "ST_NAME": "BIHAR", "ST_CODE_1": "10", "GPCODE2011": "95455", "REMARKS": "FINALIZED", "MAP_STATUS": "COMPLETED", "BLK_C_2001": "350007", "BLK_C_2011": "01493", "DIST_NAME": "GAYA", "code2011": 24.0, "Shape_Leng": 0.28473799264, "Shape_Area": 0.0013872743, "Area": 15.5212}, "geometry": {"type": "MultiPolygon", "coordinates": [[[[85.16031039900008, 24.93368864100006], [85.16047940600004, 24.93278603600004], [85.15766255200003, 24.932892649000053], [85.15541996400003, 24.933103390000042], [85.15390489100008, 24.93346346900006], [85.15387000400005, 24.933820025000045], [85.15519950800007, 24.936140928000043], [85.15520476800003, 24.936150111000075], [85.15711601600003, 24.935699876000058], [85.15974975900008, 24.935462320000056], [85.16037866100004, 24.935133175000033], [85.16031039900008, 24.93368864100006]]], [[[85.22064482600007, 24.955410894000067], [85.22018447600004, 24.954742741000075], [85.21965981000005, 24.954088091000074], [85.21873903900007, 24.953880334000075], [85.21878356600007, 24.953961552000067], [85.21698618600004, 24.954426111000032], [85.21588203300007, 24.954507058000047], [85.21385733300008, 24.95350000600007], [85.21164453200004, 24.952321392000044], [85.21056059800009, 24.951291954000055], [85.20991709600008, 24.950871946000063], [85.20987282100003, 24.94969385400003], [85.20863041500007, 24.948899031000053], [85.20761573400006, 24.948185601000034], [85.20701717500003, 24.94684029600006], [85.20692924000008, 24.94310285000006], [85.20469675700008, 24.942574060000027], [85.20420672900008, 24.942145081000035], [85.20292001500007, 24.94091238900006], [85.20148489900004, 24.939467466000053], [85.20009457900005, 24.93757120400005], [85.19898089000003, 24.937196182000037], [85.19824826100006, 24.93713728700004], [85.19788670500003, 24.937529814000072], [85.19786671400004, 24.937999282000078], [85.19796035800005, 24.938947263000045], [85.19882073100007, 24.941412068000034], [85.19922610500004, 24.94287472600007], [85.19905268700006, 24.943168067000045], [85.19864672800009, 24.943190481000045], [85.19728525200009, 24.943334401000072], [85.19561189700005, 24.94347378300006], [85.19175507900007, 24.943765678000034], [85.19073525000005, 24.943851076000044], [85.19060821400006, 24.940176758000064], [85.19056789700005, 24.93952811300005], [85.19041658700007, 24.93709370700003], [85.19009031300004, 24.936172793000026], [85.18892267000007, 24.934809139000038], [85.18797786600004, 24.933504225000036], [85.18778553600004, 24.93187464700003], [85.18718272700005, 24.92976186900006], [85.18634215600008, 24.92771225200005], [85.18679837000008, 24.926141679000068], [85.18679902200006, 24.924927430000025], [85.18574637200004, 24.921532612000078], [85.18554917600005, 24.920079045000023], [85.18538642400006, 24.918950515000063], [85.18433298500008, 24.91727540100004], [85.18387775700006, 24.91691861000004], [85.18267004100005, 24.916981252000028], [85.18228419900004, 24.916651606000073], [85.18205705700007, 24.915586217000055], [85.18179512900008, 24.91478260100007], [85.18111272900006, 24.91371700800005], [85.17808854600008, 24.913729172000046], [85.17661860400005, 24.91368329100004], [85.17485676900003, 24.91333480000003], [85.17385720400006, 24.912891939000076], [85.17290740600004, 24.91214221300004], [85.17226464800007, 24.91104043300004], [85.16841117500007, 24.907702705000077], [85.16643729400005, 24.906379036000033], [85.16577407600005, 24.906468931000063], [85.16445719500007, 24.906946676000075], [85.16238380300007, 24.90652564800007], [85.16001332100006, 24.906312025000034], [85.16004282100005, 24.906465524000055], [85.16030455500004, 24.907278208000037], [85.15997751600008, 24.907846736000067], [85.15989153200007, 24.90786817700007], [85.15961620200005, 24.907936833000065], [85.15938381800004, 24.907575566000048], [85.15933404700007, 24.907364167000026], [85.15912234100006, 24.906464957000026], [85.15876120400003, 24.906252619000043], [85.15854966700005, 24.90665501700005], [85.15842912300008, 24.906884321000064], [85.15849276200004, 24.907787177000046], [85.15862582300008, 24.908595227000035], [85.15972788900007, 24.910834773000033], [85.16166427200005, 24.91621643800005], [85.16275146600003, 24.918708680000066], [85.16372339000003, 24.92089739200003], [85.16372997700006, 24.920912228000077], [85.16372974100005, 24.921282210000072], [85.16297163700006, 24.922337999000035], [85.16303566100004, 24.92287512400003], [85.16389100300006, 24.924320064000028], [85.16500920800007, 24.92501133600007], [85.16662805900006, 24.924682768000025], [85.16816242500005, 24.924940862000028], [85.16865205800008, 24.925573087000032], [85.16962026900006, 24.928625013000044], [85.16863519700007, 24.92859736500003], [85.16668915400004, 24.929557686000066], [85.16596562900008, 24.930757968000023], [85.16553479600003, 24.931060156000058], [85.16487629400007, 24.93124034500005], [85.16556861500004, 24.93229249500007], [85.16762581600005, 24.935498412000072], [85.16848142000003, 24.936758249000036], [85.16937658600006, 24.93807681900006], [85.16969770600008, 24.93907910000007], [85.16969636500005, 24.941150891000063], [85.16935896300004, 24.942351432000066], [85.16901670500005, 24.943371305000028], [85.16827363900006, 24.944142787000033], [85.16776327800005, 24.94481961300005], [85.16777770200008, 24.94545152200004], [85.16842110200008, 24.945790456000054], [85.17086198700008, 24.94545323500006], [85.17241635400006, 24.945792608000033], [85.17326257200006, 24.946443], [85.17370238400008, 24.94780184700005], [85.17221221000005, 24.947584420000055], [85.17207760200006, 24.949191325000072], [85.17227874700006, 24.952152454000043], [85.17226340900004, 24.952937906000045], [85.17471917600005, 24.952939125000057], [85.17799168700003, 24.953053597000064], [85.18013488200006, 24.953323155000078], [85.18227904200006, 24.95359280200006], [85.18567548200008, 24.953792862000057], [85.18814580900005, 24.954213716000027], [85.19038855200006, 24.954598329000078], [85.19216588200004, 24.954775074000054], [85.19250741000008, 24.955009920000066], [85.19250698900004, 24.95606616500004], [85.19274326200008, 24.95893701600005], [85.19275748000007, 24.960417524000036], [85.19431209900006, 24.960589664000054], [85.19457668300004, 24.960549599000046], [85.19475782000006, 24.960522170000047], [85.19479315400008, 24.958933322000064], [85.19471947800008, 24.957479775000024], [85.19475946500006, 24.956735035000065], [85.19509145800004, 24.956229655000072], [85.19588876400007, 24.95584173700007], [85.19674021500003, 24.956045145000076], [85.19707151600005, 24.95716014900006], [85.19766565500004, 24.95725973100008], [85.19929987500007, 24.956316902000026], [85.20122615700006, 24.955739790000052], [85.20326125900004, 24.955302601000028], [85.20385516800008, 24.955979843000023], [85.20430041000003, 24.957094865000045], [85.20433353900006, 24.961184462000062], [85.20434031200006, 24.961333969000066], [85.20452023700005, 24.96530563300007], [85.20465290000004, 24.96813131600004], [85.20544031500003, 24.967702692000046], [85.20690126800008, 24.967080211000052], [85.20743124200004, 24.966710273000047], [85.20789683500004, 24.96624550300004], [85.21142756200004, 24.96561906100004], [85.21504722600008, 24.965443864000065], [85.21854309000008, 24.965146746000073], [85.22379184200008, 24.964940168000055], [85.22685187900004, 24.96490456600003], [85.22776802200008, 24.964706097000033], [85.22835721200005, 24.96459330400006], [85.22688681200003, 24.963541405000058], [85.22377773300008, 24.96104023600003], [85.21995555000007, 24.959947098000043], [85.21963380500006, 24.959653700000047], [85.21981726500007, 24.95860646400007], [85.22036712000005, 24.957387850000032], [85.22064482600007, 24.955410894000067]]]]}}, {"type": "Feature", "properties": {"OBJECTID": 2866, "GPCODE": "92902", "GPNAME_1": "TETUA", "DIST_CEN_C": "35", "BLK_NAME": "ATRI", "ST_NAME": "BIHAR", "ST_CODE_1": "10", "GPCODE2011": "95457", "REMARKS": "FINALIZED", "MAP_STATUS": "COMPLETED", "BLK_C_2001": "350007", "BLK_C_2011": "01493", "DIST_NAME": "GAYA", "code2011": 19.0, "Shape_Leng": 0.22477183587, "Shape_Area": 0.00182300133, "Area": 20.397}, "geometry": {"type": "MultiPolygon", "coordinates": [[[[85.24419794900007, 24.946575601000063], [85.24414351100006, 24.945230561000074], [85.24403962500008, 24.94335271700004], [85.24396052800006, 24.940901779000058], [85.24407943700004, 24.938893112000073], [85.24418844700006, 24.937475731000063], [85.24421324400004, 24.93653691800006], [85.24368355300004, 24.93583719000003], [85.24305483600006, 24.93509236700004], [85.24310451100007, 24.93311985300005], [85.24330253800008, 24.931932698000026], [85.24190660200009, 24.93140450900006], [85.23862466800006, 24.929995958000063], [85.23480337400008, 24.92862791400006], [85.23379846400007, 24.928456356000027], [85.23405139600004, 24.924926567000057], [85.23441816700006, 24.920358581000073], [85.23490374600004, 24.916539922000027], [85.23476541500008, 24.914120445000037], [85.23518628000005, 24.912716716000034], [85.23512716100004, 24.909963282000035], [85.23479564900003, 24.909556934000022], [85.23274171900005, 24.909254282000063], [85.23130129900005, 24.91056763100005], [85.22869771700005, 24.911727357000075], [85.22648511800008, 24.912435678000065], [85.22639113300005, 24.912422185000025], [85.22388204500004, 24.91097280400004], [85.22155589100004, 24.910719560000075], [85.21579481400005, 24.910411448000048], [85.21219155200004, 24.911069522000048], [85.20986531600005, 24.91086585100004], [85.20864819300004, 24.90955199700005], [85.20820290300009, 24.90919973000007], [85.20676250200006, 24.909704851000072], [85.20460391200004, 24.911523299000066], [85.20302457500009, 24.912768647000064], [85.20604873400003, 24.912755995000055], [85.20794389500008, 24.914110752000056], [85.20852259200007, 24.915316070000074], [85.20860632800003, 24.916521313000032], [85.20804651500004, 24.91824994500007], [85.20427538900003, 24.91661932200003], [85.20251852900003, 24.91590562600004], [85.20157813700007, 24.91596401700008], [85.19972681900003, 24.916347029000065], [85.19793486800006, 24.91661729300006], [85.19715795700006, 24.916287487000034], [85.19603470800007, 24.91561899800007], [85.19441156400006, 24.914878143000067], [85.19232792600008, 24.914579454000034], [85.18780921800004, 24.91401342000006], [85.18511198100003, 24.913569891000066], [85.18338976200005, 24.91321251900007], [85.18160284300006, 24.913419323000028], [85.18111272900006, 24.91371700800005], [85.18179512900008, 24.91478260100007], [85.18205705700007, 24.915586217000055], [85.18228419900004, 24.916651606000073], [85.18267004100005, 24.916981252000028], [85.18387775700006, 24.91691861000004], [85.18433298500008, 24.91727540100004], [85.18538642400006, 24.918950515000063], [85.18554917600005, 24.920079045000023], [85.18574637200004, 24.921532612000078], [85.18679902200006, 24.924927430000025], [85.18679837000008, 24.926141679000068], [85.18634215600008, 24.92771225200005], [85.18718272700005, 24.92976186900006], [85.18778553600004, 24.93187464700003], [85.18797786600004, 24.933504225000036], [85.18892267000007, 24.934809139000038], [85.19009031300004, 24.936172793000026], [85.19041658700007, 24.93709370700003], [85.19056789700005, 24.93952811300005], [85.19060821400006, 24.940176758000064], [85.19073525000005, 24.943851076000044], [85.19175507900007, 24.943765678000034], [85.19561189700005, 24.94347378300006], [85.19728525200009, 24.943334401000072], [85.19864672800009, 24.943190481000045], [85.19905268700006, 24.943168067000045], [85.19922610500004, 24.94287472600007], [85.19882073100007, 24.941412068000034], [85.19796035800005, 24.938947263000045], [85.19786671400004, 24.937999282000078], [85.19788670500003, 24.937529814000072], [85.19824826100006, 24.93713728700004], [85.19898089000003, 24.937196182000037], [85.20009457900005, 24.93757120400005], [85.20148489900004, 24.939467466000053], [85.20292001500007, 24.94091238900006], [85.20420672900008, 24.942145081000035], [85.20469675700008, 24.942574060000027], [85.20692924000008, 24.94310285000006], [85.20701717500003, 24.94684029600006], [85.20761573400006, 24.948185601000034], [85.20863041500007, 24.948899031000053], [85.20987282100003, 24.94969385400003], [85.20991709600008, 24.950871946000063], [85.21056059800009, 24.951291954000055], [85.21164453200004, 24.952321392000044], [85.21385733300008, 24.95350000600007], [85.21588203300007, 24.954507058000047], [85.21698618600004, 24.954426111000032], [85.21878356600007, 24.953961552000067], [85.21873903900007, 24.953880334000075], [85.21965981000005, 24.954088091000074], [85.22018447600004, 24.954742741000075], [85.22041748400005, 24.953438290000065], [85.22099217600004, 24.952242229000035], [85.22251224400009, 24.95165572700006], [85.22536412800008, 24.950897963000045], [85.22849824200006, 24.950225845000034], [85.23204321100008, 24.95001867800005], [85.23434538200007, 24.95043878000007], [85.23540492000006, 24.949599315000057], [85.23715271700007, 24.949093936000054], [85.23839535100007, 24.94900823000006], [85.23927173000004, 24.948841251000033], [85.24000938300009, 24.94821395100007], [85.24198981500007, 24.947329380000042], [85.24419794900007, 24.946575601000063]]]]}}, {"type": "Feature", "properties": {"OBJECTID": 2883, "GPCODE": "92895", "GPNAME_1": "CHAKRA", "DIST_CEN_C": "35", "BLK_NAME": "ATRI", "ST_NAME": "BIHAR", "ST_CODE_1": "10", "GPCODE2011": "95450", "REMARKS": "FINALIZED", "MAP_STATUS": "COMPLETED", "BLK_C_2001": "350007", "BLK_C_2011": "01493", "DIST_NAME": "GAYA", "code2011": 18.0, "Shape_Leng": 0.24911331667, "Shape_Area": 0.00147970649, "Area": 16.5498}, "geometry": {"type": "MultiPolygon", "coordinates": [[[[85.38042699500005, 24.98467843800006], [85.38005550500003, 24.983035388000076], [85.37979298900007, 24.981988165000075], [85.37925805900005, 24.980990683000073], [85.37890148200006, 24.98049863600005], [85.37820324600006, 24.979884811000034], [85.37767822600006, 24.979523726000025], [85.37694037800009, 24.979225779000046], [85.37612328300008, 24.97882860800007], [85.37539037600004, 24.978467471000044], [85.37457326800006, 24.97755569700007], [85.37393943200004, 24.97705006800004], [85.37358287800004, 24.976666436000073], [85.37337984000004, 24.975763699000026], [85.37322140500004, 24.974571990000072], [85.37309262200006, 24.97416578800005], [85.37284004200006, 24.97382727100006], [85.37203786700007, 24.972662642000046], [85.37069138900006, 24.971456959000022], [85.36852607500003, 24.97006839000005], [85.36720389700008, 24.969983697000032], [85.36504034900008, 24.97043221200005], [85.36165298200007, 24.970073714000023], [85.35723544700005, 24.969454048000046], [85.35389238100004, 24.968603296000026], [85.35212373400003, 24.96757532500004], [85.35153888100007, 24.966903196000032], [85.35119084400003, 24.96520169000007], [85.35109543600004, 24.963635512000053], [85.35173210500005, 24.961129939000045], [85.35182377200005, 24.958173325000075], [85.35079290400006, 24.956923651000068], [85.34991019600005, 24.955312787000025], [85.34971079000007, 24.953566143000046], [85.34872958800008, 24.952447299000028], [85.34769937000004, 24.95195602600006], [85.34534272800005, 24.952092954000022], [85.34234779400003, 24.952677067000025], [85.34141137600005, 24.951734241000054], [85.33979231400008, 24.951690170000063], [85.33925237800008, 24.95132938200004], [85.33836519300007, 24.94994412400007], [85.33694342400008, 24.948780369000076], [85.33330881200004, 24.947933916000068], [85.33095227300004, 24.948025484000027], [85.32840263200006, 24.948026765000066], [85.32737066200008, 24.952459893000025], [85.32672712200008, 24.952613727000028], [85.32574186600004, 24.95257814400003], [85.32401845000004, 24.951879295000026], [85.32357753800005, 24.951378516000034], [85.32317619300005, 24.951013080000052], [85.32240392000006, 24.951076631000035], [85.32046336200005, 24.951547064000067], [85.31973067600006, 24.951615041000025], [85.31764719300008, 24.95315068000008], [85.31687537300007, 24.954220892000023], [85.31625527200003, 24.952081613000075], [85.31409160100003, 24.951883931000054], [85.31116061700004, 24.951984452000033], [85.31068466800008, 24.950747869000054], [85.31075848400008, 24.949750234000078], [85.31108957900005, 24.94847724600004], [85.31083142900007, 24.947078041000054], [85.31013260900005, 24.94557524000004], [85.30928084500005, 24.945106139000075], [85.30865742000003, 24.945941461000075], [85.30807321500004, 24.94594163800008], [85.30697369000006, 24.945007717000067], [85.30657220100005, 24.943938067000033], [85.30624023000007, 24.94336947200003], [85.30565598600003, 24.94323883000004], [85.30510638000004, 24.94293657000003], [85.30463094700008, 24.942602743000066], [85.30345762000007, 24.942603143000042], [85.30159119200005, 24.942603833000078], [85.29939290800007, 24.94204031000004], [85.29792754900006, 24.94214004500003], [85.29639265400004, 24.941671089000067], [85.29485292600003, 24.941373721000048], [85.29378856800008, 24.941504903000066], [85.29218462500006, 24.941509841000027], [85.29194853200005, 24.94594703300004], [85.29163261900004, 24.948727664000046], [85.29147494300008, 24.95096202800005], [85.29171336400003, 24.95316467400005], [85.29317898000005, 24.953543471000046], [85.29611045200005, 24.95461238400003], [85.29853187500004, 24.955311277000078], [85.29994322400006, 24.956051052000078], [85.30120587000005, 24.956348485000035], [85.30329074200006, 24.95708354100003], [85.30483074300008, 24.957480219000047], [85.30637071600006, 24.957917508000037], [85.30747027200005, 24.958548997000037], [85.30838648800005, 24.95901810400005], [85.30882743900008, 24.959586632000025], [85.30996147000008, 24.959983392000026], [85.31099169700008, 24.960628478000046], [85.31184866100006, 24.961354870000036], [85.31306195700006, 24.961896], [85.31528557900003, 24.962675963000038], [85.31747473900003, 24.963645470000074], [85.31839110700008, 24.96424081200007], [85.31921818600006, 24.964615093000077], [85.32105113900008, 24.966058709000038], [85.32338923800006, 24.967705070000022], [85.32542504900005, 24.96873318100006], [85.32614836100004, 24.969333198000072], [85.32870390900007, 24.970004435000078], [85.33047171100003, 24.97009379600007], [85.33312079700005, 24.969911731000025], [85.33493823200007, 24.970091265000065], [85.33601851200007, 24.971295848000068], [85.33793961400005, 24.977920995000034], [85.34206511000008, 24.978369927000074], [85.34727043500004, 24.979260322000073], [85.35399741700007, 24.98158494200004], [85.36101627000005, 24.984381959000075], [85.36114748100005, 24.98437519500004], [85.36391084800005, 24.98533694200006], [85.36563911100006, 24.986145], [85.36755077100008, 24.98687638000007], [85.36850656900003, 24.987169839000046], [85.37015078100006, 24.98770707500006], [85.37147302900007, 24.988262303000056], [85.37233974100008, 24.98860987100005], [85.37331043800003, 24.98921028500007], [85.37464267800004, 24.989955094000038], [85.37553911900005, 24.990374847000055], [85.37642068600007, 24.990627635000067], [85.37759443100003, 24.99089392700006], [85.37808964100003, 24.99095260100006], [85.37920895900004, 24.99109705500007], [85.38027872200007, 24.991322727000068], [85.38143770500005, 24.99141742100005], [85.38299277400006, 24.991670207000027], [85.38301754200006, 24.991205235000052], [85.38273518100004, 24.990049730000067], [85.38208628100006, 24.98823524000005], [85.38172463300003, 24.987454298000046], [85.38124919500007, 24.986456778000047], [85.38085792000004, 24.985472815000037], [85.38042699500005, 24.98467843800006]]]]}}]}