{"type": "FeatureCollection", "features": [{"type": "Feature", "properties": {"OBJECTID": 2613, "GPCODE": "92904", "GPNAME_1": "BARHETA", "DIST_CEN_C": "35", "BLK_NAME": "BANKE BAZAR", "ST_NAME": "BIHAR", "ST_CODE_1": "10", "GPCODE2011": "95459", "REMARKS": "FINALIZED", "MAP_STATUS": "COMPLETED", "BLK_C_2001": "350014", "BLK_C_2011": "01500", "DIST_NAME": "GAYA", "code2011": 26.0, "Shape_Leng": 0.19209963509, "Shape_Area": 0.00082066528, "Area": 9.21493}, "geometry": {"type": "MultiPolygon", "coordinates": [[[[84.70349468400008, 24.540484373000027], [84.70357372000007, 24.53884598600007], [84.70376407600008, 24.537132774000042], [84.70395443300004, 24.535276795000073], [84.70428755800003, 24.533611172000064], [84.70542969900004, 24.532564209000043], [84.70654725800006, 24.531778962000033], [84.70572955200004, 24.531442011000024], [84.70485651700005, 24.53137113300005], [84.70391042800009, 24.531056243000023], [84.70256869900004, 24.53095655800007], [84.70124838600003, 24.53047786600007], [84.70052120100007, 24.529761992000033], [84.69997216600007, 24.528924880000034], [84.69858320000003, 24.528346559000056], [84.69749394700005, 24.528067228000054], [84.69598011400006, 24.52671196600005], [84.69092008300004, 24.528363458000058], [84.68867664300006, 24.529104459000052], [84.68572592200007, 24.53020384000007], [84.68491676600007, 24.53127965400006], [84.68417269200006, 24.53325396400004], [84.68371924300004, 24.53423180200008], [84.68259425900004, 24.534227604000023], [84.68062728600006, 24.533795853000072], [84.67978864500003, 24.533743041000037], [84.67887507200004, 24.534571834000076], [84.67849334900006, 24.534918133000076], [84.67788595100006, 24.535469163000073], [84.67739399600003, 24.536225587000047], [84.67563626200007, 24.53754148300004], [84.67417839200004, 24.539093296000033], [84.67383019700009, 24.539696752000054], [84.67300060400004, 24.54088531900004], [84.67261750000006, 24.542653311000038], [84.67239818600007, 24.54313991300006], [84.67191785000006, 24.54349920100003], [84.67068082200007, 24.544212152000057], [84.67055800900005, 24.545155135000073], [84.67037576300004, 24.54617002300006], [84.67040709200006, 24.54685628900006], [84.67024366700008, 24.548065348000023], [84.67011020800004, 24.550267657000063], [84.66980863900005, 24.552527939000072], [84.66799090900008, 24.55071540800003], [84.66695048500003, 24.550508259000026], [84.66440275800005, 24.550764713000035], [84.66363211800007, 24.550937748000024], [84.66258720900004, 24.551705518000063], [84.66036193300005, 24.552649303000067], [84.65917588100007, 24.552974171000074], [84.65851266700008, 24.553377821000026], [84.65784601400009, 24.55346090300003], [84.65799609700008, 24.555140680000022], [84.65794076800006, 24.55746515000004], [84.65759498300008, 24.55857874000003], [84.65764636000006, 24.55919733500008], [84.65805732600006, 24.561036140000056], [84.65808256400004, 24.563017787000035], [84.65869814700005, 24.563309150000066], [84.66210605200007, 24.563877671000057], [84.66361089600008, 24.564000874000044], [84.66425223000005, 24.564071085000023], [84.66580819000006, 24.563806277000026], [84.66789764500004, 24.56237894800006], [84.66917831700005, 24.56187833100006], [84.66980926700006, 24.56205679800007], [84.67029658100006, 24.56232952700003], [84.67074792600005, 24.562940688000026], [84.67146979400007, 24.563728895000054], [84.67215011600007, 24.56390751300006], [84.67351704600009, 24.563971425000034], [84.67532614100008, 24.563405069000055], [84.67724426200004, 24.56271276800004], [84.67834980300006, 24.562735014000054], [84.67969429500005, 24.564482399000042], [84.68009658900007, 24.565025658000025], [84.68014678800006, 24.565933079000047], [84.67979876200008, 24.566486977000068], [84.67926107400007, 24.567509630000075], [84.67946663700008, 24.567880523000042], [84.67984965000005, 24.568319812000027], [84.68029035900008, 24.569115969000052], [84.68107097700005, 24.570035276000056], [84.68149398900005, 24.570366394000075], [84.68264415600004, 24.57034810400006], [84.68385948400004, 24.570113461000062], [84.68564136300006, 24.57011564100003], [84.68625650100006, 24.57053320500006], [84.68666942800007, 24.569803488000048], [84.68870402900006, 24.56737362100006], [84.68940487900005, 24.566261306000058], [84.69113624600004, 24.564272584000037], [84.69207470000003, 24.563025708000055], [84.69310339200007, 24.56142251700004], [84.69362561900004, 24.560512668000058], [84.69212884900008, 24.558570689000078], [84.69107581100008, 24.55786258200004], [84.69068493700007, 24.556980921000047], [84.68961602000007, 24.555388011000048], [84.68821748500005, 24.553568195000025], [84.68686041600006, 24.552430178000066], [84.68557282500007, 24.551224629000046], [84.68451966300006, 24.550543658000038], [84.68369686000005, 24.55024257900004], [84.68277935100008, 24.550139855000054], [84.68179180800007, 24.55027158200005], [84.68059028200008, 24.550759035000056], [84.67963961400005, 24.551459575000024], [84.67949666800007, 24.549238201000037], [84.67926843300006, 24.547305359000063], [84.67917024400003, 24.546113357000024], [84.67906543200007, 24.545282392000047], [84.67917310100006, 24.542199810000056], [84.67920827400008, 24.540976674000035], [84.68085137800006, 24.541018945000076], [84.68442548900003, 24.540720950000036], [84.68467221800006, 24.541836855000042], [84.68851558500006, 24.54202719600005], [84.68896352100006, 24.541180325000028], [84.68973539500007, 24.54072274600003], [84.69027428700008, 24.540499061000048], [84.69106247400003, 24.539684931000068], [84.69228324400007, 24.539265158000035], [84.69465867900004, 24.538845089000063], [84.69743356500004, 24.538498747000062], [84.69887360100006, 24.53869358700007], [84.69917730600008, 24.539209225000036], [84.70004788800009, 24.53988498500007], [84.70349468400008, 24.540484373000027]]]]}}, {"type": "Feature", "properties": {"OBJECTID": 2614, "GPCODE": "92905", "GPNAME_1": "BIHARGAIN", "DIST_CEN_C": "35", "BLK_NAME": "BANKE BAZAR", "ST_NAME": "BIHAR", "ST_CODE_1": "10", "GPCODE2011": "95460", "REMARKS": "FINALIZED", "MAP_STATUS": "COMPLETED", "BLK_C_2001": "350014", "BLK_C_2011": "01500", "DIST_NAME": "GAYA", "code2011": 33.0, "Shape_Leng": 0.20529208754, "Shape_Area": 0.00143312771, "Area": 16.0908}, "geometry": {"type": "MultiPolygon", "coordinates": [[[[84.69287831900004, 24.57775755600005], [84.69377345400005, 24.577381700000046], [84.69569259100007, 24.57650407600005], [84.69792381600007, 24.575343128000043], [84.70105524100006, 24.573792826000044], [84.70287519600004, 24.573125867000044], [84.70591252200006, 24.572107381000023], [84.70625079700005, 24.571997042000078], [84.70625077400007, 24.571997004000025], [84.70625149400007, 24.571996815000034], [84.71016450200005, 24.57097293100003], [84.71209695200008, 24.57039306400003], [84.71421078700007, 24.570107199000063], [84.71575256700004, 24.569683781000037], [84.71747444200008, 24.568710398000064], [84.71923448400008, 24.56685238800003], [84.72070640400005, 24.565417638000042], [84.72178753800006, 24.564207101000022], [84.72214809600007, 24.56296706300003], [84.72197765400006, 24.561233139000024], [84.72178812000004, 24.559354709000047], [84.72325425900004, 24.559264980000023], [84.72464997300006, 24.559531694000043], [84.72561580800004, 24.559891641000036], [84.72650543600008, 24.560779471000046], [84.72693581500005, 24.561742468000034], [84.72804158700006, 24.562892833000035], [84.72911509600004, 24.56350140400008], [84.73064826000007, 24.56394910000006], [84.73166923800005, 24.56410603200004], [84.73356875100006, 24.56429316400005], [84.73465857800005, 24.564522578000037], [84.73609319500008, 24.564938245000064], [84.73758401900005, 24.564893683000037], [84.73751959400005, 24.56253717900006], [84.73757949300006, 24.56114255600005], [84.73781585400008, 24.560060045000057], [84.73832302600005, 24.55912737500006], [84.74010719600005, 24.557323362000034], [84.74012475600006, 24.556623712000032], [84.74092021100006, 24.555199994000077], [84.74147588700004, 24.55446157500006], [84.73986891300007, 24.552758893000032], [84.73869038300006, 24.551301412000043], [84.73747868300006, 24.549491748000037], [84.73688830400005, 24.54904285300006], [84.73647782600005, 24.548030350000033], [84.73609763100006, 24.545663741000055], [84.73491948000003, 24.54412045400005], [84.73393320700006, 24.54395004500003], [84.73283669700004, 24.544194524000034], [84.73197660900007, 24.544525603000068], [84.73116944000003, 24.54520898100003], [84.73094940300007, 24.54591687900006], [84.73066170600003, 24.54627706800005], [84.72854438500008, 24.54631934500003], [84.72598195900008, 24.546576815000037], [84.72508198900005, 24.54702957300003], [84.72310031500007, 24.548859831000073], [84.72189683400006, 24.549880316000042], [84.72172837300008, 24.547672361000025], [84.72176061000005, 24.544675220000045], [84.72152763000008, 24.543740054000068], [84.71878828700005, 24.543843276000075], [84.71794493300007, 24.54372743500005], [84.71737938200005, 24.54210039700007], [84.71705721200004, 24.54126422400003], [84.71683068600004, 24.539967922000073], [84.71621122800008, 24.53825943700008], [84.71580486900007, 24.537486087000048], [84.71314912200006, 24.537693329000035], [84.71124798700004, 24.537998025000036], [84.71051004600008, 24.53861828500004], [84.70858351700008, 24.540245479000077], [84.70570510200008, 24.54056460100003], [84.70349468400008, 24.540484373000027], [84.70004788800009, 24.53988498500007], [84.69917730600008, 24.539209225000036], [84.69887360100006, 24.53869358700007], [84.69743356500004, 24.538498747000062], [84.69465867900004, 24.538845089000063], [84.69228324400007, 24.539265158000035], [84.69106247400003, 24.539684931000068], [84.69027428700008, 24.540499061000048], [84.68973539500007, 24.54072274600003], [84.68896352100006, 24.541180325000028], [84.68851558500006, 24.54202719600005], [84.68467221800006, 24.541836855000042], [84.68442548900003, 24.540720950000036], [84.68085137800006, 24.541018945000076], [84.67920827400008, 24.540976674000035], [84.67917310100006, 24.542199810000056], [84.67906543200007, 24.545282392000047], [84.67917024400003, 24.546113357000024], [84.67926843300006, 24.547305359000063], [84.67949666800007, 24.549238201000037], [84.67963961400005, 24.551459575000024], [84.68059028200008, 24.550759035000056], [84.68179180800007, 24.55027158200005], [84.68277935100008, 24.550139855000054], [84.68369686000005, 24.55024257900004], [84.68451966300006, 24.550543658000038], [84.68557282500007, 24.551224629000046], [84.68686041600006, 24.552430178000066], [84.68821748500005, 24.553568195000025], [84.68961602000007, 24.555388011000048], [84.69068493700007, 24.556980921000047], [84.69107581100008, 24.55786258200004], [84.69212884900008, 24.558570689000078], [84.69362561900004, 24.560512668000058], [84.69310339200007, 24.56142251700004], [84.69207470000003, 24.563025708000055], [84.69113624600004, 24.564272584000037], [84.68940487900005, 24.566261306000058], [84.68870402900006, 24.56737362100006], [84.68666942800007, 24.569803488000048], [84.68625650100006, 24.57053320500006], [84.68656399200006, 24.571301709000068], [84.68692621500008, 24.57309513000007], [84.68722771700004, 24.574102865000043], [84.68764229300007, 24.57524193000006], [84.68808067500004, 24.576561560000073], [84.68828909400008, 24.57741100900006], [84.68837162500006, 24.57772723100004], [84.68919113800007, 24.577703205000034], [84.69058756300007, 24.577825766000046], [84.69225082500003, 24.577881597000044], [84.69287831900004, 24.57775755600005]]]]}}, {"type": "Feature", "properties": {"OBJECTID": 2643, "GPCODE": "92909", "GPNAME_1": "PARSAWAN KHURD", "DIST_CEN_C": "35", "BLK_NAME": "BANKE BAZAR", "ST_NAME": "BIHAR", "ST_CODE_1": "10", "GPCODE2011": "95464", "REMARKS": "FINALIZED", "MAP_STATUS": "COMPLETED", "BLK_C_2001": "350014", "BLK_C_2011": "01500", "DIST_NAME": "GAYA", "code2011": 23.0, "Shape_Leng": 0.2200826918, "Shape_Area": 0.00216724266, "Area": 24.3484}, "geometry": {"type": "MultiPolygon", "coordinates": [[[[84.70027702900006, 24.50533161100003], [84.69978562300008, 24.50373641500005], [84.69891517200006, 24.50198632300004], [84.69811201900006, 24.500501972000052], [84.69794124000003, 24.500186231000043], [84.69851981200009, 24.499876822000033], [84.69933458700007, 24.49968124800006], [84.70153578100008, 24.49945899200003], [84.70368577000005, 24.49966543900007], [84.70537767700006, 24.49970318100003], [84.70519964500005, 24.49752680100005], [84.70505923200005, 24.496898858000066], [84.70387072700004, 24.496808790000046], [84.70316630800005, 24.496584993000056], [84.70221212300004, 24.495922490000055], [84.70149762900007, 24.494597304000024], [84.70092680900007, 24.493150823000065], [84.70082429800004, 24.491764658000022], [84.70063100300007, 24.490820504000055], [84.70085305900005, 24.489674814000068], [84.70177979100004, 24.488689633000035], [84.70326314900007, 24.48786891900005], [84.70182198500004, 24.48690218200005], [84.70067229700004, 24.48585080600003], [84.69923845700004, 24.484360475000074], [84.69807093400004, 24.482871122000063], [84.69778415900004, 24.481913142000053], [84.69786069200006, 24.481317537000052], [84.69806584300005, 24.480641176000063], [84.69839362500005, 24.480136840000057], [84.69908412400008, 24.479015356000048], [84.69968450400006, 24.47819150400005], [84.70042889400008, 24.47713791900003], [84.70156644700006, 24.476437863000058], [84.70274096200006, 24.476293181000074], [84.70411248500005, 24.47619884900007], [84.70513781800008, 24.476338025000075], [84.70660360500005, 24.476126556000054], [84.70737676800007, 24.476413732000026], [84.70775908800005, 24.475819269000056], [84.70821098100004, 24.47509867900004], [84.70864840500008, 24.474323808000065], [84.70952174700005, 24.473072127000023], [84.71017299200008, 24.471882695000033], [84.71032005600006, 24.470921773000043], [84.70823629800003, 24.469189966000044], [84.70782795900004, 24.467784685000026], [84.70741547200004, 24.467367917000047], [84.70660241400003, 24.467216001000054], [84.70506992900005, 24.466898977000028], [84.70399319300003, 24.466118723000022], [84.70339891200007, 24.465529796000055], [84.70311755800003, 24.464436327000044], [84.70301459800004, 24.463167531000067], [84.70265664300007, 24.462683216000073], [84.70080175000004, 24.461678908000067], [84.69907282300005, 24.461180632000037], [84.69689257400006, 24.460147981000034], [84.69469671900004, 24.459304813000074], [84.69305660600008, 24.458833885000047], [84.69152425400006, 24.458516725000038], [84.69042433100003, 24.458544267000036], [84.68914486700004, 24.457930109000074], [84.68779478000005, 24.457667791000063], [84.68709155700003, 24.457218280000063], [84.68642800400005, 24.456719285000077], [84.68561940800004, 24.455560683000044], [84.68504784500004, 24.454344284000058], [84.68461841200008, 24.453336083000067], [84.68409952300004, 24.452472014000023], [84.68374335400006, 24.451613030000033], [84.68309667900007, 24.451768594000043], [84.68179493600007, 24.452837956000053], [84.68128673000007, 24.452899295000066], [84.67957670600003, 24.45264454000005], [84.67705167400004, 24.452671102000068], [84.67506388000004, 24.452776372000073], [84.67345188500008, 24.45265739900003], [84.66701167300005, 24.452614634000042], [84.66538869700008, 24.452725756000063], [84.66225185900004, 24.452826449000042], [84.66213221100008, 24.45523640400006], [84.66122460700007, 24.456356839000023], [84.66118518200005, 24.457403990000046], [84.66100080200005, 24.457818506000024], [84.66002378700006, 24.459001835000038], [84.66035983500007, 24.459914999000034], [84.66027921400007, 24.46134561100007], [84.65991415800005, 24.46241404500006], [84.66163072100005, 24.462357542000063], [84.66172306300007, 24.463703045000045], [84.66156005700003, 24.46481731700004], [84.66090775600009, 24.466178004000028], [84.66032259600007, 24.46685734600004], [84.65771769200006, 24.469140226000036], [84.65726614100004, 24.469729745000052], [84.65690522000006, 24.47096966500004], [84.65690178700004, 24.47169642600005], [84.65541464200004, 24.473306568000055], [84.65423488200008, 24.47455227000006], [84.65267251500006, 24.476405923000073], [84.65156008300005, 24.478026528000044], [84.65106079200007, 24.479297418000044], [84.65144408500004, 24.480644166000047], [84.65202819400008, 24.48230303200006], [84.65283208900007, 24.48337156900004], [84.65346138000007, 24.48485909900006], [84.65362478800006, 24.485771596000063], [84.65453892400006, 24.486488388000055], [84.65596646500006, 24.48710793400005], [84.65691790900007, 24.48723806000004], [84.65868320000004, 24.487375884000073], [84.65968722400004, 24.48784921200007], [84.66037993600008, 24.488443243000063], [84.66180174600004, 24.49032211800005], [84.66246565700004, 24.491827817000058], [84.66295831500008, 24.493034977000036], [84.66347511700008, 24.49434153900006], [84.66394105400008, 24.494921145000035], [84.66604493500006, 24.496549747000074], [84.66713933200003, 24.497772737000048], [84.66765251300006, 24.498822008000047], [84.66764520800007, 24.500401835000048], [84.66827517400003, 24.500733806000028], [84.67045279600006, 24.50136511100004], [84.67311058200005, 24.502715925000075], [84.67493360000003, 24.50431627100005], [84.67530575500007, 24.50492255100005], [84.67592928500005, 24.505597563000038], [84.67745865100005, 24.50558527800007], [84.67912311100008, 24.506282261000024], [84.68005437500005, 24.506534001000034], [84.68134785100006, 24.50633576300004], [84.68441065200005, 24.50652780100006], [84.68543103700006, 24.506707706000043], [84.68701345100004, 24.505892070000073], [84.68738853700006, 24.505843801000026], [84.68793035000004, 24.504929485000048], [84.68838031200005, 24.504714496000076], [84.69018878500003, 24.50518164400006], [84.69040165900003, 24.50612585400006], [84.69205796200004, 24.507544906000078], [84.69363370900004, 24.50824130600006], [84.69576119300007, 24.509111277000045], [84.69749954900004, 24.509839896000074], [84.69959359900008, 24.51045694900006], [84.70159963000003, 24.510915632000035], [84.70167420200005, 24.509656536000023], [84.70169905400007, 24.50845589000005], [84.70116709100006, 24.507126880000044], [84.70027702900006, 24.50533161100003]]]]}}, {"type": "Feature", "properties": {"OBJECTID": 2646, "GPCODE": "92908", "GPNAME_1": "PANANIYA", "DIST_CEN_C": "35", "BLK_NAME": "BANKE BAZAR", "ST_NAME": "BIHAR", "ST_CODE_1": "10", "GPCODE2011": "95463", "REMARKS": "FINALIZED", "MAP_STATUS": "COMPLETED", "BLK_C_2001": "350014", "BLK_C_2011": "01500", "DIST_NAME": "GAYA", "code2011": 16.0, "Shape_Leng": 0.17225763829, "Shape_Area": 0.00105133624, "Area": 11.8112}, "geometry": {"type": "MultiPolygon", "coordinates": [[[[84.66170167900003, 24.499123937000036], [84.66373509500005, 24.498924162000037], [84.66555032300005, 24.498962843000072], [84.66765251300006, 24.498822008000047], [84.66713933200003, 24.497772737000048], [84.66604493500006, 24.496549747000074], [84.66394105400008, 24.494921145000035], [84.66347511700008, 24.49434153900006], [84.66295831500008, 24.493034977000036], [84.66246565700004, 24.491827817000058], [84.66180174600004, 24.49032211800005], [84.66037993600008, 24.488443243000063], [84.65968722400004, 24.48784921200007], [84.65868320000004, 24.487375884000073], [84.65691790900007, 24.48723806000004], [84.65596646500006, 24.48710793400005], [84.65453892400006, 24.486488388000055], [84.65362478800006, 24.485771596000063], [84.65346138000007, 24.48485909900006], [84.65283208900007, 24.48337156900004], [84.65202819400008, 24.48230303200006], [84.65144408500004, 24.480644166000047], [84.65106079200007, 24.479297418000044], [84.65156008300005, 24.478026528000044], [84.65267251500006, 24.476405923000073], [84.65423488200008, 24.47455227000006], [84.65541464200004, 24.473306568000055], [84.65690178700004, 24.47169642600005], [84.65690522000006, 24.47096966500004], [84.65726614100004, 24.469729745000052], [84.65771769200006, 24.469140226000036], [84.66032259600007, 24.46685734600004], [84.66090775600009, 24.466178004000028], [84.66156005700003, 24.46481731700004], [84.66172306300007, 24.463703045000045], [84.66163072100005, 24.462357542000063], [84.65991415800005, 24.46241404500006], [84.65877960900008, 24.463519960000042], [84.65756881000004, 24.46511771100006], [84.65678212800003, 24.465651782000066], [84.65526182300005, 24.465921174000073], [84.65370909100005, 24.465752571000053], [84.65140642500006, 24.465653143000054], [84.64904041500006, 24.465368402000024], [84.64730907000006, 24.46542917100004], [84.64644449000008, 24.46573274800005], [84.64541620700004, 24.46626124900007], [84.64524158200004, 24.467705], [84.64241499400003, 24.46782004800008], [84.64188596400004, 24.468093302000057], [84.64174149400003, 24.468399634000036], [84.64289958500007, 24.469618567000055], [84.64342834100006, 24.470446725000045], [84.64220951400006, 24.470568246000028], [84.64014273600003, 24.470609571000068], [84.63857904000008, 24.470657354000025], [84.63627857600005, 24.47109948900004], [84.63426465500004, 24.471429785000055], [84.63362672800008, 24.471765706000042], [84.63320617700003, 24.473064013000055], [84.63330297500005, 24.474454709000042], [84.63385275100006, 24.476014260000056], [84.63471799300004, 24.477615713000034], [84.63581601300007, 24.47901955100008], [84.63596022000007, 24.479796487000044], [84.63626093800008, 24.48187415800004], [84.63630494800003, 24.483973286000037], [84.63655523000006, 24.48526981300006], [84.63396149900007, 24.485096801000054], [84.63172217100004, 24.485074110000028], [84.62881109400007, 24.48523814300006], [84.62759664000004, 24.48544075500007], [84.62546053900007, 24.485495198000024], [84.62512386700007, 24.485737552000046], [84.62492082000006, 24.486901243000034], [84.62397291300005, 24.48806649200003], [84.62403724000006, 24.489037262000068], [84.62477810200005, 24.489830272000063], [84.62491460800004, 24.490155779000077], [84.62349264700003, 24.49242947500005], [84.62444465800007, 24.494424029000072], [84.62471780400006, 24.49605464700005], [84.62549528800008, 24.497457220000058], [84.62665130900007, 24.499123116000078], [84.62693123900004, 24.500383662000047], [84.62751189700003, 24.501672476000067], [84.62822843600009, 24.50242474600003], [84.62912744100004, 24.50320036000005], [84.62952944500006, 24.50373012400007], [84.63026023200007, 24.504595264000045], [84.63122830100008, 24.505375698000023], [84.63203228100008, 24.506430700000067], [84.63330720800008, 24.507000144000074], [84.63362734500004, 24.50711431800005], [84.63456472500008, 24.507127187000037], [84.63703420700006, 24.50758408100006], [84.63854381400006, 24.507590282000024], [84.63944928200004, 24.508058881000068], [84.64141326900005, 24.507967438000037], [84.64192746200007, 24.507752862000075], [84.64357587700005, 24.506590423000034], [84.64477785500003, 24.505936216000066], [84.64657196100006, 24.505252797000026], [84.64712114400004, 24.50491186200003], [84.64900040300006, 24.503957955000033], [84.65192226900007, 24.502642452000032], [84.65336671400007, 24.501813095000045], [84.65518556600006, 24.501084513000023], [84.65739781100007, 24.500628293000034], [84.65769701700003, 24.500497456000062], [84.65974100300008, 24.499603743000023], [84.66170167900003, 24.499123937000036]]]]}}, {"type": "Feature", "properties": {"OBJECTID": 2648, "GPCODE": "92903", "GPNAME_1": "BAITAL", "DIST_CEN_C": "35", "BLK_NAME": "BANKE BAZAR", "ST_NAME": "BIHAR", "ST_CODE_1": "10", "GPCODE2011": "95458", "REMARKS": "FINALIZED", "MAP_STATUS": "COMPLETED", "BLK_C_2001": "350014", "BLK_C_2011": "01500", "DIST_NAME": "GAYA", "code2011": 19.0, "Shape_Leng": 0.20193512852, "Shape_Area": 0.00202952503, "Area": 22.7971}, "geometry": {"type": "MultiPolygon", "coordinates": [[[[84.74372077300006, 24.513987962000044], [84.74472469300008, 24.51337748000003], [84.74623241600005, 24.513892585000065], [84.74785777400007, 24.514602203000038], [84.74870641100006, 24.514586991000044], [84.74938738000003, 24.514571144000058], [84.75003907700005, 24.51446048100007], [84.75057227600007, 24.51437198800005], [84.75153625200005, 24.513869557000078], [84.75115573300008, 24.512784947000057], [84.75067632200006, 24.511740605000057], [84.75024534800008, 24.510944789000064], [84.74974120700006, 24.509922948000053], [84.74921171000005, 24.509081620000075], [84.74896456000005, 24.507943236000074], [84.74891883000004, 24.507035762000044], [84.74885105800007, 24.50546466800006], [84.74871450400008, 24.50383019700007], [84.74851400600005, 24.502118747000054], [84.74844810700006, 24.50131949400003], [84.74845551700008, 24.500714661000075], [84.74852684800004, 24.50071897500004], [84.74916566200005, 24.50075760800007], [84.74917056300006, 24.500753587000077], [84.74947250700006, 24.500505857000064], [84.74934279000007, 24.499638743000048], [84.74961604000003, 24.499161221000065], [84.75011565900007, 24.498810752000054], [84.75062499900008, 24.498491948000037], [84.75119408500007, 24.498037904000057], [84.75180256300007, 24.497606593000057], [84.75144342200008, 24.49735715500003], [84.75092564000005, 24.497310309000056], [84.75047184500005, 24.497308746000044], [84.75008895400003, 24.49681093600003], [84.74938954100008, 24.49654232900008], [84.74898154800007, 24.496166342000038], [84.74878232700007, 24.49542085400003], [84.74819698500005, 24.494985573000065], [84.74786961900008, 24.494185539000057], [84.74761762900005, 24.493843704000028], [84.74702351000008, 24.492350008000074], [84.74685536600003, 24.490917654000043], [84.74679450300005, 24.49039917400006], [84.74649446200004, 24.488935651000077], [84.74648365400003, 24.48794252500005], [84.74633895700003, 24.487116034000053], [84.74564357000008, 24.485845261000065], [84.74496046100006, 24.485211048000053], [84.74433000300007, 24.484978710000064], [84.74351569300006, 24.48508432400007], [84.74271045300009, 24.484142672000075], [84.74114877400007, 24.48243565200005], [84.73970846000003, 24.481216541000038], [84.73899262200007, 24.480139735000023], [84.73766278600004, 24.478433464000034], [84.73744874900007, 24.477715041000067], [84.73687462700008, 24.47696827200008], [84.73550330800003, 24.47701323600006], [84.73509075000004, 24.476564944000074], [84.73428365100006, 24.474914600000034], [84.73222963100005, 24.47425303700004], [84.73230686900007, 24.473445319000064], [84.73114988900005, 24.472944824000024], [84.73068324200005, 24.472478285000022], [84.73054389100008, 24.47158851000006], [84.73007809400008, 24.470900847000053], [84.72871025400008, 24.47010612400004], [84.72708559500006, 24.46940541400005], [84.72575583700007, 24.468953854000063], [84.72463598900003, 24.469008689000077], [84.72304771800003, 24.469052744000066], [84.72193467700004, 24.468669764000026], [84.71596282200005, 24.472002574000044], [84.71308053300004, 24.471279173000028], [84.71032005600006, 24.470921773000043], [84.71017299200008, 24.471882695000033], [84.70952174700005, 24.473072127000023], [84.70864840500008, 24.474323808000065], [84.70821098100004, 24.47509867900004], [84.70775908800005, 24.475819269000056], [84.70737676800007, 24.476413732000026], [84.70660360500005, 24.476126556000054], [84.70513781800008, 24.476338025000075], [84.70411248500005, 24.47619884900007], [84.70274096200006, 24.476293181000074], [84.70156644700006, 24.476437863000058], [84.70042889400008, 24.47713791900003], [84.69968450400006, 24.47819150400005], [84.69908412400008, 24.479015356000048], [84.69839362500005, 24.480136840000057], [84.69806584300005, 24.480641176000063], [84.69786069200006, 24.481317537000052], [84.69778415900004, 24.481913142000053], [84.69807093400004, 24.482871122000063], [84.69923845700004, 24.484360475000074], [84.70067229700004, 24.48585080600003], [84.70182198500004, 24.48690218200005], [84.70326314900007, 24.48786891900005], [84.70177979100004, 24.488689633000035], [84.70085305900005, 24.489674814000068], [84.70063100300007, 24.490820504000055], [84.70082429800004, 24.491764658000022], [84.70092680900007, 24.493150823000065], [84.70149762900007, 24.494597304000024], [84.70221212300004, 24.495922490000055], [84.70316630800005, 24.496584993000056], [84.70387072700004, 24.496808790000046], [84.70505923200005, 24.496898858000066], [84.70519964500005, 24.49752680100005], [84.70537767700006, 24.49970318100003], [84.70368577000005, 24.49966543900007], [84.70153578100008, 24.49945899200003], [84.69933458700007, 24.49968124800006], [84.69851981200009, 24.499876822000033], [84.69794124000003, 24.500186231000043], [84.69811201900006, 24.500501972000052], [84.69891517200006, 24.50198632300004], [84.69978562300008, 24.50373641500005], [84.70027702900006, 24.50533161100003], [84.70116709100006, 24.507126880000044], [84.70169905400007, 24.50845589000005], [84.70167420200005, 24.509656536000023], [84.70159963000003, 24.510915632000035], [84.70353217700006, 24.511261199000046], [84.70508880000006, 24.511808555000073], [84.70661249400007, 24.512008128000048], [84.70788320700007, 24.512522742000044], [84.70915452900005, 24.512888458000077], [84.71121563100007, 24.513157681000052], [84.71294584300006, 24.515845075000072], [84.71332271400007, 24.51655512900004], [84.71487775200006, 24.517526658000065], [84.71603949500008, 24.518153708000057], [84.71768482500005, 24.518782422000072], [84.71977837300005, 24.51959332200005], [84.72079914400007, 24.519705183000042], [84.72215399400005, 24.52019296700007], [84.72381900500005, 24.52084883400005], [84.72564210000007, 24.521446492000052], [84.72698529900003, 24.522353931000055], [84.72750133900007, 24.522861248000027], [84.72884510000006, 24.52363784000005], [84.73097381800005, 24.52434930900006], [84.73238742000007, 24.524945562000028], [84.73417513000004, 24.525777738000045], [84.73505760600005, 24.524747022000042], [84.73545803400003, 24.523362639000027], [84.73578488700008, 24.521856059000072], [84.73584478500004, 24.52046142000006], [84.73635570400006, 24.51857184200003], [84.73693109500005, 24.51782001600003], [84.73813388900004, 24.51688517900004], [84.73897797600006, 24.516784211000072], [84.73944730200003, 24.51654093700006], [84.74143523300006, 24.515510498000026], [84.74372077300006, 24.513987962000044]]]]}}, {"type": "Feature", "properties": {"OBJECTID": 2650, "GPCODE": "92907", "GPNAME_1": "LUTUA", "DIST_CEN_C": "35", "BLK_NAME": "BANKE BAZAR", "ST_NAME": "BIHAR", "ST_CODE_1": "10", "GPCODE2011": "95462", "REMARKS": "FINALIZED", "MAP_STATUS": "COMPLETED", "BLK_C_2001": "350014", "BLK_C_2011": "01500", "DIST_NAME": "GAYA", "code2011": 33.0, "Shape_Leng": 0.45567347105, "Shape_Area": 0.00591264593, "Area": 66.3976}, "geometry": {"type": "MultiPolygon", "coordinates": [[[[84.63312121800004, 24.594605055000045], [84.63593991700003, 24.592634969000073], [84.63751850000006, 24.59187409200007], [84.63876265800008, 24.591870072000063], [84.63975556300005, 24.59174317000003], [84.64129270600006, 24.591356765000057], [84.64272703200004, 24.590820895000036], [84.64457899900003, 24.589650161000066], [84.64594171800007, 24.58857688100005], [84.64633090100006, 24.587711757000022], [84.64600864500005, 24.585936497000034], [84.64587036000006, 24.58492939000007], [84.64567473500006, 24.583511229000067], [84.64559015600008, 24.582621611000036], [84.64536123800008, 24.580950574000042], [84.64523439500005, 24.578584830000068], [84.64516130800007, 24.57631851700006], [84.64506162800006, 24.575487572000043], [84.64409869700006, 24.575564970000073], [84.64224128400008, 24.575855404000038], [84.64064463400007, 24.576318419000074], [84.63953730700007, 24.576665993000063], [84.63909189500004, 24.57689892700006], [84.63850458800005, 24.576878478000026], [84.63828643200003, 24.576051558000074], [84.63812928000004, 24.574868235000054], [84.63790947100006, 24.573368713000036], [84.63757998900007, 24.57209901300007], [84.63748635900004, 24.571051402000023], [84.63719339400006, 24.569380068000044], [84.63740508300003, 24.568478207000055], [84.63685481300007, 24.567952286000036], [84.63603074000008, 24.56790385900007], [84.63549617300004, 24.568208557000048], [84.63477475800005, 24.56938377800003], [84.63373474800005, 24.570083668000052], [84.63250125000008, 24.56999733400005], [84.63203927800004, 24.569584718000044], [84.63176607100007, 24.56892000700003], [84.63147642100006, 24.566585216000078], [84.63150827600003, 24.565118280000036], [84.63163868100008, 24.563683385000047], [84.63205743200007, 24.562850104000063], [84.63258093600007, 24.56177342500007], [84.63246728600006, 24.560797895000064], [84.63195523400003, 24.559518380000043], [84.63108860100004, 24.55811107100004], [84.63000280700004, 24.557095496000045], [84.62920774400004, 24.556184849000033], [84.62994268500006, 24.556269153000073], [84.63163667800006, 24.55705705300005], [84.63255578100006, 24.55682610200006], [84.63400061300007, 24.55606014400007], [84.63382891800006, 24.55282750600003], [84.63328576900005, 24.550848177000034], [84.63298174600004, 24.550454210000055], [84.63245023100006, 24.55015865200005], [84.63107449500006, 24.549909210000067], [84.62948553900009, 24.54986661600003], [84.62913195900006, 24.54950849200003], [84.62881378000003, 24.548983580000026], [84.62832801200005, 24.547401755000067], [84.62770965200008, 24.545697432000054], [84.62714525700005, 24.544079183000065], [84.62843583000006, 24.543560824000053], [84.62912459000006, 24.542981417000078], [84.63053832400004, 24.541488584000035], [84.63216898700006, 24.540041810000048], [84.63217242300004, 24.538331047000042], [84.63054070800007, 24.537985852000077], [84.62924240100006, 24.537082230000067], [84.62851131900004, 24.536230638000063], [84.62708407500008, 24.53446430500003], [84.62635498500003, 24.533201881000025], [84.62523586400005, 24.53200561400007], [84.62441190300007, 24.53097752700006], [84.62336190500008, 24.52978147300007], [84.62334569400008, 24.529077245000053], [84.62352956000007, 24.52881618400005], [84.62487272700008, 24.527598556000044], [84.62690524500005, 24.525697582000078], [84.62551940800006, 24.523552206000033], [84.62412607500005, 24.52194852300005], [84.62258118500006, 24.52005984500005], [84.62118794500003, 24.518442591000053], [84.61986859900009, 24.516866220000054], [84.61874184000004, 24.51525458200007], [84.61883352300003, 24.51466364600003], [84.61929072900006, 24.513017931000036], [84.62033341400007, 24.509713617000045], [84.62110391600004, 24.50755468600005], [84.62014131300003, 24.506683932000044], [84.61953098700008, 24.506397054000047], [84.62015222500008, 24.505483279000032], [84.62117201000007, 24.504765361000068], [84.62185074900003, 24.504194934000054], [84.62305813900008, 24.503473212000074], [84.62426895300007, 24.503026818000023], [84.62536727400004, 24.50240848800007], [84.62646891200006, 24.502101509000056], [84.62751189700003, 24.501672476000067], [84.62693123900004, 24.500383662000047], [84.62665130900007, 24.499123116000078], [84.62549528800008, 24.497457220000058], [84.62471780400006, 24.49605464700005], [84.62444465800007, 24.494424029000072], [84.62349264700003, 24.49242947500005], [84.62262207000003, 24.491915703000075], [84.62040077300009, 24.491211347000046], [84.61677824200007, 24.49059136900007], [84.61510253600005, 24.49029543100005], [84.61470851900003, 24.491146831000037], [84.61316909000004, 24.492205655000078], [84.61145530600004, 24.492618211000035], [84.60995449900008, 24.492855605000045], [84.60910347200007, 24.493348508000054], [84.60846753100003, 24.494248587000072], [84.60792361400007, 24.495478646000038], [84.60724719100006, 24.496559104000028], [84.60563754600008, 24.49781155900007], [84.60443352900006, 24.498840079000047], [84.60400452400006, 24.499777151000046], [84.60398087900006, 24.500535453000055], [84.60692450700003, 24.501820896000027], [84.60735019000003, 24.50250882000006], [84.60709017700003, 24.50319386800004], [84.60454379800007, 24.505272925000043], [84.60258384300005, 24.507471847000033], [84.60218277700005, 24.50871593900007], [84.60299044700008, 24.51189267500007], [84.60305996100004, 24.512773195000022], [84.60274970100005, 24.513634025000044], [84.59846870000007, 24.51237426600005], [84.59155347700005, 24.50917095500006], [84.58745383500008, 24.507257150000044], [84.58602172800005, 24.507512706000057], [84.58476606600004, 24.50799918900003], [84.58422953100006, 24.50871453700006], [84.58181583700008, 24.51265797900004], [84.57987788200006, 24.513407734000054], [84.57748599300004, 24.514150878000066], [84.57498638200008, 24.514722068000026], [84.57308605200006, 24.514871475000064], [84.57080149100005, 24.51491536700007], [84.56926724100003, 24.514885925000044], [84.56756134500006, 24.51465254200008], [84.56600312100005, 24.514491957000075], [84.56469644200007, 24.514355126000055], [84.56260528100006, 24.514219242000024], [84.56143185600007, 24.514069407000022], [84.55884087000004, 24.513294791000078], [84.55610392600005, 24.51306104300005], [84.55507446800004, 24.512753798000062], [84.55428087500007, 24.512619293000057], [84.55167780100004, 24.512264147000053], [84.55134774800007, 24.513061610000022], [84.55105294300006, 24.51372832800007], [84.55051098500007, 24.514484151000033], [84.54913515800007, 24.515254112000036], [84.54739087100006, 24.51572901800006], [84.54581422300004, 24.516227143000037], [84.54475487800005, 24.51684511900004], [84.54435699300006, 24.517416575000027], [84.54409498000007, 24.51839486600005], [84.54350350500005, 24.51917294200007], [84.54314008700004, 24.519739968000067], [84.54205517100007, 24.520524859000034], [84.54137848300007, 24.520657112000038], [84.53945791400008, 24.52087827300005], [84.53912052800007, 24.521201698000027], [84.53882541600007, 24.521913442000027], [84.53873406500009, 24.523244569000042], [84.53839594600004, 24.523698913000032], [84.53797460900006, 24.524049036000065], [84.53676534200008, 24.525862364000034], [84.53877608300007, 24.525420446000055], [84.53923567500004, 24.525287236000054], [84.53983238000006, 24.52535328700003], [84.54087654900007, 24.525687651000055], [84.54265639500005, 24.52593978400006], [84.54482984900005, 24.52640587600007], [84.54606668900004, 24.526709555000025], [84.54689520700003, 24.526790105000032], [84.54706073800008, 24.527183627000056], [84.54741143400008, 24.528900484000076], [84.54806571400007, 24.530140412000037], [84.54891455800004, 24.531015514000046], [84.55081386700004, 24.532879499000046], [84.55215146900008, 24.532818037000027], [84.55360739700006, 24.532779594000033], [84.55425875300006, 24.53277810900005], [84.55476100800007, 24.53296545200004], [84.55589658000008, 24.533751616000075], [84.55674612300004, 24.534504783000045], [84.55789477500008, 24.53561148500006], [84.55879243300006, 24.536599592000073], [84.55967645200008, 24.537375490000045], [84.56053427600006, 24.538426670000035], [84.56184087900004, 24.539538521000054], [84.56254212600004, 24.540336214000035], [84.56355010300007, 24.541022379000026], [84.56532449500008, 24.542334973000038], [84.56665472100008, 24.542724616000044], [84.56784197500008, 24.54310918500005], [84.56868318700003, 24.543609487000026], [84.56948383800005, 24.54429476400003], [84.56983072400004, 24.544946339000035], [84.57006268800006, 24.545872703000043], [84.56997338900004, 24.546869859000026], [84.56957386300007, 24.547743755000056], [84.56920560200007, 24.548315312000057], [84.56911938500008, 24.54874373100006], [84.56939286000005, 24.54927312500007], [84.57015800500005, 24.550165796000044], [84.57128307100004, 24.551114289000054], [84.57147365300006, 24.55146715500007], [84.57135264200008, 24.551945154000066], [84.57055266300006, 24.552943597000024], [84.57005535300004, 24.553636527000037], [84.56914689000007, 24.554620955000075], [84.56917038900008, 24.554837656000075], [84.56998791200004, 24.55516188100006], [84.57086225200004, 24.55593763400003], [84.57149480700008, 24.556716875000063], [84.57241913900003, 24.55737110700005], [84.57414304900004, 24.558940635000056], [84.57486163600004, 24.559313924000037], [84.57598806600004, 24.560036747000026], [84.57686569900005, 24.56020310200006], [84.57747496100006, 24.560724898000046], [84.57795732800008, 24.560966371000063], [84.57829247900008, 24.56106713400004], [84.57973752300006, 24.56126312500004], [84.58053144500008, 24.561397589000023], [84.58099967000004, 24.561521563000042], [84.58128447300004, 24.561798104000047], [84.58062501700005, 24.56237751900005], [84.57997553200005, 24.562911773000053], [84.57959758900006, 24.56345176700006], [84.57916298400005, 24.564429346000054], [84.57872368500006, 24.56535722700005], [84.57820515100008, 24.566334442000027], [84.57760872500006, 24.56711260000003], [84.57594946600005, 24.567267749000052], [84.57378305500004, 24.567190328000038], [84.57216106600004, 24.56682644400007], [84.56985361100004, 24.566364605000047], [84.56748637400005, 24.56599735800006], [84.56658040400004, 24.566489783000065], [84.56566142400004, 24.567564402000073], [84.56552767600004, 24.567658549000043], [84.56389222500007, 24.567971579000073], [84.56399729000003, 24.56860849700007], [84.56486826100007, 24.57002082100007], [84.56551475100008, 24.570953599000063], [84.56623131400005, 24.57170614200004], [84.56712994500003, 24.57256787800003], [84.56770349100003, 24.57330623200005], [84.56887640300005, 24.574561823000067], [84.56980845400005, 24.575640409000073], [84.57078128100005, 24.57557709200006], [84.57154131200008, 24.575603083000033], [84.57222616200005, 24.575840868000057], [84.57281121600005, 24.57627229600007], [84.57349452500006, 24.576812542000027], [84.57403455000008, 24.577365607000047], [84.57431570600005, 24.578310303000023], [84.57453624200008, 24.579539045000047], [84.57502672900006, 24.58012351600007], [84.57546572600006, 24.58111851500007], [84.57582455700003, 24.581391024000027], [84.57645053600004, 24.58156983500004], [84.57718066900009, 24.581663380000066], [84.57792789200005, 24.58224896400003], [84.57852098400008, 24.583032572000036], [84.57944652900005, 24.58351059900008], [84.58043265200007, 24.583731654000076], [84.58086648000005, 24.583846428000072], [84.58142516100008, 24.58461630900007], [84.58226442700004, 24.58554531200008], [84.58298277800003, 24.585986370000057], [84.58442658800004, 24.586484781000024], [84.58555486900008, 24.586900547000027], [84.58655077600008, 24.58715765900007], [84.58788214400005, 24.58743434400003], [84.58858204300003, 24.587645080000073], [84.58892547400006, 24.58806641900003], [84.58882257500005, 24.589803775000064], [84.58886757500005, 24.590625502000023], [84.58927374800004, 24.591308887000025], [84.58954553600006, 24.592212842000038], [84.59031087300008, 24.593127976000062], [84.59115917900004, 24.59421952400004], [84.59218853400006, 24.595641347000026], [84.59368911100006, 24.59570208300005], [84.59557895300009, 24.59588633000004], [84.59665927100008, 24.596067075000065], [84.59745794300005, 24.595334769000033], [84.59926417600008, 24.593550616000073], [84.60059610300004, 24.59280255500005], [84.60201012400006, 24.592384389000074], [84.60269080200004, 24.592518166000048], [84.60320463400006, 24.593387048000068], [84.60402378700007, 24.594437764000077], [84.60477200700007, 24.594865302000073], [84.60567553900006, 24.59484658300005], [84.60737402500007, 24.594804270000054], [84.60935899200007, 24.594749498000056], [84.61151012800008, 24.594054483000036], [84.61200701900003, 24.594395090000035], [84.61228149100003, 24.59673900200005], [84.61334780300007, 24.598707037000054], [84.61423686600006, 24.59961356100007], [84.61531441200003, 24.600344845000052], [84.61737014000005, 24.600962890000062], [84.61929014900005, 24.60008622400005], [84.62063539700006, 24.59961790400007], [84.62174005600008, 24.59887767400005], [84.62420478900003, 24.598644257000046], [84.62665086300007, 24.59820299100005], [84.62812053900007, 24.597522957000024], [84.63022379600005, 24.596497955000075], [84.63223327400004, 24.59547712400007], [84.63312121800004, 24.594605055000045]]]]}}, {"type": "Feature", "properties": {"OBJECTID": 2655, "GPCODE": "92906", "GPNAME_1": "GOITHA", "DIST_CEN_C": "35", "BLK_NAME": "BANKE BAZAR", "ST_NAME": "BIHAR", "ST_CODE_1": "10", "GPCODE2011": "95461", "REMARKS": "FINALIZED", "MAP_STATUS": "COMPLETED", "BLK_C_2001": "350014", "BLK_C_2011": "01500", "DIST_NAME": "GAYA", "code2011": 14.0, "Shape_Leng": 0.1470398758, "Shape_Area": 0.00068829505, "Area": 7.7313}, "geometry": {"type": "MultiPolygon", "coordinates": [[[[84.65828852000004, 24.515870756000027], [84.65919369500006, 24.514339586000062], [84.66095388800005, 24.512464155000032], [84.66164195500005, 24.510914022000065], [84.66229601800006, 24.51030270700005], [84.66392445400004, 24.510227771000075], [84.66458670600008, 24.509982102000038], [84.66600053500008, 24.509369212000024], [84.66709281200008, 24.50894910100004], [84.66838130900004, 24.508773509000036], [84.66906771100008, 24.50863625200003], [84.67042489900007, 24.508542113000033], [84.67190700700007, 24.508091900000068], [84.67380713800009, 24.506839779000074], [84.67548368300004, 24.505938865000076], [84.67592928500005, 24.505597563000038], [84.67530575500007, 24.50492255100005], [84.67493360000003, 24.50431627100005], [84.67311058200005, 24.502715925000075], [84.67045279600006, 24.50136511100004], [84.66827517400003, 24.500733806000028], [84.66764520800007, 24.500401835000048], [84.66765251300006, 24.498822008000047], [84.66555032300005, 24.498962843000072], [84.66373509500005, 24.498924162000037], [84.66170167900003, 24.499123937000036], [84.65974100300008, 24.499603743000023], [84.65769701700003, 24.500497456000062], [84.65739781100007, 24.500628293000034], [84.65518556600006, 24.501084513000023], [84.65336671400007, 24.501813095000045], [84.65192226900007, 24.502642452000032], [84.64900040300006, 24.503957955000033], [84.64712114400004, 24.50491186200003], [84.64657196100006, 24.505252797000026], [84.64477785500003, 24.505936216000066], [84.64357587700005, 24.506590423000034], [84.64192746200007, 24.507752862000075], [84.64141326900005, 24.507967438000037], [84.63944928200004, 24.508058881000068], [84.63854381400006, 24.507590282000024], [84.63703420700006, 24.50758408100006], [84.63456472500008, 24.507127187000037], [84.63362734500004, 24.50711431800005], [84.63330720800008, 24.507000144000074], [84.63203228100008, 24.506430700000067], [84.63122830100008, 24.505375698000023], [84.63026023200007, 24.504595264000045], [84.62952944500006, 24.50373012400007], [84.62912744100004, 24.50320036000005], [84.62822843600009, 24.50242474600003], [84.62751189700003, 24.501672476000067], [84.62646891200006, 24.502101509000056], [84.62536727400004, 24.50240848800007], [84.62426895300007, 24.503026818000023], [84.62305813900008, 24.503473212000074], [84.62185074900003, 24.504194934000054], [84.62117201000007, 24.504765361000068], [84.62015222500008, 24.505483279000032], [84.61953098700008, 24.506397054000047], [84.62014131300003, 24.506683932000044], [84.62110391600004, 24.50755468600005], [84.62033341400007, 24.509713617000045], [84.61929072900006, 24.513017931000036], [84.61883352300003, 24.51466364600003], [84.61874184000004, 24.51525458200007], [84.61986859900009, 24.516866220000054], [84.62311615800007, 24.517647098000054], [84.62612044600007, 24.51872935800003], [84.62892036600005, 24.51926452400005], [84.63108047800006, 24.51946754100004], [84.63261152400008, 24.519153318000065], [84.63410006000004, 24.518455206000056], [84.63524083600004, 24.518247678000023], [84.63642284600007, 24.51766120800005], [84.63828269400005, 24.515682637000054], [84.64036084200006, 24.514449717000048], [84.64200403200005, 24.51438866500007], [84.64364484700008, 24.514851188000023], [84.64451006800005, 24.51550014700007], [84.64518300700007, 24.517154962000063], [84.64586829900009, 24.51933338300006], [84.64726743000006, 24.519767787000035], [84.65047880100008, 24.520958755000038], [84.65378278500003, 24.522398254000052], [84.65553992900004, 24.52121352300003], [84.65674353900005, 24.520220635000044], [84.65752476000006, 24.518824407000068], [84.65744045400004, 24.517862638000054], [84.65794639200004, 24.516244063000045], [84.65828852000004, 24.515870756000027]]]]}}, {"type": "Feature", "properties": {"OBJECTID": 2656, "GPCODE": "92911", "GPNAME_1": "SAIF GANJ", "DIST_CEN_C": "35", "BLK_NAME": "BANKE BAZAR", "ST_NAME": "BIHAR", "ST_CODE_1": "10", "GPCODE2011": "95466", "REMARKS": "FINALIZED", "MAP_STATUS": "COMPLETED", "BLK_C_2001": "350014", "BLK_C_2011": "01500", "DIST_NAME": "GAYA", "code2011": 23.0, "Shape_Leng": 0.19626679353, "Shape_Area": 0.00061338157, "Area": 6.88889}, "geometry": {"type": "MultiPolygon", "coordinates": [[[[84.72185145200007, 24.52647980200004], [84.72222727000008, 24.526282558000048], [84.72328759800007, 24.52641714300006], [84.72425700300005, 24.525865346000046], [84.72603194900006, 24.525000292000072], [84.72737648000003, 24.524422681000033], [84.72762975400008, 24.52401730500003], [84.72750133900007, 24.522861248000027], [84.72698529900003, 24.522353931000055], [84.72564210000007, 24.521446492000052], [84.72381900500005, 24.52084883400005], [84.72215399400005, 24.52019296700007], [84.72079914400007, 24.519705183000042], [84.71977837300005, 24.51959332200005], [84.71768482500005, 24.518782422000072], [84.71603949500008, 24.518153708000057], [84.71487775200006, 24.517526658000065], [84.71332271400007, 24.51655512900004], [84.71294584300006, 24.515845075000072], [84.71121563100007, 24.513157681000052], [84.70915452900005, 24.512888458000077], [84.70788320700007, 24.512522742000044], [84.70661249400007, 24.512008128000048], [84.70540914200006, 24.51418407500006], [84.70515174200006, 24.515528260000053], [84.70441057000005, 24.51692039200003], [84.70413377300008, 24.518183271000055], [84.70421883300008, 24.51904578700004], [84.70471841500006, 24.519918758000074], [84.70553894200003, 24.520707208000033], [84.70670037600007, 24.521420010000043], [84.70796815700004, 24.522634379000067], [84.70842899900003, 24.523308619000034], [84.70844431400008, 24.524355850000063], [84.71093546300006, 24.524495672000057], [84.71360325900008, 24.524861823000037], [84.71526934100007, 24.525260453000044], [84.71577143600007, 24.525555617000066], [84.71712941400006, 24.526463241000044], [84.71908748000004, 24.527846878000048], [84.72028689400008, 24.52774277000003], [84.72104381000008, 24.527280511000072], [84.72185145200007, 24.52647980200004]]], [[[84.70472588100006, 24.527049378000072], [84.70409940300004, 24.52615477100005], [84.70265080200005, 24.524524532000044], [84.70160085700007, 24.523153034000075], [84.70076471700008, 24.521412044000044], [84.70055175100003, 24.520454311000037], [84.70100622800004, 24.51919209500005], [84.70128102900009, 24.518389616000036], [84.70119503600006, 24.517743798000026], [84.70033707600004, 24.516499359000022], [84.69957567500006, 24.51457810100004], [84.69858441100007, 24.512222774000065], [84.69819467500008, 24.511088306000033], [84.69749954900004, 24.509839896000074], [84.69576119300007, 24.509111277000045], [84.69363370900004, 24.50824130600006], [84.69205796200004, 24.507544906000078], [84.69040165900003, 24.50612585400006], [84.69018878500003, 24.50518164400006], [84.68838031200005, 24.504714496000076], [84.68793035000004, 24.504929485000048], [84.68738853700006, 24.505843801000026], [84.68701345100004, 24.505892070000073], [84.68543103700006, 24.506707706000043], [84.68441065200005, 24.50652780100006], [84.68134785100006, 24.50633576300004], [84.68005437500005, 24.506534001000034], [84.67912311100008, 24.506282261000024], [84.67745865100005, 24.50558527800007], [84.67771234600008, 24.506222696000066], [84.67783107500009, 24.507252322000056], [84.67850531400006, 24.508699326000055], [84.68012994800006, 24.510574267000038], [84.68107727900008, 24.511638669000035], [84.68159194700007, 24.512394443000062], [84.68176652800008, 24.51306760700004], [84.68337269400007, 24.514667081000027], [84.68465992500006, 24.515881688000036], [84.68553546400005, 24.516489852000063], [84.68678619300005, 24.517054255000062], [84.68764242400005, 24.51756295100006], [84.68898506100004, 24.518538439000054], [84.68943180200006, 24.51902763100003], [84.68976854300007, 24.519863969000028], [84.69002775700005, 24.521507992000068], [84.69034883800003, 24.523639753000054], [84.68695686800004, 24.52413723500007], [84.68558001000008, 24.524204292000036], [84.68369239000003, 24.522608337000065], [84.68281545000008, 24.52231157500006], [84.68114154000006, 24.521488249000072], [84.68053506300004, 24.52140471000007], [84.68003114700008, 24.521547248000047], [84.67970865800004, 24.521938800000044], [84.67977601600006, 24.523410597000066], [84.67891699600005, 24.52351565200007], [84.67719170600003, 24.525337256000057], [84.67606956500003, 24.524710097000025], [84.67507361000008, 24.52454375600007], [84.67424908500004, 24.524653449000027], [84.67369485400008, 24.52499444700004], [84.67443695200006, 24.52673962500006], [84.67496319900005, 24.528199606000044], [84.67379384300006, 24.53033481400007], [84.67448878400006, 24.530526977000022], [84.67672457200007, 24.530404641000075], [84.68035175600005, 24.530328143000077], [84.68572592200007, 24.53020384000007], [84.68867664300006, 24.529104459000052], [84.69092008300004, 24.528363458000058], [84.69598011400006, 24.52671196600005], [84.69749394700005, 24.528067228000054], [84.69858320000003, 24.528346559000056], [84.69997216600007, 24.528924880000034], [84.70052120100007, 24.529761992000033], [84.70124838600003, 24.53047786600007], [84.70256869900004, 24.53095655800007], [84.70391042800009, 24.531056243000023], [84.70485651700005, 24.53137113300005], [84.70572955200004, 24.531442011000024], [84.70654725800006, 24.531778962000033], [84.70787533700008, 24.531612247000055], [84.70816231300006, 24.531432679000034], [84.70809431100008, 24.53003764500005], [84.70765439200005, 24.529052039000078], [84.70598540800006, 24.528174844000034], [84.70518322200007, 24.52770245800008], [84.70472588100006, 24.527049378000072]]]]}}, {"type": "Feature", "properties": {"OBJECTID": 2657, "GPCODE": "92912", "GPNAME_1": "TARWAN", "DIST_CEN_C": "35", "BLK_NAME": "BANKE BAZAR", "ST_NAME": "BIHAR", "ST_CODE_1": "10", "GPCODE2011": "95467", "REMARKS": "FINALIZED", "MAP_STATUS": "COMPLETED", "BLK_C_2001": "350014", "BLK_C_2011": "01500", "DIST_NAME": "GAYA", "code2011": 21.0, "Shape_Leng": 0.22140698057, "Shape_Area": 0.0009904791, "Area": 11.1244}, "geometry": {"type": "MultiPolygon", "coordinates": [[[[84.63313117700005, 24.536028414000043], [84.63405894500005, 24.536000588000036], [84.63543288400007, 24.53659301600004], [84.63648851600004, 24.536665053000036], [84.63744688900005, 24.536452229000076], [84.63886258000008, 24.535555268000053], [84.63990393900008, 24.534498690000078], [84.64045775000005, 24.534257136000065], [84.64105060800006, 24.533081413000048], [84.64161560200006, 24.53256914600007], [84.64227831300008, 24.532264885000075], [84.64347166400006, 24.532445660000064], [84.64382003400004, 24.533869001000028], [84.64408444600008, 24.534312414000055], [84.64445877500003, 24.534458372000074], [84.64495203100006, 24.53450097600006], [84.64611509600007, 24.533774342000072], [84.64783908300006, 24.53235939600006], [84.64868376700008, 24.53113495300005], [84.65008722300007, 24.529660014000058], [84.65009957300003, 24.531212879000066], [84.65039553600008, 24.533322059000056], [84.65070341200004, 24.533950692000076], [84.65127345800005, 24.534449438000024], [84.65213066600006, 24.534746238000025], [84.65393016800004, 24.53508290900004], [84.65511717200008, 24.53556612500006], [84.65693271700007, 24.533546487000024], [84.65784345900005, 24.53294521400005], [84.65848304900004, 24.532297697000047], [84.65912640300007, 24.53190753900003], [84.66002061600005, 24.53166279800007], [84.66131061200008, 24.531229936000045], [84.66334527600003, 24.530858710000075], [84.66377776600007, 24.53017423700004], [84.66384716200008, 24.529037026000026], [84.66390986400006, 24.52722265500006], [84.66339329100003, 24.524760627000035], [84.66244321700003, 24.52217492500006], [84.66161247300005, 24.52044287800004], [84.66331536200005, 24.520296056000063], [84.663976, 24.520415976000038], [84.66475950400007, 24.520631108000032], [84.66549269100005, 24.52105825700005], [84.66767944500003, 24.522994221000033], [84.66913765900006, 24.524552631000063], [84.67041860900008, 24.526056157000028], [84.67139505200004, 24.527256070000078], [84.67244032700006, 24.528501422000033], [84.67379384300006, 24.53033481400007], [84.67496319900005, 24.528199606000044], [84.67443695200006, 24.52673962500006], [84.67369485400008, 24.52499444700004], [84.67424908500004, 24.524653449000027], [84.67507361000008, 24.52454375600007], [84.67606956500003, 24.524710097000025], [84.67719170600003, 24.525337256000057], [84.67891699600005, 24.52351565200007], [84.67977601600006, 24.523410597000066], [84.67970865800004, 24.521938800000044], [84.68003114700008, 24.521547248000047], [84.68053506300004, 24.52140471000007], [84.68114154000006, 24.521488249000072], [84.68281545000008, 24.52231157500006], [84.68369239000003, 24.522608337000065], [84.68558001000008, 24.524204292000036], [84.68695686800004, 24.52413723500007], [84.69034883800003, 24.523639753000054], [84.69002775700005, 24.521507992000068], [84.68976854300007, 24.519863969000028], [84.68943180200006, 24.51902763100003], [84.68898506100004, 24.518538439000054], [84.68764242400005, 24.51756295100006], [84.68678619300005, 24.517054255000062], [84.68553546400005, 24.516489852000063], [84.68465992500006, 24.515881688000036], [84.68337269400007, 24.514667081000027], [84.68176652800008, 24.51306760700004], [84.68159194700007, 24.512394443000062], [84.68107727900008, 24.511638669000035], [84.68012994800006, 24.510574267000038], [84.67850531400006, 24.508699326000055], [84.67783107500009, 24.507252322000056], [84.67771234600008, 24.506222696000066], [84.67745865100005, 24.50558527800007], [84.67592928500005, 24.505597563000038], [84.67548368300004, 24.505938865000076], [84.67380713800009, 24.506839779000074], [84.67190700700007, 24.508091900000068], [84.67042489900007, 24.508542113000033], [84.66906771100008, 24.50863625200003], [84.66838130900004, 24.508773509000036], [84.66709281200008, 24.50894910100004], [84.66600053500008, 24.509369212000024], [84.66458670600008, 24.509982102000038], [84.66392445400004, 24.510227771000075], [84.66229601800006, 24.51030270700005], [84.66164195500005, 24.510914022000065], [84.66095388800005, 24.512464155000032], [84.65919369500006, 24.514339586000062], [84.65828852000004, 24.515870756000027], [84.65794639200004, 24.516244063000045], [84.65744045400004, 24.517862638000054], [84.65752476000006, 24.518824407000068], [84.65674353900005, 24.520220635000044], [84.65553992900004, 24.52121352300003], [84.65378278500003, 24.522398254000052], [84.65047880100008, 24.520958755000038], [84.64726743000006, 24.519767787000035], [84.64586829900009, 24.51933338300006], [84.64518300700007, 24.517154962000063], [84.64451006800005, 24.51550014700007], [84.64364484700008, 24.514851188000023], [84.64200403200005, 24.51438866500007], [84.64036084200006, 24.514449717000048], [84.63828269400005, 24.515682637000054], [84.63642284600007, 24.51766120800005], [84.63524083600004, 24.518247678000023], [84.63410006000004, 24.518455206000056], [84.63261152400008, 24.519153318000065], [84.63108047800006, 24.51946754100004], [84.62892036600005, 24.51926452400005], [84.62612044600007, 24.51872935800003], [84.62311615800007, 24.517647098000054], [84.61986859900009, 24.516866220000054], [84.62118794500003, 24.518442591000053], [84.62258118500006, 24.52005984500005], [84.62412607500005, 24.52194852300005], [84.62551940800006, 24.523552206000033], [84.62690524500005, 24.525697582000078], [84.62487272700008, 24.527598556000044], [84.62352956000007, 24.52881618400005], [84.62334569400008, 24.529077245000053], [84.62336190500008, 24.52978147300007], [84.62441190300007, 24.53097752700006], [84.62523586400005, 24.53200561400007], [84.62635498500003, 24.533201881000025], [84.62708407500008, 24.53446430500003], [84.62851131900004, 24.536230638000063], [84.62924240100006, 24.537082230000067], [84.63054070800007, 24.537985852000077], [84.63217242300004, 24.538331047000042], [84.63258952900009, 24.536793551000073], [84.63277453700005, 24.536306844000023], [84.63313117700005, 24.536028414000043]]]]}}, {"type": "Feature", "properties": {"OBJECTID": 2661, "GPCODE": "92910", "GPNAME_1": "ROSHAN GANJ", "DIST_CEN_C": "35", "BLK_NAME": "BANKE BAZAR", "ST_NAME": "BIHAR", "ST_CODE_1": "10", "GPCODE2011": "95465", "REMARKS": "FINALIZED", "MAP_STATUS": "COMPLETED", "BLK_C_2001": "350014", "BLK_C_2011": "01500", "DIST_NAME": "GAYA", "code2011": 30.0, "Shape_Leng": 0.19873178752, "Shape_Area": 0.00083347774, "Area": 9.35933}, "geometry": {"type": "MultiPolygon", "coordinates": [[[[84.75093856200004, 24.55032689500007], [84.74997506600005, 24.54935322700004], [84.74895184000007, 24.548523722000027], [84.74787457300005, 24.54797915200004], [84.74614513200004, 24.54694349300007], [84.74512644100008, 24.546235885000044], [84.74466648300006, 24.54523229600005], [84.74450677500005, 24.544450865000044], [84.74388453900008, 24.543320263000055], [84.74367522500006, 24.541383031000066], [84.74378693900007, 24.540593513000033], [84.74386440000006, 24.539727115000062], [84.74394207600005, 24.538820084000065], [84.74358589100007, 24.537816795000026], [84.74251718300007, 24.536043662000054], [84.74173354700008, 24.53459209300007], [84.74097160100007, 24.532634932000065], [84.74041973300007, 24.53121122600004], [84.73902528800005, 24.53071440800005], [84.73724035400005, 24.529169083000056], [84.73519069800005, 24.52722562100007], [84.73417513000004, 24.525777738000045], [84.73238742000007, 24.524945562000028], [84.73097381800005, 24.52434930900006], [84.72884510000006, 24.52363784000005], [84.72750133900007, 24.522861248000027], [84.72762975400008, 24.52401730500003], [84.72737648000003, 24.524422681000033], [84.72603194900006, 24.525000292000072], [84.72425700300005, 24.525865346000046], [84.72328759800007, 24.52641714300006], [84.72222727000008, 24.526282558000048], [84.72185145200007, 24.52647980200004], [84.72104381000008, 24.527280511000072], [84.72028689400008, 24.52774277000003], [84.71908748000004, 24.527846878000048], [84.71712941400006, 24.526463241000044], [84.71577143600007, 24.525555617000066], [84.71526934100007, 24.525260453000044], [84.71360325900008, 24.524861823000037], [84.71093546300006, 24.524495672000057], [84.70844431400008, 24.524355850000063], [84.70842899900003, 24.523308619000034], [84.70796815700004, 24.522634379000067], [84.70670037600007, 24.521420010000043], [84.70553894200003, 24.520707208000033], [84.70471841500006, 24.519918758000074], [84.70421883300008, 24.51904578700004], [84.70413377300008, 24.518183271000055], [84.70441057000005, 24.51692039200003], [84.70515174200006, 24.515528260000053], [84.70540914200006, 24.51418407500006], [84.70661249400007, 24.512008128000048], [84.70508880000006, 24.511808555000073], [84.70353217700006, 24.511261199000046], [84.70159963000003, 24.510915632000035], [84.69959359900008, 24.51045694900006], [84.69749954900004, 24.509839896000074], [84.69819467500008, 24.511088306000033], [84.69858441100007, 24.512222774000065], [84.69957567500006, 24.51457810100004], [84.70033707600004, 24.516499359000022], [84.70119503600006, 24.517743798000026], [84.70128102900009, 24.518389616000036], [84.70100622800004, 24.51919209500005], [84.70055175100003, 24.520454311000037], [84.70076471700008, 24.521412044000044], [84.70160085700007, 24.523153034000075], [84.70265080200005, 24.524524532000044], [84.70409940300004, 24.52615477100005], [84.70472588100006, 24.527049378000072], [84.70518322200007, 24.52770245800008], [84.70598540800006, 24.528174844000034], [84.70765439200005, 24.529052039000078], [84.70809431100008, 24.53003764500005], [84.70816231300006, 24.531432679000034], [84.70787533700008, 24.531612247000055], [84.70654725800006, 24.531778962000033], [84.70542969900004, 24.532564209000043], [84.70428755800003, 24.533611172000064], [84.70395443300004, 24.535276795000073], [84.70376407600008, 24.537132774000042], [84.70357372000007, 24.53884598600007], [84.70349468400008, 24.540484373000027], [84.70570510200008, 24.54056460100003], [84.70858351700008, 24.540245479000077], [84.71051004600008, 24.53861828500004], [84.71124798700004, 24.537998025000036], [84.71314912200006, 24.537693329000035], [84.71580486900007, 24.537486087000048], [84.71621122800008, 24.53825943700008], [84.71683068600004, 24.539967922000073], [84.71705721200004, 24.54126422400003], [84.71737938200005, 24.54210039700007], [84.71794493300007, 24.54372743500005], [84.71878828700005, 24.543843276000075], [84.72152763000008, 24.543740054000068], [84.72176061000005, 24.544675220000045], [84.72172837300008, 24.547672361000025], [84.72189683400006, 24.549880316000042], [84.72310031500007, 24.548859831000073], [84.72508198900005, 24.54702957300003], [84.72598195900008, 24.546576815000037], [84.72854438500008, 24.54631934500003], [84.73066170600003, 24.54627706800005], [84.73094940300007, 24.54591687900006], [84.73116944000003, 24.54520898100003], [84.73197660900007, 24.544525603000068], [84.73283669700004, 24.544194524000034], [84.73393320700006, 24.54395004500003], [84.73491948000003, 24.54412045400005], [84.73609763100006, 24.545663741000055], [84.73647782600005, 24.548030350000033], [84.73688830400005, 24.54904285300006], [84.73747868300006, 24.549491748000037], [84.73869038300006, 24.551301412000043], [84.73986891300007, 24.552758893000032], [84.74147588700004, 24.55446157500006], [84.74092021100006, 24.555199994000077], [84.74012475600006, 24.556623712000032], [84.74010719600005, 24.557323362000034], [84.74236915100005, 24.555705991000025], [84.74393003300008, 24.555395187000045], [84.74604720800005, 24.55541590300004], [84.74787449000007, 24.555187311000054], [84.74845610700004, 24.555306548000033], [84.74913130700008, 24.555529942000078], [84.74954309700007, 24.554998689000058], [84.74937798000008, 24.55431204000007], [84.74968260000009, 24.553414776000068], [84.74977983700006, 24.552552926000033], [84.75017169500006, 24.552044119000072], [84.75067834200007, 24.551228781000077], [84.75093856200004, 24.55032689500007]]]]}}, {"type": "Feature", "properties": {"OBJECTID": 2670, "GPCODE": "92913", "GPNAME_1": "TILAIYA", "DIST_CEN_C": "35", "BLK_NAME": "BANKE BAZAR", "ST_NAME": "BIHAR", "ST_CODE_1": "10", "GPCODE2011": "95468", "REMARKS": "FINALIZED", "MAP_STATUS": "COMPLETED", "BLK_C_2001": "350014", "BLK_C_2011": "01500", "DIST_NAME": "GAYA", "code2011": 35.0, "Shape_Leng": 0.31633713349, "Shape_Area": 0.00227010705, "Area": 25.4889}, "geometry": {"type": "MultiPolygon", "coordinates": [[[[84.67649322900007, 24.58787940700006], [84.67678881000006, 24.586928054000055], [84.67701028400006, 24.585994519000053], [84.67747511000005, 24.58471892400007], [84.67813297200007, 24.583358151000027], [84.67828391100005, 24.58272678700007], [84.67829441100008, 24.581499070000064], [84.67883039300006, 24.58086015500004], [84.68073315000004, 24.579278415000033], [84.68164756100003, 24.57791866900004], [84.68212767700004, 24.57762255800003], [84.68323326100005, 24.57766734100005], [84.68547739200005, 24.57807304800008], [84.68672565600008, 24.578226681000046], [84.68727860100006, 24.578188116000035], [84.68837162500006, 24.57772723100004], [84.68828909400008, 24.57741100900006], [84.68808067500004, 24.576561560000073], [84.68764229300007, 24.57524193000006], [84.68722771700004, 24.574102865000043], [84.68692621500008, 24.57309513000007], [84.68656399200006, 24.571301709000068], [84.68625650100006, 24.57053320500006], [84.68564136300006, 24.57011564100003], [84.68385948400004, 24.570113461000062], [84.68264415600004, 24.57034810400006], [84.68149398900005, 24.570366394000075], [84.68107097700005, 24.570035276000056], [84.68029035900008, 24.569115969000052], [84.67984965000005, 24.568319812000027], [84.67946663700008, 24.567880523000042], [84.67926107400007, 24.567509630000075], [84.67979876200008, 24.566486977000068], [84.68014678800006, 24.565933079000047], [84.68009658900007, 24.565025658000025], [84.67969429500005, 24.564482399000042], [84.67834980300006, 24.562735014000054], [84.67724426200004, 24.56271276800004], [84.67532614100008, 24.563405069000055], [84.67351704600009, 24.563971425000034], [84.67215011600007, 24.56390751300006], [84.67146979400007, 24.563728895000054], [84.67074792600005, 24.562940688000026], [84.67029658100006, 24.56232952700003], [84.66980926700006, 24.56205679800007], [84.66917831700005, 24.56187833100006], [84.66789764500004, 24.56237894800006], [84.66580819000006, 24.563806277000026], [84.66425223000005, 24.564071085000023], [84.66361089600008, 24.564000874000044], [84.66210605200007, 24.563877671000057], [84.65869814700005, 24.563309150000066], [84.65808256400004, 24.563017787000035], [84.65805732600006, 24.561036140000056], [84.65764636000006, 24.55919733500008], [84.65759498300008, 24.55857874000003], [84.65794076800006, 24.55746515000004], [84.65799609700008, 24.555140680000022], [84.65784601400009, 24.55346090300003], [84.65851266700008, 24.553377821000026], [84.65917588100007, 24.552974171000074], [84.66036193300005, 24.552649303000067], [84.66258720900004, 24.551705518000063], [84.66363211800007, 24.550937748000024], [84.66440275800005, 24.550764713000035], [84.66695048500003, 24.550508259000026], [84.66799090900008, 24.55071540800003], [84.66980863900005, 24.552527939000072], [84.67011020800004, 24.550267657000063], [84.67024366700008, 24.548065348000023], [84.67040709200006, 24.54685628900006], [84.67037576300004, 24.54617002300006], [84.67055800900005, 24.545155135000073], [84.67068082200007, 24.544212152000057], [84.67191785000006, 24.54349920100003], [84.67239818600007, 24.54313991300006], [84.67261750000006, 24.542653311000038], [84.67300060400004, 24.54088531900004], [84.67383019700009, 24.539696752000054], [84.67417839200004, 24.539093296000033], [84.67563626200007, 24.53754148300004], [84.67739399600003, 24.536225587000047], [84.67788595100006, 24.535469163000073], [84.67849334900006, 24.534918133000076], [84.67887507200004, 24.534571834000076], [84.67978864500003, 24.533743041000037], [84.68062728600006, 24.533795853000072], [84.68259425900004, 24.534227604000023], [84.68371924300004, 24.53423180200008], [84.68417269200006, 24.53325396400004], [84.68491676600007, 24.53127965400006], [84.68572592200007, 24.53020384000007], [84.68035175600005, 24.530328143000077], [84.67672457200007, 24.530404641000075], [84.67448878400006, 24.530526977000022], [84.67379384300006, 24.53033481400007], [84.67244032700006, 24.528501422000033], [84.67139505200004, 24.527256070000078], [84.67041860900008, 24.526056157000028], [84.66913765900006, 24.524552631000063], [84.66767944500003, 24.522994221000033], [84.66549269100005, 24.52105825700005], [84.66475950400007, 24.520631108000032], [84.663976, 24.520415976000038], [84.66331536200005, 24.520296056000063], [84.66161247300005, 24.52044287800004], [84.66244321700003, 24.52217492500006], [84.66339329100003, 24.524760627000035], [84.66390986400006, 24.52722265500006], [84.66384716200008, 24.529037026000026], [84.66377776600007, 24.53017423700004], [84.66334527600003, 24.530858710000075], [84.66131061200008, 24.531229936000045], [84.66002061600005, 24.53166279800007], [84.65912640300007, 24.53190753900003], [84.65848304900004, 24.532297697000047], [84.65784345900005, 24.53294521400005], [84.65693271700007, 24.533546487000024], [84.65511717200008, 24.53556612500006], [84.65393016800004, 24.53508290900004], [84.65213066600006, 24.534746238000025], [84.65127345800005, 24.534449438000024], [84.65070341200004, 24.533950692000076], [84.65039553600008, 24.533322059000056], [84.65009957300003, 24.531212879000066], [84.65008722300007, 24.529660014000058], [84.64868376700008, 24.53113495300005], [84.64783908300006, 24.53235939600006], [84.64611509600007, 24.533774342000072], [84.64495203100006, 24.53450097600006], [84.64445877500003, 24.534458372000074], [84.64408444600008, 24.534312414000055], [84.64382003400004, 24.533869001000028], [84.64347166400006, 24.532445660000064], [84.64227831300008, 24.532264885000075], [84.64161560200006, 24.53256914600007], [84.64105060800006, 24.533081413000048], [84.64045775000005, 24.534257136000065], [84.63990393900008, 24.534498690000078], [84.63886258000008, 24.535555268000053], [84.63744688900005, 24.536452229000076], [84.63648851600004, 24.536665053000036], [84.63543288400007, 24.53659301600004], [84.63405894500005, 24.536000588000036], [84.63313117700005, 24.536028414000043], [84.63277453700005, 24.536306844000023], [84.63258952900009, 24.536793551000073], [84.63217242300004, 24.538331047000042], [84.63216898700006, 24.540041810000048], [84.63053832400004, 24.541488584000035], [84.62912459000006, 24.542981417000078], [84.62843583000006, 24.543560824000053], [84.62714525700005, 24.544079183000065], [84.62770965200008, 24.545697432000054], [84.62832801200005, 24.547401755000067], [84.62881378000003, 24.548983580000026], [84.62913195900006, 24.54950849200003], [84.62948553900009, 24.54986661600003], [84.63107449500006, 24.549909210000067], [84.63245023100006, 24.55015865200005], [84.63298174600004, 24.550454210000055], [84.63328576900005, 24.550848177000034], [84.63382891800006, 24.55282750600003], [84.63400061300007, 24.55606014400007], [84.63255578100006, 24.55682610200006], [84.63163667800006, 24.55705705300005], [84.62994268500006, 24.556269153000073], [84.62920774400004, 24.556184849000033], [84.63000280700004, 24.557095496000045], [84.63108860100004, 24.55811107100004], [84.63195523400003, 24.559518380000043], [84.63246728600006, 24.560797895000064], [84.63258093600007, 24.56177342500007], [84.63205743200007, 24.562850104000063], [84.63163868100008, 24.563683385000047], [84.63150827600003, 24.565118280000036], [84.63147642100006, 24.566585216000078], [84.63176607100007, 24.56892000700003], [84.63203927800004, 24.569584718000044], [84.63250125000008, 24.56999733400005], [84.63373474800005, 24.570083668000052], [84.63477475800005, 24.56938377800003], [84.63549617300004, 24.568208557000048], [84.63603074000008, 24.56790385900007], [84.63685481300007, 24.567952286000036], [84.63740508300003, 24.568478207000055], [84.63719339400006, 24.569380068000044], [84.63748635900004, 24.571051402000023], [84.63757998900007, 24.57209901300007], [84.63790947100006, 24.573368713000036], [84.63812928000004, 24.574868235000054], [84.63828643200003, 24.576051558000074], [84.63850458800005, 24.576878478000026], [84.63909189500004, 24.57689892700006], [84.63953730700007, 24.576665993000063], [84.64064463400007, 24.576318419000074], [84.64224128400008, 24.575855404000038], [84.64409869700006, 24.575564970000073], [84.64506162800006, 24.575487572000043], [84.64516130800007, 24.57631851700006], [84.64523439500005, 24.578584830000068], [84.64536123800008, 24.580950574000042], [84.64559015600008, 24.582621611000036], [84.64567473500006, 24.583511229000067], [84.64587036000006, 24.58492939000007], [84.64600864500005, 24.585936497000034], [84.64633090100006, 24.587711757000022], [84.64699936800008, 24.587308196000038], [84.64810807000003, 24.58668970100007], [84.64888944100005, 24.586408466000023], [84.64994558100005, 24.586457838000058], [84.65058071200008, 24.586830445000032], [84.65181556800007, 24.587724663000074], [84.65294585000004, 24.587765235000063], [84.65417050800005, 24.587679785000034], [84.65627622000005, 24.58710581200006], [84.65744552100006, 24.58725037100004], [84.65878199100007, 24.58754904700004], [84.65937260700008, 24.587935032000075], [84.65954307300007, 24.58841414400007], [84.65965812900004, 24.589154891000078], [84.66010918500007, 24.58982928200004], [84.66058214100008, 24.59003421600005], [84.66226456900006, 24.590248424000038], [84.66342798700003, 24.590605082000025], [84.66410265200005, 24.59096879200007], [84.66433552000007, 24.59185446400005], [84.66439411100004, 24.593046365000077], [84.66494639700005, 24.59424468700007], [84.66581586300003, 24.595195920000037], [84.66801073400006, 24.594572478000032], [84.66907075600005, 24.59381823500007], [84.67014387800003, 24.593411612000068], [84.67126904600008, 24.592431989000033], [84.67267527800004, 24.59045576500006], [84.67340767000007, 24.590074836000042], [84.67488539600004, 24.589705923000054], [84.67563417300005, 24.588977474000046], [84.67649322900007, 24.58787940700006]]]]}}]}