{"type": "FeatureCollection", "features": [{"type": "Feature", "properties": {"OBJECTID": 4629, "GPCODE": "93422", "GPNAME_1": "KASI TINGRAHI", "DIST_CEN_C": "15", "BLK_NAME": "SIDHWALIA", "ST_NAME": "BIHAR", "ST_CODE_1": "10", "GPCODE2011": "95976", "REMARKS": "FINALIZED", "MAP_STATUS": "COMPLETED", "BLK_C_2001": "150013", "BLK_C_2011": "01227", "DIST_NAME": "GOPALGANJ", "code2011": 21.0, "Shape_Leng": 0.18020947278, "Shape_Area": 0.00094764853, "Area": 10.4858}, "geometry": {"type": "MultiPolygon", "coordinates": [[[[84.73674215100004, 26.36631403100006], [84.73697014000004, 26.36459547100003], [84.73741601900008, 26.363473343000067], [84.73808219800009, 26.36234757400007], [84.73904633100005, 26.360699272000033], [84.73949059500006, 26.359906631000058], [84.73949074000006, 26.359874970000078], [84.73949839900007, 26.35811954600007], [84.73950426400006, 26.356797336000056], [84.73888793700007, 26.354547688000025], [84.73735327100007, 26.353811154000027], [84.73604046300005, 26.351626673000055], [84.73511329600007, 26.346068063000075], [84.73490553700003, 26.343224219000035], [84.73446768300005, 26.342559247000054], [84.73594312400007, 26.340777469000045], [84.73660743800008, 26.34005324900005], [84.73697690000006, 26.33919265000003], [84.73654192600003, 26.33786877700004], [84.73526387100009, 26.336939100000052], [84.73350580100004, 26.33580906700007], [84.73079392000005, 26.33520353800003], [84.72973539000003, 26.33445960000006], [84.72967443300007, 26.332410536000054], [84.72909586200007, 26.330752231000076], [84.72865804500003, 26.33009174700004], [84.72785175300004, 26.33008880400007], [84.72520471800004, 26.330674807000037], [84.72388285300008, 26.330602303000035], [84.72352091900007, 26.329806717000054], [84.72375020400005, 26.327826362000053], [84.72419597200008, 26.32670433100003], [84.72558965400003, 26.326375446000043], [84.72735784900004, 26.32519501300004], [84.72765507700007, 26.324798956000052], [84.72758296900008, 26.32413531900005], [84.72699819900004, 26.32387149300007], [84.72619491300009, 26.323205117000043], [84.72612159900007, 26.322807751000028], [84.72619959800005, 26.322149144000036], [84.72678675200007, 26.32188503100008], [84.72686334800005, 26.320432175000064], [84.72459100500004, 26.320157615000028], [84.72283297600006, 26.320218845000056], [84.72165621100004, 26.320214458000066], [84.71964965000006, 26.32045759500005], [84.71796169600003, 26.32073315300005], [84.71599852600008, 26.32091499200004], [84.71447126100009, 26.32103999700007], [84.71207216900007, 26.321278595000024], [84.70988629600004, 26.321267254000077], [84.70841156000006, 26.321040548000042], [84.70726594400008, 26.32294964700003], [84.70682583100006, 26.322812620000036], [84.70557363400007, 26.323936058000072], [84.70387916200008, 26.325382740000066], [84.70174400900004, 26.327888264000023], [84.70136490800007, 26.329673937000052], [84.70106952900005, 26.33072879300005], [84.70135558500004, 26.33165499300003], [84.70719054100005, 26.331609610000044], [84.71246714800003, 26.33209425900003], [84.71694153800007, 26.332769876000043], [84.71943233300004, 26.333505725000066], [84.72000090900008, 26.33622450400003], [84.72093024000003, 26.34224817000006], [84.71805560400009, 26.34435399800003], [84.71453011600005, 26.345266038000034], [84.71122536800004, 26.346111069000074], [84.70945429300008, 26.347828247000052], [84.70919297500006, 26.349081863000038], [84.71085595100004, 26.35451258200004], [84.71389606500009, 26.363319527000044], [84.71745720300004, 26.36240765100007], [84.72187112100005, 26.36010899100006], [84.72310108100004, 26.363949380000065], [84.72390162900007, 26.36639834500005], [84.72529395500004, 26.366471121000075], [84.72793595600007, 26.36608362100003], [84.72933362700007, 26.36608874600006], [84.73006418400007, 26.36628999000004], [84.73123789900006, 26.367088495000075], [84.73427304700004, 26.367279972000063], [84.73504896700007, 26.367431691000036], [84.73652443000003, 26.366841300000033], [84.73674215100004, 26.36631403100006]]]]}}, {"type": "Feature", "properties": {"OBJECTID": 4632, "GPCODE": "93416", "GPNAME_1": "BAKHARAUR", "DIST_CEN_C": "15", "BLK_NAME": "SIDHWALIA", "ST_NAME": "BIHAR", "ST_CODE_1": "10", "GPCODE2011": "95970", "REMARKS": "FINALIZED", "MAP_STATUS": "COMPLETED", "BLK_C_2001": "150013", "BLK_C_2011": "01227", "DIST_NAME": "GOPALGANJ", "code2011": 10.0, "Shape_Leng": 0.11561542854, "Shape_Area": 0.00060354863, "Area": 6.6799}, "geometry": {"type": "MultiPolygon", "coordinates": [[[[84.61474714600007, 26.33790403000006], [84.61585014600007, 26.33771033200003], [84.61723234700008, 26.337743502000023], [84.61813920700007, 26.337688831000037], [84.62003015000005, 26.337187194000023], [84.62188341100006, 26.337168302000066], [84.62426979400004, 26.336754479000035], [84.62687720500008, 26.337131467000063], [84.62878994000005, 26.33722548700007], [84.62992280700007, 26.337058872000057], [84.63111771100006, 26.33652700600004], [84.63426366200008, 26.335466507000035], [84.63753269600005, 26.334799101000044], [84.64004955400009, 26.334299905000023], [84.64259551700007, 26.33399931300005], [84.64309645700007, 26.33397440400006], [84.64344143700004, 26.33408866600007], [84.64393973400007, 26.33456914100003], [84.64415871700004, 26.334854354000072], [84.64466366100004, 26.335028003000048], [84.64613549700005, 26.33514705700003], [84.64814965100004, 26.335015585000065], [84.65241952200006, 26.334491938000042], [84.65650390000008, 26.333998913000073], [84.65627293500006, 26.332152222000047], [84.65637479700007, 26.32986014900007], [84.65689518000005, 26.32700114900007], [84.65740816900006, 26.324597980000078], [84.65780102700006, 26.322194242000023], [84.65824968500004, 26.321600371000045], [84.65606442600006, 26.319018993000043], [84.65498014600007, 26.316568602000075], [84.65198160600005, 26.317332339000075], [84.65110410800008, 26.316593071000057], [84.64943650400005, 26.317574360000037], [84.64456743200003, 26.317865262000055], [84.64249855800006, 26.318000900000072], [84.63838363200006, 26.318664918000024], [84.63429317900005, 26.320402869000077], [84.63156005600007, 26.321122170000024], [84.62699435000007, 26.32271351000003], [84.62254817000007, 26.325329558000078], [84.62203740800004, 26.326261507000027], [84.62086995300007, 26.327276273000052], [84.61989706200006, 26.32752920300004], [84.61851118400006, 26.32820006600008], [84.61822838000006, 26.328622993000067], [84.61793938700004, 26.329271563000077], [84.61731059000005, 26.329778789000045], [84.61699051200003, 26.330625758000053], [84.61710768300009, 26.33209745000005], [84.61728646300008, 26.33422372900003], [84.61715900500008, 26.33464740000005], [84.61545590200006, 26.335601095000072], [84.61283813100005, 26.33712838400004], [84.61293066200005, 26.337611632000062], [84.61358509500008, 26.337925906000066], [84.61474714600007, 26.33790403000006]]]]}}, {"type": "Feature", "properties": {"OBJECTID": 4661, "GPCODE": "93417", "GPNAME_1": "BUCHIYA", "DIST_CEN_C": "15", "BLK_NAME": "SIDHWALIA", "ST_NAME": "BIHAR", "ST_CODE_1": "10", "GPCODE2011": "95971", "REMARKS": "FINALIZED", "MAP_STATUS": "COMPLETED", "BLK_C_2001": "150013", "BLK_C_2011": "01227", "DIST_NAME": "GOPALGANJ", "code2011": 14.0, "Shape_Leng": 0.12728952449, "Shape_Area": 0.00074264766, "Area": 8.21838}, "geometry": {"type": "MultiPolygon", "coordinates": [[[[84.66982192500006, 26.354022814000075], [84.67215669700005, 26.351911234000056], [84.67339418700004, 26.349849257000074], [84.67606672800008, 26.34827606700003], [84.67900103000005, 26.34644652700007], [84.68010504200004, 26.34500679100006], [84.68124761500007, 26.345913904000042], [84.68228335700007, 26.346148194000023], [84.68401405400004, 26.345613497000045], [84.68583078500006, 26.344903101000057], [84.68583198200008, 26.344636837000053], [84.68583302500008, 26.344438308000065], [84.68685985700006, 26.34338632600003], [84.68789491200005, 26.34167555700003], [84.68863723600003, 26.34042383800005], [84.69009667500006, 26.341088470000045], [84.69218302800004, 26.34155694100008], [84.69344033700008, 26.338393738000036], [84.69309298300004, 26.334560989000067], [84.69273376500007, 26.33323739700006], [84.69164389400004, 26.331779934000053], [84.68952257000007, 26.33131140200004], [84.68658682100005, 26.331498467000074], [84.68475649600003, 26.331951528000047], [84.68255660000005, 26.33220913200006], [84.68145516000004, 26.332137029000023], [84.67999364900004, 26.33193269000003], [84.67860041000006, 26.33212568600004], [84.67837972600006, 26.332192476000046], [84.67771633500007, 26.33265018700007], [84.67712807600003, 26.33311264100007], [84.67654340400009, 26.332844026000032], [84.67567605900007, 26.330990347000068], [84.67531794500007, 26.329472509000027], [84.67510512300004, 26.327950876000045], [84.67474346400007, 26.327159685000026], [84.67356620400005, 26.327218079000033], [84.67258165700008, 26.32680799700006], [84.67280399100008, 26.32641180400003], [84.67317307100006, 26.32569115700005], [84.67361842400004, 26.324767887000064], [84.67422102100005, 26.323459679000052], [84.67318320200008, 26.32364244300004], [84.67149897800005, 26.323965093000027], [84.66944372600005, 26.32435384200005], [84.66820273100006, 26.324150261000057], [84.66556621000007, 26.323611577000065], [84.66242062100008, 26.32274127900007], [84.66014935100003, 26.322267070000066], [84.65824968500004, 26.321600371000045], [84.65780102700006, 26.322194242000023], [84.65740816900006, 26.324597980000078], [84.65689518000005, 26.32700114900007], [84.65637479700007, 26.32986014900007], [84.65627293500006, 26.332152222000047], [84.65650390000008, 26.333998913000073], [84.65688454000008, 26.33498429800005], [84.65744261100008, 26.336543600000027], [84.65725124500005, 26.33772961300008], [84.65646019500008, 26.33866054200007], [84.65626450200006, 26.33970671000003], [84.65669889200007, 26.34095404800007], [84.65738448600007, 26.34205798100004], [84.65821372600004, 26.345455109000056], [84.65848027600003, 26.348199977000036], [84.65815329200007, 26.351434330000075], [84.66022351900006, 26.352146832000074], [84.66116148600008, 26.352886257000023], [84.66275933900005, 26.353912713000057], [84.66341508400006, 26.354001191000066], [84.66438874300007, 26.353635156000053], [84.66552154200008, 26.353499855000052], [84.66690321300007, 26.353676991000043], [84.66856516000007, 26.353909335000026], [84.66982192500006, 26.354022814000075]]]]}}, {"type": "Feature", "properties": {"OBJECTID": 4687, "GPCODE": "93425", "GPNAME_1": "MAHAMAD PUR", "DIST_CEN_C": "15", "BLK_NAME": "SIDHWALIA", "ST_NAME": "BIHAR", "ST_CODE_1": "10", "GPCODE2011": "95979", "REMARKS": "FINALIZED", "MAP_STATUS": "COMPLETED", "BLK_C_2001": "150013", "BLK_C_2011": "01227", "DIST_NAME": "GOPALGANJ", "code2011": 21.0, "Shape_Leng": 0.18223842837, "Shape_Area": 0.00097720693, "Area": 10.8147}, "geometry": {"type": "MultiPolygon", "coordinates": [[[[84.71246714800003, 26.33209425900003], [84.70719054100005, 26.331609610000044], [84.70135558500004, 26.33165499300003], [84.70106952900005, 26.33072879300005], [84.70136490800007, 26.329673937000052], [84.70174400900004, 26.327888264000023], [84.70387916200008, 26.325382740000066], [84.70557363400007, 26.323936058000072], [84.70682583100006, 26.322812620000036], [84.70726594400008, 26.32294964700003], [84.70841156000006, 26.321040548000042], [84.70988629600004, 26.321267254000077], [84.71207216900007, 26.321278595000024], [84.71447126100009, 26.32103999700007], [84.71599852600008, 26.32091499200004], [84.71796169600003, 26.32073315300005], [84.71964965000006, 26.32045759500005], [84.72165621100004, 26.320214458000066], [84.72071189800005, 26.318626976000076], [84.72093583600008, 26.317833559000064], [84.72116129800008, 26.31671063500005], [84.72145593500005, 26.315786609000043], [84.72124129300005, 26.314526788000023], [84.72085116400007, 26.31220565900003], [84.72187983600008, 26.311744628000042], [84.72195907700007, 26.31081983400003], [84.72145052200005, 26.309229394000056], [84.72079254100004, 26.30856807600003], [84.71911326400004, 26.30677481600003], [84.71721694100006, 26.304258576000052], [84.71568663200009, 26.302759137000066], [84.71482881000009, 26.30093275400003], [84.71486825400007, 26.299971610000057], [84.71480252100008, 26.299010140000064], [84.71465629900007, 26.298152147000053], [84.71468368600006, 26.297633288000043], [84.71350149800008, 26.298851893000062], [84.71173935100006, 26.299869681000075], [84.71030442300008, 26.30049152500004], [84.70754231600006, 26.303355862000046], [84.70653604700004, 26.30546408300006], [84.70565146500007, 26.306187283000042], [84.70453561400006, 26.309224678000078], [84.70305953600007, 26.311137088000066], [84.70224900600005, 26.312063626000054], [84.70078054100009, 26.312319740000078], [84.69748031000006, 26.31237479400005], [84.69681088300007, 26.31415475700004], [84.69351034700009, 26.314277374000028], [84.68962264800007, 26.31465938900004], [84.68822012000004, 26.31577303100005], [84.68827609800007, 26.319740112000034], [84.68782176000008, 26.322581355000068], [84.68810990100008, 26.32410339200004], [84.68825161000007, 26.32483498600004], [84.68920091600006, 26.325299036000047], [84.69177122900004, 26.325042823000047], [84.69190638600008, 26.32715988500007], [84.69175478400007, 26.328481516000068], [84.69164389400004, 26.331779934000053], [84.69273376500007, 26.33323739700006], [84.69309298300004, 26.334560989000067], [84.69344033700008, 26.338393738000036], [84.69218302800004, 26.34155694100008], [84.69392357800007, 26.342078100000037], [84.69516233000007, 26.343865485000038], [84.69581620700006, 26.345388832000026], [84.69639441300006, 26.347047331000056], [84.69727189200006, 26.347908181000037], [84.69836788700007, 26.349166909000076], [84.69924352000004, 26.350429400000053], [84.70166101800004, 26.350840308000045], [84.70335224100006, 26.350183363000042], [84.70563129600004, 26.349136099000077], [84.70919297500006, 26.349081863000038], [84.70945429300008, 26.347828247000052], [84.71122536800004, 26.346111069000074], [84.71453011600005, 26.345266038000034], [84.71805560400009, 26.34435399800003], [84.72093024000003, 26.34224817000006], [84.72000090900008, 26.33622450400003], [84.71943233300004, 26.333505725000066], [84.71694153800007, 26.332769876000043], [84.71246714800003, 26.33209425900003]]]]}}, {"type": "Feature", "properties": {"OBJECTID": 4690, "GPCODE": "93420", "GPNAME_1": "JALALPUR", "DIST_CEN_C": "15", "BLK_NAME": "SIDHWALIA", "ST_NAME": "BIHAR", "ST_CODE_1": "10", "GPCODE2011": "95974", "REMARKS": "FINALIZED", "MAP_STATUS": "COMPLETED", "BLK_C_2001": "150013", "BLK_C_2011": "01227", "DIST_NAME": "GOPALGANJ", "code2011": 13.0, "Shape_Leng": 0.1180057102, "Shape_Area": 0.00058666648, "Area": 6.49394}, "geometry": {"type": "MultiPolygon", "coordinates": [[[[84.61853303200007, 26.32415667400005], [84.61967080000005, 26.323056020000024], [84.62073426200004, 26.323656431000074], [84.62254817000007, 26.325329558000078], [84.62699435000007, 26.32271351000003], [84.63156005600007, 26.321122170000024], [84.63429317900005, 26.320402869000077], [84.63838363200006, 26.318664918000024], [84.64249855800006, 26.318000900000072], [84.64456743200003, 26.317865262000055], [84.64943650400005, 26.317574360000037], [84.65110410800008, 26.316593071000057], [84.65198160600005, 26.317332339000075], [84.65498014600007, 26.316568602000075], [84.65447747600007, 26.313994129000037], [84.65477807700006, 26.313002608000033], [84.65507352400004, 26.31201547200004], [84.65544880000004, 26.31109194000004], [84.65494076600004, 26.309573535000027], [84.65487905300006, 26.307921555000064], [84.65503601600005, 26.30561159800004], [84.65467996600006, 26.30375984500006], [84.65450064700008, 26.29887281300006], [84.65407016300009, 26.299139170000046], [84.65345950100004, 26.299378498000067], [84.65309907200003, 26.29942815800007], [84.65267855200005, 26.29943727400007], [84.65237328500007, 26.299496057000056], [84.65181261900005, 26.29972625100004], [84.65086152300006, 26.30018221200004], [84.65019089500004, 26.300696817000073], [84.64887938200008, 26.301364938000063], [84.64765295400008, 26.301802932000044], [84.64692711700008, 26.302145968000048], [84.64604112500007, 26.30269668300008], [84.64553056000005, 26.302904382000065], [84.64497491800006, 26.303152622000027], [84.64428400900005, 26.30329260700006], [84.64369831700003, 26.303202432000035], [84.64307753700007, 26.303143850000026], [84.64233654700007, 26.30293634700007], [84.64190599300008, 26.302958983000053], [84.64047423500006, 26.30276959500003], [84.64042414300008, 26.302765100000045], [84.63842162900005, 26.30235465800007], [84.63777579800006, 26.302183144000026], [84.63652925600007, 26.302147155000057], [84.63589841400005, 26.301826841000036], [84.63536776200004, 26.301655399000026], [84.63454174400005, 26.30164639900005], [84.63383081600006, 26.301705120000065], [84.63317006900007, 26.301863119000075], [84.63217880400003, 26.30203468600007], [84.63092729500005, 26.30233258100003], [84.63029153000008, 26.30248145300004], [84.63015132800007, 26.30249499400003], [84.63002622900007, 26.302404740000043], [84.62865921400004, 26.30349158100006], [84.62610388000007, 26.305687171000045], [84.62528177800004, 26.306789319000075], [84.62467410800008, 26.308993391000058], [84.62429515500008, 26.309614555000053], [84.62306219600003, 26.31076896600007], [84.62312272000008, 26.311617590000026], [84.62248767100004, 26.312381969000057], [84.62245401900003, 26.313058803000047], [84.62222850900008, 26.314019046000055], [84.62222497400006, 26.314673363000054], [84.62250078200003, 26.315522979000036], [84.62224815100006, 26.315946131000032], [84.62193612700008, 26.31622453400007], [84.62117989100005, 26.316252784000028], [84.62045994300007, 26.316024035000055], [84.62008604800008, 26.315710973000023], [84.61986898900005, 26.31511434400005], [84.61958618200003, 26.31463018100004], [84.61946143000006, 26.314543959000048], [84.61915078300007, 26.314574122000067], [84.61880327400007, 26.31493813900005], [84.61860584900006, 26.316264082000032], [84.61815645600007, 26.31787768600003], [84.61698343200004, 26.319939386000044], [84.61685608000005, 26.32126104200006], [84.61675216900005, 26.32287620900007], [84.61699175600006, 26.324858346000042], [84.61723912700006, 26.325423526000066], [84.61755462600007, 26.325424973000054], [84.61805644300006, 26.32522858300007], [84.61853303200007, 26.32415667400005]]]]}}, {"type": "Feature", "properties": {"OBJECTID": 4691, "GPCODE": "93418", "GPNAME_1": "BUDASI", "DIST_CEN_C": "15", "BLK_NAME": "SIDHWALIA", "ST_NAME": "BIHAR", "ST_CODE_1": "10", "GPCODE2011": "95972", "REMARKS": "FINALIZED", "MAP_STATUS": "COMPLETED", "BLK_C_2001": "150013", "BLK_C_2011": "01227", "DIST_NAME": "GOPALGANJ", "code2011": 19.0, "Shape_Leng": 0.1609460329, "Shape_Area": 0.00106167753, "Area": 11.7514}, "geometry": {"type": "MultiPolygon", "coordinates": [[[[84.67860041000006, 26.33212568600004], [84.67999364900004, 26.33193269000003], [84.68145516000004, 26.332137029000023], [84.68255660000005, 26.33220913200006], [84.68475649600003, 26.331951528000047], [84.68658682100005, 26.331498467000074], [84.68952257000007, 26.33131140200004], [84.69164389400004, 26.331779934000053], [84.69175478400007, 26.328481516000068], [84.69190638600008, 26.32715988500007], [84.69177122900004, 26.325042823000047], [84.68920091600006, 26.325299036000047], [84.68825161000007, 26.32483498600004], [84.68810990100008, 26.32410339200004], [84.68782176000008, 26.322581355000068], [84.68827609800007, 26.319740112000034], [84.68822012000004, 26.31577303100005], [84.68962264800007, 26.31465938900004], [84.69351034700009, 26.314277374000028], [84.69681088300007, 26.31415475700004], [84.69748031000006, 26.31237479400005], [84.69573654200008, 26.309457183000063], [84.69339734700003, 26.30753016600005], [84.69099340200006, 26.304479185000048], [84.68974569600005, 26.304672895000067], [84.68456633500006, 26.306105674000037], [84.68354662900003, 26.30471173600006], [84.68165754400007, 26.300868279000042], [84.68057276100006, 26.29742513800005], [84.67929748600005, 26.295091478000074], [84.67831589800005, 26.29411278500004], [84.67625960800007, 26.29483114100003], [84.67229179600008, 26.296336051000026], [84.66700637500008, 26.29697354900003], [84.66461931600008, 26.297740001000022], [84.66396931400004, 26.29555762700005], [84.66267844000004, 26.293390690000024], [84.66135369100004, 26.293981002000066], [84.65768588300006, 26.29456155200006], [84.65680504100004, 26.29449025400004], [84.65435438800006, 26.294761678000043], [84.65457019200005, 26.296787874000074], [84.65471559000008, 26.297500901000035], [84.65475583800009, 26.298498205000044], [84.65450064700008, 26.29887281300006], [84.65467996600006, 26.30375984500006], [84.65503601600005, 26.30561159800004], [84.65487905300006, 26.307921555000064], [84.65494076600004, 26.309573535000027], [84.65544880000004, 26.31109194000004], [84.65507352400004, 26.31201547200004], [84.65477807700006, 26.313002608000033], [84.65447747600007, 26.313994129000037], [84.65498014600007, 26.316568602000075], [84.65606442600006, 26.319018993000043], [84.65824968500004, 26.321600371000045], [84.66014935100003, 26.322267070000066], [84.66242062100008, 26.32274127900007], [84.66556621000007, 26.323611577000065], [84.66820273100006, 26.324150261000057], [84.66944372600005, 26.32435384200005], [84.67149897800005, 26.323965093000027], [84.67318320200008, 26.32364244300004], [84.67422102100005, 26.323459679000052], [84.67361842400004, 26.324767887000064], [84.67317307100006, 26.32569115700005], [84.67280399100008, 26.32641180400003], [84.67258165700008, 26.32680799700006], [84.67356620400005, 26.327218079000033], [84.67474346400007, 26.327159685000026], [84.67510512300004, 26.327950876000045], [84.67531794500007, 26.329472509000027], [84.67567605900007, 26.330990347000068], [84.67654340400009, 26.332844026000032], [84.67712807600003, 26.33311264100007], [84.67771633500007, 26.33265018700007], [84.67837972600006, 26.332192476000046], [84.67860041000006, 26.33212568600004]]]]}}, {"type": "Feature", "properties": {"OBJECTID": 4705, "GPCODE": "93426", "GPNAME_1": "SHER", "DIST_CEN_C": "15", "BLK_NAME": "SIDHWALIA", "ST_NAME": "BIHAR", "ST_CODE_1": "10", "GPCODE2011": "95980", "REMARKS": "FINALIZED", "MAP_STATUS": "COMPLETED", "BLK_C_2001": "150013", "BLK_C_2011": "01227", "DIST_NAME": "GOPALGANJ", "code2011": 11.0, "Shape_Leng": 0.1527046314, "Shape_Area": 0.00107690727, "Area": 11.917}, "geometry": {"type": "MultiPolygon", "coordinates": [[[[84.63141488900004, 26.359791856000072], [84.63471668100004, 26.35969328400006], [84.63515516800004, 26.360150889000067], [84.63508727200008, 26.360660591000055], [84.63457990200004, 26.361876892000055], [84.63473131900008, 26.36261309200006], [84.63548704500005, 26.36275623800003], [84.63860140300005, 26.361158482000064], [84.64335887700008, 26.358601951000026], [84.64490041300007, 26.357899948000068], [84.64599642900004, 26.358103147000065], [84.64702857400005, 26.35904166000006], [84.64799693300006, 26.359713631000034], [84.64850303700007, 26.358722958000044], [84.64850936100004, 26.357504477000077], [84.64866826700006, 26.356801113000074], [84.64886069300007, 26.356404845000043], [84.64914709900006, 26.356234552000046], [84.64974320800007, 26.356237071000066], [84.65017849000003, 26.356324615000062], [84.65056010700005, 26.356154708000076], [84.65062449500005, 26.355333694000024], [84.65128828700006, 26.354831010000055], [84.65359338700006, 26.352715079000063], [84.65478889800005, 26.35207020200005], [84.65815329200007, 26.351434330000075], [84.65848027600003, 26.348199977000036], [84.65821372600004, 26.345455109000056], [84.65738448600007, 26.34205798100004], [84.65669889200007, 26.34095404800007], [84.65626450200006, 26.33970671000003], [84.65646019500008, 26.33866054200007], [84.65725124500005, 26.33772961300008], [84.65744261100008, 26.336543600000027], [84.65688454000008, 26.33498429800005], [84.65650390000008, 26.333998913000073], [84.65241952200006, 26.334491938000042], [84.64814965100004, 26.335015585000065], [84.64613549700005, 26.33514705700003], [84.64466366100004, 26.335028003000048], [84.64415871700004, 26.334854354000072], [84.64393973400007, 26.33456914100003], [84.64344143700004, 26.33408866600007], [84.64309645700007, 26.33397440400006], [84.64259551700007, 26.33399931300005], [84.64004955400009, 26.334299905000023], [84.63753269600005, 26.334799101000044], [84.63426366200008, 26.335466507000035], [84.63111771100006, 26.33652700600004], [84.62992280700007, 26.337058872000057], [84.62878994000005, 26.33722548700007], [84.62687720500008, 26.337131467000063], [84.62426979400004, 26.336754479000035], [84.62188341100006, 26.337168302000066], [84.62003015000005, 26.337187194000023], [84.61813920700007, 26.337688831000037], [84.61723234700008, 26.337743502000023], [84.61585014600007, 26.33771033200003], [84.61474714600007, 26.33790403000006], [84.61358509500008, 26.337925906000066], [84.61293066200005, 26.337611632000062], [84.61283813100005, 26.33712838400004], [84.61030274400008, 26.337315630000035], [84.61063963800007, 26.338905620000048], [84.61027907000005, 26.33980658300004], [84.61174411000007, 26.341171425000027], [84.61249747200003, 26.341711832000044], [84.61258986900003, 26.342222229000072], [84.61239629500005, 26.342816983000034], [84.61163583400008, 26.343576341000073], [84.61031198800003, 26.34475730300005], [84.61005703700005, 26.345577479000042], [84.61002298800008, 26.34631292000006], [84.61101833100008, 26.34747710700003], [84.61129998000007, 26.34818685600004], [84.61048050000005, 26.349636368000063], [84.61118101800008, 26.35070001400004], [84.61183326400004, 26.35233203200005], [84.61269519600006, 26.35593257100004], [84.61320636300007, 26.357717356000023], [84.61358456700003, 26.36002506500006], [84.61409453300007, 26.362040024000066], [84.61445632000004, 26.36460043900007], [84.61508312400008, 26.365406456000073], [84.61567882100007, 26.365494882000064], [84.61659207200006, 26.365214585000047], [84.61842608000006, 26.362366088000044], [84.62120180200003, 26.36045136300004], [84.62308612800007, 26.36031974200006], [84.63141488900004, 26.359791856000072]]]]}}, {"type": "Feature", "properties": {"OBJECTID": 4706, "GPCODE": "93424", "GPNAME_1": "LOHIJARA", "DIST_CEN_C": "15", "BLK_NAME": "SIDHWALIA", "ST_NAME": "BIHAR", "ST_CODE_1": "10", "GPCODE2011": "95978", "REMARKS": "FINALIZED", "MAP_STATUS": "COMPLETED", "BLK_C_2001": "150013", "BLK_C_2011": "01227", "DIST_NAME": "GOPALGANJ", "code2011": 13.0, "Shape_Leng": 0.18812105348, "Shape_Area": 0.00100125091, "Area": 11.0779}, "geometry": {"type": "MultiPolygon", "coordinates": [[[[84.67179126600007, 26.369004266000047], [84.67270410500004, 26.368809417000023], [84.67307978600007, 26.368810890000077], [84.67329770800006, 26.369321729000035], [84.67366430700008, 26.371164476000047], [84.67378592300008, 26.371900518000075], [84.67717955500007, 26.371544055000072], [84.67679001500005, 26.367210207000028], [84.67567499300003, 26.364746232000073], [84.67327485600003, 26.36080144700003], [84.67265900500007, 26.35870506200007], [84.67216666400003, 26.356974640000033], [84.67328129200007, 26.356464646000063], [84.67416862900006, 26.355308437000076], [84.67530685600008, 26.354067420000035], [84.67605823700006, 26.354070440000044], [84.67724865200006, 26.354445259000045], [84.67771950600007, 26.354447185000026], [84.67822728100003, 26.35407917200007], [84.67895255300004, 26.35326072500004], [84.68068313700007, 26.352789202000054], [84.68228574800008, 26.352849712000022], [84.68319470000006, 26.35342193300005], [84.68353381900005, 26.354750082000066], [84.68365012500004, 26.35659177100007], [84.68395575700004, 26.35761291500006], [84.68461641400006, 26.357728305000023], [84.68558922300008, 26.357533604000025], [84.68719850200006, 26.356235683000023], [84.68855323100007, 26.355789790000074], [84.68977931300003, 26.355000260000054], [84.69044376000005, 26.35432594400004], [84.69132128400008, 26.35413535200007], [84.69252686100003, 26.353449574000024], [84.69268601900006, 26.351599891000035], [84.69181320200005, 26.34974630000005], [84.69101465900007, 26.348091456000077], [84.69051012400007, 26.346771774000047], [84.68970875100007, 26.345708081000055], [84.68868421100007, 26.345243809000067], [84.68583078500006, 26.344903101000057], [84.68401405400004, 26.345613497000045], [84.68228335700007, 26.346148194000023], [84.68124761500007, 26.345913904000042], [84.68010504200004, 26.34500679100006], [84.67900103000005, 26.34644652700007], [84.67606672800008, 26.34827606700003], [84.67339418700004, 26.349849257000074], [84.67215669700005, 26.351911234000056], [84.66982192500006, 26.354022814000075], [84.66856516000007, 26.353909335000026], [84.66690321300007, 26.353676991000043], [84.66552154200008, 26.353499855000052], [84.66438874300007, 26.353635156000053], [84.66341508400006, 26.354001191000066], [84.66275933900005, 26.353912713000057], [84.66116148600008, 26.352886257000023], [84.66022351900006, 26.352146832000074], [84.65815329200007, 26.351434330000075], [84.65478889800005, 26.35207020200005], [84.65359338700006, 26.352715079000063], [84.65128828700006, 26.354831010000055], [84.65062449500005, 26.355333694000024], [84.65056010700005, 26.356154708000076], [84.65017849000003, 26.356324615000062], [84.64974320800007, 26.356237071000066], [84.64914709900006, 26.356234552000046], [84.64886069300007, 26.356404845000043], [84.64866826700006, 26.356801113000074], [84.64850936100004, 26.357504477000077], [84.64850303700007, 26.358722958000044], [84.64799693300006, 26.359713631000034], [84.64702857400005, 26.35904166000006], [84.64599642900004, 26.358103147000065], [84.64490041300007, 26.357899948000068], [84.64335887700008, 26.358601951000026], [84.63860140300005, 26.361158482000064], [84.63548704500005, 26.36275623800003], [84.63473131900008, 26.36261309200006], [84.63457990200004, 26.361876892000055], [84.63290231400003, 26.363647701000048], [84.63236518200006, 26.364805150000052], [84.63217174300007, 26.365368443000023], [84.63223464200007, 26.365792918000068], [84.63313992000008, 26.366081089000033], [84.63458761800007, 26.366114381000045], [84.63558446600007, 26.367079959000023], [84.63742475900006, 26.369605965000062], [84.63923319600008, 26.372501897000063], [84.64022720900005, 26.37500171100004], [84.64106303400007, 26.377072144000067], [84.64184674200004, 26.377639568000063], [84.64347781000004, 26.378070668000078], [84.64419473200007, 26.378953672000023], [84.64575312000005, 26.38085565800003], [84.64677730500006, 26.383351024000035], [84.64755880500007, 26.38434711800005], [84.64928352300007, 26.38511704900003], [84.65141891000007, 26.384954538000045], [84.65327417500004, 26.384686963000036], [84.65459375800003, 26.384349546000067], [84.65509568300007, 26.38418461200007], [84.65586003900006, 26.38166964800007], [84.65911373000006, 26.37834371100007], [84.66069068600007, 26.376621740000076], [84.66264453500008, 26.37566858300005], [84.66444742400006, 26.37383925100005], [84.66548958900006, 26.372823616000062], [84.66630690600005, 26.372691563000046], [84.66687522200004, 26.372269704000075], [84.66728545400008, 26.371391346000053], [84.66766970400005, 26.37068437100004], [84.66848897600005, 26.37015066200007], [84.67179126600007, 26.369004266000047]]]]}}, {"type": "Feature", "properties": {"OBJECTID": 4708, "GPCODE": "93423", "GPNAME_1": "KUSHAHAR", "DIST_CEN_C": "15", "BLK_NAME": "SIDHWALIA", "ST_NAME": "BIHAR", "ST_CODE_1": "10", "GPCODE2011": "95977", "REMARKS": "FINALIZED", "MAP_STATUS": "COMPLETED", "BLK_C_2001": "150013", "BLK_C_2011": "01227", "DIST_NAME": "GOPALGANJ", "code2011": 9.0, "Shape_Leng": 0.09757845816, "Shape_Area": 0.00037333178, "Area": 4.13065}, "geometry": {"type": "MultiPolygon", "coordinates": [[[[84.71197370000004, 26.366290763000052], [84.71205643300004, 26.36463487700007], [84.71227936500009, 26.36410776400004], [84.71389606500009, 26.363319527000044], [84.71085595100004, 26.35451258200004], [84.70919297500006, 26.349081863000038], [84.70563129600004, 26.349136099000077], [84.70335224100006, 26.350183363000042], [84.70166101800004, 26.350840308000045], [84.69924352000004, 26.350429400000053], [84.69836788700007, 26.349166909000076], [84.69727189200006, 26.347908181000037], [84.69639441300006, 26.347047331000056], [84.69581620700006, 26.345388832000026], [84.69516233000007, 26.343865485000038], [84.69392357800007, 26.342078100000037], [84.69218302800004, 26.34155694100008], [84.69009667500006, 26.341088470000045], [84.68863723600003, 26.34042383800005], [84.68789491200005, 26.34167555700003], [84.68685985700006, 26.34338632600003], [84.68583302500008, 26.344438308000065], [84.68583198200008, 26.344636837000053], [84.68583078500006, 26.344903101000057], [84.68868421100007, 26.345243809000067], [84.68970875100007, 26.345708081000055], [84.69051012400007, 26.346771774000047], [84.69101465900007, 26.348091456000077], [84.69181320200005, 26.34974630000005], [84.69268601900006, 26.351599891000035], [84.69252686100003, 26.353449574000024], [84.69134303200008, 26.35588638100006], [84.68916467900004, 26.35885186400003], [84.68812707000006, 26.362083471000062], [84.69059746000005, 26.36196677500004], [84.69352859500003, 26.36290331600003], [84.69492092800004, 26.364032424000072], [84.69701522500003, 26.363981857000056], [84.69884253100008, 26.365311175000045], [84.70250803600004, 26.365659166000057], [84.70544343300008, 26.365733556000066], [84.70867627900003, 26.365416392000043], [84.71197370000004, 26.366290763000052]]]]}}, {"type": "Feature", "properties": {"OBJECTID": 4713, "GPCODE": "93427", "GPNAME_1": "SUPAULY", "DIST_CEN_C": "15", "BLK_NAME": "SIDHWALIA", "ST_NAME": "BIHAR", "ST_CODE_1": "10", "GPCODE2011": "95981", "REMARKS": "FINALIZED", "MAP_STATUS": "COMPLETED", "BLK_C_2001": "150013", "BLK_C_2011": "01227", "DIST_NAME": "GOPALGANJ", "code2011": 15.0, "Shape_Leng": 0.18894423127, "Shape_Area": 0.00103141029, "Area": 11.4097}, "geometry": {"type": "MultiPolygon", "coordinates": [[[[84.69285979700004, 26.39063201500005], [84.69323508400004, 26.388652414000035], [84.69169676100006, 26.388646393000045], [84.68949453600004, 26.389165740000067], [84.68685297500008, 26.38935397000006], [84.68465130000004, 26.389742376000072], [84.68398925900004, 26.38987069800004], [84.68318875700004, 26.389605724000035], [84.68326157100006, 26.38907350100004], [84.68348876000005, 26.387688953000065], [84.68393646200008, 26.38630534500004], [84.68482650100003, 26.383601131000034], [84.68549902200004, 26.38129322700007], [84.68550801300006, 26.379443037000044], [84.68573422200006, 26.378257087000065], [84.68603030000008, 26.377134561000048], [84.68662755300005, 26.375882275000038], [84.68721917400006, 26.374765426000067], [84.68707460600007, 26.373573557000043], [84.68781618700007, 26.372520397000073], [84.68947620900008, 26.371137029000067], [84.68999584300008, 26.369356443000072], [84.68956100100007, 26.36810021100007], [84.68912490900004, 26.36710563500003], [84.68898472200004, 26.36604908700008], [84.68928377800006, 26.365323717000024], [84.68935615900006, 26.364863730000025], [84.68928819300004, 26.364398566000034], [84.68913952100007, 26.36406861100005], [84.68863171000004, 26.36340774300004], [84.68812264700006, 26.363008625000077], [84.68812707000006, 26.362083471000062], [84.68916467900004, 26.35885186400003], [84.69134303200008, 26.35588638100006], [84.69252686100003, 26.353449574000024], [84.69132128400008, 26.35413535200007], [84.69044376000005, 26.35432594400004], [84.68977931300003, 26.355000260000054], [84.68855323100007, 26.355789790000074], [84.68719850200006, 26.356235683000023], [84.68558922300008, 26.357533604000025], [84.68461641400006, 26.357728305000023], [84.68395575700004, 26.35761291500006], [84.68365012500004, 26.35659177100007], [84.68353381900005, 26.354750082000066], [84.68319470000006, 26.35342193300005], [84.68228574800008, 26.352849712000022], [84.68068313700007, 26.352789202000054], [84.67895255300004, 26.35326072500004], [84.67822728100003, 26.35407917200007], [84.67771950600007, 26.354447185000026], [84.67724865200006, 26.354445259000045], [84.67605823700006, 26.354070440000044], [84.67530685600008, 26.354067420000035], [84.67416862900006, 26.355308437000076], [84.67328129200007, 26.356464646000063], [84.67216666400003, 26.356974640000033], [84.67265900500007, 26.35870506200007], [84.67327485600003, 26.36080144700003], [84.67567499300003, 26.364746232000073], [84.67679001500005, 26.367210207000028], [84.67717955500007, 26.371544055000072], [84.67378592300008, 26.371900518000075], [84.67366430700008, 26.371164476000047], [84.67329770800006, 26.369321729000035], [84.67307978600007, 26.368810890000077], [84.67270410500004, 26.368809417000023], [84.67179126600007, 26.369004266000047], [84.66848897600005, 26.37015066200007], [84.66766970400005, 26.37068437100004], [84.66728545400008, 26.371391346000053], [84.66687522200004, 26.372269704000075], [84.66630690600005, 26.372691563000046], [84.66548958900006, 26.372823616000062], [84.66444742400006, 26.37383925100005], [84.66264453500008, 26.37566858300005], [84.66069068600007, 26.376621740000076], [84.65911373000006, 26.37834371100007], [84.65586003900006, 26.38166964800007], [84.65509568300007, 26.38418461200007], [84.65603497600006, 26.384698471000036], [84.65709606100006, 26.386909613000057], [84.65822085100007, 26.387424284000076], [84.65935261800007, 26.387541760000033], [84.66192700900007, 26.38777800500003], [84.66406462600008, 26.38716398500003], [84.66482101600008, 26.387225717000035], [84.66494059100006, 26.388354469000035], [84.66531234100006, 26.389150220000033], [84.66606275300006, 26.390398826000023], [84.66743533400006, 26.391478500000062], [84.66793436800003, 26.39289747400005], [84.66780649800006, 26.39340694400005], [84.66565749600005, 26.395266478000053], [84.66639283200004, 26.39951152200007], [84.66694467500008, 26.401382020000028], [84.66749647100005, 26.40427246300004], [84.67308750900008, 26.404633628000056], [84.67478608500005, 26.404699094000023], [84.67616587400005, 26.40436624000006], [84.67912959300008, 26.40296107900008], [84.68470335900008, 26.40170150000006], [84.68507403500007, 26.400710196000034], [84.68537319600006, 26.39998485500007], [84.68633011500003, 26.399000278000074], [84.68736062000005, 26.398345499000072], [84.69019370600006, 26.39590161500007], [84.69218668500008, 26.393070807000072], [84.69285979700004, 26.39063201500005]]]]}}, {"type": "Feature", "properties": {"OBJECTID": 4715, "GPCODE": "93419", "GPNAME_1": "DUMARIA", "DIST_CEN_C": "15", "BLK_NAME": "SIDHWALIA", "ST_NAME": "BIHAR", "ST_CODE_1": "10", "GPCODE2011": "95973", "REMARKS": "FINALIZED", "MAP_STATUS": "COMPLETED", "BLK_C_2001": "150013", "BLK_C_2011": "01227", "DIST_NAME": "GOPALGANJ", "code2011": 16.0, "Shape_Leng": 0.19747008069, "Shape_Area": 0.00086649088, "Area": 9.58479}, "geometry": {"type": "MultiPolygon", "coordinates": [[[[84.70992360600007, 26.40104080900005], [84.71139321900006, 26.400780115000032], [84.71264356400008, 26.401317394000046], [84.71472204300005, 26.402674456000057], [84.71640354100003, 26.403431614000056], [84.71664370100007, 26.402998223000054], [84.71723983800007, 26.402857950000055], [84.71811188800007, 26.40311912100003], [84.71849277200005, 26.403213640000047], [84.71917421700005, 26.403163542000073], [84.71957984600004, 26.402901559000043], [84.71998535300008, 26.402477068000053], [84.72024050500005, 26.40200760700003], [84.72054576500005, 26.40151997600003], [84.72093597700007, 26.400887977000025], [84.72100537500006, 26.399985362000052], [84.72069734400003, 26.397115402000054], [84.72081718900006, 26.396533154000053], [84.72147754000008, 26.39535485300007], [84.72235281500008, 26.393648478000046], [84.72377862700006, 26.391133896000042], [84.72520432600004, 26.388664387000063], [84.72598403600006, 26.386605936000024], [84.72618375600007, 26.38577998100004], [84.72678305600004, 26.383766818000026], [84.72701300400007, 26.383171014000027], [84.72777768100008, 26.381157720000033], [84.72839907500008, 26.381396505000055], [84.73058428000007, 26.382468926000058], [84.73182217300007, 26.383050146000073], [84.73220270000007, 26.382824218000053], [84.73293869200006, 26.38227309000007], [84.73189585800003, 26.381393896000077], [84.73098353400007, 26.38075377900003], [84.73012142400006, 26.380248977000065], [84.72920412100007, 26.379735165000056], [84.72817169200005, 26.37922151500004], [84.72799118900008, 26.379027558000075], [84.72798110500008, 26.37895985800003], [84.72857668300009, 26.37835023300005], [84.72988329500004, 26.37735643800005], [84.73126501100006, 26.37635805700006], [84.73223620200008, 26.37567143900003], [84.73293214100005, 26.375282835000064], [84.73356788400008, 26.374858136000057], [84.73388306900006, 26.374469826000052], [84.73411303900008, 26.373941642000034], [84.73441281900006, 26.373151653000036], [84.73497817200007, 26.37244270000008], [84.73536855800006, 26.372076863000075], [84.73587914200004, 26.371638735000033], [84.73633466200005, 26.371367639000027], [84.73688047300004, 26.37112343900003], [84.73727091600006, 26.37085237900004], [84.73765120800005, 26.370495584000025], [84.73802645900008, 26.370053082000027], [84.73901213600004, 26.368906039000024], [84.73982295100006, 26.368205914000043], [84.74095389600006, 26.367144453000037], [84.74203985400004, 26.366150788000027], [84.74250536400007, 26.365838971000073], [84.74295587400007, 26.365576840000074], [84.74372672900006, 26.36501667600004], [84.74447242300005, 26.36442037000006], [84.74601320900007, 26.36254176500006], [84.74458747800008, 26.36055643900005], [84.74393444700007, 26.35982763100003], [84.74275806400004, 26.35962488200005], [84.74055774000004, 26.35987878900005], [84.73949074000006, 26.359874970000078], [84.73949059500006, 26.359906631000058], [84.73904633100005, 26.360699272000033], [84.73808219800009, 26.36234757400007], [84.73741601900008, 26.363473343000067], [84.73697014000004, 26.36459547100003], [84.73674215100004, 26.36631403100006], [84.73652443000003, 26.366841300000033], [84.73504896700007, 26.367431691000036], [84.73427304700004, 26.367279972000063], [84.73123789900006, 26.367088495000075], [84.73006418400007, 26.36628999000004], [84.72933362700007, 26.36608874600006], [84.72793595600007, 26.36608362100003], [84.72529395500004, 26.366471121000075], [84.72390162900007, 26.36639834500005], [84.72310108100004, 26.363949380000065], [84.72187112100005, 26.36010899100006], [84.71745720300004, 26.36240765100007], [84.71389606500009, 26.363319527000044], [84.71227936500009, 26.36410776400004], [84.71205643300004, 26.36463487700007], [84.71197370000004, 26.366290763000052], [84.71295248200005, 26.369137557000045], [84.71360470600007, 26.37112115700006], [84.71484333000006, 26.373043729000074], [84.71498071400003, 26.37476364200006], [84.71424466000008, 26.375753732000078], [84.71321008700005, 26.37628230200005], [84.71254766000004, 26.37760209000004], [84.71096637100004, 26.37825957000007], [84.71038777600006, 26.38093801900004], [84.70979413900005, 26.38252423800003], [84.70772560500006, 26.384502058000066], [84.70632067000008, 26.38707357100003], [84.70363060600005, 26.38904895400003], [84.70106293500004, 26.388443447000043], [84.69923276800006, 26.38764218700004], [84.69776624800005, 26.387307023000062], [84.69673968200004, 26.38716770800005], [84.69563797400008, 26.387032574000045], [84.69468591000003, 26.387028857000075], [84.69380126700008, 26.387621160000037], [84.69323508400004, 26.388652414000035], [84.69285979700004, 26.39063201500005], [84.69218668500008, 26.393070807000072], [84.69019370600006, 26.39590161500007], [84.69181518400006, 26.396341153000037], [84.69526437200005, 26.396025171000076], [84.69601617000006, 26.392851059000066], [84.69718994100003, 26.392593856000076], [84.70042317900004, 26.392340098000034], [84.70232761800008, 26.393340177000027], [84.70268665200007, 26.394794730000058], [84.70348027500006, 26.39757760400005], [84.70376887600008, 26.399099510000042], [84.70471627500007, 26.400095945000032], [84.70591287200006, 26.403539254000066], [84.70882406200008, 26.40150153600007], [84.70992360600007, 26.40104080900005]]]]}}, {"type": "Feature", "properties": {"OBJECTID": 4718, "GPCODE": "93421", "GPNAME_1": "KARAS GHAT", "DIST_CEN_C": "15", "BLK_NAME": "SIDHWALIA", "ST_NAME": "BIHAR", "ST_CODE_1": "10", "GPCODE2011": "95975", "REMARKS": "FINALIZED", "MAP_STATUS": "COMPLETED", "BLK_C_2001": "150013", "BLK_C_2011": "01227", "DIST_NAME": "GOPALGANJ", "code2011": 9.0, "Shape_Leng": 0.10490485073, "Shape_Area": 0.00058688787, "Area": 6.49237}, "geometry": {"type": "MultiPolygon", "coordinates": [[[[84.68949453600004, 26.389165740000067], [84.69169676100006, 26.388646393000045], [84.69323508400004, 26.388652414000035], [84.69380126700008, 26.387621160000037], [84.69468591000003, 26.387028857000075], [84.69563797400008, 26.387032574000045], [84.69673968200004, 26.38716770800005], [84.69776624800005, 26.387307023000062], [84.69923276800006, 26.38764218700004], [84.70106293500004, 26.388443447000043], [84.70363060600005, 26.38904895400003], [84.70632067000008, 26.38707357100003], [84.70772560500006, 26.384502058000066], [84.70979413900005, 26.38252423800003], [84.71038777600006, 26.38093801900004], [84.71096637100004, 26.37825957000007], [84.71254766000004, 26.37760209000004], [84.71321008700005, 26.37628230200005], [84.71424466000008, 26.375753732000078], [84.71498071400003, 26.37476364200006], [84.71484333000006, 26.373043729000074], [84.71360470600007, 26.37112115700006], [84.71295248200005, 26.369137557000045], [84.71197370000004, 26.366290763000052], [84.70867627900003, 26.365416392000043], [84.70544343300008, 26.365733556000066], [84.70250803600004, 26.365659166000057], [84.69884253100008, 26.365311175000045], [84.69701522500003, 26.363981857000056], [84.69492092800004, 26.364032424000072], [84.69352859500003, 26.36290331600003], [84.69059746000005, 26.36196677500004], [84.68812707000006, 26.362083471000062], [84.68812264700006, 26.363008625000077], [84.68863171000004, 26.36340774300004], [84.68913952100007, 26.36406861100005], [84.68928819300004, 26.364398566000034], [84.68935615900006, 26.364863730000025], [84.68928377800006, 26.365323717000024], [84.68898472200004, 26.36604908700008], [84.68912490900004, 26.36710563500003], [84.68956100100007, 26.36810021100007], [84.68999584300008, 26.369356443000072], [84.68947620900008, 26.371137029000067], [84.68781618700007, 26.372520397000073], [84.68707460600007, 26.373573557000043], [84.68721917400006, 26.374765426000067], [84.68662755300005, 26.375882275000038], [84.68603030000008, 26.377134561000048], [84.68573422200006, 26.378257087000065], [84.68550801300006, 26.379443037000044], [84.68549902200004, 26.38129322700007], [84.68482650100003, 26.383601131000034], [84.68393646200008, 26.38630534500004], [84.68348876000005, 26.387688953000065], [84.68326157100006, 26.38907350100004], [84.68318875700004, 26.389605724000035], [84.68398925900004, 26.38987069800004], [84.68465130000004, 26.389742376000072], [84.68685297500008, 26.38935397000006], [84.68949453600004, 26.389165740000067]]]]}}, {"type": "Feature", "properties": {"OBJECTID": 4733, "GPCODE": "93415", "GPNAME_1": "AMAR PURA", "DIST_CEN_C": "15", "BLK_NAME": "SIDHWALIA", "ST_NAME": "BIHAR", "ST_CODE_1": "10", "GPCODE2011": "95969", "REMARKS": "FINALIZED", "MAP_STATUS": "COMPLETED", "BLK_C_2001": "150013", "BLK_C_2011": "01227", "DIST_NAME": "GOPALGANJ", "code2011": 15.0, "Shape_Leng": 0.16269713558, "Shape_Area": 0.00112140011, "Area": 12.4011}, "geometry": {"type": "MultiPolygon", "coordinates": [[[[84.68893491800003, 26.43793315000005], [84.69045795800008, 26.436971280000023], [84.69200611400004, 26.435873927000046], [84.69456114500008, 26.434225527000024], [84.69526255000005, 26.43371071200005], [84.69546290700004, 26.43362041000006], [84.69582397800008, 26.433895474000053], [84.69647083500007, 26.434490830000072], [84.69667652800007, 26.434707339000056], [84.69677674700006, 26.434775], [84.69693221300008, 26.43481100500003], [84.69775400400005, 26.434557944000062], [84.69848056800004, 26.434349974000042], [84.69868210500005, 26.434261196000023], [84.69956779800003, 26.43387103300006], [84.70144185100008, 26.433274399000027], [84.70337093700005, 26.432519657000057], [84.70538520000008, 26.43183263000003], [84.70633221600008, 26.431534256000077], [84.70679310000008, 26.43130387100007], [84.70784, 26.43054956700007], [84.71056987500003, 26.42847666600005], [84.71250333600005, 26.427067511000075], [84.71270863700005, 26.426805606000073], [84.71321411500008, 26.425925308000046], [84.71392869000005, 26.423293932000036], [84.71438790900004, 26.420856764000064], [84.71473777600005, 26.419791493000048], [84.71511754500006, 26.418365246000064], [84.71519652000006, 26.41686690100005], [84.71523568100008, 26.415666518000023], [84.71534540200008, 26.41498953300004], [84.71553559300008, 26.414659981000057], [84.71503943000005, 26.414637669000058], [84.71344094000005, 26.414602564000063], [84.71170206500005, 26.41452694900005], [84.71182212200006, 26.414265125000043], [84.71282305500006, 26.41259480800005], [84.71334356000006, 26.411782139000024], [84.71404929000005, 26.410797973000058], [84.71447964200007, 26.409998874000053], [84.71481976100006, 26.40926313400007], [84.71504305900004, 26.408428036000032], [84.71510460200005, 26.408197878000067], [84.71526896900008, 26.40694328400008], [84.71540794300006, 26.405341156000077], [84.71548741700008, 26.404461066000067], [84.71562757200007, 26.404289547000076], [84.71581800400008, 26.404230710000036], [84.71594793400004, 26.40381996800005], [84.71640354100003, 26.403431614000056], [84.71472204300005, 26.402674456000057], [84.71264356400008, 26.401317394000046], [84.71139321900006, 26.400780115000032], [84.70992360600007, 26.40104080900005], [84.70882406200008, 26.40150153600007], [84.70591287200006, 26.403539254000066], [84.70471627500007, 26.400095945000032], [84.70376887600008, 26.399099510000042], [84.70348027500006, 26.39757760400005], [84.70268665200007, 26.394794730000058], [84.70232761800008, 26.393340177000027], [84.70042317900004, 26.392340098000034], [84.69718994100003, 26.392593856000076], [84.69601617000006, 26.392851059000066], [84.69526437200005, 26.396025171000076], [84.69181518400006, 26.396341153000037], [84.69019370600006, 26.39590161500007], [84.68736062000005, 26.398345499000072], [84.68633011500003, 26.399000278000074], [84.68537319600006, 26.39998485500007], [84.68507403500007, 26.400710196000034], [84.68470335900008, 26.40170150000006], [84.68505640200004, 26.404342949000068], [84.68519331500005, 26.406062844000076], [84.68526116400005, 26.40758392600003], [84.68657696500009, 26.408049421000044], [84.68958516000004, 26.40779500800005], [84.68906787400005, 26.409052048000035], [84.68700169000005, 26.41141768500006], [84.68651105900005, 26.41438961500006], [84.68577108900007, 26.416101624000078], [84.68517922500007, 26.417222937000076], [84.68465851200006, 26.418146024000066], [84.68436294600008, 26.419133128000055], [84.68457802500006, 26.420257692000064], [84.68508343900004, 26.421451039000033], [84.68551972400007, 26.422441069000058], [84.68544062900008, 26.423234982000054], [84.68536131400003, 26.424092118000033], [84.68367369600008, 26.424811994000038], [84.67787201600004, 26.426309721000052], [84.67621737600007, 26.427426781000065], [84.67577109400008, 26.428480936000028], [84.67664709100006, 26.429739047000055], [84.67824365500007, 26.43225456400006], [84.67941126900007, 26.434375712000076], [84.68151886900006, 26.438016918000073], [84.68411485600006, 26.440999349000037], [84.68717591300003, 26.438507041000037], [84.68893491800003, 26.43793315000005]]]]}}]}