{"type": "FeatureCollection", "features": [{"type": "Feature", "properties": {"OBJECTID": 4656, "GPCODE": "93336", "GPNAME_1": "BHERIYA", "DIST_CEN_C": "15", "BLK_NAME": "KATIYA", "ST_NAME": "BIHAR", "ST_CODE_1": "10", "GPCODE2011": "95890", "REMARKS": "FINALIZED", "MAP_STATUS": "COMPLETED", "BLK_C_2001": "150001", "BLK_C_2011": "01215", "DIST_NAME": "GOPALGANJ", "code2011": 27.0, "Shape_Leng": 0.24003344254, "Shape_Area": 0.00102894624, "Area": 11.3714}, "geometry": {"type": "MultiPolygon", "coordinates": [[[[84.09316452200005, 26.598850595000044], [84.09255146700008, 26.597343588000058], [84.09223913800008, 26.59640882700006], [84.09186839900008, 26.596164702000067], [84.09186652200003, 26.59485919900004], [84.09243317100004, 26.593683919000057], [84.09269289200006, 26.59298820500004], [84.09313471100006, 26.592940327000065], [84.09346271800007, 26.593113076000066], [84.09455524100008, 26.59199662900005], [84.09484658500008, 26.592279160000032], [84.09621711300008, 26.59227958300005], [84.09715979100008, 26.59276264400006], [84.09784329900003, 26.592708526000024], [84.09931462800006, 26.59208975200005], [84.10039624800004, 26.591880134000064], [84.10110467100003, 26.591353887000025], [84.10230350100005, 26.591032453000025], [84.10351289200008, 26.59103703100004], [84.10503043400007, 26.590598401000022], [84.10603841800008, 26.590608235000047], [84.10642114200004, 26.589981670000043], [84.10770285700005, 26.589730511000027], [84.10823580500005, 26.59000668400006], [84.10968333900007, 26.589896143000033], [84.11057283100007, 26.58998163800004], [84.11087987900004, 26.589502027000037], [84.11130403500005, 26.588910698000063], [84.11188930600008, 26.588315140000077], [84.11339961800007, 26.587658960000056], [84.11459484900007, 26.58722869500008], [84.11360152700007, 26.58518768600004], [84.11319910100008, 26.58396526200005], [84.11288184400007, 26.582885675000057], [84.11229687100007, 26.58224824200005], [84.11166785700004, 26.582119676000048], [84.11137923100006, 26.58067660200004], [84.11226042400006, 26.58050849400007], [84.11282655600007, 26.580566125000075], [84.11317845900004, 26.580230492000055], [84.11324135800004, 26.57968488100005], [84.11424535000003, 26.57928787700007], [84.11632136700007, 26.57934098100003], [84.11674465700008, 26.578863265000052], [84.11745507700005, 26.578629239000065], [84.11826039100004, 26.578859309000052], [84.11899297300005, 26.57930664500003], [84.11995290700008, 26.580609523000078], [84.12095729400005, 26.582054735000042], [84.12054695000006, 26.58292695700004], [84.12024433400006, 26.583437385000025], [84.12056893500005, 26.58482871600006], [84.12064164200007, 26.585663761000035], [84.12082212800004, 26.586408762000076], [84.12127492600007, 26.588318042000026], [84.12192642700006, 26.591534189000072], [84.12208118300003, 26.593088112000032], [84.12369684600003, 26.593190674000027], [84.12452007300004, 26.59371296100005], [84.12537994400003, 26.59412545200007], [84.12620568100004, 26.593487266000068], [84.12671033800007, 26.592893684000046], [84.12667963400008, 26.59195165600005], [84.12705871900005, 26.59121639800003], [84.12765219400006, 26.590874373000077], [84.12825275300008, 26.590749724000034], [84.12900970900006, 26.590475970000057], [84.12905482100007, 26.589386868000076], [84.12855029600007, 26.58874737700006], [84.12856270400005, 26.587740918000065], [84.12937639000006, 26.587001650000047], [84.12968823200003, 26.58677807400005], [84.13018060400003, 26.585975423000036], [84.13043980600008, 26.58535839600006], [84.13098724900004, 26.58502097300004], [84.13201887200006, 26.58485016900005], [84.13283837200004, 26.584290207000038], [84.13248323300007, 26.583186816000023], [84.13206709100007, 26.58265944200008], [84.13131104100006, 26.581494864000035], [84.13220674700005, 26.580825169000036], [84.13303196900006, 26.580444441000054], [84.13432975100005, 26.579871850000075], [84.13500063600003, 26.579546425000046], [84.13504322200004, 26.578384792000065], [84.13525529900005, 26.577472589000024], [84.13519609200006, 26.576893942000027], [84.13471293200007, 26.57567369000003], [84.13450332300005, 26.574192311000047], [84.13508250100006, 26.573415493000027], [84.13566285500008, 26.572674886000073], [84.13605366500008, 26.572301925000033], [84.13599445300008, 26.571723184000064], [84.13501624200006, 26.571386361000066], [84.13392667800008, 26.571342623000078], [84.13346602400009, 26.570810812000047], [84.13237072800007, 26.569352882000032], [84.13162699200007, 26.56879228500003], [84.13030408200007, 26.569008491000034], [84.12977826300005, 26.568949769000028], [84.12906418100005, 26.56806197900005], [84.12808601700004, 26.567725112000062], [84.12717423500004, 26.566951353000036], [84.12565522900007, 26.567318499000066], [84.12390004300005, 26.567872434000037], [84.12268969300004, 26.567831798000043], [84.12144732400003, 26.568045810000058], [84.12079715900006, 26.56788159100006], [84.11981548100005, 26.56743593500005], [84.11876848200006, 26.56746346600005], [84.11773572200008, 26.567925751000075], [84.11569397000005, 26.568342048000034], [84.11384994000008, 26.568644388000052], [84.11175698800008, 26.56873539600008], [84.11134729400004, 26.568528489000073], [84.11108683300006, 26.56795511300004], [84.11078492600006, 26.567346577000023], [84.11035407100007, 26.566487519000077], [84.10958663600007, 26.566435068000033], [84.10900175500007, 26.565797614000076], [84.10888604400003, 26.56471271600003], [84.10893827100006, 26.563840980000066], [84.10929013700007, 26.56350535100006], [84.11029438000008, 26.563406513000075], [84.11028144400007, 26.56300796100004], [84.10988852600008, 26.56207531800004], [84.10941967500008, 26.561289834000036], [84.10935576600008, 26.560565575000055], [84.11007573600006, 26.560401610000042], [84.11014099200008, 26.559928512000056], [84.10940446300003, 26.559585189000074], [84.10874740700007, 26.559203532000026], [84.10834970700006, 26.558125931000063], [84.10712770500004, 26.55772283600004], [84.10648241300004, 26.557703507000042], [84.10571973100008, 26.557795992000024], [84.10485771800006, 26.55731085900004], [84.10355060100005, 26.556764890000068], [84.10298340300005, 26.55667091600003], [84.10195409300007, 26.557241844000032], [84.10104686200003, 26.55784590600007], [84.10022016100004, 26.55844776200007], [84.10052385900008, 26.560361872000044], [84.10107858100008, 26.562559468000075], [84.10145837800007, 26.56432714500005], [84.10191391200004, 26.565947116000075], [84.10158079500007, 26.566862447000062], [84.10154015000006, 26.568096516000026], [84.10030605900005, 26.56856404800004], [84.09967234100003, 26.56890702900006], [84.09968897400006, 26.569414496000036], [84.09978829000005, 26.56999210600003], [84.10044509700003, 26.571606898000027], [84.10093495100006, 26.57304464200007], [84.10100456100008, 26.573949422000055], [84.10129550200008, 26.57546495300005], [84.10001744000004, 26.57582479900003], [84.09830112700007, 26.57634117300006], [84.09743625700008, 26.57701649100005], [84.09729870200005, 26.577745367000034], [84.09581101900005, 26.577856849000057], [84.09489423700006, 26.57817096100007], [84.09524169300005, 26.580192638000028], [84.09557242600005, 26.582940115000042], [84.09556687600008, 26.58526115600006], [84.09385393300005, 26.585886213000038], [84.09137576400008, 26.58653114200007], [84.08989392400008, 26.586823637000066], [84.08820590000005, 26.58697651700004], [84.08778382500003, 26.585138012000073], [84.08685527500006, 26.585089744000072], [84.08524899600008, 26.58527670600006], [84.08437124200003, 26.58555339700007], [84.08352665300004, 26.585611748000076], [84.08344781100004, 26.58441706800005], [84.08361531700007, 26.583361038000078], [84.08366655700007, 26.582453111000063], [84.08385392300005, 26.582013008000047], [84.08378326300004, 26.58107201200005], [84.08337474500007, 26.58090134100007], [84.08220455900005, 26.58085925100005], [84.08148305400005, 26.580986508000024], [84.08045344900006, 26.581557281000073], [84.07940759800005, 26.58162085200007], [84.07896464300006, 26.581632385000034], [84.07812007400008, 26.58169061500007], [84.07728027500008, 26.58189378900005], [84.07712732800007, 26.582151578000037], [84.07726683200008, 26.58272824000005], [84.07651097700005, 26.58303796100006], [84.07583917500006, 26.583454319000055], [84.07532590600005, 26.583741901000053], [84.07545077600008, 26.584096137000074], [84.07526497600008, 26.585377461000064], [84.07477105700008, 26.585900958000025], [84.07503074800007, 26.586915414000032], [84.07558050400007, 26.588126548000048], [84.07616402000008, 26.58862201900007], [84.07669572400005, 26.589271911000026], [84.07746076500007, 26.59012004500005], [84.07794077600005, 26.590924537000035], [84.07938313700004, 26.591652920000058], [84.08040879600009, 26.591779382000027], [84.08110901700007, 26.592373907000024], [84.08242147700008, 26.59259499700005], [84.08283491600008, 26.59309487300004], [84.08297626700005, 26.593959228000074], [84.08344236500005, 26.596091600000022], [84.08410199300005, 26.59806575700003], [84.08442500900009, 26.59928276000005], [84.08605599900005, 26.59841967400007], [84.08780241500006, 26.597576281000045], [84.08848946400008, 26.597630938000066], [84.08919289600004, 26.598192776000076], [84.08941420600007, 26.59880343800006], [84.08942825200006, 26.59923828500007], [84.08927999100007, 26.599641030000043], [84.08982581500004, 26.600315804000047], [84.09175795900006, 26.60022912000005], [84.09233986000004, 26.599524907000045], [84.09316452200005, 26.598850595000044]]]]}}, {"type": "Feature", "properties": {"OBJECTID": 4790, "GPCODE": "93338", "GPNAME_1": "KARKATAHA", "DIST_CEN_C": "15", "BLK_NAME": "KATIYA", "ST_NAME": "BIHAR", "ST_CODE_1": "10", "GPCODE2011": "95892", "REMARKS": "FINALIZED", "MAP_STATUS": "COMPLETED", "BLK_C_2001": "150001", "BLK_C_2011": "01215", "DIST_NAME": "GOPALGANJ", "code2011": 35.0, "Shape_Leng": 0.22549477144, "Shape_Area": 0.00104053341, "Area": 11.5056}, "geometry": {"type": "MultiPolygon", "coordinates": [[[[84.06729905500003, 26.536405410000043], [84.06775850400004, 26.535660724000024], [84.06887107600005, 26.53571186100004], [84.07077656500007, 26.535542289000034], [84.07262731800006, 26.535054152000043], [84.07343104100005, 26.53655331500005], [84.07399857600006, 26.537618595000026], [84.07402042900009, 26.53829806600004], [84.07440779200004, 26.539287993000073], [84.07696673400005, 26.539208707000057], [84.07844482400003, 26.538895615000058], [84.07969861700008, 26.538725701000033], [84.08111692100005, 26.537921260000076], [84.08102260800007, 26.536315665000075], [84.08093319200003, 26.53491798400006], [84.08055609000007, 26.534247767000068], [84.08035144900003, 26.533413073000077], [84.08031282800005, 26.53221406700004], [84.08074396200004, 26.53180282900007], [84.08180185100008, 26.53153524000004], [84.08295368900008, 26.531425177000074], [84.08402703400003, 26.531637212000078], [84.08567377300005, 26.53171422500003], [84.08636226800007, 26.531016308000062], [84.08762213800009, 26.530121413000074], [84.08713303900004, 26.528735169000072], [84.08668002300004, 26.52846713400004], [84.08614336500005, 26.52836126400007], [84.08586666300005, 26.528048700000056], [84.08510924800004, 26.527988513000025], [84.08444201900005, 26.52796589700006], [84.08380497900004, 26.527502834000074], [84.08357391800007, 26.52722900200007], [84.08355975800004, 26.526789714000074], [84.08310547100007, 26.526481775000036], [84.08211711200005, 26.52614773700003], [84.08148523600005, 26.525844423000024], [84.08125241500005, 26.52413160100008], [84.08043781400005, 26.523673151000025], [84.07932524400007, 26.523622190000026], [84.07518591100006, 26.523410177000073], [84.07225811900008, 26.52356628600006], [84.07117412700006, 26.521635742000058], [84.07040089500003, 26.519697203000078], [84.06999136000007, 26.519402138000032], [84.06975017000008, 26.518808394000075], [84.06984864200007, 26.51772577500003], [84.06957150800008, 26.516012884000077], [84.06945062400007, 26.51501600200004], [84.06916860900003, 26.51453261000006], [84.06839204300007, 26.51387319500003], [84.06725776600007, 26.513143120000052], [84.06587408400009, 26.513483386000075], [84.06494658800005, 26.51369026800006], [84.06056424900004, 26.513803971000073], [84.05950579200004, 26.513721752000038], [84.05895837300005, 26.513114401000053], [84.05897084800006, 26.512236596000037], [84.05924746500006, 26.510730399000067], [84.05956229500003, 26.509150070000032], [84.05922482500006, 26.508756600000027], [84.05872969200004, 26.508513494000056], [84.05800172300007, 26.508605502000023], [84.05777498900005, 26.508501698000032], [84.05754832500008, 26.508397926000043], [84.05651255900005, 26.50648699000004], [84.05588252400008, 26.504565442000057], [84.05523182800005, 26.50326606400006], [84.05460569400003, 26.50273387200008], [84.05342905700007, 26.502764338000077], [84.05277045100007, 26.502488921000065], [84.05236278100006, 26.501804694000043], [84.05194423700004, 26.50141339700008], [84.05117097000004, 26.501360267000052], [84.05052765800008, 26.501559714000052], [84.05030958100008, 26.501090087000023], [84.04996865900006, 26.500587022000047], [84.04854740200005, 26.500587168000038], [84.04760832600005, 26.500921848000075], [84.04798255600008, 26.50198451700004], [84.04813171700005, 26.503104063000023], [84.04756184700005, 26.503016676000072], [84.04691398900007, 26.502267438000047], [84.04596044900006, 26.502598438000064], [84.04348328700007, 26.503173117000074], [84.04161812600006, 26.50337445200006], [84.04123778900004, 26.503894864000074], [84.04108243000007, 26.504358500000023], [84.04074892700004, 26.504571345000045], [84.03984219500006, 26.50459474200005], [84.03952960800007, 26.50368364600007], [84.03950358200007, 26.50286727500003], [84.03891410300008, 26.502167650000047], [84.03806246400006, 26.502138557000023], [84.03773871600004, 26.502657500000055], [84.03776473000005, 26.50347387200003], [84.03773241600004, 26.50424068800004], [84.03723540400006, 26.504661979000048], [84.03729783600005, 26.506367866000062], [84.03733614100008, 26.50757003600006], [84.03764599900006, 26.50890264800006], [84.03795049600006, 26.51006363600004], [84.03674743400006, 26.510679029000073], [84.03554108000003, 26.511191368000027], [84.03489668900005, 26.51119224200005], [84.03503733300005, 26.512824713000043], [84.03615095600009, 26.512344393000035], [84.03834664400006, 26.511703409000063], [84.04000883800006, 26.511110475000066], [84.04147916900007, 26.510488158000044], [84.04239205500005, 26.510361463000038], [84.04309789300004, 26.510927614000025], [84.04374360000008, 26.510807809000028], [84.04503062800006, 26.51043086100003], [84.04643547000006, 26.51015389500003], [84.04777166600007, 26.510119359000043], [84.04854068100008, 26.510271423000063], [84.04886582500006, 26.510881706000077], [84.04985732900008, 26.51082174900006], [84.05017479700007, 26.511191652000036], [84.05034730900007, 26.511805971000058], [84.05130389800007, 26.51184994700003], [84.05175238500004, 26.512732108000023], [84.05236647200007, 26.51281934700006], [84.05273535000003, 26.513600434000068], [84.05376948000008, 26.513676796000027], [84.05449481300008, 26.51365801700007], [84.05495405800008, 26.51368044000003], [84.05570028300008, 26.51431430300005], [84.05629932700003, 26.513928125000064], [84.05675967700006, 26.51398501400007], [84.05769458800006, 26.51454562400005], [84.05737518900008, 26.51531067800005], [84.05701767500005, 26.51607671900007], [84.05642877400004, 26.51677993800007], [84.05514062400005, 26.51712287500004], [84.05342702400003, 26.517304870000032], [84.05182466000008, 26.51738074700006], [84.05094655000005, 26.517403466000076], [84.05003022600005, 26.51742716800004], [84.04965178600008, 26.517540085000064], [84.04895488800008, 26.518452509000042], [84.04858083900007, 26.518702939000036], [84.04763517900005, 26.519002642000032], [84.04680285400008, 26.51926491200004], [84.04650951700006, 26.51965087900004], [84.04632214700007, 26.52096291600003], [84.04595247600008, 26.521350853000058], [84.04509738300004, 26.522095308000075], [84.04516542500005, 26.522682518000067], [84.04502101600008, 26.524264463000065], [84.04550080900003, 26.524637814000073], [84.04628433000005, 26.52475786800005], [84.04660494300003, 26.52503017500004], [84.04666850100006, 26.52580011400005], [84.04716398000005, 26.526664135000033], [84.04782847700005, 26.526717063000035], [84.04930088100008, 26.526433457000053], [84.04926894200008, 26.52787229100005], [84.04810920200003, 26.528182772000036], [84.04790349700005, 26.529064912000024], [84.04718116800007, 26.52964467000004], [84.04693428000007, 26.53045767900005], [84.04612847900006, 26.530864334000057], [84.04606628000005, 26.531356927000047], [84.04596728500007, 26.53192066500003], [84.04460713300006, 26.532060949000027], [84.04375465100009, 26.532223258000045], [84.04388367900003, 26.53285635800006], [84.043871, 26.53374068000005], [84.04343739800004, 26.534267516000057], [84.04347733700007, 26.535518739000054], [84.04362091200005, 26.536360755000032], [84.04556934300007, 26.536974283000063], [84.04861753500006, 26.538274172000058], [84.05026180600004, 26.54001886900005], [84.05171659000007, 26.541155847000027], [84.05289596300008, 26.542555135000043], [84.05469733900009, 26.54388716300008], [84.05518999700007, 26.545099976000074], [84.05573938300006, 26.546311227000047], [84.05566851600008, 26.547640650000062], [84.05570772600004, 26.548865198000044], [84.05651972600003, 26.548920896000027], [84.05875500700006, 26.548416537000037], [84.05942929500003, 26.548021237000057], [84.06074944000005, 26.54754056300004], [84.06409958300009, 26.546098577000066], [84.06564191700005, 26.545406392000075], [84.06655260600007, 26.54524549200005], [84.06646494500006, 26.543703339000047], [84.06670095300007, 26.542736128000058], [84.06770175200006, 26.541817777000063], [84.06870253600005, 26.540899418000038], [84.06812030900005, 26.53940442100003], [84.06790658800008, 26.538689179000073], [84.06721553200003, 26.537368577000052], [84.06729905500003, 26.536405410000043]]]]}}, {"type": "Feature", "properties": {"OBJECTID": 4792, "GPCODE": "93333", "GPNAME_1": "BAIKUNTHPUR", "DIST_CEN_C": "15", "BLK_NAME": "KATIYA", "ST_NAME": "BIHAR", "ST_CODE_1": "10", "GPCODE2011": "95887", "REMARKS": "FINALIZED", "MAP_STATUS": "COMPLETED", "BLK_C_2001": "150001", "BLK_C_2011": "01215", "DIST_NAME": "GOPALGANJ", "code2011": 24.0, "Shape_Leng": 0.14008397158, "Shape_Area": 0.00076903016, "Area": 8.50393}, "geometry": {"type": "MultiPolygon", "coordinates": [[[[84.09777240000005, 26.523820158000035], [84.09855605400008, 26.523319971000035], [84.09979670300004, 26.523207548000073], [84.10086353400004, 26.52321954200005], [84.10173467500005, 26.522677120000026], [84.10309994100004, 26.522298291000027], [84.10380770600005, 26.522199706000038], [84.10478832900003, 26.52229406300006], [84.10509916000007, 26.522285915000055], [84.10557333200006, 26.521833455000035], [84.10590778200003, 26.521184651000056], [84.10668749100006, 26.520564189000027], [84.10666287300006, 26.51980474100003], [84.10577525600007, 26.518467996000027], [84.10541920400004, 26.517077199000028], [84.10502120700005, 26.515767630000028], [84.10587423400005, 26.51466519400003], [84.10580517700004, 26.513906907000035], [84.10525431700006, 26.513361350000025], [84.10426729200003, 26.513067250000063], [84.10305307100003, 26.512619019000056], [84.10199961400008, 26.51164658600004], [84.10131425200007, 26.511064426000075], [84.10098414500004, 26.510473052000066], [84.10139185200006, 26.50934237000007], [84.10175769300008, 26.50829273100004], [84.10173181400006, 26.507493287000045], [84.10148002800008, 26.506329737000044], [84.10177934600006, 26.505711292000058], [84.10264048700003, 26.505185951000044], [84.10381935800007, 26.50452292500006], [84.10294718800003, 26.503924229000063], [84.10251783600006, 26.503204263000043], [84.10249536300006, 26.502510158000064], [84.10271989300008, 26.501919245000067], [84.10334538100005, 26.501171636000038], [84.10450542300003, 26.500629339000056], [84.10530004000003, 26.500337012000045], [84.10546848000007, 26.50027500300007], [84.10613578600004, 26.499562808000064], [84.10627079200003, 26.49871838200005], [84.10585090700005, 26.498290643000075], [84.10493347700003, 26.497546862000036], [84.10469153600008, 26.49634661600004], [84.10379660700005, 26.49629693600008], [84.10315222100007, 26.49646010600003], [84.10198984600004, 26.496929317000024], [84.09957676100004, 26.497650694000072], [84.09736191400003, 26.49822047200007], [84.09482710500004, 26.498944959000028], [84.09246157700005, 26.49988430800005], [84.09072521100006, 26.500185630000033], [84.09075820800007, 26.500336752000067], [84.09091585200008, 26.501058146000048], [84.09128760300007, 26.502510865000033], [84.09140293200005, 26.503568243000075], [84.09150656300005, 26.50426013400005], [84.09184884100006, 26.504799693000052], [84.09190827500004, 26.505383074000065], [84.09130910800008, 26.505691291000062], [84.09062104600008, 26.50576410000008], [84.08993308600003, 26.505836904000034], [84.08727286300007, 26.506454779000023], [84.08379039600004, 26.50676506600007], [84.08175073200005, 26.507110717000046], [84.08061707800005, 26.507213405000073], [84.07863476300008, 26.507447857000045], [84.07689355700006, 26.50760286600007], [84.07560449800008, 26.507928982000067], [84.07467128700006, 26.50795327000003], [84.07391537400008, 26.507808401000034], [84.07315944600003, 26.507663525000055], [84.07237674000004, 26.50731827900006], [84.07188980500007, 26.507330943000056], [84.07128588100005, 26.50749283400006], [84.06999691100003, 26.507818901000064], [84.06887486900007, 26.508286806000058], [84.06770522000005, 26.508536522000043], [84.06609739600003, 26.509053642000026], [84.06611498000007, 26.509601591000035], [84.06608895500005, 26.51132062100004], [84.06614171300004, 26.512964557000032], [84.06587408400009, 26.513483386000075], [84.06725776600007, 26.513143120000052], [84.06839204300007, 26.51387319500003], [84.06916860900003, 26.51453261000006], [84.06945062400007, 26.51501600200004], [84.06957150800008, 26.516012884000077], [84.06984864200007, 26.51772577500003], [84.06975017000008, 26.518808394000075], [84.06999136000007, 26.519402138000032], [84.07040089500003, 26.519697203000078], [84.07117412700006, 26.521635742000058], [84.07225811900008, 26.52356628600006], [84.07518591100006, 26.523410177000073], [84.07932524400007, 26.523622190000026], [84.08043781400005, 26.523673151000025], [84.08125241500005, 26.52413160100008], [84.08148523600005, 26.525844423000024], [84.08211711200005, 26.52614773700003], [84.08310547100007, 26.526481775000036], [84.08355975800004, 26.526789714000074], [84.08357391800007, 26.52722900200007], [84.08380497900004, 26.527502834000074], [84.08444201900005, 26.52796589700006], [84.08510924800004, 26.527988513000025], [84.08586666300005, 26.528048700000056], [84.08614336500005, 26.52836126400007], [84.08668002300004, 26.52846713400004], [84.08713303900004, 26.528735169000072], [84.08762213800009, 26.530121413000074], [84.08909641600007, 26.530362783000044], [84.08972059700005, 26.530426430000034], [84.09127078400007, 26.53026606700007], [84.09215749400005, 26.530202881000037], [84.09384082100007, 26.530038922000074], [84.09397582800005, 26.52871632800003], [84.09440691500004, 26.528305328000044], [84.09572727200003, 26.52791099800004], [84.09614027100008, 26.526940841000055], [84.09670071500005, 26.526406484000063], [84.09746630500007, 26.525347151000062], [84.09777240000005, 26.523820158000035]]]]}}, {"type": "Feature", "properties": {"OBJECTID": 4795, "GPCODE": "93340", "GPNAME_1": "PAT KHAULI", "DIST_CEN_C": "15", "BLK_NAME": "KATIYA", "ST_NAME": "BIHAR", "ST_CODE_1": "10", "GPCODE2011": "95894", "REMARKS": "FINALIZED", "MAP_STATUS": "COMPLETED", "BLK_C_2001": "150001", "BLK_C_2011": "01215", "DIST_NAME": "GOPALGANJ", "code2011": 36.0, "Shape_Leng": 0.21871416424, "Shape_Area": 0.0013375212, "Area": 14.7861}, "geometry": {"type": "MultiPolygon", "coordinates": [[[[84.11876848200006, 26.56746346600005], [84.11981548100005, 26.56743593500005], [84.12079715900006, 26.56788159100006], [84.12144732400003, 26.568045810000058], [84.12268969300004, 26.567831798000043], [84.12390004300005, 26.567872434000037], [84.12565522900007, 26.567318499000066], [84.12717423500004, 26.566951353000036], [84.12693980800003, 26.565942085000074], [84.12797960300009, 26.56569712000004], [84.12873995200005, 26.56553200600007], [84.12998819200004, 26.565499103000036], [84.12993738100005, 26.563941027000055], [84.12985220800005, 26.562565178000057], [84.12957159100006, 26.561375896000072], [84.12934799300007, 26.558226698000055], [84.13021965100006, 26.557768485000054], [84.13057016000005, 26.557396594000068], [84.13104856800004, 26.557238900000073], [84.13143826400005, 26.556829727000036], [84.13152942100004, 26.55592070000006], [84.13121099900007, 26.554804903000047], [84.12950238800005, 26.553072954000072], [84.12891864900007, 26.552471781000065], [84.12898501200004, 26.552034888000037], [84.12908563100007, 26.551415675000044], [84.12914608600005, 26.550797612000054], [84.12917700600008, 26.549273607000032], [84.12956776300007, 26.54890065400008], [84.13001070100006, 26.548888975000068], [84.13097572600003, 26.548827281000058], [84.13106225500007, 26.547773290000066], [84.13173013900007, 26.54724794200007], [84.13188041800004, 26.546104042000024], [84.13399221700007, 26.545235707000074], [84.13510939200006, 26.54463445400006], [84.13652535600005, 26.54396504300007], [84.13685561000005, 26.543835896000076], [84.13740581500008, 26.544302969000057], [84.13950269600008, 26.544006715000023], [84.14110538200003, 26.543934266000065], [84.14121939500006, 26.543329404000076], [84.14087340500004, 26.54093079000006], [84.14058454200006, 26.539253119000023], [84.14045971700006, 26.538503969000033], [84.14094808800007, 26.538099790000047], [84.14158280100008, 26.53808300700007], [84.14224699900006, 26.53794510800003], [84.14287001200006, 26.537567445000036], [84.14347032200004, 26.537521481000056], [84.14442827500005, 26.537165125000058], [84.14545403600005, 26.536836960000073], [84.14518989400005, 26.535994440000024], [84.14475891900008, 26.535135635000074], [84.14420489500003, 26.53420758900006], [84.14400957700008, 26.533161216000053], [84.14413140500005, 26.53217692000004], [84.14496359000003, 26.531041346000052], [84.14639406600008, 26.52979967600004], [84.14681850700003, 26.52948741800003], [84.14709851800006, 26.529871274000072], [84.14728911400005, 26.53058850900004], [84.14881100900004, 26.53009676000005], [84.15138903700006, 26.529185733000077], [84.15306505500007, 26.528298676000077], [84.15415853800005, 26.527998828000023], [84.15386372000006, 26.52716393700007], [84.15275437400004, 26.525959465000028], [84.15151040700005, 26.524728379000067], [84.15088473100008, 26.52399204200003], [84.14865830500008, 26.524412690000077], [84.14713155400005, 26.52475405900003], [84.14531401900007, 26.525404132000062], [84.14399363100006, 26.525920601000053], [84.14276649000004, 26.526224006000064], [84.14137827300004, 26.526712162000024], [84.14174868200007, 26.52781592100007], [84.14236676500008, 26.529334481000035], [84.14127913800007, 26.529814592000037], [84.13879930500008, 26.530662688000064], [84.13624573300007, 26.531301923000058], [84.13602266600003, 26.530615710000063], [84.13606986200006, 26.53001260900004], [84.13649030100004, 26.52958015100006], [84.13615825300008, 26.528625787000067], [84.13589696600008, 26.527789980000023], [84.13544868700006, 26.525881343000037], [84.13516727500007, 26.523811438000052], [84.13482052200004, 26.52235872800003], [84.13436069700003, 26.521370653000076], [84.13393845200005, 26.52102944300003], [84.13213886200003, 26.52149314500008], [84.13103978700008, 26.521618098000033], [84.13037784000005, 26.522051763000036], [84.12931025200004, 26.522047902000054], [84.12827301000004, 26.521883156000058], [84.12706318900007, 26.521883029000037], [84.12610530000006, 26.52197230300004], [84.12497700800003, 26.522290077000036], [84.12456394700007, 26.52271716000007], [84.12447497300008, 26.523263677000045], [84.12410683200005, 26.52397753200006], [84.12299013800003, 26.523558810000054], [84.12231774500003, 26.523672559000033], [84.12197152300007, 26.523969812000075], [84.12152184400009, 26.524365743000033], [84.12052327400005, 26.52429597400004], [84.11972547700003, 26.523836823000067], [84.11935855100006, 26.523494396000046], [84.11920383500006, 26.523114279000026], [84.11876683600008, 26.522805709000068], [84.11780789400007, 26.522862944000053], [84.11621221800004, 26.523032957000055], [84.11577616000005, 26.52275627800003], [84.11498160900004, 26.522393064000028], [84.11405718900005, 26.522417353000037], [84.11351560300005, 26.522175455000024], [84.11297194600007, 26.521869671000047], [84.11234715500007, 26.521808433000047], [84.10953397800006, 26.522122677000027], [84.10720968500004, 26.522217971000032], [84.10684959000008, 26.52288005300005], [84.10590515300004, 26.52434735500003], [84.10600595400007, 26.525100387000066], [84.10637204300008, 26.52697979000004], [84.10644686600006, 26.528111245000048], [84.10622010900005, 26.529353738000054], [84.10658844000005, 26.531301796000037], [84.10660594800004, 26.53301866000004], [84.10667521600004, 26.533978588000025], [84.10737153300005, 26.53426944000006], [84.10768425500004, 26.534501628000044], [84.10816624100005, 26.53524456200006], [84.10817625700008, 26.535553411000024], [84.10769732800009, 26.53608125100004], [84.10681597500007, 26.535966920000078], [84.10499827700005, 26.53639240700005], [84.10385889900004, 26.536559711000052], [84.10368387700004, 26.53704516700003], [84.10325193200003, 26.53784646500003], [84.10266083800008, 26.538445764000073], [84.10224699600008, 26.538628363000043], [84.10117948700008, 26.53865632000003], [84.10059084800008, 26.538156548000075], [84.10000898100003, 26.537862671000028], [84.09948189300007, 26.53808254200004], [84.09907137900007, 26.538368082000034], [84.09885710500004, 26.538820152000028], [84.09852393300008, 26.539137981000067], [84.09680053500006, 26.538942590000033], [84.09654813800006, 26.539395746000025], [84.09739572400008, 26.539648369000076], [84.09828375200004, 26.539968560000034], [84.09973811400005, 26.54010225500008], [84.10064861700005, 26.539941068000076], [84.10141341000008, 26.539989672000047], [84.10227222800006, 26.540585492000048], [84.10277310200007, 26.54191184800004], [84.10312029600004, 26.54320791300006], [84.10316142500005, 26.544477587000074], [84.10285175300004, 26.545142095000074], [84.10282087400003, 26.545432969000046], [84.10453523200005, 26.546113354000056], [84.10557574900008, 26.547137789000033], [84.10635951300003, 26.54769755700005], [84.10783231800008, 26.54838423900003], [84.10882438300007, 26.549156011000036], [84.10901013700004, 26.54991268400005], [84.10826641300008, 26.550584998000033], [84.10784109500008, 26.551140127000053], [84.10809680800008, 26.55156865500004], [84.10856433700008, 26.552317937000055], [84.10911358500005, 26.553101319000064], [84.10927436200006, 26.554330125000035], [84.10909652800007, 26.555060086000026], [84.10935215100005, 26.555488613000023], [84.10955555300006, 26.556788789000052], [84.10945825800007, 26.55751663600006], [84.10834970700006, 26.558125931000063], [84.10874740700007, 26.559203532000026], [84.10940446300003, 26.559585189000074], [84.11014099200008, 26.559928512000056], [84.11007573600006, 26.560401610000042], [84.10935576600008, 26.560565575000055], [84.10941967500008, 26.561289834000036], [84.10988852600008, 26.56207531800004], [84.11028144400007, 26.56300796100004], [84.11029438000008, 26.563406513000075], [84.10929013700007, 26.56350535100006], [84.10893827100006, 26.563840980000066], [84.10888604400003, 26.56471271600003], [84.10900175500007, 26.565797614000076], [84.10958663600007, 26.566435068000033], [84.11035407100007, 26.566487519000077], [84.11078492600006, 26.567346577000023], [84.11108683300006, 26.56795511300004], [84.11134729400004, 26.568528489000073], [84.11175698800008, 26.56873539600008], [84.11384994000008, 26.568644388000052], [84.11569397000005, 26.568342048000034], [84.11773572200008, 26.567925751000075], [84.11876848200006, 26.56746346600005]]]]}}, {"type": "Feature", "properties": {"OBJECTID": 4802, "GPCODE": "93332", "GPNAME_1": "AMEYA", "DIST_CEN_C": "15", "BLK_NAME": "KATIYA", "ST_NAME": "BIHAR", "ST_CODE_1": "10", "GPCODE2011": "95886", "REMARKS": "FINALIZED", "MAP_STATUS": "COMPLETED", "BLK_C_2001": "150001", "BLK_C_2011": "01215", "DIST_NAME": "GOPALGANJ", "code2011": 17.0, "Shape_Leng": 0.14548033815, "Shape_Area": 0.00092836117, "Area": 10.2554}, "geometry": {"type": "MultiPolygon", "coordinates": [[[[84.14286113600008, 26.635788688000048], [84.14438940000008, 26.635646182000073], [84.14600272900003, 26.636369424000065], [84.14671426400008, 26.63642717700003], [84.14742593600005, 26.636484938000024], [84.14838032100005, 26.63615335800006], [84.15002367400007, 26.63605880500006], [84.15230279500008, 26.636304775000042], [84.15367762000005, 26.63667687700007], [84.15572479400004, 26.63677578100004], [84.15748334700004, 26.636729150000065], [84.15907171900005, 26.636687014000074], [84.15873605100006, 26.63511305000003], [84.15851391100006, 26.633536070000048], [84.15772282600005, 26.631923218000054], [84.15663309500007, 26.62985860400005], [84.15609745700004, 26.629106895000064], [84.15599222500003, 26.627629006000063], [84.15670944100003, 26.626997238000058], [84.15660451200006, 26.62651670200006], [84.15535904300003, 26.62626262300006], [84.15327046800007, 26.625851311000076], [84.15191359900007, 26.625851383000054], [84.15144912200003, 26.62507413000003], [84.15154749400006, 26.624425474000077], [84.15196491900008, 26.623768365000046], [84.15198480200007, 26.62315766300003], [84.15183457600006, 26.62222848600004], [84.15143693300007, 26.62105454300007], [84.15120822900008, 26.620163320000074], [84.15113189200008, 26.619052708000027], [84.15059934000004, 26.617415753000046], [84.14999429500006, 26.61721642300006], [84.14887561800003, 26.617174195000075], [84.14633215800006, 26.617492825000056], [84.14442430800005, 26.617722670000035], [84.14361635200004, 26.617421052000054], [84.14326220600003, 26.61635374900004], [84.14311204800003, 26.615424466000036], [84.14261717100004, 26.614935090000074], [84.14226303700008, 26.613867691000053], [84.14264409200007, 26.612098831000026], [84.14318105400008, 26.611438579000037], [84.14305213700004, 26.611154973000055], [84.14153366800008, 26.611087386000065], [84.14052764700006, 26.610826862000067], [84.14039041900008, 26.610292060000063], [84.14029541700006, 26.609827987000074], [84.14023687500008, 26.60925522900004], [84.13969512000006, 26.608551728000066], [84.13876642800005, 26.60821730400005], [84.13824706100007, 26.608195143000046], [84.13795745200008, 26.60910007800004], [84.13724914300008, 26.60940597800004], [84.13549739500007, 26.60952396700003], [84.13395312500006, 26.609887693000076], [84.13335751100004, 26.60997524800007], [84.13095133900003, 26.610828255000058], [84.12917372700008, 26.611377651000055], [84.12692467600004, 26.612154700000076], [84.12615069600008, 26.612892980000026], [84.12541073800008, 26.613450792000037], [84.12349457700003, 26.614649821000057], [84.12238761100008, 26.614966046000063], [84.12131234700007, 26.61503020200007], [84.11972109100003, 26.615179759000057], [84.11891183300008, 26.616062340000042], [84.11891162800003, 26.617282696000075], [84.11893613500007, 26.61803582400006], [84.11865707600003, 26.618043157000045], [84.11839668300007, 26.61862420600005], [84.11764382800004, 26.618787584000074], [84.11717936200006, 26.61923048600005], [84.11703500200008, 26.61970085400003], [84.11641111000006, 26.620147941000027], [84.11609893100007, 26.62159183400007], [84.11562045700003, 26.621604398000045], [84.11366561800008, 26.62161984100004], [84.11087590600005, 26.621728911000048], [84.10912386000007, 26.621846607000066], [84.10927832500005, 26.622919210000077], [84.10908454100007, 26.62432410300005], [84.10890674500007, 26.627451266000037], [84.10878679300004, 26.62867474500007], [84.10889799400007, 26.62964094000006], [84.10881675800005, 26.630827434000025], [84.10898291200004, 26.631931918000078], [84.11147379300007, 26.631713348000062], [84.11162543100005, 26.63288379900007], [84.11222576500006, 26.63388922300004], [84.11226720300004, 26.63516457700007], [84.11279763400006, 26.63576340000003], [84.11427093100008, 26.63567368400004], [84.11585598600004, 26.635529965000046], [84.11970669500005, 26.635224503000074], [84.12330222600008, 26.63492584100004], [84.12574147500004, 26.634861659000023], [84.12822240200006, 26.634336762000032], [84.13032627900003, 26.634434502000033], [84.13165258500004, 26.63506334500005], [84.13355130200006, 26.63583024600007], [84.13499605800007, 26.636609100000044], [84.13738691100008, 26.636801284000057], [84.13920223100007, 26.636753360000057], [84.14060207200004, 26.63615479400005], [84.14286113600008, 26.635788688000048]]]]}}, {"type": "Feature", "properties": {"OBJECTID": 4804, "GPCODE": "93335", "GPNAME_1": "BELAHI KHAS", "DIST_CEN_C": "15", "BLK_NAME": "KATIYA", "ST_NAME": "BIHAR", "ST_CODE_1": "10", "GPCODE2011": "95889", "REMARKS": "FINALIZED", "MAP_STATUS": "COMPLETED", "BLK_C_2001": "150001", "BLK_C_2011": "01215", "DIST_NAME": "GOPALGANJ", "code2011": 22.0, "Shape_Leng": 0.16404036121, "Shape_Area": 0.00097563844, "Area": 10.789}, "geometry": {"type": "MultiPolygon", "coordinates": [[[[84.04343739800004, 26.534267516000057], [84.043871, 26.53374068000005], [84.04388367900003, 26.53285635800006], [84.04375465100009, 26.532223258000045], [84.04460713300006, 26.532060949000027], [84.04596728500007, 26.53192066500003], [84.04606628000005, 26.531356927000047], [84.04612847900006, 26.530864334000057], [84.04693428000007, 26.53045767900005], [84.04718116800007, 26.52964467000004], [84.04790349700005, 26.529064912000024], [84.04810920200003, 26.528182772000036], [84.04926894200008, 26.52787229100005], [84.04930088100008, 26.526433457000053], [84.04782847700005, 26.526717063000035], [84.04716398000005, 26.526664135000033], [84.04666850100006, 26.52580011400005], [84.04660494300003, 26.52503017500004], [84.04628433000005, 26.52475786800005], [84.04550080900003, 26.524637814000073], [84.04502101600008, 26.524264463000065], [84.04516542500005, 26.522682518000067], [84.04509738300004, 26.522095308000075], [84.04595247600008, 26.521350853000058], [84.04632214700007, 26.52096291600003], [84.04650951700006, 26.51965087900004], [84.04680285400008, 26.51926491200004], [84.04763517900005, 26.519002642000032], [84.04858083900007, 26.518702939000036], [84.04895488800008, 26.518452509000042], [84.04965178600008, 26.517540085000064], [84.05003022600005, 26.51742716800004], [84.05094655000005, 26.517403466000076], [84.05182466000008, 26.51738074700006], [84.05342702400003, 26.517304870000032], [84.05514062400005, 26.51712287500004], [84.05642877400004, 26.51677993800007], [84.05701767500005, 26.51607671900007], [84.05737518900008, 26.51531067800005], [84.05769458800006, 26.51454562400005], [84.05675967700006, 26.51398501400007], [84.05629932700003, 26.513928125000064], [84.05570028300008, 26.51431430300005], [84.05495405800008, 26.51368044000003], [84.05449481300008, 26.51365801700007], [84.05376948000008, 26.513676796000027], [84.05273535000003, 26.513600434000068], [84.05236647200007, 26.51281934700006], [84.05175238500004, 26.512732108000023], [84.05130389800007, 26.51184994700003], [84.05034730900007, 26.511805971000058], [84.05017479700007, 26.511191652000036], [84.04985732900008, 26.51082174900006], [84.04886582500006, 26.510881706000077], [84.04854068100008, 26.510271423000063], [84.04777166600007, 26.510119359000043], [84.04643547000006, 26.51015389500003], [84.04503062800006, 26.51043086100003], [84.04374360000008, 26.510807809000028], [84.04309789300004, 26.510927614000025], [84.04239205500005, 26.510361463000038], [84.04147916900007, 26.510488158000044], [84.04000883800006, 26.511110475000066], [84.03834664400006, 26.511703409000063], [84.03615095600009, 26.512344393000035], [84.03503733300005, 26.512824713000043], [84.03489668900005, 26.51119224200005], [84.03554108000003, 26.511191368000027], [84.03674743400006, 26.510679029000073], [84.03795049600006, 26.51006363600004], [84.03764599900006, 26.50890264800006], [84.03733614100008, 26.50757003600006], [84.03729783600005, 26.506367866000062], [84.03723540400006, 26.504661979000048], [84.03611019000004, 26.504946285000074], [84.03492664600003, 26.505181118000053], [84.03407661200004, 26.505203021000057], [84.03289305800007, 26.50543774700003], [84.03074281100004, 26.505595234000054], [84.02939086200007, 26.505885327000044], [84.02832151400008, 26.506142655000076], [84.02725205800004, 26.506399978000047], [84.02567500100008, 26.506746887000077], [84.02466953300006, 26.507232358000067], [84.02314430300004, 26.50742473200006], [84.02212586100006, 26.507501956000056], [84.02077711100003, 26.50789400900004], [84.02033663300006, 26.508313883000028], [84.02030917100006, 26.50923374200005], [84.01987030300006, 26.50970454000003], [84.01857337300004, 26.509942065000075], [84.01671131100005, 26.510245229000077], [84.01589035100005, 26.509398193000038], [84.01510184100005, 26.509571591000054], [84.01358303200004, 26.50996794100007], [84.01206260200007, 26.510313351000036], [84.00995356400006, 26.510877871000048], [84.00792629300008, 26.51133833600005], [84.00764822600007, 26.512203699000054], [84.00704207100006, 26.51236926000007], [84.00626294600005, 26.51233914900007], [84.00498567000005, 26.512371822000034], [84.00388598900008, 26.512749995000036], [84.00269260200008, 26.513680608000072], [84.00191638000007, 26.515500560000078], [84.00156547100005, 26.516709630000037], [84.00180180900009, 26.51715364100005], [84.00238565900008, 26.518038819000026], [84.00334715600007, 26.518564291000075], [84.00497675400004, 26.51912262700006], [84.00644919400008, 26.519985060000067], [84.00792481400003, 26.52094739900008], [84.00917567100004, 26.52259128700007], [84.01022816000005, 26.523585686000047], [84.01170167500004, 26.525335073000065], [84.01269749400007, 26.526330906000055], [84.01370474300006, 26.527683754000066], [84.01519454100008, 26.528156237000076], [84.01683103200008, 26.52877793400006], [84.01901234300004, 26.529590049000035], [84.02154682500003, 26.530801621000023], [84.02224642900006, 26.531396350000023], [84.02352412700003, 26.532333722000033], [84.02598901800008, 26.533138455000028], [84.02797456100006, 26.533138459000043], [84.03004268800004, 26.533953332000067], [84.03158121900003, 26.534169116000044], [84.03231801600003, 26.534150148000037], [84.03442177900007, 26.534300201000065], [84.03738065500005, 26.534581358000025], [84.03938564200007, 26.535193505000052], [84.04178267700007, 26.53564224300004], [84.04362091200005, 26.536360755000032], [84.04347733700007, 26.535518739000054], [84.04343739800004, 26.534267516000057]]]]}}, {"type": "Feature", "properties": {"OBJECTID": 4808, "GPCODE": "93334", "GPNAME_1": "BAIRIYA", "DIST_CEN_C": "15", "BLK_NAME": "KATIYA", "ST_NAME": "BIHAR", "ST_CODE_1": "10", "GPCODE2011": "95888", "REMARKS": "FINALIZED", "MAP_STATUS": "COMPLETED", "BLK_C_2001": "150001", "BLK_C_2011": "01215", "DIST_NAME": "GOPALGANJ", "code2011": 12.0, "Shape_Leng": 0.15713232195, "Shape_Area": 0.00077755131, "Area": 8.59918}, "geometry": {"type": "MultiPolygon", "coordinates": [[[[83.98182544500008, 26.53130598300004], [83.98324090500006, 26.53121893100007], [83.98525681300003, 26.532188889000054], [83.98618141300005, 26.532727084000044], [83.98885184800008, 26.532863323000072], [83.99095393100004, 26.532962944000076], [83.99180415900008, 26.53294127500004], [83.99319228900004, 26.531986760000052], [83.99427922800004, 26.53047818700003], [83.99571919900006, 26.529369150000036], [83.99709911000008, 26.528159516000073], [83.99794915000007, 26.527880137000068], [83.99861496800008, 26.527661299000044], [84.00026034900003, 26.527670338000064], [84.00295677400004, 26.526835478000066], [84.00486292400007, 26.52612289900003], [84.00588313900005, 26.526096805000066], [84.00716896000006, 26.525502179000057], [84.00731801600006, 26.524834610000028], [84.00717080400005, 26.523766065000075], [84.00782672300005, 26.522983315000033], [84.00917567100004, 26.52259128700007], [84.00792481400003, 26.52094739900008], [84.00644919400008, 26.519985060000067], [84.00497675400004, 26.51912262700006], [84.00334715600007, 26.518564291000075], [84.00238565900008, 26.518038819000026], [84.00180180900009, 26.51715364100005], [84.00156547100005, 26.516709630000037], [84.00191638000007, 26.515500560000078], [84.00269260200008, 26.513680608000072], [84.00388598900008, 26.512749995000036], [84.00498567000005, 26.512371822000034], [84.00626294600005, 26.51233914900007], [84.00704207100006, 26.51236926000007], [84.00764822600007, 26.512203699000054], [84.00792629300008, 26.51133833600005], [84.00718306800007, 26.511153122000053], [84.00686262900007, 26.50998678700006], [84.00629612100005, 26.50821404000004], [84.00616496800006, 26.507655748000047], [84.00457010100007, 26.507441251000046], [84.00056748200006, 26.50820733200004], [83.99837664700004, 26.50887608900007], [83.99794925800006, 26.50899049900005], [83.99584576000007, 26.509553492000066], [83.99388149200007, 26.510216309000043], [83.99167772600003, 26.510476738000023], [83.98975727900006, 26.510730008000053], [83.98874682000007, 26.51106210300003], [83.98830150700007, 26.51132873800003], [83.98803102900007, 26.511744187000033], [83.98747390500006, 26.512064726000062], [83.98707555700008, 26.512023811000063], [83.98631801300007, 26.511379246000047], [83.98547756100004, 26.511707083000033], [83.98487437500006, 26.511467142000072], [83.98433063100003, 26.510408658000074], [83.98398313100006, 26.508374881000066], [83.98403066300006, 26.506280082000046], [83.98416537800006, 26.50515327000005], [83.98516456600004, 26.504463986000076], [83.98633546000008, 26.503821474000063], [83.98717104200006, 26.503340577000074], [83.98725223500008, 26.502317239000035], [83.98814129700008, 26.50173294700005], [83.98891694400004, 26.50115144800003], [83.98872606100008, 26.50049245100007], [83.98905218300007, 26.500335106000023], [83.98973161600009, 26.50000730000005], [83.98882539400006, 26.49824313700003], [83.98747875000004, 26.496898658000077], [83.98666289000005, 26.49620460600005], [83.98601392400008, 26.49540409000008], [83.98599466400003, 26.494791777000046], [83.98517298900003, 26.494812695000064], [83.98435131500008, 26.494833607000032], [83.98322927600003, 26.495219572000053], [83.98338908600005, 26.49669640700006], [83.98293843300007, 26.498597243000063], [83.98241994200004, 26.50014238600005], [83.98229737000008, 26.500335020000023], [83.98182539300007, 26.501076660000024], [83.98046646900008, 26.502949517000047], [83.97920948900008, 26.50446226400004], [83.97865727900006, 26.504935833000047], [83.97810497100005, 26.505409479000036], [83.97649670900006, 26.506573713000023], [83.97560446300008, 26.507055989000037], [83.97447418600007, 26.507186800000056], [83.97317719700004, 26.507423951000078], [83.97211801600008, 26.508012559000065], [83.97124163100005, 26.50900499100004], [83.97081707600006, 26.509934902000055], [83.97129280600006, 26.510637747000033], [83.97244231100007, 26.511119173000054], [83.97246310800006, 26.511782496000023], [83.97158030300005, 26.512570856000025], [83.97083968200008, 26.51427465300003], [83.97116139900004, 26.515492075000054], [83.97097304600004, 26.51672233800008], [83.97128207800006, 26.51753152300006], [83.97210269000004, 26.518378788000064], [83.97218659400005, 26.519244738000054], [83.97221059000003, 26.520010091000074], [83.97293070400008, 26.521268364000036], [83.97408501300004, 26.52190291900007], [83.97452639900007, 26.522861817000035], [83.97450810300006, 26.524087761000033], [83.97556993800004, 26.525388495000072], [83.97572179100007, 26.526610117000075], [83.97485010800006, 26.52775560400005], [83.97551357800006, 26.52901529500008], [83.97599751300004, 26.529973195000025], [83.97608615300004, 26.530992187000038], [83.97600325400003, 26.531964567000045], [83.97598497000007, 26.533190501000036], [83.97660533900006, 26.533072636000043], [83.97838868500008, 26.532057162000058], [83.98008271800006, 26.53180979800004], [83.98182544500008, 26.53130598300004]]]]}}, {"type": "Feature", "properties": {"OBJECTID": 4810, "GPCODE": "93339", "GPNAME_1": "PARARIYA", "DIST_CEN_C": "15", "BLK_NAME": "KATIYA", "ST_NAME": "BIHAR", "ST_CODE_1": "10", "GPCODE2011": "95893", "REMARKS": "FINALIZED", "MAP_STATUS": "COMPLETED", "BLK_C_2001": "150001", "BLK_C_2011": "01215", "DIST_NAME": "GOPALGANJ", "code2011": 27.0, "Shape_Leng": 0.22881614167, "Shape_Area": 0.00101719774, "Area": 11.2454}, "geometry": {"type": "MultiPolygon", "coordinates": [[[[84.06395550600007, 26.559792127000037], [84.06426478300006, 26.55938521400003], [84.06507591500008, 26.559545489000072], [84.06658308800007, 26.560050335000028], [84.06793511000006, 26.560740518000046], [84.06882087600007, 26.560717514000032], [84.06922358900005, 26.560707053000044], [84.06953750600007, 26.560444993000033], [84.07018407500004, 26.56050077900005], [84.07069585000005, 26.560124745000053], [84.07075543100007, 26.55947049400004], [84.07024200500007, 26.558540980000032], [84.07016447000007, 26.55738247900007], [84.07099130700004, 26.556780780000054], [84.07121079700005, 26.556086033000042], [84.07089047300008, 26.554897593000078], [84.07023122600003, 26.55444324800004], [84.07150556200008, 26.553974993000054], [84.07173436400006, 26.553570154000056], [84.07164167400003, 26.551940565000052], [84.07131670000007, 26.550607257000024], [84.07096565900008, 26.549576555000044], [84.07286441900004, 26.549286718000076], [84.07396131700006, 26.548983493000037], [84.07456625000003, 26.55016011400005], [84.07507850900004, 26.55105340500006], [84.07598814800008, 26.550522014000023], [84.07699358200006, 26.550459601000057], [84.07712772400004, 26.549621984000055], [84.07718609800008, 26.548931416000073], [84.07724986600005, 26.548004922000075], [84.07842187800009, 26.54766530300003], [84.07996765900003, 26.547075462000066], [84.08065614600008, 26.54712624800004], [84.08111148500006, 26.547045663000063], [84.08144582900007, 26.546762251000075], [84.08177674900008, 26.546375800000078], [84.08338475500005, 26.54653995900003], [84.08352798500005, 26.547429231000024], [84.08393132300006, 26.548105650000025], [84.08485196300006, 26.54825330700004], [84.08741333100005, 26.548392560000025], [84.08875331200005, 26.54852934400003], [84.08904256100004, 26.549238442000046], [84.08955092000008, 26.551256073000047], [84.08999045600007, 26.553638051000064], [84.09200359600004, 26.553585474000045], [84.09294128600004, 26.55392362200007], [84.09334983200006, 26.554094270000064], [84.09305344200004, 26.554899894000073], [84.09307100700005, 26.555443405000062], [84.09326604600005, 26.556490001000043], [84.09329532200007, 26.55739585200007], [84.09367756300009, 26.55800241600008], [84.09465790200005, 26.55841193200007], [84.09528411900004, 26.559084607000045], [84.09595572700005, 26.558668156000067], [84.09700255600006, 26.558640780000076], [84.09771794200003, 26.558331915000053], [84.09903845200006, 26.558043550000036], [84.10022016100004, 26.55844776200007], [84.10104686200003, 26.55784590600007], [84.10195409300007, 26.557241844000032], [84.10298340300005, 26.55667091600003], [84.10355060100005, 26.556764890000068], [84.10485771800006, 26.55731085900004], [84.10571973100008, 26.557795992000024], [84.10648241300004, 26.557703507000042], [84.10712770500004, 26.55772283600004], [84.10834970700006, 26.558125931000063], [84.10945825800007, 26.55751663600006], [84.10955555300006, 26.556788789000052], [84.10935215100005, 26.555488613000023], [84.10909652800007, 26.555060086000026], [84.10927436200006, 26.554330125000035], [84.10911358500005, 26.553101319000064], [84.10856433700008, 26.552317937000055], [84.10809680800008, 26.55156865500004], [84.10784109500008, 26.551140127000053], [84.10826641300008, 26.550584998000033], [84.10901013700004, 26.54991268400005], [84.10882438300007, 26.549156011000036], [84.10783231800008, 26.54838423900003], [84.10635951300003, 26.54769755700005], [84.10557574900008, 26.547137789000033], [84.10453523200005, 26.546113354000056], [84.10282087400003, 26.545432969000046], [84.10285175300004, 26.545142095000074], [84.10316142500005, 26.544477587000074], [84.10312029600004, 26.54320791300006], [84.10277310200007, 26.54191184800004], [84.10227222800006, 26.540585492000048], [84.10141341000008, 26.539989672000047], [84.10064861700005, 26.539941068000076], [84.09973811400005, 26.54010225500008], [84.09828375200004, 26.539968560000034], [84.09739572400008, 26.539648369000076], [84.09654813800006, 26.539395746000025], [84.09680053500006, 26.538942590000033], [84.09852393300008, 26.539137981000067], [84.09885710500004, 26.538820152000028], [84.09907137900007, 26.538368082000034], [84.09948189300007, 26.53808254200004], [84.10000898100003, 26.537862671000028], [84.10059084800008, 26.538156548000075], [84.10117948700008, 26.53865632000003], [84.10224699600008, 26.538628363000043], [84.10266083800008, 26.538445764000073], [84.10325193200003, 26.53784646500003], [84.10368387700004, 26.53704516700003], [84.10385889900004, 26.536559711000052], [84.10499827700005, 26.53639240700005], [84.10681597500007, 26.535966920000078], [84.10769732800009, 26.53608125100004], [84.10817625700008, 26.535553411000024], [84.10816624100005, 26.53524456200006], [84.10768425500004, 26.534501628000044], [84.10737153300005, 26.53426944000006], [84.10667521600004, 26.533978588000025], [84.10660594800004, 26.53301866000004], [84.10658844000005, 26.531301796000037], [84.10622010900005, 26.529353738000054], [84.10644686600006, 26.528111245000048], [84.10637204300008, 26.52697979000004], [84.10600595400007, 26.525100387000066], [84.10590515300004, 26.52434735500003], [84.10684959000008, 26.52288005300005], [84.10720968500004, 26.522217971000032], [84.10718632100009, 26.521497314000044], [84.10701718300004, 26.52098655700007], [84.10668749100006, 26.520564189000027], [84.10590778200003, 26.521184651000056], [84.10557333200006, 26.521833455000035], [84.10509916000007, 26.522285915000055], [84.10478832900003, 26.52229406300006], [84.10380770600005, 26.522199706000038], [84.10309994100004, 26.522298291000027], [84.10173467500005, 26.522677120000026], [84.10086353400004, 26.52321954200005], [84.09979670300004, 26.523207548000073], [84.09855605400008, 26.523319971000035], [84.09777240000005, 26.523820158000035], [84.09746630500007, 26.525347151000062], [84.09670071500005, 26.526406484000063], [84.09614027100008, 26.526940841000055], [84.09572727200003, 26.52791099800004], [84.09440691500004, 26.528305328000044], [84.09397582800005, 26.52871632800003], [84.09384082100007, 26.530038922000074], [84.09215749400005, 26.530202881000037], [84.09127078400007, 26.53026606700007], [84.08972059700005, 26.530426430000034], [84.08909641600007, 26.530362783000044], [84.08762213800009, 26.530121413000074], [84.08636226800007, 26.531016308000062], [84.08567377300005, 26.53171422500003], [84.08402703400003, 26.531637212000078], [84.08295368900008, 26.531425177000074], [84.08180185100008, 26.53153524000004], [84.08074396200004, 26.53180282900007], [84.08031282800005, 26.53221406700004], [84.08035144900003, 26.533413073000077], [84.08055609000007, 26.534247767000068], [84.08093319200003, 26.53491798400006], [84.08102260800007, 26.536315665000075], [84.08111692100005, 26.537921260000076], [84.07969861700008, 26.538725701000033], [84.07844482400003, 26.538895615000058], [84.07696673400005, 26.539208707000057], [84.07440779200004, 26.539287993000073], [84.07402042900009, 26.53829806600004], [84.07399857600006, 26.537618595000026], [84.07343104100005, 26.53655331500005], [84.07262731800006, 26.535054152000043], [84.07077656500007, 26.535542289000034], [84.06887107600005, 26.53571186100004], [84.06775850400004, 26.535660724000024], [84.06729905500003, 26.536405410000043], [84.06721553200003, 26.537368577000052], [84.06790658800008, 26.538689179000073], [84.06812030900005, 26.53940442100003], [84.06870253600005, 26.540899418000038], [84.06770175200006, 26.541817777000063], [84.06670095300007, 26.542736128000058], [84.06646494500006, 26.543703339000047], [84.06655260600007, 26.54524549200005], [84.06564191700005, 26.545406392000075], [84.06409958300009, 26.546098577000066], [84.06074944000005, 26.54754056300004], [84.05942929500003, 26.548021237000057], [84.05875500700006, 26.548416537000037], [84.05651972600003, 26.548920896000027], [84.05570772600004, 26.548865198000044], [84.05518981200004, 26.550410422000027], [84.05496193800008, 26.552152455000055], [84.05530906100006, 26.554134886000043], [84.05499723600008, 26.556798206000053], [84.05499332500005, 26.557564255000045], [84.05547797000008, 26.55852188500006], [84.05573734900008, 26.55953640100006], [84.05683579600003, 26.560171791000073], [84.05785954400005, 26.56024738900004], [84.05850439100004, 26.560894516000076], [84.05959468500004, 26.56127472000003], [84.06109483800003, 26.561063072000024], [84.06245911400003, 26.560882623000055], [84.06308475700007, 26.56028618700003], [84.06395550600007, 26.559792127000037]]]]}}, {"type": "Feature", "properties": {"OBJECTID": 4821, "GPCODE": "93337", "GPNAME_1": "GAURA", "DIST_CEN_C": "15", "BLK_NAME": "KATIYA", "ST_NAME": "BIHAR", "ST_CODE_1": "10", "GPCODE2011": "95891", "REMARKS": "FINALIZED", "MAP_STATUS": "COMPLETED", "BLK_C_2001": "150001", "BLK_C_2011": "01215", "DIST_NAME": "GOPALGANJ", "code2011": 22.0, "Shape_Leng": 0.13638311958, "Shape_Area": 0.00064133985, "Area": 7.08632}, "geometry": {"type": "MultiPolygon", "coordinates": [[[[84.11972109100003, 26.615179759000057], [84.12131234700007, 26.61503020200007], [84.12238761100008, 26.614966046000063], [84.12349457700003, 26.614649821000057], [84.12541073800008, 26.613450792000037], [84.12615069600008, 26.612892980000026], [84.12692467600004, 26.612154700000076], [84.12626334900006, 26.611454305000052], [84.12622828100007, 26.61037846800008], [84.12632102900005, 26.609550494000075], [84.12629180600004, 26.608653977000074], [84.12664241300007, 26.60839342400004], [84.12670112500007, 26.607745820000048], [84.12824187900009, 26.607274535000045], [84.12805313800004, 26.606382219000068], [84.12789853100008, 26.605309526000042], [84.12812833100008, 26.60501636500004], [84.12900071900003, 26.604849783000077], [84.12997264200004, 26.605290755000055], [84.13045690300004, 26.605457469000044], [84.13116393800004, 26.605115848000025], [84.13105610100007, 26.604257276000055], [84.13095762500006, 26.603685565000035], [84.13093539200008, 26.603004213000077], [84.13106914800005, 26.602211026000077], [84.13165703500005, 26.600652355000022], [84.13136980600007, 26.599188323000078], [84.13084353300007, 26.59651021600007], [84.13064094300006, 26.593967169000052], [84.13009472700008, 26.591899855000065], [84.12980519700005, 26.591584406000038], [84.12900970900006, 26.590475970000057], [84.12825275300008, 26.590749724000034], [84.12765219400006, 26.590874373000077], [84.12705871900005, 26.59121639800003], [84.12667963400008, 26.59195165600005], [84.12671033800007, 26.592893684000046], [84.12620568100004, 26.593487266000068], [84.12537994400003, 26.59412545200007], [84.12452007300004, 26.59371296100005], [84.12369684600003, 26.593190674000027], [84.12208118300003, 26.593088112000032], [84.12192642700006, 26.591534189000072], [84.12127492600007, 26.588318042000026], [84.12082212800004, 26.586408762000076], [84.12064164200007, 26.585663761000035], [84.12056893500005, 26.58482871600006], [84.12024433400006, 26.583437385000025], [84.12054695000006, 26.58292695700004], [84.12095729400005, 26.582054735000042], [84.11995290700008, 26.580609523000078], [84.11899297300005, 26.57930664500003], [84.11826039100004, 26.578859309000052], [84.11745507700005, 26.578629239000065], [84.11674465700008, 26.578863265000052], [84.11632136700007, 26.57934098100003], [84.11424535000003, 26.57928787700007], [84.11324135800004, 26.57968488100005], [84.11317845900004, 26.580230492000055], [84.11282655600007, 26.580566125000075], [84.11226042400006, 26.58050849400007], [84.11137923100006, 26.58067660200004], [84.11166785700004, 26.582119676000048], [84.11229687100007, 26.58224824200005], [84.11288184400007, 26.582885675000057], [84.11319910100008, 26.58396526200005], [84.11360152700007, 26.58518768600004], [84.11459484900007, 26.58722869500008], [84.11339961800007, 26.587658960000056], [84.11188930600008, 26.588315140000077], [84.11130403500005, 26.588910698000063], [84.11087987900004, 26.589502027000037], [84.11057283100007, 26.58998163800004], [84.11056911800006, 26.591105889000062], [84.11046103100006, 26.592740585000058], [84.10988749400008, 26.593698462000077], [84.10943832400005, 26.594761901000027], [84.10921750300008, 26.596653445000072], [84.10920299500003, 26.597451767000052], [84.10955936400006, 26.598494077000055], [84.10967639000006, 26.59961515200007], [84.11012999200005, 26.599929644000042], [84.11063799600004, 26.600677829000063], [84.11121584500006, 26.602697440000043], [84.11143231100004, 26.604450461000056], [84.11153186300004, 26.605058030000066], [84.11129853200003, 26.60524362700005], [84.11038698800007, 26.60544673800007], [84.11004217500005, 26.605886487000078], [84.11002558300004, 26.60660473200005], [84.11013910200006, 26.607642638000073], [84.11015307400004, 26.608072976000074], [84.10968280000003, 26.60833653700007], [84.10861340600007, 26.60857992900003], [84.10749947800008, 26.608680973000048], [84.10685699100009, 26.608554213000048], [84.10614754600005, 26.60882403100004], [84.10535718100004, 26.609060089000025], [84.10537429200008, 26.610818419000054], [84.10508328100008, 26.611687446000076], [84.10470553100004, 26.61234339300006], [84.10460798800005, 26.613027876000046], [84.10464635900007, 26.614211253000065], [84.10495575100003, 26.615136395000036], [84.10547397800008, 26.615122821000057], [84.10644134900008, 26.615420549000078], [84.10692413200007, 26.616771752000034], [84.10721683500003, 26.61841512700005], [84.10709105700005, 26.61945929500007], [84.10794929600007, 26.620082851000063], [84.10868207900006, 26.620530218000056], [84.10893184300005, 26.620846740000047], [84.10895628800006, 26.62159977500005], [84.10912386000007, 26.621846607000066], [84.11087590600005, 26.621728911000048], [84.11366561800008, 26.62161984100004], [84.11562045700003, 26.621604398000045], [84.11609893100007, 26.62159183400007], [84.11641111000006, 26.620147941000027], [84.11703500200008, 26.61970085400003], [84.11717936200006, 26.61923048600005], [84.11764382800004, 26.618787584000074], [84.11839668300007, 26.61862420600005], [84.11865707600003, 26.618043157000045], [84.11893613500007, 26.61803582400006], [84.11891162800003, 26.617282696000075], [84.11891183300008, 26.616062340000042], [84.11972109100003, 26.615179759000057]]]]}}, {"type": "Feature", "properties": {"OBJECTID": 4829, "GPCODE": "93342", "GPNAME_1": "RUDRA PUR", "DIST_CEN_C": "15", "BLK_NAME": "KATIYA", "ST_NAME": "BIHAR", "ST_CODE_1": "10", "GPCODE2011": "95896", "REMARKS": "FINALIZED", "MAP_STATUS": "COMPLETED", "BLK_C_2001": "150001", "BLK_C_2011": "01215", "DIST_NAME": "GOPALGANJ", "code2011": 14.0, "Shape_Leng": 0.16016919377, "Shape_Area": 0.00094962238, "Area": 10.4918}, "geometry": {"type": "MultiPolygon", "coordinates": [[[[84.10644134900008, 26.615420549000078], [84.10547397800008, 26.615122821000057], [84.10495575100003, 26.615136395000036], [84.10464635900007, 26.614211253000065], [84.10460798800005, 26.613027876000046], [84.10470553100004, 26.61234339300006], [84.10508328100008, 26.611687446000076], [84.10537429200008, 26.610818419000054], [84.10535718100004, 26.609060089000025], [84.10614754600005, 26.60882403100004], [84.10685699100009, 26.608554213000048], [84.10749947800008, 26.608680973000048], [84.10861340600007, 26.60857992900003], [84.10968280000003, 26.60833653700007], [84.11015307400004, 26.608072976000074], [84.11013910200006, 26.607642638000073], [84.11002558300004, 26.60660473200005], [84.11004217500005, 26.605886487000078], [84.11038698800007, 26.60544673800007], [84.11129853200003, 26.60524362700005], [84.11153186300004, 26.605058030000066], [84.11143231100004, 26.604450461000056], [84.11121584500006, 26.602697440000043], [84.11063799600004, 26.600677829000063], [84.11012999200005, 26.599929644000042], [84.10967639000006, 26.59961515200007], [84.10955936400006, 26.598494077000055], [84.10920299500003, 26.597451767000052], [84.10921750300008, 26.596653445000072], [84.10943832400005, 26.594761901000027], [84.10988749400008, 26.593698462000077], [84.11046103100006, 26.592740585000058], [84.11056911800006, 26.591105889000062], [84.11057283100007, 26.58998163800004], [84.10968333900007, 26.589896143000033], [84.10823580500005, 26.59000668400006], [84.10770285700005, 26.589730511000027], [84.10642114200004, 26.589981670000043], [84.10603841800008, 26.590608235000047], [84.10503043400007, 26.590598401000022], [84.10351289200008, 26.59103703100004], [84.10230350100005, 26.591032453000025], [84.10110467100003, 26.591353887000025], [84.10039624800004, 26.591880134000064], [84.09931462800006, 26.59208975200005], [84.09784329900003, 26.592708526000024], [84.09715979100008, 26.59276264400006], [84.09621711300008, 26.59227958300005], [84.09484658500008, 26.592279160000032], [84.09455524100008, 26.59199662900005], [84.09346271800007, 26.593113076000066], [84.09313471100006, 26.592940327000065], [84.09269289200006, 26.59298820500004], [84.09243317100004, 26.593683919000057], [84.09186652200003, 26.59485919900004], [84.09186839900008, 26.596164702000067], [84.09223913800008, 26.59640882700006], [84.09255146700008, 26.597343588000058], [84.09316452200005, 26.598850595000044], [84.09233986000004, 26.599524907000045], [84.09175795900006, 26.60022912000005], [84.08982581500004, 26.600315804000047], [84.08927999100007, 26.599641030000043], [84.08942825200006, 26.59923828500007], [84.08941420600007, 26.59880343800006], [84.08919289600004, 26.598192776000076], [84.08848946400008, 26.597630938000066], [84.08780241500006, 26.597576281000045], [84.08605599900005, 26.59841967400007], [84.08442500900009, 26.59928276000005], [84.08607221200003, 26.601077994000036], [84.08742759900008, 26.602625545000024], [84.08809587800005, 26.603986788000043], [84.08865417300007, 26.605452914000068], [84.08905542300005, 26.60733166700004], [84.08828772000004, 26.608168668000076], [84.08785216100006, 26.60874172700005], [84.08798862200007, 26.609453029000065], [84.08812013800008, 26.610011202000067], [84.08762782300005, 26.610585739000044], [84.08684866200008, 26.61106555300006], [84.08643285100004, 26.61225084000006], [84.08679950100003, 26.613058248000073], [84.08678939500004, 26.613620113000025], [84.08625183500004, 26.61455320600004], [84.08684539500007, 26.615354696000054], [84.08703860600008, 26.61606442200008], [84.08706660900003, 26.616931712000053], [84.08767655900004, 26.618243406000033], [84.08787801900007, 26.619208279000077], [84.08733395700006, 26.619937322000055], [84.08638282900006, 26.620370558000047], [84.08630236200008, 26.62139383500005], [84.08573116800005, 26.623042647000034], [84.08518862100004, 26.62382269400007], [84.08493952000003, 26.624901416000057], [84.08537447900005, 26.626064417000066], [84.08687074500006, 26.626689206000037], [84.08700557300006, 26.627349485000025], [84.08675823000004, 26.628479215000027], [84.08696628800004, 26.629648123000038], [84.08765447400003, 26.631621464000034], [84.08702516700004, 26.63235271900004], [84.08633886800004, 26.63395346300007], [84.08734601300006, 26.63525478500003], [84.08728037000003, 26.63673714400005], [84.08657418000007, 26.637725665000062], [84.08631199000007, 26.638396288000024], [84.08606616400004, 26.639577018000068], [84.08709221900006, 26.639703430000054], [84.08975193300006, 26.639429849000066], [84.09324100600008, 26.638470780000034], [84.09522324900007, 26.638316901000053], [84.09776278700008, 26.63784210700004], [84.09950319600006, 26.637234919000036], [84.10085142800006, 26.636791224000035], [84.10156742000004, 26.63610870100007], [84.10205315800005, 26.63533009100007], [84.10351146800008, 26.63478129200007], [84.10587410600004, 26.634106777000056], [84.10717390100007, 26.633919564000053], [84.10795477900007, 26.633490578000078], [84.10803839000005, 26.63256932300004], [84.10898291200004, 26.631931918000078], [84.10881675800005, 26.630827434000025], [84.10889799400007, 26.62964094000006], [84.10878679300004, 26.62867474500007], [84.10890674500007, 26.627451266000037], [84.10908454100007, 26.62432410300005], [84.10927832500005, 26.622919210000077], [84.10912386000007, 26.621846607000066], [84.10895628800006, 26.62159977500005], [84.10893184300005, 26.620846740000047], [84.10868207900006, 26.620530218000056], [84.10794929600007, 26.620082851000063], [84.10709105700005, 26.61945929500007], [84.10721683500003, 26.61841512700005], [84.10692413200007, 26.616771752000034], [84.10644134900008, 26.615420549000078]]]]}}, {"type": "Feature", "properties": {"OBJECTID": 4838, "GPCODE": "93341", "GPNAME_1": "RAM DAS BAGAHI", "DIST_CEN_C": "15", "BLK_NAME": "KATIYA", "ST_NAME": "BIHAR", "ST_CODE_1": "10", "GPCODE2011": "95895", "REMARKS": "FINALIZED", "MAP_STATUS": "COMPLETED", "BLK_C_2001": "150001", "BLK_C_2011": "01215", "DIST_NAME": "GOPALGANJ", "code2011": 28.0, "Shape_Leng": 0.16954100107, "Shape_Area": 0.00102766017, "Area": 11.3633}, "geometry": {"type": "MultiPolygon", "coordinates": [[[[84.15062138800005, 26.523096140000064], [84.15113903400004, 26.522570718000054], [84.15261075200004, 26.522591958000078], [84.15410207500008, 26.52219121400003], [84.15509428000007, 26.52186395900003], [84.15540265600004, 26.521073227000045], [84.15591544700004, 26.520397497000033], [84.15740081600006, 26.519816374000072], [84.15872503200006, 26.51942002000004], [84.15734936600006, 26.51722941400004], [84.15548242800008, 26.514329445000044], [84.15448699500007, 26.51251999300007], [84.15391517800003, 26.51139150700004], [84.15344341800005, 26.51057923700006], [84.15278543400007, 26.509775768000054], [84.15116506800007, 26.507450731000063], [84.14980234800004, 26.50531333500004], [84.14914917300007, 26.50500487000005], [84.14821348600003, 26.504118946000062], [84.14703950800003, 26.50282826700004], [84.14605489200005, 26.50222100800005], [84.14360378800006, 26.501019133000057], [84.14265194800004, 26.500337568000077], [84.14175173300004, 26.499692905000074], [84.13961728800007, 26.498337872000036], [84.13828370100003, 26.496889330000045], [84.13766602300007, 26.496435160000033], [84.13583875600006, 26.49709865400007], [84.13380354600008, 26.497550494000052], [84.13149789400006, 26.49833521900007], [84.13094631600006, 26.498675457000047], [84.13008866200005, 26.499494353000046], [84.13011105500004, 26.500181378000036], [84.13013096800006, 26.50033743800003], [84.13032715300005, 26.501876681000056], [84.13055619300007, 26.502739218000045], [84.13092582900003, 26.504213253000046], [84.13116912800007, 26.50550974600003], [84.13110640900004, 26.50605429600006], [84.12947747300007, 26.506640160000075], [84.12855957000005, 26.50684523800004], [84.12838355400004, 26.50760989400004], [84.12770548000003, 26.507772534000026], [84.12702740400005, 26.507935170000053], [84.12554255200007, 26.508010548000073], [84.12419708500005, 26.508661198000027], [84.12291063000004, 26.508658922000052], [84.12192912600005, 26.50814187000003], [84.12102312900004, 26.507478109000033], [84.12013605600004, 26.507392894000077], [84.11969328700008, 26.506137886000033], [84.11871876500004, 26.50583775100006], [84.11699302100004, 26.505919294000023], [84.11613074000007, 26.505362915000035], [84.11444655700006, 26.504249082000058], [84.11364098900003, 26.504197936000025], [84.11207928600004, 26.50438367600003], [84.11060594300005, 26.50467398400008], [84.10922640100006, 26.504710196000076], [84.10822029000008, 26.504992542000025], [84.10679663300004, 26.504920226000024], [84.10472736500003, 26.504974487000027], [84.10381935800007, 26.50452292500006], [84.10264048700003, 26.505185951000044], [84.10177934600006, 26.505711292000058], [84.10148002800008, 26.506329737000044], [84.10173181400006, 26.507493287000045], [84.10175769300008, 26.50829273100004], [84.10139185200006, 26.50934237000007], [84.10098414500004, 26.510473052000066], [84.10131425200007, 26.511064426000075], [84.10199961400008, 26.51164658600004], [84.10305307100003, 26.512619019000056], [84.10426729200003, 26.513067250000063], [84.10525431700006, 26.513361350000025], [84.10580517700004, 26.513906907000035], [84.10587423400005, 26.51466519400003], [84.10502120700005, 26.515767630000028], [84.10541920400004, 26.517077199000028], [84.10577525600007, 26.518467996000027], [84.10666287300006, 26.51980474100003], [84.10668749100006, 26.520564189000027], [84.10701718300004, 26.52098655700007], [84.10718632100009, 26.521497314000044], [84.10720968500004, 26.522217971000032], [84.10953397800006, 26.522122677000027], [84.11234715500007, 26.521808433000047], [84.11297194600007, 26.521869671000047], [84.11351560300005, 26.522175455000024], [84.11405718900005, 26.522417353000037], [84.11498160900004, 26.522393064000028], [84.11577616000005, 26.52275627800003], [84.11621221800004, 26.523032957000055], [84.11780789400007, 26.522862944000053], [84.11876683600008, 26.522805709000068], [84.11920383500006, 26.523114279000026], [84.11935855100006, 26.523494396000046], [84.11972547700003, 26.523836823000067], [84.12052327400005, 26.52429597400004], [84.12152184400009, 26.524365743000033], [84.12197152300007, 26.523969812000075], [84.12231774500003, 26.523672559000033], [84.12299013800003, 26.523558810000054], [84.12410683200005, 26.52397753200006], [84.12447497300008, 26.523263677000045], [84.12456394700007, 26.52271716000007], [84.12497700800003, 26.522290077000036], [84.12610530000006, 26.52197230300004], [84.12706318900007, 26.521883029000037], [84.12827301000004, 26.521883156000058], [84.12931025200004, 26.522047902000054], [84.13037784000005, 26.522051763000036], [84.13103978700008, 26.521618098000033], [84.13213886200003, 26.52149314500008], [84.13393845200005, 26.52102944300003], [84.13436069700003, 26.521370653000076], [84.13482052200004, 26.52235872800003], [84.13516727500007, 26.523811438000052], [84.13544868700006, 26.525881343000037], [84.13589696600008, 26.527789980000023], [84.13615825300008, 26.528625787000067], [84.13649030100004, 26.52958015100006], [84.13606986200006, 26.53001260900004], [84.13602266600003, 26.530615710000063], [84.13624573300007, 26.531301923000058], [84.13879930500008, 26.530662688000064], [84.14127913800007, 26.529814592000037], [84.14236676500008, 26.529334481000035], [84.14174868200007, 26.52781592100007], [84.14137827300004, 26.526712162000024], [84.14276649000004, 26.526224006000064], [84.14399363100006, 26.525920601000053], [84.14531401900007, 26.525404132000062], [84.14713155400005, 26.52475405900003], [84.14865830500008, 26.524412690000077], [84.15088473100008, 26.52399204200003], [84.15062138800005, 26.523096140000064]]]]}}, {"type": "Feature", "properties": {"OBJECTID": 4842, "GPCODE": "150121", "GPNAME_1": "Kataiya (NP)", "DIST_CEN_C": "15", "BLK_NAME": "KATIYA", "ST_NAME": "BIHAR", "ST_CODE_1": "10", "GPCODE2011": "801325", "REMARKS": "FINALIZED", "MAP_STATUS": "COMPLETED", "BLK_C_2001": "150001", "BLK_C_2011": "01215", "DIST_NAME": "GOPALGANJ", "code2011": 15.0, "Shape_Leng": 0.16158523112, "Shape_Area": 0.00107078809, "Area": 11.8356}, "geometry": {"type": "MultiPolygon", "coordinates": [[[[84.09556687600008, 26.58526115600006], [84.09557242600005, 26.582940115000042], [84.09524169300005, 26.580192638000028], [84.09489423700006, 26.57817096100007], [84.09581101900005, 26.577856849000057], [84.09729870200005, 26.577745367000034], [84.09743625700008, 26.57701649100005], [84.09830112700007, 26.57634117300006], [84.10001744000004, 26.57582479900003], [84.10129550200008, 26.57546495300005], [84.10100456100008, 26.573949422000055], [84.10093495100006, 26.57304464200007], [84.10044509700003, 26.571606898000027], [84.09978829000005, 26.56999210600003], [84.09968897400006, 26.569414496000036], [84.09967234100003, 26.56890702900006], [84.10030605900005, 26.56856404800004], [84.10154015000006, 26.568096516000026], [84.10158079500007, 26.566862447000062], [84.10191391200004, 26.565947116000075], [84.10145837800007, 26.56432714500005], [84.10107858100008, 26.562559468000075], [84.10052385900008, 26.560361872000044], [84.10022016100004, 26.55844776200007], [84.09903845200006, 26.558043550000036], [84.09771794200003, 26.558331915000053], [84.09700255600006, 26.558640780000076], [84.09595572700005, 26.558668156000067], [84.09528411900004, 26.559084607000045], [84.09465790200005, 26.55841193200007], [84.09367756300009, 26.55800241600008], [84.09329532200007, 26.55739585200007], [84.09326604600005, 26.556490001000043], [84.09307100700005, 26.555443405000062], [84.09305344200004, 26.554899894000073], [84.09334983200006, 26.554094270000064], [84.09294128600004, 26.55392362200007], [84.09200359600004, 26.553585474000045], [84.08999045600007, 26.553638051000064], [84.08955092000008, 26.551256073000047], [84.08904256100004, 26.549238442000046], [84.08875331200005, 26.54852934400003], [84.08741333100005, 26.548392560000025], [84.08485196300006, 26.54825330700004], [84.08393132300006, 26.548105650000025], [84.08352798500005, 26.547429231000024], [84.08338475500005, 26.54653995900003], [84.08177674900008, 26.546375800000078], [84.08144582900007, 26.546762251000075], [84.08111148500006, 26.547045663000063], [84.08065614600008, 26.54712624800004], [84.07996765900003, 26.547075462000066], [84.07842187800009, 26.54766530300003], [84.07724986600005, 26.548004922000075], [84.07718609800008, 26.548931416000073], [84.07712772400004, 26.549621984000055], [84.07699358200006, 26.550459601000057], [84.07598814800008, 26.550522014000023], [84.07507850900004, 26.55105340500006], [84.07456625000003, 26.55016011400005], [84.07396131700006, 26.548983493000037], [84.07286441900004, 26.549286718000076], [84.07096565900008, 26.549576555000044], [84.07131670000007, 26.550607257000024], [84.07164167400003, 26.551940565000052], [84.07173436400006, 26.553570154000056], [84.07150556200008, 26.553974993000054], [84.07023122600003, 26.55444324800004], [84.07089047300008, 26.554897593000078], [84.07121079700005, 26.556086033000042], [84.07099130700004, 26.556780780000054], [84.07016447000007, 26.55738247900007], [84.07024200500007, 26.558540980000032], [84.07075543100007, 26.55947049400004], [84.07069585000005, 26.560124745000053], [84.07018407500004, 26.56050077900005], [84.06953750600007, 26.560444993000033], [84.06922358900005, 26.560707053000044], [84.06882087600007, 26.560717514000032], [84.06793511000006, 26.560740518000046], [84.06658308800007, 26.560050335000028], [84.06507591500008, 26.559545489000072], [84.06426478300006, 26.55938521400003], [84.06395550600007, 26.559792127000037], [84.06308475700007, 26.56028618700003], [84.06245911400003, 26.560882623000055], [84.06109483800003, 26.561063072000024], [84.05959468500004, 26.56127472000003], [84.06001938000009, 26.562131773000033], [84.05936194600008, 26.562863699000047], [84.05887949400005, 26.563744258000042], [84.05884892700004, 26.564562050000063], [84.05978552400006, 26.56545689400008], [84.06026359200007, 26.56621044700006], [84.06059447600006, 26.567682606000062], [84.06183920800004, 26.56933539000005], [84.06271258300006, 26.570027628000048], [84.06391633000004, 26.570404859000064], [84.06529836800007, 26.571032830000036], [84.06599676500008, 26.571576419000053], [84.06670663600005, 26.57247710300004], [84.06685768300008, 26.573647572000027], [84.06638343300006, 26.574783215000025], [84.06689828700007, 26.575791069000047], [84.06623590700008, 26.576369973000055], [84.06621193800004, 26.57739181200003], [84.06788091500005, 26.578114423000045], [84.06860067100007, 26.579321175000075], [84.06981764300008, 26.580106558000068], [84.07137484400005, 26.580883091000032], [84.07288025000008, 26.58181412400006], [84.07426748500006, 26.58259504600005], [84.07532590600005, 26.583741901000053], [84.07583917500006, 26.583454319000055], [84.07651097700005, 26.58303796100006], [84.07726683200008, 26.58272824000005], [84.07712732800007, 26.582151578000037], [84.07728027500008, 26.58189378900005], [84.07812007400008, 26.58169061500007], [84.07896464300006, 26.581632385000034], [84.07940759800005, 26.58162085200007], [84.08045344900006, 26.581557281000073], [84.08148305400005, 26.580986508000024], [84.08220455900005, 26.58085925100005], [84.08337474500007, 26.58090134100007], [84.08378326300004, 26.58107201200005], [84.08385392300005, 26.582013008000047], [84.08366655700007, 26.582453111000063], [84.08361531700007, 26.583361038000078], [84.08344781100004, 26.58441706800005], [84.08352665300004, 26.585611748000076], [84.08437124200003, 26.58555339700007], [84.08524899600008, 26.58527670600006], [84.08685527500006, 26.585089744000072], [84.08778382500003, 26.585138012000073], [84.08820590000005, 26.58697651700004], [84.08989392400008, 26.586823637000066], [84.09137576400008, 26.58653114200007], [84.09385393300005, 26.585886213000038], [84.09556687600008, 26.58526115600006]]]]}}]}