{"type": "FeatureCollection", "features": [{"type": "Feature", "properties": {"OBJECTID": 8832, "GPCODE": "93497", "GPNAME_1": "DIN NAGER", "DIST_CEN_C": "37", "BLK_NAME": "ISLAMNAGAR ALIGANJ", "ST_NAME": "BIHAR", "ST_CODE_1": "10", "GPCODE2011": "96051", "REMARKS": "FINALIZED", "MAP_STATUS": "COMPLETED", "BLK_C_2001": "370001", "BLK_C_2011": "01525", "DIST_NAME": "JAMUI", "code2011": 0.0, "Shape_Leng": 0.23041442387, "Shape_Area": 0.00155399541, "Area": 17.3693}, "geometry": {"type": "MultiPolygon", "coordinates": [[[[85.94425404100008, 25.001426585000047], [85.94420402800006, 25.000523824000027], [85.94344798300006, 24.998932508000053], [85.94336081800003, 24.99399956700006], [85.94310932500008, 24.99332365400005], [85.94315240200007, 24.990412235000065], [85.94152397900007, 24.99057778100007], [85.94098071200006, 24.98997094500004], [85.94005884500007, 24.988964142000043], [85.93913576400007, 24.98774076600006], [85.93855247100004, 24.986163697000052], [85.93743020900007, 24.98383984000003], [85.93582930000008, 24.981829663000042], [85.93438273300006, 24.981746016000045], [85.93235788400006, 24.98096543400004], [85.93032863900004, 24.98027510600008], [85.92850606500008, 24.979349151000065], [85.92756103700003, 24.979502426000067], [85.92599794500006, 24.979834469000025], [85.92489083200007, 24.980227694000064], [85.92219344900008, 24.98142698500004], [85.91988524200008, 24.98226783000007], [85.91578309000005, 24.982882044000064], [85.91356596000008, 24.983158289000073], [85.91145070900006, 24.98305035800007], [85.90968771800004, 24.98305810000005], [85.90893955400009, 24.98299826500005], [85.90848460900008, 24.983122173000027], [85.90815894400004, 24.983331546000045], [85.90796150500006, 24.983458480000024], [85.90776271700008, 24.983324183000036], [85.90691277100007, 24.982749976000036], [85.90553729100003, 24.98112660700008], [85.90507723400003, 24.980293594000045], [85.90474631600006, 24.97952317900007], [85.90422412700008, 24.979110281000033], [85.90386522400007, 24.979585782000072], [85.90328823400006, 24.98098756400003], [85.90325620200008, 24.98149323100006], [85.90345886400007, 24.982349905000035], [85.90381894300003, 24.983002748000047], [85.90408325900006, 24.983358150000072], [85.90405095600005, 24.983805137000047], [85.90385952800005, 24.984130965000077], [85.90314316700005, 24.98446367500003], [85.89992040700008, 24.985633251000024], [85.89793673300005, 24.98605716800006], [85.89663312000005, 24.985855212000047], [85.89623863700007, 24.985233979000043], [85.89580574300004, 24.983899886000074], [85.89508584100008, 24.98354637500006], [85.89423355700006, 24.983464368000057], [85.89323014000007, 24.98477761500004], [85.89255459300006, 24.986292565000042], [85.89255809200006, 24.98697414000003], [85.89301913600008, 24.988014822000025], [85.89387398400004, 24.989523176000034], [85.89449952200005, 24.990770687000065], [85.89460518400006, 24.99204309600003], [85.89398908300006, 24.992610012000057], [85.89194385800005, 24.993602731000067], [85.88946607500003, 24.99429496600004], [85.88702518800005, 24.994454413000028], [85.88484006400006, 24.99428317400003], [85.88415633300008, 24.994227398000078], [85.88304021000005, 24.99292777100004], [85.88222543300003, 24.992425699000023], [85.88163633700003, 24.992486821000057], [85.87997834600003, 24.992701487000033], [85.87919534100007, 24.992614548000063], [85.87889604200006, 24.992200550000064], [85.87853567300004, 24.99146188900005], [85.87794936100005, 24.991076130000067], [85.87764099000003, 24.988879299000075], [85.87665918400006, 24.98766481000007], [85.87610188600007, 24.987161574000027], [85.87544791100004, 24.987105642000074], [85.87505503900007, 24.98678235500006], [85.87329404500008, 24.98835584400007], [85.87215190400008, 24.98949798500007], [85.87122391400004, 24.98978352100005], [85.86921078600005, 24.991658924000035], [85.86937870300005, 24.992551869000067], [85.86984182000003, 24.994034962000057], [85.87044906700004, 24.99561217300004], [85.87169738900008, 24.997633617000076], [85.87392355200006, 24.998075647000064], [85.87601611500008, 24.99660448800006], [85.87861476500007, 24.997266031000038], [85.88141402900004, 25.000536261000036], [85.88230854100004, 25.00091294500004], [85.88231170100005, 25.00091427500007], [85.88454526600003, 25.00080131900006], [85.88454546800006, 25.000801309000053], [85.88602158500004, 25.001803254000038], [85.88616544000007, 25.00357265200006], [85.88793370600007, 25.00403745400007], [85.88940992400006, 25.00562165300005], [85.89101501900006, 25.007147118000034], [85.89236710500006, 25.00770218100007], [85.89361541900007, 25.008478444000048], [85.89471996200007, 25.008451240000056], [85.89587406200008, 25.007913924000036], [85.89821685000004, 25.007733031000043], [85.90026258700004, 25.007466427000054], [85.90389310900008, 25.00677514000006], [85.90671633400007, 25.006287103000034], [85.90801396800003, 25.006024942000067], [85.90936604700005, 25.00532055800005], [85.90957863600005, 25.003857985000025], [85.90837428300006, 25.00124935100007], [85.90842367100004, 25.000806965000038], [85.90887927100005, 25.000684970000066], [85.90989971800008, 25.00096906300007], [85.91212421800003, 25.002950100000078], [85.91388806100008, 25.004615299000022], [85.91559731500007, 25.005946367000035], [85.91612749400008, 25.006555629000047], [85.91655477400008, 25.010175565000054], [85.91688302100005, 25.013894830000027], [85.91825033600009, 25.014436098000033], [85.92084127900006, 25.015045803000078], [85.92098987000008, 25.015080769000065], [85.92387247500005, 25.014163473000053], [85.92891458200006, 25.01271283600005], [85.93319872700005, 25.01143836500006], [85.94133116700004, 25.00953915300005], [85.94502098100008, 25.008652788000063], [85.94736829100003, 25.007775993000052], [85.94821974500007, 25.006904415000065], [85.94854101900006, 25.005784850000055], [85.94840188200004, 25.005062699000064], [85.94752923100003, 25.003483263000078], [85.94739004500008, 25.00265736800003], [85.94663170700005, 25.00188589000004], [85.94475445100005, 25.001733311000066], [85.94425404100008, 25.001426585000047]]]]}}, {"type": "Feature", "properties": {"OBJECTID": 4852, "GPCODE": "93501", "GPNAME_1": "KODWARIA", "DIST_CEN_C": "37", "BLK_NAME": "ISLAMNAGAR ALIGANJ", "ST_NAME": "BIHAR", "ST_CODE_1": "10", "GPCODE2011": "96055", "REMARKS": "FINALIZED", "MAP_STATUS": "COMPLETED", "BLK_C_2001": "370001", "BLK_C_2011": "01525", "DIST_NAME": "JAMUI", "code2011": 15.0, "Shape_Leng": 0.24862607962, "Shape_Area": 0.00241627198, "Area": 27.0301}, "geometry": {"type": "MultiPolygon", "coordinates": [[[[85.87848826300007, 24.922746317000076], [85.87980379000004, 24.922510576000036], [85.88204978400006, 24.922266381000043], [85.88351418700006, 24.922111270000073], [85.88478251600003, 24.922345066000048], [85.88539932200007, 24.92195429900005], [85.88647522100007, 24.921353831000033], [85.88738482800005, 24.92111525400003], [85.88862164900007, 24.92098811900007], [85.88920586600005, 24.92101725200007], [85.88990454100008, 24.921159344000046], [85.89005318500006, 24.92118957400004], [85.89020172600004, 24.92119871700004], [85.89142469400008, 24.921273987000063], [85.89276088100007, 24.92120955100006], [85.89354309100008, 24.921237747000077], [85.89399642000006, 24.920847655000046], [85.89480677300008, 24.920577809000065], [85.89506911500007, 24.92057673200003], [85.89559040100005, 24.920872403000033], [85.89611245800006, 24.921312423000074], [85.89670291300007, 24.92158066500008], [85.89742040300007, 24.92154598700006], [85.89793935700004, 24.921394778000035], [85.89849241700006, 24.921126079000032], [85.89933832700007, 24.921032124000078], [85.90034809200006, 24.92102772800007], [85.90148760800008, 24.92123037700003], [85.90198887800005, 24.921482239000056], [85.90213774500006, 24.921557036000024], [85.90228629500007, 24.921567524000068], [85.90292009200004, 24.921612268000047], [85.90415847800006, 24.921782923000023], [85.90558884900008, 24.92174951100003], [85.90689509400005, 24.921653482000067], [85.90776949900004, 24.921324636000065], [85.90903978100005, 24.92098957500008], [85.90959323300007, 24.92081111600004], [85.91083054300003, 24.920773987000075], [85.91239257700005, 24.920383412000035], [85.91418186700008, 24.919897045000027], [85.91470055700006, 24.919718700000033], [85.91571688200008, 24.919100310000033], [85.91599152800006, 24.918625133000035], [85.91572683300006, 24.91450082800003], [85.91603560800007, 24.910238634000052], [85.91618570700007, 24.909624029000042], [85.91630279000003, 24.908400361000076], [85.91595820100008, 24.906894284000032], [85.91508971400003, 24.90461431500006], [85.91450361000005, 24.902373647000047], [85.91391523800007, 24.90156831400003], [85.91415656900006, 24.900425297000027], [85.91543250200004, 24.899331742000072], [85.91756486600008, 24.898293160000037], [85.91941816500008, 24.896899176000034], [85.91985310000007, 24.895868136000047], [85.91978702100005, 24.894640699000036], [85.92039089300005, 24.893748758000072], [85.92215995500004, 24.89234608000004], [85.92404727400003, 24.89177786700003], [85.92622331800004, 24.89062608100005], [85.92842302300005, 24.89016928800004], [85.93026013200006, 24.889488394000068], [85.93123901000007, 24.88931690900006], [85.93178679300007, 24.889034553000045], [85.93245393400008, 24.887970775000042], [85.93220531200006, 24.886857047000035], [85.93329990600006, 24.88612540400004], [85.93715438200007, 24.885159835000024], [85.94027453800004, 24.884752694000042], [85.94204333300007, 24.884266118000028], [85.94417753000005, 24.88274867900003], [85.94729103800006, 24.881167867000045], [85.94930422000004, 24.880151930000068], [85.95156031400006, 24.878353997000033], [85.95259213100007, 24.87706275100004], [85.95360241700007, 24.876340285000026], [85.95287632600008, 24.87568920800004], [85.95371219900005, 24.873004223000066], [85.95409493700004, 24.87157158900004], [85.95334839300006, 24.866447557000072], [85.95280647200008, 24.86334918800003], [85.95201197500006, 24.86109158200003], [85.94718140600008, 24.861646816000075], [85.93823948700003, 24.862225421000062], [85.92793103900004, 24.863527334000025], [85.92162378800003, 24.865528319000077], [85.91373342800006, 24.867590251000024], [85.90767025200006, 24.86904789500005], [85.90175448700006, 24.87128100700005], [85.89731796300003, 24.872550535000073], [85.89509825600004, 24.872921232000067], [85.89256027400006, 24.873943220000058], [85.89289367600009, 24.87525527500003], [85.89342305700006, 24.87715783300007], [85.89362690900003, 24.878289816000063], [85.89336839600008, 24.87900860700006], [85.89199737100006, 24.878951389000065], [85.89043351400005, 24.879851750000057], [85.88915519500006, 24.88145961200007], [85.88857654900005, 24.882477711000035], [85.88877595100007, 24.883727067000052], [85.88924512300008, 24.885453823000034], [85.88871247500003, 24.89252452200003], [85.88872070100007, 24.894131385000037], [85.88807922300003, 24.896399982000048], [85.88698845600004, 24.89986212900004], [85.88608234700007, 24.90171207900005], [85.88524919800005, 24.90427939400007], [85.88472890500003, 24.90511658300005], [85.88461261100008, 24.90526785700007], [85.88401009100005, 24.906051598000033], [85.88240330600007, 24.90814164300008], [85.88065261500003, 24.910356250000063], [85.87888666100008, 24.910544197000036], [85.87836963500007, 24.91107902400006], [85.87823939500004, 24.911738529000047], [85.87516983700004, 24.911570925000035], [85.87354013900006, 24.912290880000057], [85.87341419800003, 24.912828502000025], [85.87530861600004, 24.912581370000055], [85.87648430900003, 24.913113597000063], [85.87682546600007, 24.915973834000056], [85.87696775900008, 24.918654321000076], [85.87690653500005, 24.920252472000072], [85.87737922700006, 24.922692339000037], [85.87757253400008, 24.922750215000065], [85.87848826300007, 24.922746317000076]]]]}}, {"type": "Feature", "properties": {"OBJECTID": 4855, "GPCODE": "93503", "GPNAME_1": "MIRGAGANJ", "DIST_CEN_C": "37", "BLK_NAME": "ISLAMNAGAR ALIGANJ", "ST_NAME": "BIHAR", "ST_CODE_1": "10", "GPCODE2011": "96057", "REMARKS": "FINALIZED", "MAP_STATUS": "COMPLETED", "BLK_C_2001": "370001", "BLK_C_2011": "01525", "DIST_NAME": "JAMUI", "code2011": 15.0, "Shape_Leng": 0.13703730619, "Shape_Area": 0.0006720414, "Area": 7.51404}, "geometry": {"type": "MultiPolygon", "coordinates": [[[[85.98051811800008, 24.966618562000065], [85.98123301000004, 24.965251926000064], [85.98252085000007, 24.963665828000046], [85.98333358300005, 24.962655273000053], [85.98347935300006, 24.962474021000048], [85.98367716900003, 24.962431149000054], [85.98534859600005, 24.962068902000055], [85.98554641000004, 24.962026028000025], [85.98574392600005, 24.96193135900006], [85.98737327000003, 24.96115039500006], [85.98823504600006, 24.96035629000005], [85.98884448000007, 24.957938523000053], [85.98867467200006, 24.953547581000066], [85.98965278300005, 24.951516129000026], [85.99023955800004, 24.950299062000056], [85.99139363300003, 24.94954860300004], [85.99220551100007, 24.94870959700006], [85.99287484200005, 24.948047220000035], [85.99291249700008, 24.946070101000032], [85.99295830900007, 24.94545605600007], [85.99040179900004, 24.945143829000074], [85.98832749500008, 24.94431909000008], [85.98736022300005, 24.94401696400007], [85.98702753100008, 24.94467760200007], [85.98530210100006, 24.945913819000054], [85.98415222800008, 24.946533325000075], [85.98183917900008, 24.946368622000023], [85.98048734600007, 24.94549967100005], [85.97923433900007, 24.94541550400004], [85.97815463300003, 24.946603340000024], [85.97798979900006, 24.946784679000075], [85.97799568200008, 24.946604094000065], [85.97811142700004, 24.943051371000024], [85.97546440600007, 24.94249317200007], [85.97526613600007, 24.942451359000074], [85.97527846000008, 24.94227074300005], [85.97540292100007, 24.940446644000076], [85.97424392900007, 24.94036202500007], [85.97356862000004, 24.940013231000023], [85.97313387000008, 24.93931578200005], [85.97302607900008, 24.93782231700004], [85.97354607200003, 24.936149684000043], [85.97401830600006, 24.934784337000053], [85.97444209100007, 24.93276464400003], [85.97433254100008, 24.930964326000037], [85.97372644900008, 24.93030832100004], [85.97356035200005, 24.93012854500006], [85.97336288200006, 24.930224201000044], [85.97154630500006, 24.931104154000025], [85.97015219700006, 24.931417889000045], [85.96899209700007, 24.93259698600008], [85.96881362300007, 24.93277838100005], [85.96861564900007, 24.932786201000056], [85.96751198300007, 24.93282978900004], [85.96549785200006, 24.933805410000048], [85.96347901400009, 24.934826058000056], [85.96299681800008, 24.935297842000068], [85.96276036800003, 24.935529187000043], [85.96282067400006, 24.93565977800006], [85.96334684500005, 24.936799163000046], [85.96316033900007, 24.937941980000062], [85.96244095700007, 24.938518719000058], [85.96201936200004, 24.94010043800006], [85.96232570800004, 24.941502747000072], [85.96236511300003, 24.94168312200003], [85.96256414800007, 24.941862705000062], [85.96269852000006, 24.94198394400007], [85.96289755500004, 24.94216352600006], [85.96289655300006, 24.941987487000063], [85.96309418100003, 24.942343170000072], [85.96338176500007, 24.942860750000023], [85.96338943200004, 24.944178686000043], [85.96267291000004, 24.945278938000058], [85.96175913700006, 24.945643301000075], [85.96156154100004, 24.94572209000006], [85.96136442600005, 24.945887173000074], [85.96134471500005, 24.94590368000007], [85.96123183900005, 24.94692875000004], [85.96102636200004, 24.94907826000008], [85.96137025800004, 24.950331341000037], [85.96219652000008, 24.950241677000065], [85.96208368700007, 24.952137915000037], [85.96153654100004, 24.952560297000048], [85.96040912700005, 24.952813882000044], [85.96029032100006, 24.953681067000048], [85.96060083300006, 24.954293507000045], [85.96121025400004, 24.954371802000026], [85.96100119900007, 24.95504529300007], [85.96021197100004, 24.955550078000044], [85.95981858300007, 24.956883480000045], [85.95955733100004, 24.95967410800006], [85.95984314900005, 24.96117580500004], [85.96012308100006, 24.96162127200006], [85.96032214400003, 24.961800908000043], [85.96052120700006, 24.961980544000028], [85.96071892800006, 24.961919287000057], [85.96282949700003, 24.961265378000064], [85.96403184800005, 24.961128665000047], [85.96686724000006, 24.960808168000028], [85.96951335500006, 24.960312499000054], [85.97057137200005, 24.960045593000075], [85.97168102000006, 24.960125979000054], [85.97206878800006, 24.960385837000047], [85.97241370200004, 24.96179244800004], [85.97271141100003, 24.963591918000077], [85.97238005800006, 24.964514227000052], [85.97224311100007, 24.96565687800006], [85.97267805400008, 24.966358832000026], [85.97312776300004, 24.96682605600006], [85.97330076800006, 24.96700579800006], [85.97349795800005, 24.966850866000073], [85.97363600600005, 24.966742402000023], [85.97416470300004, 24.96656375500004], [85.97474403700005, 24.96656097400006], [85.97541874300003, 24.966774345000033], [85.97600039800005, 24.967168678000064], [85.97637330400005, 24.96742299400006], [85.97657214800006, 24.967558601000064], [85.97677036500005, 24.967584357000078], [85.97821243200008, 24.967771731000028], [85.97917360500008, 24.967852837000066], [85.97980030800005, 24.967497709000043], [85.98018476400006, 24.967188905000057], [85.98051811800008, 24.966618562000065]]]]}}, {"type": "Feature", "properties": {"OBJECTID": 4926, "GPCODE": "93504", "GPNAME_1": "PURSUNDA", "DIST_CEN_C": "37", "BLK_NAME": "ISLAMNAGAR ALIGANJ", "ST_NAME": "BIHAR", "ST_CODE_1": "10", "GPCODE2011": "96058", "REMARKS": "FINALIZED", "MAP_STATUS": "COMPLETED", "BLK_C_2001": "370001", "BLK_C_2011": "01525", "DIST_NAME": "JAMUI", "code2011": 0.0, "Shape_Leng": 0.24332960317, "Shape_Area": 0.00247013542, "Area": 27.6296}, "geometry": {"type": "MultiPolygon", "coordinates": [[[[85.93234034600005, 24.93562216400005], [85.93348225100004, 24.935332238000058], [85.93604682000006, 24.935374566000064], [85.93781629500006, 24.934865476000027], [85.93977102800005, 24.935637246000056], [85.94214928200006, 24.93512523800007], [85.94239124300003, 24.93412212000004], [85.94324077600004, 24.93378417400004], [85.94438645300005, 24.933273305000057], [85.94474776700008, 24.932377905000067], [85.94590413900005, 24.931149310000023], [85.94712063600008, 24.930922429000077], [85.94882208100006, 24.928905945000054], [85.95015614900007, 24.927590768000073], [85.95051867200004, 24.92692104500003], [85.95118091200004, 24.925861723000025], [85.95190010500005, 24.92523998300004], [85.95220913400004, 24.925626667000074], [85.95312654200006, 24.925902182000073], [85.95422699800008, 24.92617238400004], [85.95562463100003, 24.92561061600003], [85.95745357600003, 24.925155018000055], [85.95916175100007, 24.924366091000024], [85.96006375800005, 24.923693766000042], [85.96018014500004, 24.922415905000037], [85.96022745600004, 24.920298735000074], [85.96142465900004, 24.915892279000047], [85.96181123800005, 24.915105036000057], [85.96170712600008, 24.913363279000066], [85.96265966700008, 24.912880357000063], [85.96252540800003, 24.911057481000057], [85.96285588800004, 24.908848711000076], [85.96288292200006, 24.908668024000065], [85.96308104400003, 24.90869346100004], [85.96352678200003, 24.908750686000076], [85.96435856700003, 24.90880093100003], [85.96513180600004, 24.908995790000063], [85.96565207600008, 24.909101645000078], [85.96584288300005, 24.909579207000036], [85.96578295500007, 24.91033771800005], [85.96621484600007, 24.910561332000043], [85.96722818100005, 24.910330798000075], [85.96876416000003, 24.90976373700005], [85.96981058200004, 24.909280271000057], [85.97049379300006, 24.90845997200006], [85.97129496400004, 24.90664616300006], [85.97229859700008, 24.904759096000078], [85.97274099400005, 24.90169673200006], [85.97328561600006, 24.90003758200004], [85.97395656100008, 24.898829178000028], [85.97382461300003, 24.897426094000025], [85.97421218800008, 24.895153918000062], [85.97408544400008, 24.893782326000064], [85.97410459600007, 24.891981331000068], [85.97387948100004, 24.890718586000048], [85.97359769800005, 24.889907497000024], [85.97307509000007, 24.889404541000033], [85.97212135400008, 24.88879073700008], [85.97205547800007, 24.887671742000066], [85.97155489400006, 24.885832524000023], [85.97148638300007, 24.885110759000042], [85.97189616200006, 24.884106691000056], [85.97274633400008, 24.883096086000023], [85.97548879400006, 24.88157972600004], [85.97798436800008, 24.880168334000075], [85.98139762900007, 24.878310113000055], [85.98286096200007, 24.877246753000065], [85.98301779800005, 24.875318684000035], [85.98289043200003, 24.873865933000047], [85.98428308400008, 24.871742158000075], [85.98573902100009, 24.870281641000076], [85.98835893800003, 24.86820596000007], [85.98975971000004, 24.867472333000023], [85.98981212900009, 24.866298522000022], [85.98950241200004, 24.86579905800005], [85.98845942300005, 24.865136203000077], [85.98369493000007, 24.865159644000073], [85.98033556600006, 24.86601113200004], [85.97422182800005, 24.867986337000048], [85.96635959600007, 24.87050673400006], [85.95730082000006, 24.874124694000045], [85.95475777100006, 24.875030437000078], [85.95399093400005, 24.87592319600003], [85.95360241700007, 24.876340285000026], [85.95259213100007, 24.87706275100004], [85.95156031400006, 24.878353997000033], [85.94930422000004, 24.880151930000068], [85.94729103800006, 24.881167867000045], [85.94417753000005, 24.88274867900003], [85.94204333300007, 24.884266118000028], [85.94027453800004, 24.884752694000042], [85.93715438200007, 24.885159835000024], [85.93329990600006, 24.88612540400004], [85.93220531200006, 24.886857047000035], [85.93245393400008, 24.887970775000042], [85.93178679300007, 24.889034553000045], [85.93123901000007, 24.88931690900006], [85.93026013200006, 24.889488394000068], [85.92842302300005, 24.89016928800004], [85.92622331800004, 24.89062608100005], [85.92404727400003, 24.89177786700003], [85.92387267600003, 24.893340439000042], [85.92406914300005, 24.89579496500005], [85.92395214100009, 24.89612949900004], [85.92298020000004, 24.897582791000048], [85.92262087200004, 24.898866258000055], [85.92330634000007, 24.901147042000048], [85.92202564400003, 24.902267751000068], [85.92136422100003, 24.903498394000053], [85.92100226800005, 24.90428090100005], [85.92118960200008, 24.90598170100003], [85.91925367700009, 24.90950202500005], [85.91752635600005, 24.912272142000063], [85.91750680000007, 24.914140821000046], [85.91754186000009, 24.915142685000035], [85.91892508900008, 24.91647709500006], [85.92033562200004, 24.917364402000032], [85.92074423900004, 24.919700668000075], [85.92196846100006, 24.920002100000033], [85.92340538400003, 24.920270947000063], [85.92366244600004, 24.922025543000075], [85.92434362400007, 24.923503021000045], [85.92397789200004, 24.924506621000035], [85.92395589900008, 24.925928517000045], [85.92439221500007, 24.926960223000037], [85.92521420100007, 24.92701069000003], [85.92640622300007, 24.926838258000032], [85.92705858100004, 24.92665518700005], [85.92725629300008, 24.92659970300008], [85.92731767200007, 24.926779992000036], [85.92759844600005, 24.927604702000053], [85.92812581400005, 24.928996942000026], [85.92834369700006, 24.92991226600003], [85.92874616500006, 24.930190277000065], [85.93005796100005, 24.93018432100007], [85.93161617600003, 24.929983046000075], [85.93156754400007, 24.93193318400006], [85.93188127300004, 24.934080214000062], [85.93211298000006, 24.935491945000024], [85.93214259400008, 24.935672371000067], [85.93234034600005, 24.93562216400005]]]]}}, {"type": "Feature", "properties": {"OBJECTID": 4940, "GPCODE": "93496", "GPNAME_1": "DARKHA", "DIST_CEN_C": "37", "BLK_NAME": "ISLAMNAGAR ALIGANJ", "ST_NAME": "BIHAR", "ST_CODE_1": "10", "GPCODE2011": "96050", "REMARKS": "FINALIZED", "MAP_STATUS": "COMPLETED", "BLK_C_2001": "370001", "BLK_C_2011": "01525", "DIST_NAME": "JAMUI", "code2011": 0.0, "Shape_Leng": 0.18389983765, "Shape_Area": 0.00082553736, "Area": 9.23163}, "geometry": {"type": "MultiPolygon", "coordinates": [[[[85.95213328000006, 24.952383748000045], [85.95188475900005, 24.951328758000045], [85.95133296000006, 24.95093862300007], [85.95004872100003, 24.950610702000063], [85.94949732500004, 24.950279237000075], [85.94935873700007, 24.947662042000047], [85.94850468000004, 24.947223649000023], [85.94709961400008, 24.94739726000006], [85.94599870200005, 24.94706842100004], [85.94550481300007, 24.946402661000036], [85.94500990900008, 24.94467624300006], [85.94483812500005, 24.94318756900003], [85.94481730100006, 24.94300710600004], [85.94501496500004, 24.942939582000065], [85.94643805200008, 24.942453431000047], [85.94772905400004, 24.942248835000044], [85.94915129000003, 24.942494890000035], [85.94969119600006, 24.94254651400007], [85.95000231000006, 24.94327172900006], [85.95134957100004, 24.944267437000065], [85.95293972100006, 24.944426919000023], [85.95367048000008, 24.944089535000046], [85.95451439300007, 24.942749461000062], [85.95664534100007, 24.941398907000064], [85.96000027700006, 24.94110758900007], [85.96216681200008, 24.941634863000047], [85.96236511300003, 24.94168312200003], [85.96232570800004, 24.941502747000072], [85.96201936200004, 24.94010043800006], [85.96244095700007, 24.938518719000058], [85.96316033900007, 24.937941980000062], [85.96334684500005, 24.936799163000046], [85.96282067400006, 24.93565977800006], [85.96276036800003, 24.935529187000043], [85.96299681800008, 24.935297842000068], [85.96347901400009, 24.934826058000056], [85.96549785200006, 24.933805410000048], [85.96751198300007, 24.93282978900004], [85.96861564900007, 24.932786201000056], [85.96881362300007, 24.93277838100005], [85.96899209700007, 24.93259698600008], [85.97015219700006, 24.931417889000045], [85.97154630500006, 24.931104154000025], [85.97336288200006, 24.930224201000044], [85.97356035200005, 24.93012854500006], [85.97359591000009, 24.929947818000073], [85.97399590000003, 24.927914763000047], [85.97403145700008, 24.92773403600006], [85.97405863200004, 24.92755334900005], [85.97438403300004, 24.925389718000076], [85.97333543500008, 24.92383312900006], [85.97241101300006, 24.922334570000032], [85.97233272900007, 24.919098690000055], [85.97323372800008, 24.91658480800004], [85.97346385300006, 24.914466722000043], [85.97210629600005, 24.912523475000057], [85.97198131400006, 24.911463350000076], [85.97049379300006, 24.90845997200006], [85.96981058200004, 24.909280271000057], [85.96876416000003, 24.90976373700005], [85.96722818100005, 24.910330798000075], [85.96621484600007, 24.910561332000043], [85.96578295500007, 24.91033771800005], [85.96584288300005, 24.909579207000036], [85.96565207600008, 24.909101645000078], [85.96513180600004, 24.908995790000063], [85.96435856700003, 24.90880093100003], [85.96352678200003, 24.908750686000076], [85.96308104400003, 24.90869346100004], [85.96288292200006, 24.908668024000065], [85.96285588800004, 24.908848711000076], [85.96252540800003, 24.911057481000057], [85.96265966700008, 24.912880357000063], [85.96170712600008, 24.913363279000066], [85.96181123800005, 24.915105036000057], [85.96142465900004, 24.915892279000047], [85.96022745600004, 24.920298735000074], [85.96018014500004, 24.922415905000037], [85.96006375800005, 24.923693766000042], [85.95916175100007, 24.924366091000024], [85.95745357600003, 24.925155018000055], [85.95562463100003, 24.92561061600003], [85.95422699800008, 24.92617238400004], [85.95312654200006, 24.925902182000073], [85.95220913400004, 24.925626667000074], [85.95190010500005, 24.92523998300004], [85.95118091200004, 24.925861723000025], [85.95051867200004, 24.92692104500003], [85.95015614900007, 24.927590768000073], [85.94882208100006, 24.928905945000054], [85.94712063600008, 24.930922429000077], [85.94590413900005, 24.931149310000023], [85.94474776700008, 24.932377905000067], [85.94438645300005, 24.933273305000057], [85.94324077600004, 24.93378417400004], [85.94239124300003, 24.93412212000004], [85.94214928200006, 24.93512523800007], [85.93977102800005, 24.935637246000056], [85.93781629500006, 24.934865476000027], [85.93604682000006, 24.935374566000064], [85.93348225100004, 24.935332238000058], [85.93234034600005, 24.93562216400005], [85.93214259400008, 24.935672371000067], [85.93216193700005, 24.935852843000077], [85.93226783100005, 24.936840850000067], [85.92964571100003, 24.93713264200005], [85.92671710500008, 24.937534094000057], [85.92721668000007, 24.939256056000033], [85.92734376400006, 24.94076307200004], [85.92827389800004, 24.943372194000062], [85.92871383600004, 24.945044749000033], [85.92926413300006, 24.94608486900006], [85.93005748900003, 24.946306960000072], [85.93109497800003, 24.945909536000045], [85.93188436300005, 24.945404894000035], [85.93328668700008, 24.944730480000032], [85.93463080200007, 24.94517113300003], [85.93573717900006, 24.946502120000048], [85.93633451900007, 24.947235036000052], [85.93641514600006, 24.947333961000027], [85.93644488900009, 24.94759565700008], [85.93686278200005, 24.95127233000005], [85.93784594800007, 24.95266249100007], [85.93907133900007, 24.95310370900006], [85.94004296600008, 24.952431148000073], [85.94083873200003, 24.952201802000047], [85.94218583300005, 24.953143415000056], [85.94328707200003, 24.95352644700006], [85.94451845100008, 24.95502375500007], [85.94482644000004, 24.95608300500004], [85.94641480100006, 24.95590862800003], [85.94811917800007, 24.955232590000037], [85.95062037600007, 24.954494234000038], [85.95214084600008, 24.953710707000027], [85.95213328000006, 24.952383748000045]]]]}}, {"type": "Feature", "properties": {"OBJECTID": 4941, "GPCODE": "93495", "GPNAME_1": "ARHA", "DIST_CEN_C": "37", "BLK_NAME": "ISLAMNAGAR ALIGANJ", "ST_NAME": "BIHAR", "ST_CODE_1": "10", "GPCODE2011": "96049", "REMARKS": "FINALIZED", "MAP_STATUS": "COMPLETED", "BLK_C_2001": "370001", "BLK_C_2011": "01525", "DIST_NAME": "JAMUI", "code2011": 0.0, "Shape_Leng": 0.15415712095, "Shape_Area": 0.00087159943, "Area": 9.74717}, "geometry": {"type": "MultiPolygon", "coordinates": [[[[85.83152087200006, 24.951891270000033], [85.83165055200004, 24.951887068000076], [85.83406465400003, 24.95145786300003], [85.83485410900005, 24.951933219000068], [85.84033581200003, 24.951076588000035], [85.84269105300007, 24.950769339000033], [85.84334937800008, 24.95178224800003], [85.84583178100007, 24.951135966000038], [85.84667768700007, 24.950992650000046], [85.84693924500004, 24.950811101000056], [85.84601635700005, 24.94938393500007], [85.84678308800005, 24.946162601000026], [85.84788690900007, 24.944072912000024], [85.84970852600009, 24.942991266000035], [85.85160669700008, 24.943403445000058], [85.85200266300006, 24.944412901000078], [85.85396436200006, 24.944644177000043], [85.85736345300006, 24.944215130000032], [85.85684020100007, 24.943517602000043], [85.85664505800008, 24.943103203000078], [85.85667317200006, 24.94277809500005], [85.85716121600007, 24.942360823000058], [85.85820200800003, 24.941584721000027], [85.86018266600007, 24.940655849000052], [85.86154694200007, 24.94023498000007], [85.86236205700004, 24.939875116000053], [85.86294339400007, 24.93930852400007], [85.86254613300008, 24.938059861000056], [85.86345074000008, 24.935790291000046], [85.86246291100008, 24.93424608400005], [85.86206974900006, 24.933832481000024], [85.86173860000008, 24.932940177000035], [85.86271110500007, 24.931383469000025], [85.86204585500008, 24.929002942000068], [85.86118975200003, 24.928054088000067], [85.86131455100008, 24.926266136000038], [85.86104248500004, 24.92429929800005], [85.86182014900004, 24.923402404000058], [85.86272935900007, 24.922085250000066], [85.86109981600003, 24.922868263000055], [85.85894459500008, 24.923472833000062], [85.85665869000007, 24.92366273700003], [85.85412573900004, 24.925997516000052], [85.85002301100008, 24.929232372000058], [85.84768773000008, 24.929476434000037], [85.84428637500008, 24.929368216000057], [85.84414940000005, 24.927639948000035], [85.84288756500007, 24.92359619700005], [85.84228766300004, 24.921332713000027], [85.84013221500004, 24.920862809000027], [85.83895617100006, 24.921287251000024], [85.83680333200004, 24.921354449000034], [85.83503257600006, 24.920585048000078], [85.83039880000007, 24.92149679100004], [85.82684693500005, 24.920874140000024], [85.82250317900008, 24.921369394000067], [85.82289945600007, 24.924626750000073], [85.82218910400007, 24.926236333000077], [85.82160362700006, 24.927014932000077], [85.82199964600005, 24.92808766400003], [85.82461167700006, 24.927716541000052], [85.82572789600005, 24.928249364000067], [85.82521119600005, 24.92998009100006], [85.82495904800004, 24.932183719000022], [85.82507353500006, 24.933180896000067], [85.82523254700004, 24.934565887000076], [85.82536150000004, 24.934628651000025], [85.82660683100005, 24.935219619000065], [85.82759679000003, 24.937301108000042], [85.82813123100004, 24.93938439300007], [85.82840510900007, 24.942899432000047], [85.82796083200003, 24.94528434700004], [85.82691988500005, 24.947134537000068], [85.82620980100006, 24.948807315000067], [85.82588630800007, 24.949526284000058], [85.82654343500008, 24.95029551600004], [85.82635429500004, 24.95113131200003], [85.82596158100006, 24.95185049500003], [85.82753187600008, 24.95202049100004], [85.83152087200006, 24.951891270000033]]]]}}, {"type": "Feature", "properties": {"OBJECTID": 4943, "GPCODE": "93498", "GPNAME_1": "ISLAMNAGAR", "DIST_CEN_C": "37", "BLK_NAME": "ISLAMNAGAR ALIGANJ", "ST_NAME": "BIHAR", "ST_CODE_1": "10", "GPCODE2011": "96052", "REMARKS": "FINALIZED", "MAP_STATUS": "COMPLETED", "BLK_C_2001": "370001", "BLK_C_2011": "01525", "DIST_NAME": "JAMUI", "code2011": 0.0, "Shape_Leng": 0.15568608984, "Shape_Area": 0.0009047267, "Area": 10.1173}, "geometry": {"type": "MultiPolygon", "coordinates": [[[[85.91662136400004, 24.951003163000053], [85.91624805600009, 24.949722933000032], [85.91685540300006, 24.948492483000052], [85.91776705000007, 24.947707558000047], [85.91862420400008, 24.94781660600006], [85.91996643800007, 24.947923367000044], [85.91988649200005, 24.944132296000078], [85.91978601200003, 24.937452561000043], [85.91950974300005, 24.93673166700006], [85.91825713600008, 24.93670117100004], [85.91757971300007, 24.93592331700006], [85.91670433300004, 24.932415624000043], [85.91632719700004, 24.930408747000058], [85.91564474400008, 24.928683068000055], [85.91459498200004, 24.926792060000025], [85.91440474500007, 24.925456892000057], [85.91463666300007, 24.92255809100004], [85.91470055700006, 24.919718700000033], [85.91418186700008, 24.919897045000027], [85.91239257700005, 24.920383412000035], [85.91083054300003, 24.920773987000075], [85.90959323300007, 24.92081111600004], [85.90903978100005, 24.92098957500008], [85.90776949900004, 24.921324636000065], [85.90689509400005, 24.921653482000067], [85.90558884900008, 24.92174951100003], [85.90415847800006, 24.921782923000023], [85.90292009200004, 24.921612268000047], [85.90228629500007, 24.921567524000068], [85.90213774500006, 24.921557036000024], [85.90198887800005, 24.921482239000056], [85.90148760800008, 24.92123037700003], [85.90034809200006, 24.92102772800007], [85.89933832700007, 24.921032124000078], [85.89849241700006, 24.921126079000032], [85.89793935700004, 24.921394778000035], [85.89742040300007, 24.92154598700006], [85.89670291300007, 24.92158066500008], [85.89611245800006, 24.921312423000074], [85.89559040100005, 24.920872403000033], [85.89506911500007, 24.92057673200003], [85.89480677300008, 24.920577809000065], [85.89399642000006, 24.920847655000046], [85.89354309100008, 24.921237747000077], [85.89276088100007, 24.92120955100006], [85.89142469400008, 24.921273987000063], [85.89020172600004, 24.92119871700004], [85.89005318500006, 24.92118957400004], [85.88990454100008, 24.921159344000046], [85.88920586600005, 24.92101725200007], [85.88862164900007, 24.92098811900007], [85.88738482800005, 24.92111525400003], [85.88647522100007, 24.921353831000033], [85.88539932200007, 24.92195429900005], [85.88478251600003, 24.922345066000048], [85.88351418700006, 24.922111270000073], [85.88204978400006, 24.922266381000043], [85.87980379000004, 24.922510576000036], [85.87848826300007, 24.922746317000076], [85.87862302500008, 24.92393740600005], [85.87870810900006, 24.92703790400003], [85.87956036100007, 24.930121631000077], [85.87990074300006, 24.932801379000068], [85.87991095200005, 24.934814412000037], [85.87991163800007, 24.934949783000036], [85.88000589000006, 24.935084755000048], [85.88051506500005, 24.935813903000053], [85.88097178800007, 24.936078266000038], [85.88162524200004, 24.93607549500007], [85.88208028000008, 24.935983257000032], [85.88257937000003, 24.935821047000047], [85.88272765500005, 24.93577285200007], [85.88287591600005, 24.935719886000072], [85.88331572600003, 24.93556276700008], [85.88374970900009, 24.935251282000024], [85.88389771600004, 24.935145051000063], [85.88404584500006, 24.935064563000026], [85.88532936600006, 24.934367133000023], [85.88656248400008, 24.93349974700004], [85.88704962800006, 24.932933422000076], [85.88791968600003, 24.93174264000004], [85.88873363700003, 24.931174998000074], [85.88974130400004, 24.930755399000077], [85.89104243300005, 24.930600827000035], [85.89101345200004, 24.931697815000064], [85.89127826800006, 24.932175120000068], [85.89177246900005, 24.93297186700005], [85.89197171100005, 24.93415808900005], [85.89194550800005, 24.93484431400003], [85.89172111600004, 24.935468167000067], [85.89146300800007, 24.936299786000063], [85.89137044900008, 24.937550486000077], [85.89154153800007, 24.939034738000032], [85.89158649500007, 24.94102051300007], [85.89174229000008, 24.943032939000034], [85.89175626400004, 24.943213439000033], [85.89195464000005, 24.943281427000045], [85.89303090800007, 24.943650280000043], [85.89527956900008, 24.94384815600006], [85.89661051300004, 24.943689146000054], [85.89680842600006, 24.943665500000066], [85.89674905700008, 24.943846308000047], [85.89658431200007, 24.944348039000033], [85.89597625600004, 24.946431435000022], [85.89592031400008, 24.94803408100006], [85.89572579300005, 24.948716501000035], [85.89537111800007, 24.949047450000023], [85.89465738900003, 24.94985398400007], [85.89449620100004, 24.950269959000025], [85.89463169900006, 24.95062596500003], [85.89498944900004, 24.950859146000028], [85.89580337200005, 24.951243801000032], [85.89683899900007, 24.951398382000036], [85.89703719500005, 24.95142796400006], [85.89723490100005, 24.951361331000044], [85.89831234000007, 24.950998197000047], [85.90065156200006, 24.950509531000023], [85.90377834500003, 24.95008056000006], [85.90638096800006, 24.94977577800006], [85.90690627500004, 24.949859159000027], [85.90742849800006, 24.950303743000063], [85.90779077800005, 24.951398941000036], [85.90822448300008, 24.952882067000075], [85.90858281700008, 24.953237], [85.90923794500009, 24.953532023000037], [85.91076810500005, 24.953583948000073], [85.91207491200004, 24.95351947000006], [85.91455006900009, 24.953449774000035], [85.91692442000004, 24.95302391900003], [85.91913422000005, 24.95241821600007], [85.91828128900005, 24.95216472000004], [85.91729858100007, 24.951722335000056], [85.91662136400004, 24.951003163000053]]]]}}, {"type": "Feature", "properties": {"OBJECTID": 4949, "GPCODE": "93493", "GPNAME_1": "ABGILLA CHAURASA", "DIST_CEN_C": "37", "BLK_NAME": "ISLAMNAGAR ALIGANJ", "ST_NAME": "BIHAR", "ST_CODE_1": "10", "GPCODE2011": "96047", "REMARKS": "FINALIZED", "MAP_STATUS": "COMPLETED", "BLK_C_2001": "370001", "BLK_C_2011": "01525", "DIST_NAME": "JAMUI", "code2011": 0.0, "Shape_Leng": 0.14703134626, "Shape_Area": 0.00085474376, "Area": 9.55723}, "geometry": {"type": "MultiPolygon", "coordinates": [[[[85.87343845000004, 24.968725540000037], [85.87454762200008, 24.968720865000023], [85.87696059900009, 24.969008685000063], [85.87924243400005, 24.968822999000054], [85.88151791900003, 24.96836655000004], [85.88213648100003, 24.968278135000048], [85.88405542900006, 24.96782315300004], [85.88464201400006, 24.967315161000045], [85.88607289200007, 24.967277417000048], [85.88754010500008, 24.967569042000036], [85.88881127000008, 24.967297345000077], [85.88929930300003, 24.96687997600003], [85.88932629800007, 24.966342715000053], [85.88919434400003, 24.965720392000037], [85.88879574400005, 24.964295777000075], [85.88888938900004, 24.963257243000044], [85.88944047200005, 24.962573314000053], [85.89166020800008, 24.963809533000074], [85.89300239500005, 24.964814862000026], [85.89486892800005, 24.966675373000044], [85.89597950700005, 24.96694137000003], [85.89731552000006, 24.966755024000065], [85.89978859600006, 24.96623879400005], [85.89984853600004, 24.965398985000036], [85.90032868300005, 24.964417453000067], [85.90184679200007, 24.962153990000047], [85.90298455700008, 24.961020633000032], [85.90278492800007, 24.960723565000023], [85.90278215600006, 24.96018642300004], [85.90255009900005, 24.959388542000056], [85.90209324900007, 24.959124245000055], [85.90160204600005, 24.95894584000007], [85.90046362400005, 24.959009508000065], [85.89939062400003, 24.959284978000028], [85.89808948500007, 24.959498299000074], [85.89759903500004, 24.959441750000053], [85.89716672000003, 24.95819782800004], [85.89699815000006, 24.957219139000074], [85.89695402000007, 24.954457002000026], [85.89703223700008, 24.95160854100004], [85.89703719500005, 24.95142796400006], [85.89683899900007, 24.951398382000036], [85.89580337200005, 24.951243801000032], [85.89498944900004, 24.950859146000028], [85.89463169900006, 24.95062596500003], [85.89449620100004, 24.950269959000025], [85.89465738900003, 24.94985398400007], [85.89537111800007, 24.949047450000023], [85.89572579300005, 24.948716501000035], [85.89592031400008, 24.94803408100006], [85.89597625600004, 24.946431435000022], [85.89658431200007, 24.944348039000033], [85.89674905700008, 24.943846308000047], [85.89680842600006, 24.943665500000066], [85.89661051300004, 24.943689146000054], [85.89527956900008, 24.94384815600006], [85.89303090800007, 24.943650280000043], [85.89195464000005, 24.943281427000045], [85.89175626400004, 24.943213439000033], [85.89174229000008, 24.943032939000034], [85.89158649500007, 24.94102051300007], [85.89154153800007, 24.939034738000032], [85.89137044900008, 24.937550486000077], [85.89146300800007, 24.936299786000063], [85.89172111600004, 24.935468167000067], [85.89194550800005, 24.93484431400003], [85.89197171100005, 24.93415808900005], [85.89177246900005, 24.93297186700005], [85.89127826800006, 24.932175120000068], [85.89101345200004, 24.931697815000064], [85.89104243300005, 24.930600827000035], [85.88974130400004, 24.930755399000077], [85.88873363700003, 24.931174998000074], [85.88791968600003, 24.93174264000004], [85.88704962800006, 24.932933422000076], [85.88656248400008, 24.93349974700004], [85.88532936600006, 24.934367133000023], [85.88404584500006, 24.935064563000026], [85.88389771600004, 24.935145051000063], [85.88374970900009, 24.935251282000024], [85.88331572600003, 24.93556276700008], [85.88287591600005, 24.935719886000072], [85.88272765500005, 24.93577285200007], [85.88257937000003, 24.935821047000047], [85.88208028000008, 24.935983257000032], [85.88162524200004, 24.93607549500007], [85.88097178800007, 24.936078266000038], [85.88051506500005, 24.935813903000053], [85.88000589000006, 24.935084755000048], [85.87991163800007, 24.934949783000036], [85.87976291100006, 24.934904904000064], [85.87932165300003, 24.934771754000053], [85.87631767300007, 24.93496495200003], [85.87213533000005, 24.935099799000056], [85.87090073300004, 24.935700754000038], [85.87130768400004, 24.938858654000057], [85.87052106400006, 24.938979218000043], [85.86665043400006, 24.939107851000074], [85.86691694900009, 24.939937566000026], [85.86757194100005, 24.941239264000046], [85.86796628100007, 24.941892179000035], [85.86845713600007, 24.942039006000073], [85.86901459800004, 24.942632557000024], [85.86904890800008, 24.94355317000003], [85.86895831600003, 24.94423510400003], [85.86921763100008, 24.944617659000073], [85.86961036800005, 24.94494557300004], [85.86961335500007, 24.945536883000045], [85.86910871300006, 24.94857213800003], [85.86856516700004, 24.950768032000042], [85.86938112300004, 24.951568095000027], [85.86955009100006, 24.952664174000063], [85.87005953100004, 24.953980098000045], [85.87011185400007, 24.954115251000076], [85.87013916500007, 24.954250509000076], [85.87041144800008, 24.955598955000028], [85.87073839400006, 24.95661771400006], [85.87152869400006, 24.95821673000006], [85.87209086800004, 24.959730988000047], [85.87264943000008, 24.960532065000052], [85.87219501700008, 24.96074162800005], [85.87164209100007, 24.961068905000047], [85.87148156500007, 24.961633810000023], [85.87142019500004, 24.96222986500004], [85.87171421500005, 24.962612293000063], [85.87217225700005, 24.963115908000077], [85.87233790400006, 24.963561998000046], [85.87215256100006, 24.965106510000055], [85.87184528300008, 24.965870637000023], [85.87179075400007, 24.966006238000034], [85.87179142100007, 24.966141607000054], [85.87179251000003, 24.966362736000065], [85.87205661500008, 24.967670603000045], [85.87256223200006, 24.968896251000047], [85.87261798000003, 24.969031388000076], [85.87276627400007, 24.96897610900004], [85.87343845000004, 24.968725540000037]]]]}}, {"type": "Feature", "properties": {"OBJECTID": 4951, "GPCODE": "93499", "GPNAME_1": "KAITHA", "DIST_CEN_C": "37", "BLK_NAME": "ISLAMNAGAR ALIGANJ", "ST_NAME": "BIHAR", "ST_CODE_1": "10", "GPCODE2011": "96053", "REMARKS": "FINALIZED", "MAP_STATUS": "COMPLETED", "BLK_C_2001": "370001", "BLK_C_2011": "01525", "DIST_NAME": "JAMUI", "code2011": 0.0, "Shape_Leng": 0.19334335567, "Shape_Area": 0.00076473614, "Area": 8.54995}, "geometry": {"type": "MultiPolygon", "coordinates": [[[[85.84198833700003, 24.989079488000073], [85.84470291700006, 24.988165956000046], [85.85082433900004, 24.988172994000024], [85.85157432800008, 24.987605791000078], [85.85185415900008, 24.985076982000066], [85.85157823400004, 24.982315757000038], [85.85192884200006, 24.98108215800005], [85.85152684900004, 24.978885604000027], [85.85207503700008, 24.977547317000074], [85.85213748100006, 24.977158908000035], [85.85181876700005, 24.97635162800003], [85.85158082100008, 24.975447432000067], [85.85143805300004, 24.974495648000072], [85.85172358900007, 24.97387698800003], [85.85153323200007, 24.973210739000024], [85.85115619600003, 24.971913537000034], [85.85151345200006, 24.972061057000076], [85.85213217600005, 24.971999845000028], [85.85571581600004, 24.971687429000042], [85.85952709200006, 24.971346855000036], [85.86057021200008, 24.97101309900006], [85.86092549300008, 24.970745328000078], [85.86079306400006, 24.970005625000056], [85.86088447200007, 24.96846156600003], [85.86221537400007, 24.968244026000036], [85.86449547600006, 24.96770196800003], [85.86605809100007, 24.96728027100005], [85.86658745000005, 24.96917833400005], [85.86724851600007, 24.970660561000045], [85.86813094200005, 24.971844059000034], [85.86820425400003, 24.97264718100007], [85.86807340500008, 24.973211872000036], [85.86765560600008, 24.973836478000067], [85.86733202100004, 24.97449233100008], [85.86739973300007, 24.975146498000072], [85.86792428800004, 24.97606515500007], [85.86825435500003, 24.97671377900008], [85.86891595400004, 24.97730678100004], [85.86953657500004, 24.977629171000046], [85.87018577800006, 24.97771672500005], [85.87125886700005, 24.97741437700006], [85.87178316200004, 24.977294853000046], [85.87224011500007, 24.97755923400007], [85.87315366600006, 24.97802931600006], [85.87452356900008, 24.97864650200006], [85.87561458600004, 24.978955683000038], [85.87576335000006, 24.978997840000034], [85.87591128300005, 24.978863844000045], [85.87608878100008, 24.978703068000073], [85.87664190000004, 24.978402860000074], [85.87732465300007, 24.978278120000027], [85.87791358500004, 24.978217017000077], [85.87877741200003, 24.978621420000025], [85.87892630700009, 24.97869112400008], [85.87887117300005, 24.97855598800004], [85.87846491900007, 24.97756021500004], [85.87718166800005, 24.975489281000023], [85.87524724200006, 24.972911113000066], [85.87270945600005, 24.969166375000043], [85.87261798000003, 24.969031388000076], [85.87256223200006, 24.968896251000047], [85.87205661500008, 24.967670603000045], [85.87179251000003, 24.966362736000065], [85.87179142100007, 24.966141607000054], [85.87179075400007, 24.966006238000034], [85.87184528300008, 24.965870637000023], [85.87215256100006, 24.965106510000055], [85.87233790400006, 24.963561998000046], [85.87217225700005, 24.963115908000077], [85.87171421500005, 24.962612293000063], [85.87142019500004, 24.96222986500004], [85.87148156500007, 24.961633810000023], [85.87164209100007, 24.961068905000047], [85.87219501700008, 24.96074162800005], [85.87264943000008, 24.960532065000052], [85.87209086800004, 24.959730988000047], [85.87152869400006, 24.95821673000006], [85.87073839400006, 24.95661771400006], [85.87041144800008, 24.955598955000028], [85.87013916500007, 24.954250509000076], [85.87011185400007, 24.954115251000076], [85.87005953100004, 24.953980098000045], [85.86955009100006, 24.952664174000063], [85.86938112300004, 24.951568095000027], [85.86856516700004, 24.950768032000042], [85.86910871300006, 24.94857213800003], [85.86961335500007, 24.945536883000045], [85.86961036800005, 24.94494557300004], [85.86921763100008, 24.944617659000073], [85.86895831600003, 24.94423510400003], [85.86904890800008, 24.94355317000003], [85.86901459800004, 24.942632557000024], [85.86845713600007, 24.942039006000073], [85.86796628100007, 24.941892179000035], [85.86757194100005, 24.941239264000046], [85.86691694900009, 24.939937566000026], [85.86665043400006, 24.939107851000074], [85.86431407800006, 24.939185447000057], [85.86294339400007, 24.93930852400007], [85.86236205700004, 24.939875116000053], [85.86154694200007, 24.94023498000007], [85.86018266600007, 24.940655849000052], [85.85820200800003, 24.941584721000027], [85.85716121600007, 24.942360823000058], [85.85667317200006, 24.94277809500005], [85.85664505800008, 24.943103203000078], [85.85684020100007, 24.943517602000043], [85.85736345300006, 24.944215130000032], [85.85808034600007, 24.944031679000034], [85.85782919300004, 24.94629853500004], [85.85823463900005, 24.94921722500004], [85.85895840400008, 24.950405873000022], [85.85857573900006, 24.95213614000005], [85.85821403000006, 24.95509856800004], [85.85893635700006, 24.955989303000024], [85.85884366300007, 24.958282663000034], [85.85653129700006, 24.95826504000007], [85.85528973800007, 24.958509277000076], [85.85319595400006, 24.95863967200006], [85.85286625100008, 24.958040663000077], [85.85286333700003, 24.95744484200003], [85.85201522100004, 24.957150355000067], [85.85175742000007, 24.958108286000027], [85.85052045700007, 24.95930489600005], [85.85052976200006, 24.96120962300006], [85.85053556800005, 24.96240126300006], [85.85022213800005, 24.964350142000058], [85.85014623100005, 24.96482211400007], [85.84992425700005, 24.966010124000036], [85.84978006500006, 24.967933465000044], [85.84717162100003, 24.969198735000077], [85.84522370200006, 24.971887692000053], [85.84263218800004, 24.97462427000005], [85.84113479400008, 24.976300244000072], [85.84062198200007, 24.97779184500007], [85.84036464500008, 24.978867106000052], [85.83860597900008, 24.979767760000072], [85.83776264500005, 24.981558466000024], [85.83470633500008, 24.98453596400003], [85.83418515000005, 24.985314367000058], [85.83404618700007, 24.986717731000056], [85.83704578200008, 24.989099064000072], [85.83939977300008, 24.990439387000038], [85.84024190100007, 24.99043603000007], [85.84075676000003, 24.990433980000034], [85.84198833700003, 24.989079488000073]]]]}}, {"type": "Feature", "properties": {"OBJECTID": 4962, "GPCODE": "93494", "GPNAME_1": "ALIGANJ", "DIST_CEN_C": "37", "BLK_NAME": "ISLAMNAGAR ALIGANJ", "ST_NAME": "BIHAR", "ST_CODE_1": "10", "GPCODE2011": "96048", "REMARKS": "FINALIZED", "MAP_STATUS": "COMPLETED", "BLK_C_2001": "370001", "BLK_C_2011": "01525", "DIST_NAME": "JAMUI", "code2011": 0.0, "Shape_Leng": 0.19004190952, "Shape_Area": 0.00062887452, "Area": 7.03251}, "geometry": {"type": "MultiPolygon", "coordinates": [[[[85.93686278200005, 24.95127233000005], [85.93644488900009, 24.94759565700008], [85.93641514600006, 24.947333961000027], [85.93633451900007, 24.947235036000052], [85.93573717900006, 24.946502120000048], [85.93463080200007, 24.94517113300003], [85.93328668700008, 24.944730480000032], [85.93188436300005, 24.945404894000035], [85.93109497800003, 24.945909536000045], [85.93005748900003, 24.946306960000072], [85.92926413300006, 24.94608486900006], [85.92871383600004, 24.945044749000033], [85.92827389800004, 24.943372194000062], [85.92734376400006, 24.94076307200004], [85.92721668000007, 24.939256056000033], [85.92671710500008, 24.937534094000057], [85.92964571100003, 24.93713264200005], [85.93226783100005, 24.936840850000067], [85.93216193700005, 24.935852843000077], [85.93214259400008, 24.935672371000067], [85.93211298000006, 24.935491945000024], [85.93188127300004, 24.934080214000062], [85.93156754400007, 24.93193318400006], [85.93161617600003, 24.929983046000075], [85.93005796100005, 24.93018432100007], [85.92874616500006, 24.930190277000065], [85.92834369700006, 24.92991226600003], [85.92812581400005, 24.928996942000026], [85.92759844600005, 24.927604702000053], [85.92731767200007, 24.926779992000036], [85.92725629300008, 24.92659970300008], [85.92705858100004, 24.92665518700005], [85.92640622300007, 24.926838258000032], [85.92521420100007, 24.92701069000003], [85.92439221500007, 24.926960223000037], [85.92395589900008, 24.925928517000045], [85.92397789200004, 24.924506621000035], [85.92434362400007, 24.923503021000045], [85.92366244600004, 24.922025543000075], [85.92340538400003, 24.920270947000063], [85.92196846100006, 24.920002100000033], [85.92074423900004, 24.919700668000075], [85.92033562200004, 24.917364402000032], [85.91892508900008, 24.91647709500006], [85.91754186000009, 24.915142685000035], [85.91750680000007, 24.914140821000046], [85.91752635600005, 24.912272142000063], [85.91925367700009, 24.90950202500005], [85.92118960200008, 24.90598170100003], [85.92100226800005, 24.90428090100005], [85.92136422100003, 24.903498394000053], [85.92202564400003, 24.902267751000068], [85.92330634000007, 24.901147042000048], [85.92262087200004, 24.898866258000055], [85.92298020000004, 24.897582791000048], [85.92395214100009, 24.89612949900004], [85.92406914300005, 24.89579496500005], [85.92387267600003, 24.893340439000042], [85.92404727400003, 24.89177786700003], [85.92215995500004, 24.89234608000004], [85.92039089300005, 24.893748758000072], [85.91978702100005, 24.894640699000036], [85.91985310000007, 24.895868136000047], [85.91941816500008, 24.896899176000034], [85.91756486600008, 24.898293160000037], [85.91543250200004, 24.899331742000072], [85.91415656900006, 24.900425297000027], [85.91391523800007, 24.90156831400003], [85.91450361000005, 24.902373647000047], [85.91508971400003, 24.90461431500006], [85.91595820100008, 24.906894284000032], [85.91630279000003, 24.908400361000076], [85.91618570700007, 24.909624029000042], [85.91603560800007, 24.910238634000052], [85.91572683300006, 24.91450082800003], [85.91599152800006, 24.918625133000035], [85.91571688200008, 24.919100310000033], [85.91470055700006, 24.919718700000033], [85.91463666300007, 24.92255809100004], [85.91440474500007, 24.925456892000057], [85.91459498200004, 24.926792060000025], [85.91564474400008, 24.928683068000055], [85.91632719700004, 24.930408747000058], [85.91670433300004, 24.932415624000043], [85.91757971300007, 24.93592331700006], [85.91825713600008, 24.93670117100004], [85.91950974300005, 24.93673166700006], [85.91978601200003, 24.937452561000043], [85.91988649200005, 24.944132296000078], [85.91996643800007, 24.947923367000044], [85.91862420400008, 24.94781660600006], [85.91776705000007, 24.947707558000047], [85.91685540300006, 24.948492483000052], [85.91624805600009, 24.949722933000032], [85.91662136400004, 24.951003163000053], [85.91729858100007, 24.951722335000056], [85.91828128900005, 24.95216472000004], [85.91913422000005, 24.95241821600007], [85.92024380200007, 24.953428729000052], [85.92159347100005, 24.954876068000033], [85.92129431700005, 24.956326260000026], [85.92166471700006, 24.957046855000044], [85.92227894100006, 24.95709821400004], [85.92301629900004, 24.957934374000047], [85.92362922400008, 24.95865386500003], [85.92357373100003, 24.959380744000043], [85.92375898300008, 24.960657295000033], [85.92573144900007, 24.960075070000073], [85.92847178500006, 24.95957972000008], [85.93140998800004, 24.959042724000028], [85.93366973600007, 24.958504278000078], [85.93612239700008, 24.957919778000075], [85.93668065700007, 24.95770050400006], [85.93646238400004, 24.956726613000058], [85.93639693300008, 24.955643654000028], [85.93675437500008, 24.954026167000052], [85.93757063100009, 24.95302034200006], [85.93784594800007, 24.95266249100007], [85.93686278200005, 24.95127233000005]]]]}}, {"type": "Feature", "properties": {"OBJECTID": 4968, "GPCODE": "93500", "GPNAME_1": "KAIYAR", "DIST_CEN_C": "37", "BLK_NAME": "ISLAMNAGAR ALIGANJ", "ST_NAME": "BIHAR", "ST_CODE_1": "10", "GPCODE2011": "96054", "REMARKS": "FINALIZED", "MAP_STATUS": "COMPLETED", "BLK_C_2001": "370001", "BLK_C_2011": "01525", "DIST_NAME": "JAMUI", "code2011": 0.0, "Shape_Leng": 0.22077387862, "Shape_Area": 0.00155964405, "Area": 17.4354}, "geometry": {"type": "MultiPolygon", "coordinates": [[[[85.97561479400008, 24.997601118000034], [85.97616033200006, 24.993522664000068], [85.97609429300007, 24.99222039400007], [85.97602064700004, 24.990768126000034], [85.97602028600005, 24.990761012000064], [85.97781440700004, 24.990133900000046], [85.97823991300004, 24.98922913900003], [85.97748513700003, 24.987206254000057], [85.97847156300008, 24.98652441400003], [85.97994560900008, 24.98454473000004], [85.98042509800007, 24.983553932000063], [85.98062026800005, 24.983371143000056], [85.97969725400003, 24.98273600300007], [85.97882466100003, 24.981729261000055], [85.97751313400005, 24.98020104400007], [85.97644438100008, 24.97866711000006], [85.97556749000006, 24.976915674000054], [85.97459828700005, 24.97547148900003], [85.97569898000006, 24.974017270000047], [85.97665007500007, 24.97238777700005], [85.97697184400005, 24.969840514000055], [85.97660374700007, 24.967739008000024], [85.97657214800006, 24.967558601000064], [85.97637330400005, 24.96742299400006], [85.97600039800005, 24.967168678000064], [85.97541874300003, 24.966774345000033], [85.97474403700005, 24.96656097400006], [85.97416470300004, 24.96656375500004], [85.97363600600005, 24.966742402000023], [85.97349795800005, 24.966850866000073], [85.97330076800006, 24.96700579800006], [85.97312776300004, 24.96682605600006], [85.97267805400008, 24.966358832000026], [85.97224311100007, 24.96565687800006], [85.97238005800006, 24.964514227000052], [85.97271141100003, 24.963591918000077], [85.97241370200004, 24.96179244800004], [85.97206878800006, 24.960385837000047], [85.97168102000006, 24.960125979000054], [85.97057137200005, 24.960045593000075], [85.96951335500006, 24.960312499000054], [85.96686724000006, 24.960808168000028], [85.96403184800005, 24.961128665000047], [85.96282949700003, 24.961265378000064], [85.96071892800006, 24.961919287000057], [85.96052120700006, 24.961980544000028], [85.96032214400003, 24.961800908000043], [85.96012308100006, 24.96162127200006], [85.95984314900005, 24.96117580500004], [85.95955733100004, 24.95967410800006], [85.95981858300007, 24.956883480000045], [85.96021197100004, 24.955550078000044], [85.96100119900007, 24.95504529300007], [85.96121025400004, 24.954371802000026], [85.96060083300006, 24.954293507000045], [85.96029032100006, 24.953681067000048], [85.96040912700005, 24.952813882000044], [85.96153654100004, 24.952560297000048], [85.96208368700007, 24.952137915000037], [85.96219652000008, 24.950241677000065], [85.96137025800004, 24.950331341000037], [85.96102636200004, 24.94907826000008], [85.96123183900005, 24.94692875000004], [85.96134471500005, 24.94590368000007], [85.96136442600005, 24.945887173000074], [85.96156154100004, 24.94572209000006], [85.96175913700006, 24.945643301000075], [85.96267291000004, 24.945278938000058], [85.96338943200004, 24.944178686000043], [85.96338176500007, 24.942860750000023], [85.96309418100003, 24.942343170000072], [85.96289655300006, 24.941987487000063], [85.96289755500004, 24.94216352600006], [85.96269852000006, 24.94198394400007], [85.96256414800007, 24.941862705000062], [85.96236511300003, 24.94168312200003], [85.96216681200008, 24.941634863000047], [85.96000027700006, 24.94110758900007], [85.95664534100007, 24.941398907000064], [85.95451439300007, 24.942749461000062], [85.95367048000008, 24.944089535000046], [85.95293972100006, 24.944426919000023], [85.95134957100004, 24.944267437000065], [85.95000231000006, 24.94327172900006], [85.94969119600006, 24.94254651400007], [85.94915129000003, 24.942494890000035], [85.94772905400004, 24.942248835000044], [85.94643805200008, 24.942453431000047], [85.94501496500004, 24.942939582000065], [85.94481730100006, 24.94300710600004], [85.94483812500005, 24.94318756900003], [85.94500990900008, 24.94467624300006], [85.94550481300007, 24.946402661000036], [85.94599870200005, 24.94706842100004], [85.94709961400008, 24.94739726000006], [85.94850468000004, 24.947223649000023], [85.94935873700007, 24.947662042000047], [85.94949732500004, 24.950279237000075], [85.95004872100003, 24.950610702000063], [85.95133296000006, 24.95093862300007], [85.95188475900005, 24.951328758000045], [85.95213328000006, 24.952383748000045], [85.95214084600008, 24.953710707000027], [85.95062037600007, 24.954494234000038], [85.94811917800007, 24.955232590000037], [85.94641480100006, 24.95590862800003], [85.94482644000004, 24.95608300500004], [85.94451845100008, 24.95502375500007], [85.94328707200003, 24.95352644700006], [85.94218583300005, 24.953143415000056], [85.94083873200003, 24.952201802000047], [85.94004296600008, 24.952431148000073], [85.93907133900007, 24.95310370900006], [85.93784594800007, 24.95266249100007], [85.93757063100009, 24.95302034200006], [85.93675437500008, 24.954026167000052], [85.93639693300008, 24.955643654000028], [85.93646238400004, 24.956726613000058], [85.93668065700007, 24.95770050400006], [85.93612239700008, 24.957919778000075], [85.93627257500003, 24.959106175000045], [85.93647173200003, 24.960202053000046], [85.93719724300007, 24.961561852000045], [85.93773857800005, 24.963622061000024], [85.93853126100004, 24.96725635400003], [85.93898066000008, 24.96970964600007], [85.93922576500006, 24.971026538000046], [85.93913556000007, 24.97173107800006], [85.93899760500005, 24.97274270300005], [85.93861426400008, 24.973268064000024], [85.93779596400003, 24.973930841000026], [85.93717423500004, 24.974330932000044], [85.93602211000007, 24.974643139000023], [85.93491465100004, 24.97495518900007], [85.93453033000003, 24.97530901600004], [85.93438934600005, 24.97579262200003], [85.93425187800005, 24.976890001000072], [85.93396505300007, 24.97785721400004], [85.93406724900007, 24.97842997200007], [85.93450219100004, 24.979172749000043], [85.93552325300004, 24.980224238000062], [85.93591114700007, 24.98140499300007], [85.93582930000008, 24.981829663000042], [85.93743020900007, 24.98383984000003], [85.93855247100004, 24.986163697000052], [85.93913576400007, 24.98774076600006], [85.94005884500007, 24.988964142000043], [85.94098071200006, 24.98997094500004], [85.94152397900007, 24.99057778100007], [85.94315240200007, 24.990412235000065], [85.94764017100005, 24.990526645000045], [85.94903599800006, 24.99125127800005], [85.95330238400004, 24.99075277000003], [85.95543225300008, 24.990801340000075], [85.95627133600004, 24.99116297300003], [85.95832038800006, 24.992647255000065], [85.95971629800005, 24.993371791000072], [85.96073667800005, 24.99339397700004], [85.96165713500005, 24.991557095000076], [85.96202516400007, 24.990964090000034], [85.96265648800005, 24.990496180000036], [85.96265684200006, 24.99049663900007], [85.96755197400006, 24.996854806000044], [85.97057143100005, 24.998243956000067], [85.97285141200007, 24.998512687000073], [85.97561479400008, 24.997601118000034]]]]}}, {"type": "Feature", "properties": {"OBJECTID": 4969, "GPCODE": "93505", "GPNAME_1": "SAHORA", "DIST_CEN_C": "37", "BLK_NAME": "ISLAMNAGAR ALIGANJ", "ST_NAME": "BIHAR", "ST_CODE_1": "10", "GPCODE2011": "96059", "REMARKS": "FINALIZED", "MAP_STATUS": "COMPLETED", "BLK_C_2001": "370001", "BLK_C_2011": "01525", "DIST_NAME": "JAMUI", "code2011": 0.0, "Shape_Leng": 0.14822022976, "Shape_Area": 0.00094516017, "Area": 10.5667}, "geometry": {"type": "MultiPolygon", "coordinates": [[[[85.90848460900008, 24.983122173000027], [85.90893955400009, 24.98299826500005], [85.90968771800004, 24.98305810000005], [85.91145070900006, 24.98305035800007], [85.91356596000008, 24.983158289000073], [85.91578309000005, 24.982882044000064], [85.91988524200008, 24.98226783000007], [85.92219344900008, 24.98142698500004], [85.92489083200007, 24.980227694000064], [85.92599794500006, 24.979834469000025], [85.92756103700003, 24.979502426000067], [85.92850606500008, 24.979349151000065], [85.93032863900004, 24.98027510600008], [85.93235788400006, 24.98096543400004], [85.93438273300006, 24.981746016000045], [85.93582930000008, 24.981829663000042], [85.93591114700007, 24.98140499300007], [85.93552325300004, 24.980224238000062], [85.93450219100004, 24.979172749000043], [85.93406724900007, 24.97842997200007], [85.93396505300007, 24.97785721400004], [85.93425187800005, 24.976890001000072], [85.93438934600005, 24.97579262200003], [85.93453033000003, 24.97530901600004], [85.93491465100004, 24.97495518900007], [85.93602211000007, 24.974643139000023], [85.93717423500004, 24.974330932000044], [85.93779596400003, 24.973930841000026], [85.93861426400008, 24.973268064000024], [85.93899760500005, 24.97274270300005], [85.93913556000007, 24.97173107800006], [85.93922576500006, 24.971026538000046], [85.93898066000008, 24.96970964600007], [85.93853126100004, 24.96725635400003], [85.93773857800005, 24.963622061000024], [85.93719724300007, 24.961561852000045], [85.93647173200003, 24.960202053000046], [85.93627257500003, 24.959106175000045], [85.93612239700008, 24.957919778000075], [85.93366973600007, 24.958504278000078], [85.93140998800004, 24.959042724000028], [85.92847178500006, 24.95957972000008], [85.92573144900007, 24.960075070000073], [85.92375898300008, 24.960657295000033], [85.92357373100003, 24.959380744000043], [85.92362922400008, 24.95865386500003], [85.92301629900004, 24.957934374000047], [85.92227894100006, 24.95709821400004], [85.92166471700006, 24.957046855000044], [85.92129431700005, 24.956326260000026], [85.92159347100005, 24.954876068000033], [85.92024380200007, 24.953428729000052], [85.91913422000005, 24.95241821600007], [85.91692442000004, 24.95302391900003], [85.91455006900009, 24.953449774000035], [85.91207491200004, 24.95351947000006], [85.91076810500005, 24.953583948000073], [85.90923794500009, 24.953532023000037], [85.90858281700008, 24.953237], [85.90822448300008, 24.952882067000075], [85.90779077800005, 24.951398941000036], [85.90742849800006, 24.950303743000063], [85.90690627500004, 24.949859159000027], [85.90638096800006, 24.94977577800006], [85.90377834500003, 24.95008056000006], [85.90065156200006, 24.950509531000023], [85.89831234000007, 24.950998197000047], [85.89723490100005, 24.951361331000044], [85.89703719500005, 24.95142796400006], [85.89703223700008, 24.95160854100004], [85.89695402000007, 24.954457002000026], [85.89699815000006, 24.957219139000074], [85.89716672000003, 24.95819782800004], [85.89759903500004, 24.959441750000053], [85.89808948500007, 24.959498299000074], [85.89939062400003, 24.959284978000028], [85.90046362400005, 24.959009508000065], [85.90160204600005, 24.95894584000007], [85.90209324900007, 24.959124245000055], [85.90255009900005, 24.959388542000056], [85.90278215600006, 24.96018642300004], [85.90278492800007, 24.960723565000023], [85.90298455700008, 24.961020633000032], [85.90184679200007, 24.962153990000047], [85.90032868300005, 24.964417453000067], [85.89984853600004, 24.965398985000036], [85.89978859600006, 24.96623879400005], [85.90132189900004, 24.966854941000065], [85.90233554100007, 24.967505026000026], [85.90279723700007, 24.968662952000045], [85.90283545300008, 24.96934440600006], [85.90358643900004, 24.969963979000056], [85.90388604900005, 24.971361845000047], [85.90389470500008, 24.97299573300006], [85.90356959300004, 24.97332215700004], [85.90256140200006, 24.973714760000064], [85.90233712700007, 24.974365701000067], [85.90247267300003, 24.974721696000074], [85.90309309300005, 24.974985271000037], [85.90364446900008, 24.975312383000073], [85.90388243900009, 24.976290711000047], [85.90486849300004, 24.97827688500007], [85.90516748600004, 24.97955296500004], [85.90507723400003, 24.980293594000045], [85.90553729100003, 24.98112660700008], [85.90691277100007, 24.982749976000036], [85.90776271700008, 24.983324183000036], [85.90796150500006, 24.983458480000024], [85.90815894400004, 24.983331546000045], [85.90848460900008, 24.983122173000027]]]]}}, {"type": "Feature", "properties": {"OBJECTID": 4986, "GPCODE": "93502", "GPNAME_1": "KOLHANA", "DIST_CEN_C": "37", "BLK_NAME": "ISLAMNAGAR ALIGANJ", "ST_NAME": "BIHAR", "ST_CODE_1": "10", "GPCODE2011": "96056", "REMARKS": "FINALIZED", "MAP_STATUS": "COMPLETED", "BLK_C_2001": "370001", "BLK_C_2011": "01525", "DIST_NAME": "JAMUI", "code2011": 0.0, "Shape_Leng": 0.20679422969, "Shape_Area": 0.00113386984, "Area": 12.6754}, "geometry": {"type": "MultiPolygon", "coordinates": [[[[85.85722413800005, 24.995441105000054], [85.86179043100003, 24.994406767000044], [85.86586868100005, 24.99382578500007], [85.86809353500007, 24.99404221700007], [85.86984182000003, 24.994034962000057], [85.86937870300005, 24.992551869000067], [85.86921078600005, 24.991658924000035], [85.87122391400004, 24.98978352100005], [85.87215190400008, 24.98949798500007], [85.87329404500008, 24.98835584400007], [85.87505503900007, 24.98678235500006], [85.87544791100004, 24.987105642000074], [85.87610188600007, 24.987161574000027], [85.87665918400006, 24.98766481000007], [85.87764099000003, 24.988879299000075], [85.87794936100005, 24.991076130000067], [85.87853567300004, 24.99146188900005], [85.87889604200006, 24.992200550000064], [85.87919534100007, 24.992614548000063], [85.87997834600003, 24.992701487000033], [85.88163633700003, 24.992486821000057], [85.88222543300003, 24.992425699000023], [85.88304021000005, 24.99292777100004], [85.88415633300008, 24.994227398000078], [85.88484006400006, 24.99428317400003], [85.88702518800005, 24.994454413000028], [85.88946607500003, 24.99429496600004], [85.89194385800005, 24.993602731000067], [85.89398908300006, 24.992610012000057], [85.89460518400006, 24.99204309600003], [85.89449952200005, 24.990770687000065], [85.89387398400004, 24.989523176000034], [85.89301913600008, 24.988014822000025], [85.89255809200006, 24.98697414000003], [85.89255459300006, 24.986292565000042], [85.89323014000007, 24.98477761500004], [85.89423355700006, 24.983464368000057], [85.89508584100008, 24.98354637500006], [85.89580574300004, 24.983899886000074], [85.89623863700007, 24.985233979000043], [85.89663312000005, 24.985855212000047], [85.89793673300005, 24.98605716800006], [85.89992040700008, 24.985633251000024], [85.90314316700005, 24.98446367500003], [85.90385952800005, 24.984130965000077], [85.90405095600005, 24.983805137000047], [85.90408325900006, 24.983358150000072], [85.90381894300003, 24.983002748000047], [85.90345886400007, 24.982349905000035], [85.90325620200008, 24.98149323100006], [85.90328823400006, 24.98098756400003], [85.90386522400007, 24.979585782000072], [85.90422412700008, 24.979110281000033], [85.90474631600006, 24.97952317900007], [85.90507723400003, 24.980293594000045], [85.90516748600004, 24.97955296500004], [85.90486849300004, 24.97827688500007], [85.90388243900009, 24.976290711000047], [85.90364446900008, 24.975312383000073], [85.90309309300005, 24.974985271000037], [85.90247267300003, 24.974721696000074], [85.90233712700007, 24.974365701000067], [85.90256140200006, 24.973714760000064], [85.90356959300004, 24.97332215700004], [85.90389470500008, 24.97299573300006], [85.90388604900005, 24.971361845000047], [85.90358643900004, 24.969963979000056], [85.90283545300008, 24.96934440600006], [85.90279723700007, 24.968662952000045], [85.90233554100007, 24.967505026000026], [85.90132189900004, 24.966854941000065], [85.89978859600006, 24.96623879400005], [85.89731552000006, 24.966755024000065], [85.89597950700005, 24.96694137000003], [85.89486892800005, 24.966675373000044], [85.89300239500005, 24.964814862000026], [85.89166020800008, 24.963809533000074], [85.88944047200005, 24.962573314000053], [85.88888938900004, 24.963257243000044], [85.88879574400005, 24.964295777000075], [85.88919434400003, 24.965720392000037], [85.88932629800007, 24.966342715000053], [85.88929930300003, 24.96687997600003], [85.88881127000008, 24.967297345000077], [85.88754010500008, 24.967569042000036], [85.88607289200007, 24.967277417000048], [85.88464201400006, 24.967315161000045], [85.88405542900006, 24.96782315300004], [85.88213648100003, 24.968278135000048], [85.88151791900003, 24.96836655000004], [85.87924243400005, 24.968822999000054], [85.87696059900009, 24.969008685000063], [85.87454762200008, 24.968720865000023], [85.87343845000004, 24.968725540000037], [85.87276627400007, 24.96897610900004], [85.87261798000003, 24.969031388000076], [85.87270945600005, 24.969166375000043], [85.87524724200006, 24.972911113000066], [85.87718166800005, 24.975489281000023], [85.87846491900007, 24.97756021500004], [85.87887117300005, 24.97855598800004], [85.87892630700009, 24.97869112400008], [85.87877741200003, 24.978621420000025], [85.87791358500004, 24.978217017000077], [85.87732465300007, 24.978278120000027], [85.87664190000004, 24.978402860000074], [85.87608878100008, 24.978703068000073], [85.87591128300005, 24.978863844000045], [85.87576335000006, 24.978997840000034], [85.87561458600004, 24.978955683000038], [85.87452356900008, 24.97864650200006], [85.87315366600006, 24.97802931600006], [85.87224011500007, 24.97755923400007], [85.87178316200004, 24.977294853000046], [85.87125886700005, 24.97741437700006], [85.87018577800006, 24.97771672500005], [85.86953657500004, 24.977629171000046], [85.86891595400004, 24.97730678100004], [85.86825435500003, 24.97671377900008], [85.86792428800004, 24.97606515500007], [85.86739973300007, 24.975146498000072], [85.86733202100004, 24.97449233100008], [85.86765560600008, 24.973836478000067], [85.86807340500008, 24.973211872000036], [85.86820425400003, 24.97264718100007], [85.86813094200005, 24.971844059000034], [85.86724851600007, 24.970660561000045], [85.86658745000005, 24.96917833400005], [85.86605809100007, 24.96728027100005], [85.86449547600006, 24.96770196800003], [85.86221537400007, 24.968244026000036], [85.86088447200007, 24.96846156600003], [85.86079306400006, 24.970005625000056], [85.86092549300008, 24.970745328000078], [85.86057021200008, 24.97101309900006], [85.85952709200006, 24.971346855000036], [85.85571581600004, 24.971687429000042], [85.85213217600005, 24.971999845000028], [85.85151345200006, 24.972061057000076], [85.85115619600003, 24.971913537000034], [85.85153323200007, 24.973210739000024], [85.85172358900007, 24.97387698800003], [85.85143805300004, 24.974495648000072], [85.85158082100008, 24.975447432000067], [85.85181876700005, 24.97635162800003], [85.85213748100006, 24.977158908000035], [85.85207503700008, 24.977547317000074], [85.85152684900004, 24.978885604000027], [85.85192884200006, 24.98108215800005], [85.85157823400004, 24.982315757000038], [85.85185415900008, 24.985076982000066], [85.85157432800008, 24.987605791000078], [85.85082433900004, 24.988172994000024], [85.85101459700007, 24.989607595000052], [85.85127035400006, 24.991294649000054], [85.85197743400005, 24.992328459000078], [85.85288662100004, 24.993657755000072], [85.85306144500004, 24.993862395000065], [85.85413195500007, 24.99511512400005], [85.85499761700004, 24.995901487000026], [85.85598580100003, 24.99569715900003], [85.85722413800005, 24.995441105000054]]]]}}]}