{"type": "FeatureCollection", "features": [{"type": "Feature", "properties": {"OBJECTID": 8973, "GPCODE": "94086", "GPNAME_1": "MURADPUR", "DIST_CEN_C": "10", "BLK_NAME": "SAMELI", "ST_NAME": "BIHAR", "ST_CODE_1": "10", "GPCODE2011": "96640", "REMARKS": "FINALIZED", "MAP_STATUS": "COMPLETED", "BLK_C_2001": "100013", "BLK_C_2011": "01154", "DIST_NAME": "KATIHAR", "code2011": 0.0, "Shape_Leng": 0.25409115108, "Shape_Area": 0.00185270616, "Area": 20.6205}, "geometry": {"type": "MultiPolygon", "coordinates": [[[[87.22786083400007, 25.508646131000035], [87.22840668100008, 25.507215020000046], [87.22913158600005, 25.505797350000023], [87.22913160300004, 25.505797315000052], [87.23127100500005, 25.506684904000053], [87.23259925500008, 25.50709461100007], [87.23443983900006, 25.507490459000053], [87.23564863000007, 25.507728781000026], [87.23661884900008, 25.50807562800003], [87.23685240100008, 25.507849743000065], [87.23673199400008, 25.50662339300004], [87.23673187600008, 25.506622194000045], [87.23674536900006, 25.505123639000033], [87.23693189700003, 25.50381875000005], [87.23693313300004, 25.503810104000024], [87.23680831400009, 25.503241545000037], [87.23656144900008, 25.50239325900003], [87.23655878400007, 25.502384103000054], [87.23686447800009, 25.50179677400007], [87.23686665400004, 25.50179259300006], [87.23658056400006, 25.500465406000046], [87.23559630200003, 25.49908517700004], [87.23551009800008, 25.49896429100005], [87.23550074200006, 25.498951171000044], [87.23564965200006, 25.498933364000038], [87.23665229900007, 25.498813737000035], [87.23749373800007, 25.498865525000042], [87.23859382300003, 25.499220582000078], [87.23985214100009, 25.49982157200003], [87.24085345800006, 25.49991177100003], [87.24241877800006, 25.49982735800006], [87.24345413600008, 25.499574159000076], [87.24496451500005, 25.497370018000026], [87.24640293600004, 25.495022327000072], [87.24707493300008, 25.494453773000032], [87.24754839400003, 25.493999313000074], [87.24878706400006, 25.493953840000074], [87.24884054200004, 25.494353801000045], [87.24984512900005, 25.494359100000054], [87.25026285600006, 25.494261178000045], [87.25038231400003, 25.494233175000033], [87.25073091200005, 25.49375961800007], [87.25133437700003, 25.492045009000037], [87.25149934000007, 25.49120561700005], [87.25158645300007, 25.49075440400003], [87.25170598500006, 25.490135274000068], [87.25170930600007, 25.49011807100004], [87.25286423500006, 25.488882256000068], [87.25378924200004, 25.488815314000078], [87.25424155600007, 25.48903689100007], [87.25471823100008, 25.489705283000035], [87.25561727500008, 25.490775701000075], [87.25654097800003, 25.49205829400006], [87.25698346400009, 25.49220309800006], [87.25759035700008, 25.492023018000054], [87.25840096700006, 25.491983058000073], [87.25898802500006, 25.491748793000056], [87.26052482900008, 25.491528863000042], [87.26106207300006, 25.49137584600004], [87.26238820800006, 25.493119040000067], [87.26347647700004, 25.494049696000047], [87.26388914700004, 25.494153764000032], [87.26428691200005, 25.49419927400004], [87.26507815800005, 25.493554372000062], [87.26568520600006, 25.493225333000055], [87.26606838400005, 25.492932305000068], [87.26667531400005, 25.49266196900004], [87.26799792600008, 25.492924655000024], [87.26905668500007, 25.49347150600005], [87.26974754800005, 25.493905331000065], [87.27181137200006, 25.493933956000035], [87.27300998600003, 25.493776715000024], [87.27403450600008, 25.493605923000075], [87.27747099200008, 25.493436704000032], [87.27855520900005, 25.493333670000027], [87.27956489100006, 25.49316280000005], [87.28122591900006, 25.493091652000032], [87.28200169300004, 25.49304251500007], [87.28354361300006, 25.49270950400006], [87.28421001700008, 25.49265120800004], [87.28452848900008, 25.49238513100005], [87.28549433400008, 25.49086014100004], [87.28560465000004, 25.489573966000023], [87.28597821200003, 25.488824898000075], [87.28712273300005, 25.487764895000055], [87.28783432900008, 25.486993579000057], [87.28783434000007, 25.48699354100006], [87.28823309700005, 25.485684862000028], [87.28823310400008, 25.485684822000053], [87.28809960600006, 25.484574500000065], [87.28760301800008, 25.483648920000064], [87.28706628600008, 25.483165631000077], [87.28633066000003, 25.482740987000057], [87.28504314500003, 25.48229333000006], [87.28431244600006, 25.481922817000054], [87.28392482200007, 25.48156143800003], [87.28364690500007, 25.480807583000058], [87.28364689000006, 25.480807540000058], [87.28018756400007, 25.48083308300005], [87.27519914200008, 25.479346375000034], [87.27226306100005, 25.478949256000078], [87.26964370600007, 25.477381851000075], [87.26780784000005, 25.477112916000067], [87.26469642300003, 25.476887248000025], [87.26311603500005, 25.473959363000063], [87.26270392200007, 25.47281386700007], [87.26100950100005, 25.47154622000005], [87.25847890300008, 25.472128931000043], [87.25818780800006, 25.46948856700004], [87.25794249400008, 25.467018623000058], [87.25794249100005, 25.467018582000037], [87.25618230500004, 25.467184171000042], [87.25477512900005, 25.467318481000063], [87.25361637800006, 25.467574781000053], [87.25315993000004, 25.46659948300004], [87.25246851100007, 25.466928374000076], [87.25219449700006, 25.46746978500005], [87.25197051200007, 25.467785567000078], [87.25161182300008, 25.468516444000045], [87.25126814800007, 25.469039731000066], [87.25086508300006, 25.46937337600008], [87.25037210200009, 25.470167294000078], [87.25017785600005, 25.470492096000044], [87.24886540700004, 25.470328503000076], [87.24754838400008, 25.470309702000065], [87.24531061100004, 25.47015485600008], [87.24408976300003, 25.46849303700003], [87.24393477500007, 25.46633405600005], [87.24393477300003, 25.46633401400004], [87.24362310900005, 25.465526098000055], [87.24302740700006, 25.465588297000068], [87.24125610000004, 25.46642447200003], [87.23943755500005, 25.46801471400005], [87.23826487400004, 25.469275844000038], [87.23874304100008, 25.469323556000063], [87.23970463800003, 25.469743582000035], [87.23970463600006, 25.469743624000046], [87.23965841800003, 25.47055641600008], [87.23919795000006, 25.471586810000076], [87.23771626200005, 25.472202440000046], [87.23594835900008, 25.473255039000037], [87.23434557400003, 25.473763950000034], [87.23213157900005, 25.473089994000077], [87.23097463300007, 25.473191403000044], [87.22910269100004, 25.47427236300007], [87.22795005900008, 25.47585352400006], [87.22854662600008, 25.47766822500006], [87.22869154700004, 25.478618293000068], [87.22847365100006, 25.479279878000057], [87.22102865000005, 25.478337856000053], [87.21945293900006, 25.478688317000035], [87.21522278200007, 25.478496939000024], [87.21482004500007, 25.478502313000035], [87.21245005600008, 25.480162734000032], [87.21189432400007, 25.480655768000076], [87.20934683700006, 25.482915842000068], [87.20934683600007, 25.482915883000032], [87.20935590900007, 25.48347063600005], [87.20935590500005, 25.48347067800006], [87.20906212500006, 25.484986], [87.20906212500006, 25.484986040000024], [87.21084350300004, 25.49239318800005], [87.21210717200006, 25.494560118000038], [87.21227369600007, 25.496538472000054], [87.21227369100006, 25.49653851100004], [87.21171305100006, 25.49815221500006], [87.20751219000005, 25.50046532400006], [87.20747861700005, 25.50121630500007], [87.20747861700005, 25.501216347000025], [87.20750488500005, 25.503274472000044], [87.20750488800007, 25.503274514000054], [87.20771005900008, 25.505030087000023], [87.20771006300004, 25.505030128000044], [87.20778551300003, 25.506185467000023], [87.20778551700005, 25.506185509000034], [87.20802529700006, 25.50780566900005], [87.20802530400005, 25.507805708000035], [87.20815502000005, 25.50837880800003], [87.20926437300005, 25.508635498000046], [87.21029868900007, 25.508431785000028], [87.21258161300005, 25.50847107100003], [87.21546134200008, 25.508478327000034], [87.21669473200006, 25.508324102000074], [87.22023596100007, 25.50835348100003], [87.22023596600008, 25.50835352100006], [87.22064513900006, 25.510032226000078], [87.22064514700008, 25.510032265000063], [87.22097042200005, 25.512464701000056], [87.22097042700005, 25.512464742000077], [87.22112590900008, 25.514094009000075], [87.22198634600005, 25.51404377600005], [87.22310003200005, 25.513474316000043], [87.22394408600007, 25.51169096700005], [87.22471002300006, 25.51163631600008], [87.22477936900003, 25.511320366000064], [87.22477937600007, 25.511320325000042], [87.22506267300008, 25.511126054000044], [87.22638058700005, 25.51090395600005], [87.22756832700009, 25.509788334000064], [87.22786082300007, 25.508646170000077], [87.22786083400007, 25.508646131000035]]]]}}, {"type": "Feature", "properties": {"OBJECTID": 4316, "GPCODE": "94083", "GPNAME_1": "DUMAR", "DIST_CEN_C": "10", "BLK_NAME": "SAMELI", "ST_NAME": "BIHAR", "ST_CODE_1": "10", "GPCODE2011": "96637", "REMARKS": "FINALIZED", "MAP_STATUS": "COMPLETED", "BLK_C_2001": "100013", "BLK_C_2011": "01154", "DIST_NAME": "KATIHAR", "code2011": 0.0, "Shape_Leng": 0.1800898981, "Shape_Area": 0.00097262477, "Area": 10.8225}, "geometry": {"type": "MultiPolygon", "coordinates": [[[[87.34069202600006, 25.541066627000077], [87.34014023500004, 25.539509354000074], [87.34160793000007, 25.539031308000062], [87.34350847900004, 25.53872029400003], [87.34479702500005, 25.538327828000035], [87.34607061900005, 25.53807991000008], [87.34800626400005, 25.53636515200003], [87.34880239900008, 25.53526399100008], [87.34914088800008, 25.53423951900004], [87.34917083600004, 25.533639193000056], [87.35008145800003, 25.53253352100006], [87.35151421800003, 25.532226869000056], [87.35088786900008, 25.529803035000043], [87.34929178800007, 25.52600245700006], [87.34848131500007, 25.524359399000048], [87.34745195400006, 25.523280459000034], [87.34668595300008, 25.52271164900003], [87.34408447500005, 25.522674933000076], [87.34263694600008, 25.522954484000024], [87.34161730700004, 25.52258417400003], [87.34039371600005, 25.522407817000044], [87.33934933000006, 25.52168092100004], [87.33825039300007, 25.52047103800004], [87.33694760000003, 25.519094129000052], [87.33541137900005, 25.516755742000043], [87.33521259900004, 25.516042559000027], [87.33523773900004, 25.515230135000024], [87.33550178400003, 25.513727234000044], [87.33560654500008, 25.512792902000058], [87.33591536300008, 25.51154278100006], [87.33609470500005, 25.51064463800003], [87.33635386300006, 25.509019857000055], [87.33629947000009, 25.507945600000028], [87.33590163100007, 25.50754833600007], [87.33491194000004, 25.50752546800004], [87.33326053600007, 25.507926733000033], [87.33290813800005, 25.505733058000033], [87.33207827600006, 25.503931952000073], [87.33011956400009, 25.50165660400006], [87.32871116000007, 25.500465791000067], [87.32802892800004, 25.500096504000055], [87.32739748700004, 25.49965846300006], [87.32615951800005, 25.498800458000062], [87.32548330900005, 25.49822251300003], [87.32467820500005, 25.49704878800003], [87.32434536000005, 25.496087293000073], [87.32418175800007, 25.494818946000066], [87.32397812300007, 25.494173430000046], [87.32350607400008, 25.493252511000037], [87.32316819800008, 25.492498691000037], [87.32217314100006, 25.493793636000078], [87.32095441300004, 25.494555968000043], [87.32053148700004, 25.494925934000037], [87.31937271500004, 25.495173778000037], [87.31833327700008, 25.495308714000032], [87.31723899600007, 25.495624273000033], [87.31652776600004, 25.49593539500006], [87.31585612800006, 25.49638647200004], [87.31546283200004, 25.497352189000026], [87.31502960000006, 25.49853911500003], [87.31471057200008, 25.500055452000026], [87.31458110500006, 25.500402990000055], [87.31460052100005, 25.50046897800007], [87.31478677300004, 25.50145703100003], [87.31505970000006, 25.50272086800004], [87.31645239800008, 25.50245520800007], [87.31838237500006, 25.501810498000054], [87.31918268400005, 25.50255549800005], [87.31904310600004, 25.503417555000055], [87.31741604700005, 25.504816090000077], [87.31590841600007, 25.50630048100004], [87.31527134000004, 25.507238983000036], [87.31511673700004, 25.508137128000044], [87.31589195900006, 25.50945081100008], [87.31626933400008, 25.510832097000048], [87.31693011500005, 25.512366996000026], [87.31465168500006, 25.51273144000004], [87.31462205600008, 25.51273617800007], [87.31446733600006, 25.513882495000075], [87.31480479700008, 25.515363069000045], [87.31511247900005, 25.516866148000076], [87.31528591100005, 25.518269948000068], [87.31616121500008, 25.518432791000066], [87.31799637100005, 25.519042824000053], [87.31901081200004, 25.519675155000073], [87.31939346500008, 25.520514775000038], [87.31990050700006, 25.52127775200006], [87.32058135500006, 25.522496611000065], [87.32092911800004, 25.523552868000024], [87.32098824200006, 25.52474899500004], [87.32065977900004, 25.525267928000062], [87.32058463200008, 25.526324050000028], [87.32073305000006, 25.52820618900006], [87.32065793000004, 25.529478960000063], [87.32020992100007, 25.530006940000078], [87.31960803600003, 25.530065379000064], [87.31884217900006, 25.52950988500004], [87.31829025300004, 25.528972588000045], [87.31727080700006, 25.528376429000048], [87.31633565300007, 25.528159370000026], [87.31576862500003, 25.528127591000043], [87.31503242900004, 25.52814083100003], [87.31438592100005, 25.527657651000027], [87.31384938700006, 25.526303321000057], [87.31298421500009, 25.52566207900003], [87.31184534100004, 25.525129019000076], [87.31089028700006, 25.524984192000034], [87.31017887900003, 25.525245608000034], [87.30991484400005, 25.52589547200006], [87.31002388300004, 25.52678016300007], [87.31081930200008, 25.527556763000064], [87.31198336800009, 25.52761599100006], [87.31297810300003, 25.527756362000048], [87.31343059400007, 25.528122075000056], [87.31375358000008, 25.52887595800007], [87.31399174100005, 25.53015791400003], [87.31420009800007, 25.531196054000077], [87.31465249300004, 25.531891399000074], [87.31493091000004, 25.532257021000078], [87.31551777900006, 25.532546172000025], [87.31573646300006, 25.532893783000077], [87.31548234600007, 25.53369708100007], [87.31606878600007, 25.53499265000005], [87.31642615000004, 25.53659059100005], [87.31661971600005, 25.537538468000037], [87.31772931900008, 25.537250045000064], [87.31930630800008, 25.537246159000063], [87.32130126700008, 25.537043851000078], [87.32296795000008, 25.536769098000036], [87.32595279800006, 25.53690105900006], [87.32858426500007, 25.53747512600006], [87.33055912500004, 25.537963137000077], [87.33303125900005, 25.538839455000073], [87.33463787000005, 25.53981940700004], [87.33539412300007, 25.539666070000067], [87.33724467400003, 25.53990580800007], [87.34069202600006, 25.541066627000077]]]]}}, {"type": "Feature", "properties": {"OBJECTID": 4318, "GPCODE": "94085", "GPNAME_1": "MALHORIA", "DIST_CEN_C": "10", "BLK_NAME": "SAMELI", "ST_NAME": "BIHAR", "ST_CODE_1": "10", "GPCODE2011": "96639", "REMARKS": "FINALIZED", "MAP_STATUS": "COMPLETED", "BLK_C_2001": "100013", "BLK_C_2011": "01154", "DIST_NAME": "KATIHAR", "code2011": 0.0, "Shape_Leng": 0.26272202509, "Shape_Area": 0.00148418564, "Area": 16.515}, "geometry": {"type": "MultiPolygon", "coordinates": [[[[87.29913495900007, 25.534696075000056], [87.29884729800006, 25.533391462000054], [87.30041988900007, 25.53234517800007], [87.30179312200005, 25.531903562000025], [87.30310171900004, 25.531543121000027], [87.30389757500006, 25.531548048000047], [87.30444954100005, 25.53190938000006], [87.30449887400005, 25.532631560000027], [87.30361725600005, 25.534657656000036], [87.30366676400007, 25.535027805000027], [87.30487068500008, 25.535010294000074], [87.30567677200008, 25.534694778000073], [87.30640305400004, 25.534740198000065], [87.30694515400006, 25.534907453000073], [87.30804914200007, 25.53568879200003], [87.30866578600006, 25.53609535100003], [87.30933232100006, 25.536312303000045], [87.30950160300006, 25.53596032400003], [87.30901459200004, 25.534958070000073], [87.30776687000008, 25.533377818000076], [87.30752402600007, 25.53170774800003], [87.30839497200003, 25.530859560000067], [87.30883291100008, 25.530516764000026], [87.30966382900004, 25.530241801000045], [87.31042490700008, 25.530368500000066], [87.31109607300004, 25.53103225900003], [87.31195110700008, 25.532269387000042], [87.31304485500004, 25.533614873000033], [87.31365160100006, 25.533976172000052], [87.31439774800003, 25.534026147000077], [87.31548234600007, 25.53369708100007], [87.31573646300006, 25.532893783000077], [87.31551777900006, 25.532546172000025], [87.31493091000004, 25.532257021000078], [87.31465249300004, 25.531891399000074], [87.31420009800007, 25.531196054000077], [87.31399174100005, 25.53015791400003], [87.31375358000008, 25.52887595800007], [87.31343059400007, 25.528122075000056], [87.31297810300003, 25.527756362000048], [87.31198336800009, 25.52761599100006], [87.31081930200008, 25.527556763000064], [87.31002388300004, 25.52678016300007], [87.30991484400005, 25.52589547200006], [87.31017887900003, 25.525245608000034], [87.31089028700006, 25.524984192000034], [87.31184534100004, 25.525129019000076], [87.31298421500009, 25.52566207900003], [87.31384938700006, 25.526303321000057], [87.31438592100005, 25.527657651000027], [87.31503242900004, 25.52814083100003], [87.31576862500003, 25.528127591000043], [87.31633565300007, 25.528159370000026], [87.31727080700006, 25.528376429000048], [87.31829025300004, 25.528972588000045], [87.31884217900006, 25.52950988500004], [87.31960803600003, 25.530065379000064], [87.32020992100007, 25.530006940000078], [87.32065793000004, 25.529478960000063], [87.32073305000006, 25.52820618900006], [87.32058463200008, 25.526324050000028], [87.32065977900004, 25.525267928000062], [87.32098824200006, 25.52474899500004], [87.32092911800004, 25.523552868000024], [87.32058135500006, 25.522496611000065], [87.31990050700006, 25.52127775200006], [87.31939346500008, 25.520514775000038], [87.31901081200004, 25.519675155000073], [87.31799637100005, 25.519042824000053], [87.31616121500008, 25.518432791000066], [87.31528591100005, 25.518269948000068], [87.31511247900005, 25.516866148000076], [87.31480479700008, 25.515363069000045], [87.31446733600006, 25.513882495000075], [87.31462205600008, 25.51273617800007], [87.31465168500006, 25.51273144000004], [87.31693011500005, 25.512366996000026], [87.31626933400008, 25.510832097000048], [87.31589195900006, 25.50945081100008], [87.31511673700004, 25.508137128000044], [87.31527134000004, 25.507238983000036], [87.31590841600007, 25.50630048100004], [87.31741604700005, 25.504816090000077], [87.31904310600004, 25.503417555000055], [87.31918268400005, 25.50255549800005], [87.31838237500006, 25.501810498000054], [87.31645239800008, 25.50245520800007], [87.31505970000006, 25.50272086800004], [87.31478677300004, 25.50145703100003], [87.31460052100005, 25.50046897800007], [87.31458110500006, 25.500402990000055], [87.31471057200008, 25.500055452000026], [87.31502960000006, 25.49853911500003], [87.31546283200004, 25.497352189000026], [87.31585612800006, 25.49638647200004], [87.31652776600004, 25.49593539500006], [87.31723899600007, 25.495624273000033], [87.31833327700008, 25.495308714000032], [87.31937271500004, 25.495173778000037], [87.32053148700004, 25.494925934000037], [87.32095441300004, 25.494555968000043], [87.32217314100006, 25.493793636000078], [87.32316819800008, 25.492498691000037], [87.32311362900003, 25.492322578000028], [87.32218884200006, 25.491780685000037], [87.32124912900008, 25.491518537000047], [87.32038886400005, 25.49134220800005], [87.31940938700006, 25.490867942000023], [87.31883272500005, 25.490601364000042], [87.31819133600004, 25.490280701000074], [87.31720662300006, 25.49042023800007], [87.31675398500005, 25.490726996000035], [87.31632608000007, 25.49119616100006], [87.31597755700005, 25.492085218000057], [87.31538037200005, 25.49289283300004], [87.31427097900007, 25.49376348900006], [87.31378813100008, 25.494688547000067], [87.31304670300005, 25.49571730300005], [87.31215613500007, 25.496475240000052], [87.31110157500007, 25.496835881000038], [87.31035562200003, 25.496916749000036], [87.30981861000004, 25.496754062000036], [87.30887883100007, 25.49643765600007], [87.30739732400008, 25.49552979200007], [87.30642299500005, 25.494852278000053], [87.30582669000006, 25.49403964100003], [87.30578213600006, 25.493583731000058], [87.30421104300007, 25.49307742800005], [87.30289318700005, 25.493045210000048], [87.30176449200007, 25.49283709100007], [87.30052119900006, 25.49289957900004], [87.29993936500006, 25.492881256000032], [87.29915870500008, 25.49273645100004], [87.29831337900004, 25.492492303000063], [87.29762746500006, 25.492013488000055], [87.296852, 25.49153464500006], [87.29630530500003, 25.491055910000057], [87.29539058000006, 25.490563429000076], [87.29427681300007, 25.490260465000063], [87.29313824800005, 25.49004768100008], [87.29326172000003, 25.491239329000052], [87.29308230000004, 25.49183497300004], [87.29281315000009, 25.49276014000003], [87.29228063800008, 25.49343680000004], [87.29166370000007, 25.493756919000077], [87.29089770500008, 25.494085978000044], [87.29087668400007, 25.495665657000075], [87.29097084900008, 25.49607196100004], [87.29134311200005, 25.497114786000054], [87.29156125100008, 25.498175545000038], [87.29153596000003, 25.49877131100004], [87.29172955800004, 25.499380746000043], [87.29191820100004, 25.499890889000028], [87.29190296800004, 25.50036933000007], [87.29179614500003, 25.500467151000066], [87.29148711200008, 25.500786615000038], [87.29180872000006, 25.503215044000058], [87.29178281800006, 25.50470905800006], [87.29175209200008, 25.505972729000064], [87.29143345600005, 25.50648708600005], [87.29144229000008, 25.50817519800006], [87.29089417400007, 25.50964177700007], [87.29075836100003, 25.511790077000057], [87.29059833200006, 25.513094376000026], [87.29070234700004, 25.51379399800004], [87.29106508100006, 25.51424564000007], [87.29181080100005, 25.51478313700005], [87.29214373800005, 25.51530685800003], [87.29121369400008, 25.515139359000045], [87.28838854200006, 25.51508357000006], [87.28644871000006, 25.515091389000077], [87.28413569900005, 25.51527954000005], [87.28407518200004, 25.516462028000035], [87.28397502800004, 25.517278963000024], [87.28386947600006, 25.51886313700004], [87.28094943400004, 25.519208750000075], [87.27912861300007, 25.519609355000057], [87.27777517200008, 25.52010486300003], [87.27657681600004, 25.51962567000004], [87.27620319600004, 25.52035663600003], [87.27527198300004, 25.521637818000045], [87.27356957400008, 25.52312157800003], [87.27166850200007, 25.52421699200005], [87.27104672000007, 25.52420752200004], [87.26974282000003, 25.524928800000055], [87.26972327100003, 25.524941864000027], [87.26831935600006, 25.52588005700005], [87.26730374400006, 25.526795608000043], [87.26659171400007, 25.52766163900003], [87.26659781700005, 25.52766849300008], [87.26728739900005, 25.528443028000027], [87.26747095600007, 25.529025397000055], [87.26776883400004, 25.52969806400006], [87.27023604800007, 25.529871368000045], [87.27109164400008, 25.529844912000044], [87.27297217000006, 25.529674756000077], [87.27296117700007, 25.530956546000027], [87.27242269400006, 25.53233724200004], [87.27265102200005, 25.532991872000025], [87.27317274100005, 25.53371891100005], [87.27401325700004, 25.533949696000036], [87.27490872700008, 25.53390061700003], [87.27623746700004, 25.53337349800006], [87.27799895300006, 25.532801465000034], [87.27898885700006, 25.532860817000028], [87.27987924000007, 25.53294713400004], [87.28031172000004, 25.53327683300006], [87.28075922900007, 25.533656325000038], [87.28224153200006, 25.533815205000053], [87.28277883900006, 25.53373884100006], [87.28360442000007, 25.53407781800007], [87.28400191800006, 25.534723478000046], [87.28412590200008, 25.535125337000068], [87.28361786500005, 25.53601412100005], [87.28275138000004, 25.53718254300003], [87.28235754200006, 25.538193315000058], [87.28187896500003, 25.539574178000066], [87.28163439300005, 25.54066631300003], [87.28237048300008, 25.54081570200003], [87.28358384400008, 25.54162884300007], [87.28416505200005, 25.542766628000038], [87.28530787700004, 25.544703625000068], [87.28582983000007, 25.545254602000057], [87.28665546900004, 25.54562516900006], [87.28741673500008, 25.54558499600006], [87.28893943900005, 25.545157128000028], [87.29074624300006, 25.543930491000026], [87.29141827200004, 25.543357709000077], [87.29243818000003, 25.543304066000076], [87.29370201700004, 25.542993368000054], [87.29470225700004, 25.54263284900003], [87.29564804100005, 25.54180288300006], [87.29646470600005, 25.540679488000023], [87.29674871200007, 25.539984579000077], [87.29831672800003, 25.538486903000035], [87.29912336200005, 25.53744468700006], [87.29932825200007, 25.53582450700003], [87.29913495900007, 25.534696075000056]]]]}}, {"type": "Feature", "properties": {"OBJECTID": 4333, "GPCODE": "94082", "GPNAME_1": "CHHOHAR", "DIST_CEN_C": "10", "BLK_NAME": "SAMELI", "ST_NAME": "BIHAR", "ST_CODE_1": "10", "GPCODE2011": "96636", "REMARKS": "FINALIZED", "MAP_STATUS": "COMPLETED", "BLK_C_2001": "100013", "BLK_C_2011": "01154", "DIST_NAME": "KATIHAR", "code2011": 0.0, "Shape_Leng": 0.26540874276, "Shape_Area": 0.00193952939, "Area": 21.5743}, "geometry": {"type": "MultiPolygon", "coordinates": [[[[87.30843313800005, 25.589010967000036], [87.30885625500008, 25.588794490000055], [87.31097172200003, 25.588325995000048], [87.31269379800005, 25.588128217000076], [87.31337081100008, 25.587835077000022], [87.31455534000008, 25.58779493000003], [87.31482428800007, 25.587420477000023], [87.31518819900003, 25.586215517000028], [87.31425263800008, 25.586156489000075], [87.31416885500005, 25.584414198000047], [87.31589091500007, 25.58426144300006], [87.31721956100006, 25.58447416000007], [87.31812548500005, 25.584090865000064], [87.31937027600009, 25.582890802000065], [87.31966911600006, 25.58227257300007], [87.32049030300004, 25.582345072000066], [87.32321733000003, 25.582774865000033], [87.32500887100008, 25.58291084600006], [87.32674069400008, 25.583114499000033], [87.32759658800006, 25.583272773000033], [87.32847247600006, 25.583453596000027], [87.32989562800003, 25.58388732700007], [87.32917968500004, 25.581887650000056], [87.33148933900009, 25.580624572000033], [87.33180806600006, 25.579861898000047], [87.33168419900005, 25.57836338800007], [87.33229653900008, 25.577754281000068], [87.33310809900007, 25.57647273200007], [87.33227775000006, 25.574522698000067], [87.33238732100006, 25.574256365000053], [87.33270087800008, 25.574044349000076], [87.33302938900005, 25.57402191700004], [87.33462132500006, 25.575281596000025], [87.33535267900004, 25.57588656100006], [87.33607422900008, 25.576144025000076], [87.33679082900005, 25.575954694000075], [87.33758740000007, 25.574763305000033], [87.33816484600004, 25.57436629400007], [87.33945874800008, 25.574014560000023], [87.33986190600007, 25.57372125300003], [87.34021055900007, 25.57276454400005], [87.34001227100003, 25.570178291000047], [87.33946058200007, 25.567677677000063], [87.33824142900005, 25.56757360000006], [87.33682844200007, 25.566972950000036], [87.33617187400006, 25.56612873100005], [87.33582383800007, 25.565176300000076], [87.33564026300007, 25.563429579000058], [87.33522795000005, 25.561253919000023], [87.33469598600004, 25.559985526000048], [87.33389037100005, 25.558653853000067], [87.33370144400004, 25.55807604900008], [87.33323904000008, 25.557236464000027], [87.33311515700007, 25.555810090000023], [87.33346840400003, 25.555697375000022], [87.33455794800005, 25.556000115000074], [87.33581146600005, 25.557119767000074], [87.33658764100005, 25.55709745000007], [87.33673729300006, 25.555874334000066], [87.33649370300003, 25.55529653700006], [87.33675271200008, 25.554452617000038], [87.33725047200005, 25.553717022000058], [87.33712648900007, 25.55236741400006], [87.33719677700003, 25.55036797500003], [87.33665511700008, 25.54818791300005], [87.33664586600008, 25.546016864000023], [87.33637751500004, 25.54501485700007], [87.33524368600007, 25.54326779300004], [87.33481599600003, 25.54275767100006], [87.33464219500007, 25.541809800000067], [87.33463787000005, 25.53981940700004], [87.33303125900005, 25.538839455000073], [87.33055912500004, 25.537963137000077], [87.32858426500007, 25.53747512600006], [87.32595279800006, 25.53690105900006], [87.32296795000008, 25.536769098000036], [87.32130126700008, 25.537043851000078], [87.31930630800008, 25.537246159000063], [87.31772931900008, 25.537250045000064], [87.31661971600005, 25.537538468000037], [87.31642615000004, 25.53659059100005], [87.31606878600007, 25.53499265000005], [87.31548234600007, 25.53369708100007], [87.31439774800003, 25.534026147000077], [87.31365160100006, 25.533976172000052], [87.31304485500004, 25.533614873000033], [87.31195110700008, 25.532269387000042], [87.31109607300004, 25.53103225900003], [87.31042490700008, 25.530368500000066], [87.30966382900004, 25.530241801000045], [87.30883291100008, 25.530516764000026], [87.30839497200003, 25.530859560000067], [87.30752402600007, 25.53170774800003], [87.30776687000008, 25.533377818000076], [87.30901459200004, 25.534958070000073], [87.30950160300006, 25.53596032400003], [87.30933232100006, 25.536312303000045], [87.30866578600006, 25.53609535100003], [87.30804914200007, 25.53568879200003], [87.30694515400006, 25.534907453000073], [87.30640305400004, 25.534740198000065], [87.30567677200008, 25.534694778000073], [87.30487068500008, 25.535010294000074], [87.30366676400007, 25.535027805000027], [87.30361725600005, 25.534657656000036], [87.30449887400005, 25.532631560000027], [87.30444954100005, 25.53190938000006], [87.30389757500006, 25.531548048000047], [87.30310171900004, 25.531543121000027], [87.30179312200005, 25.531903562000025], [87.30041988900007, 25.53234517800007], [87.29884729800006, 25.533391462000054], [87.29913495900007, 25.534696075000056], [87.29932825200007, 25.53582450700003], [87.29912336200005, 25.53744468700006], [87.29831672800003, 25.538486903000035], [87.29674871200007, 25.539984579000077], [87.29646470600005, 25.540679488000023], [87.29564804100005, 25.54180288300006], [87.29470225700004, 25.54263284900003], [87.29370201700004, 25.542993368000054], [87.29406409300003, 25.544699672000036], [87.29435261100008, 25.544853273000058], [87.29469539900003, 25.545503413000063], [87.29687811700006, 25.547625967000045], [87.29742965700007, 25.548885449000068], [87.29756326200004, 25.55005004000003], [87.29828391300003, 25.551255490000074], [87.29815903100007, 25.552013686000066], [87.29784973200003, 25.553304340000068], [87.29773941600007, 25.55473510400003], [87.29779351200006, 25.555651305000026], [87.29747955400006, 25.556450089000066], [87.29591666500005, 25.55728418700005], [87.29513006500008, 25.55805560700003], [87.29403488700007, 25.558849359000078], [87.29510859100003, 25.560348403000035], [87.29527748900006, 25.560872080000024], [87.29531643900003, 25.56219906000007], [87.29543553000008, 25.562578190000067], [87.29573399300006, 25.562785965000046], [87.29626152100008, 25.562723107000068], [87.29825232900004, 25.561884646000067], [87.29850610600005, 25.56193445200006], [87.29887910500008, 25.56221446400008], [87.29912732600008, 25.563144384000054], [87.29902643900004, 25.565283703000034], [87.29904089500008, 25.56616379700006], [87.29934405200004, 25.566714605000072], [87.29950317100008, 25.566958415000045], [87.29959708000007, 25.567946918000075], [87.30048725700004, 25.568746288000057], [87.30251748800003, 25.568878202000064], [87.30390537000005, 25.56967320900003], [87.30418881700007, 25.570029946000034], [87.30442199800007, 25.57128023300004], [87.30623305700004, 25.57177304700008], [87.30855665300004, 25.572360857000035], [87.31064631000004, 25.572926018000032], [87.31117333800006, 25.573806386000058], [87.31096824900004, 25.575950155000044], [87.30977900800008, 25.575737550000042], [87.30942088500007, 25.575358262000066], [87.30751978500007, 25.575542418000055], [87.30635520100003, 25.575817206000067], [87.30506109100008, 25.576118999000073], [87.30451872900005, 25.576127753000037], [87.30425470700004, 25.57655642000003], [87.30423443100005, 25.577143171000046], [87.30363227100008, 25.577206064000052], [87.30340856100008, 25.576750035000032], [87.30275631200004, 25.57730487400005], [87.30171062100004, 25.578392137000037], [87.30108310100007, 25.579177100000038], [87.30060017200003, 25.579519943000037], [87.29922646300008, 25.57983962000003], [87.29841554500007, 25.579347247000044], [87.29792302100003, 25.579085202000044], [87.29648478300004, 25.57916120400006], [87.29448904200007, 25.579381253000065], [87.29277704100008, 25.57954730700004], [87.29223497300006, 25.578960258000052], [87.29180212300008, 25.578775008000036], [87.28967187000006, 25.579139354000063], [87.28736753300007, 25.579417851000073], [87.28630740800008, 25.57954806600003], [87.28702257100008, 25.581683315000078], [87.28790716100008, 25.583398974000033], [87.28851887200005, 25.58397253800007], [87.28950431400006, 25.583991136000066], [87.29026451000004, 25.585684150000077], [87.29045799200009, 25.586668244000066], [87.29056695500003, 25.58731821300006], [87.29222373600004, 25.588113500000077], [87.29318401400008, 25.588610498000037], [87.29414891900007, 25.589455042000054], [87.29444199900007, 25.590353452000045], [87.29513408000008, 25.589974633000054], [87.29552782300004, 25.58901805200003], [87.29676725600007, 25.588878797000064], [87.29888738400007, 25.58884832600006], [87.29945477400008, 25.58892982900005], [87.30120093100004, 25.59014037600008], [87.30307690300003, 25.59077761900005], [87.306446, 25.591293794000023], [87.30711837900003, 25.590427549000026], [87.30767108800006, 25.589922262000073], [87.30843313800005, 25.589010967000036]]]]}}, {"type": "Feature", "properties": {"OBJECTID": 4450, "GPCODE": "94084", "GPNAME_1": "KHAIRA", "DIST_CEN_C": "10", "BLK_NAME": "SAMELI", "ST_NAME": "BIHAR", "ST_CODE_1": "10", "GPCODE2011": "96638", "REMARKS": "FINALIZED", "MAP_STATUS": "COMPLETED", "BLK_C_2001": "100013", "BLK_C_2011": "01154", "DIST_NAME": "KATIHAR", "code2011": 0.0, "Shape_Leng": 0.16201400881, "Shape_Area": 0.00067716584, "Area": 7.53561}, "geometry": {"type": "MultiPolygon", "coordinates": [[[[87.26780781700006, 25.524936429000036], [87.26863861400005, 25.524860279000052], [87.26974282000003, 25.524928800000055], [87.27104672000007, 25.52420752200004], [87.27166850200007, 25.52421699200005], [87.27356957400008, 25.52312157800003], [87.27527198300004, 25.521637818000045], [87.27620319600004, 25.52035663600003], [87.27657681600004, 25.51962567000004], [87.27777517200008, 25.52010486300003], [87.27912861300007, 25.519609355000057], [87.28094943400004, 25.519208750000075], [87.28386947600006, 25.51886313700004], [87.28397502800004, 25.517278963000024], [87.28407518200004, 25.516462028000035], [87.28413569900005, 25.51527954000005], [87.28644871000006, 25.515091389000077], [87.28838854200006, 25.51508357000006], [87.29121369400008, 25.515139359000045], [87.29214373800005, 25.51530685800003], [87.29181080100005, 25.51478313700005], [87.29106508100006, 25.51424564000007], [87.29070234700004, 25.51379399800004], [87.29059833200006, 25.513094376000026], [87.29075836100003, 25.511790077000057], [87.29089417400007, 25.50964177700007], [87.29144229000008, 25.50817519800006], [87.29143345600005, 25.50648708600005], [87.29175209200008, 25.505972729000064], [87.29178281800006, 25.50470905800006], [87.29180872000006, 25.503215044000058], [87.28905304500006, 25.50378671200008], [87.28769029600005, 25.503754258000072], [87.28636270200008, 25.503419536000024], [87.28647263500005, 25.502733542000044], [87.28445336800007, 25.502790968000056], [87.28143954400008, 25.50271231800008], [87.28075829100004, 25.50254487600006], [87.28068914300007, 25.50187687600004], [87.28060154100007, 25.50046643400003], [87.28059863300007, 25.500394046000054], [87.28030060500004, 25.499861288000034], [87.28017683300004, 25.499202210000078], [87.28030248100004, 25.49756390500005], [87.28097371900003, 25.497618470000077], [87.28161951400006, 25.497927772000025], [87.28199287300004, 25.498106592000056], [87.28352418300005, 25.498676267000064], [87.28398642800005, 25.499024097000074], [87.28533394600004, 25.499381493000044], [87.28617435700005, 25.499418137000077], [87.28752220600006, 25.499297038000066], [87.28849705400006, 25.499139636000052], [87.28993444900004, 25.498941874000025], [87.29153596000003, 25.49877131100004], [87.29156125100008, 25.498175545000038], [87.29134311200005, 25.497114786000054], [87.29097084900008, 25.49607196100004], [87.29087668400007, 25.495665657000075], [87.29089770500008, 25.494085978000044], [87.29166370000007, 25.493756919000077], [87.29228063800008, 25.49343680000004], [87.29281315000009, 25.49276014000003], [87.29308230000004, 25.49183497300004], [87.29326172000003, 25.491239329000052], [87.29313824800005, 25.49004768100008], [87.29223321200004, 25.49000204400005], [87.29129823600005, 25.490033099000073], [87.29029346400006, 25.490380108000068], [87.28888600800008, 25.490568823000046], [87.28799083200005, 25.490667563000045], [87.28603137700009, 25.490937205000023], [87.28549433400008, 25.49086014100004], [87.28452848900008, 25.49238513100005], [87.28421001700008, 25.49265120800004], [87.28354361300006, 25.49270950400006], [87.28200169300004, 25.49304251500007], [87.28122591900006, 25.493091652000032], [87.27956489100006, 25.49316280000005], [87.27855520900005, 25.493333670000027], [87.27747099200008, 25.493436704000032], [87.27403450600008, 25.493605923000075], [87.27300998600003, 25.493776715000024], [87.27181137200006, 25.493933956000035], [87.27189545300007, 25.494471006000026], [87.27231635800007, 25.496633280000026], [87.27317945400006, 25.499310412000057], [87.27403959900005, 25.499477975000048], [87.27424321000007, 25.49986173700006], [87.27441676000007, 25.50044863100004], [87.27441772800006, 25.500465634000022], [87.27450270500003, 25.501471002000073], [87.27445652300008, 25.502633796000055], [87.27441630300007, 25.50364645800005], [87.27021882700006, 25.503566787000068], [87.26960390600004, 25.501440518000038], [87.26941073300009, 25.500551264000023], [87.26938412300007, 25.500470863000032], [87.26901170400004, 25.49943832400004], [87.26878289000007, 25.499460751000072], [87.26829060300008, 25.499383649000038], [87.26787814100004, 25.49909444700006], [87.26767520800007, 25.49800659700003], [87.26750142900005, 25.497636358000022], [87.26723710700008, 25.496794092000073], [87.26723366500005, 25.496783125000036], [87.26694995100007, 25.497013070000037], [87.26685510400006, 25.497473395000043], [87.26594898000008, 25.498578460000033], [87.26595049500008, 25.49859089000006], [87.26614150500006, 25.500158343000066], [87.26614028500006, 25.50016260800004], [87.26605223300004, 25.50047040800007], [87.26601395400007, 25.50056684200007], [87.26585917400007, 25.50124819100006], [87.26565949200005, 25.502132720000077], [87.26566039500005, 25.502142996000032], [87.26576776600007, 25.50336498300004], [87.26577189800008, 25.504353404000028], [87.26577183900008, 25.50435363400004], [87.26560714200008, 25.504998726000053], [87.26483060300006, 25.505724858000065], [87.26364658900007, 25.506139147000056], [87.26318370200005, 25.50651339600006], [87.26152635400007, 25.507681151000043], [87.26041660400006, 25.508357336000074], [87.25982936500003, 25.508754074000024], [87.25971435200006, 25.50943548500004], [87.25951380100008, 25.511091814000054], [87.25951438100003, 25.51110130400008], [87.25958245400005, 25.512215713000046], [87.25973524900007, 25.51360144100005], [87.26001240700003, 25.515077554000072], [87.26036970200005, 25.515953508000052], [87.26141253600008, 25.517791232000036], [87.26205319200005, 25.518906598000058], [87.26273340400007, 25.520170870000072], [87.26401510100004, 25.522035913000025], [87.26485484300008, 25.522961789000078], [87.26605771000004, 25.52399183400007], [87.26656007300005, 25.52403732700003], [87.26720606500004, 25.524732855000025], [87.26780781700006, 25.524936429000036]]]]}}, {"type": "Feature", "properties": {"OBJECTID": 8981, "GPCODE": "94080", "GPNAME_1": "CHANDPUR EAST", "DIST_CEN_C": "10", "BLK_NAME": "SAMELI", "ST_NAME": "BIHAR", "ST_CODE_1": "10", "GPCODE2011": "96634", "REMARKS": "FINALIZED", "MAP_STATUS": "COMPLETED", "BLK_C_2001": "100013", "BLK_C_2011": "01154", "DIST_NAME": "KATIHAR", "code2011": 0.0, "Shape_Leng": 0.1429281657, "Shape_Area": 0.00078672258, "Area": 8.75473}, "geometry": {"type": "MultiPolygon", "coordinates": [[[[87.26659171400007, 25.52766163900003], [87.26730374400006, 25.526795608000043], [87.26831935600006, 25.52588005700005], [87.26972327100003, 25.524941864000027], [87.26974282000003, 25.524928800000055], [87.26863861400005, 25.524860279000052], [87.26780781700006, 25.524936429000036], [87.26720606500004, 25.524732855000025], [87.26656007300005, 25.52403732700003], [87.26605771000004, 25.52399183400007], [87.26485484300008, 25.522961789000078], [87.26401510100004, 25.522035913000025], [87.26273340400007, 25.520170870000072], [87.26205319200005, 25.518906598000058], [87.26141253600008, 25.517791232000036], [87.26036970200005, 25.515953508000052], [87.26001240700003, 25.515077554000072], [87.25973524900007, 25.51360144100005], [87.25958245400005, 25.512215713000046], [87.25951438100003, 25.51110130400008], [87.25951380100008, 25.511091814000054], [87.25971435200006, 25.50943548500004], [87.25982936500003, 25.508754074000024], [87.26041660400006, 25.508357336000074], [87.26152635400007, 25.507681151000043], [87.26318370200005, 25.50651339600006], [87.26364658900007, 25.506139147000056], [87.26483060300006, 25.505724858000065], [87.26560714200008, 25.504998726000053], [87.26577183900008, 25.50435363400004], [87.26577189800008, 25.504353404000028], [87.26576776600007, 25.50336498300004], [87.26566039500005, 25.502142996000032], [87.26565949200005, 25.502132720000077], [87.26585917400007, 25.50124819100006], [87.26601395400007, 25.50056684200007], [87.26605223300004, 25.50047040800007], [87.26614028500006, 25.50016260800004], [87.26614150500006, 25.500158343000066], [87.26595049500008, 25.49859089000006], [87.26594898000008, 25.498578460000033], [87.26685510400006, 25.497473395000043], [87.26694995100007, 25.497013070000037], [87.26723366500005, 25.496783125000036], [87.26780107800005, 25.496237348000022], [87.26815460000006, 25.495696063000025], [87.26974754800005, 25.493905331000065], [87.26905668500007, 25.49347150600005], [87.26799792600008, 25.492924655000024], [87.26667531400005, 25.49266196900004], [87.26606838400005, 25.492932305000068], [87.26568520600006, 25.493225333000055], [87.26507815800005, 25.493554372000062], [87.26428691200005, 25.49419927400004], [87.26388914700004, 25.494153764000032], [87.26347647700004, 25.494049696000047], [87.26238820800006, 25.493119040000067], [87.26106207300006, 25.49137584600004], [87.26052482900008, 25.491528863000042], [87.25898802500006, 25.491748793000056], [87.25840096700006, 25.491983058000073], [87.25759035700008, 25.492023018000054], [87.25698346400009, 25.49220309800006], [87.25654097800003, 25.49205829400006], [87.25561727500008, 25.490775701000075], [87.25471823100008, 25.489705283000035], [87.25424155600007, 25.48903689100007], [87.25378924200004, 25.488815314000078], [87.25286423500006, 25.488882256000068], [87.25170930600007, 25.49011807100004], [87.25170598500006, 25.490135274000068], [87.25158645300007, 25.49075440400003], [87.25149934000007, 25.49120561700005], [87.25133437700003, 25.492045009000037], [87.25073091200005, 25.49375961800007], [87.25038231400003, 25.494233175000033], [87.25026285600006, 25.494261178000045], [87.24984512900005, 25.494359100000054], [87.24884054200004, 25.494353801000045], [87.24878706400006, 25.493953840000074], [87.24754839400003, 25.493999313000074], [87.24707493300008, 25.494453773000032], [87.24640293600004, 25.495022327000072], [87.24496451500005, 25.497370018000026], [87.24345413600008, 25.499574159000076], [87.24241877800006, 25.49982735800006], [87.24085345800006, 25.49991177100003], [87.23985214100009, 25.49982157200003], [87.23859382300003, 25.499220582000078], [87.23749373800007, 25.498865525000042], [87.23665229900007, 25.498813737000035], [87.23564965200006, 25.498933364000038], [87.23550074200006, 25.498951171000044], [87.23551009800008, 25.49896429100005], [87.23559630200003, 25.49908517700004], [87.23658056400006, 25.500465406000046], [87.23686665400004, 25.50179259300006], [87.23686447800009, 25.50179677400007], [87.23655878400007, 25.502384103000054], [87.23656144900008, 25.50239325900003], [87.23680831400009, 25.503241545000037], [87.23693313300004, 25.503810104000024], [87.23693189700003, 25.50381875000005], [87.23674536900006, 25.505123639000033], [87.23673187600008, 25.506622194000045], [87.23673199400008, 25.50662339300004], [87.23685240100008, 25.507849743000065], [87.23659560600004, 25.509566559000064], [87.23600128600003, 25.513539897000044], [87.24513841700008, 25.518108462000043], [87.24785100200006, 25.522248724000065], [87.25070635500003, 25.52610345100004], [87.25513215300003, 25.526817289000064], [87.25827304100005, 25.529387107000048], [87.26271972400008, 25.529677108000044], [87.26307366100008, 25.528841509000074], [87.26331278400005, 25.52848511700006], [87.26392000200008, 25.52807039000004], [87.26553213900007, 25.52769246300005], [87.26659171400007, 25.52766163900003]]]]}}, {"type": "Feature", "properties": {"OBJECTID": 4473, "GPCODE": "94079", "GPNAME_1": "CHAKALA  MAULANAGAR", "DIST_CEN_C": "10", "BLK_NAME": "SAMELI", "ST_NAME": "BIHAR", "ST_CODE_1": "10", "GPCODE2011": "96633", "REMARKS": "FINALIZED", "MAP_STATUS": "COMPLETED", "BLK_C_2001": "100013", "BLK_C_2011": "01154", "DIST_NAME": "KATIHAR", "code2011": 0.0, "Shape_Leng": 0.06213904282, "Shape_Area": 9.213173e-05, "Area": 1.02533}, "geometry": {"type": "MultiPolygon", "coordinates": [[[[87.27403959900005, 25.499477975000048], [87.27317945400006, 25.499310412000057], [87.27231635800007, 25.496633280000026], [87.27189545300007, 25.494471006000026], [87.27181137200006, 25.493933956000035], [87.26974754800005, 25.493905331000065], [87.26815460000006, 25.495696063000025], [87.26780107800005, 25.496237348000022], [87.26723366500005, 25.496783125000036], [87.26723710700008, 25.496794092000073], [87.26750142900005, 25.497636358000022], [87.26767520800007, 25.49800659700003], [87.26787814100004, 25.49909444700006], [87.26829060300008, 25.499383649000038], [87.26878289000007, 25.499460751000072], [87.26901170400004, 25.49943832400004], [87.26938412300007, 25.500470863000032], [87.26941073300009, 25.500551264000023], [87.26960390600004, 25.501440518000038], [87.27021882700006, 25.503566787000068], [87.27441630300007, 25.50364645800005], [87.27445652300008, 25.502633796000055], [87.27450270500003, 25.501471002000073], [87.27441772800006, 25.500465634000022], [87.27441676000007, 25.50044863100004], [87.27424321000007, 25.49986173700006], [87.27403959900005, 25.499477975000048]]], [[[87.29180872000006, 25.503215044000058], [87.29148711200008, 25.500786615000038], [87.29179614500003, 25.500467151000066], [87.29190296800004, 25.50036933000007], [87.29191820100004, 25.499890889000028], [87.29172955800004, 25.499380746000043], [87.29153596000003, 25.49877131100004], [87.28993444900004, 25.498941874000025], [87.28849705400006, 25.499139636000052], [87.28752220600006, 25.499297038000066], [87.28617435700005, 25.499418137000077], [87.28533394600004, 25.499381493000044], [87.28398642800005, 25.499024097000074], [87.28352418300005, 25.498676267000064], [87.28199287300004, 25.498106592000056], [87.28161951400006, 25.497927772000025], [87.28097371900003, 25.497618470000077], [87.28030248100004, 25.49756390500005], [87.28017683300004, 25.499202210000078], [87.28030060500004, 25.499861288000034], [87.28059863300007, 25.500394046000054], [87.28060154100007, 25.50046643400003], [87.28068914300007, 25.50187687600004], [87.28075829100004, 25.50254487600006], [87.28143954400008, 25.50271231800008], [87.28445336800007, 25.502790968000056], [87.28647263500005, 25.502733542000044], [87.28636270200008, 25.503419536000024], [87.28769029600005, 25.503754258000072], [87.28905304500006, 25.50378671200008], [87.29180872000006, 25.503215044000058]]]]}}, {"type": "Feature", "properties": {"OBJECTID": 4480, "GPCODE": "94080", "GPNAME_1": "CHANDPUR WEST", "DIST_CEN_C": "10", "BLK_NAME": "SAMELI", "ST_NAME": "BIHAR", "ST_CODE_1": "10", "GPCODE2011": "96635", "REMARKS": "FINALIZED", "MAP_STATUS": "COMPLETED", "BLK_C_2001": "100013", "BLK_C_2011": "01154", "DIST_NAME": "KATIHAR", "code2011": 0.0, "Shape_Leng": 0.14011870112, "Shape_Area": 0.00087266264, "Area": 9.70954}, "geometry": {"type": "MultiPolygon", "coordinates": [[[[87.25755558700007, 25.540662525000073], [87.25778549500006, 25.539498232000028], [87.26029234100008, 25.54000122000008], [87.26187967300007, 25.53965942700006], [87.26526811500008, 25.539120317000027], [87.26488597700006, 25.538136162000058], [87.26385272700008, 25.536388609000028], [87.26354001000004, 25.535697834000075], [87.26309334900003, 25.534478853000053], [87.26268602900006, 25.53379250300003], [87.26246869900007, 25.532194549000053], [87.26247931600005, 25.53145435600004], [87.26265904500008, 25.53071426300005], [87.26259013800006, 25.529983044000062], [87.26271972400008, 25.529677108000044], [87.25827304100005, 25.529387107000048], [87.25513215300003, 25.526817289000064], [87.25070635500003, 25.52610345100004], [87.24785100200006, 25.522248724000065], [87.24513841700008, 25.518108462000043], [87.23600128600003, 25.513539897000044], [87.23659560600004, 25.509566559000064], [87.23685240100008, 25.507849743000065], [87.23661884900008, 25.50807562800003], [87.23564863000007, 25.507728781000026], [87.23443983900006, 25.507490459000053], [87.23259925500008, 25.50709461100007], [87.23127100500005, 25.506684904000053], [87.22913160300004, 25.505797315000052], [87.22913158600005, 25.505797350000023], [87.22840668100008, 25.507215020000046], [87.22786083400007, 25.508646131000035], [87.22786082300007, 25.508646170000077], [87.22756832700009, 25.509788334000064], [87.22638058700005, 25.51090395600005], [87.22506267300008, 25.511126054000044], [87.22477937600007, 25.511320325000042], [87.22477936900003, 25.511320366000064], [87.22471002300006, 25.51163631600008], [87.22394408600007, 25.51169096700005], [87.22310003200005, 25.513474316000043], [87.22198634600005, 25.51404377600005], [87.22112590900008, 25.514094009000075], [87.22116099000004, 25.51444149300005], [87.22142002300006, 25.514915253000026], [87.22149027400008, 25.515705123000032], [87.22167014200005, 25.516666358000066], [87.22213892900004, 25.518173497000078], [87.22239857000005, 25.519446171000027], [87.22274742100007, 25.52020417800003], [87.22364364200007, 25.521295808000048], [87.22489317800006, 25.52252717500005], [87.22530157200003, 25.523145284000066], [87.22601907600006, 25.524471729000027], [87.22605485800005, 25.52566773800004], [87.22641895100008, 25.526791323000054], [87.22633132900006, 25.528994012000055], [87.22564078000005, 25.530077697000024], [87.22546731300008, 25.53084960600006], [87.22475667600008, 25.531734715000027], [87.22405123000004, 25.53284101400004], [87.22364909600003, 25.533820674000026], [87.22287376200006, 25.53478711100007], [87.22277475900006, 25.53536037400005], [87.22295465000008, 25.536258475000068], [87.22331843500007, 25.53703900200003], [87.22395053900004, 25.537404250000066], [87.22550834200007, 25.538193037000042], [87.22719530900008, 25.53883729200004], [87.22951926700006, 25.53963449300005], [87.23060400400004, 25.539791654000055], [87.23351488600008, 25.54038986200004], [87.23547523900004, 25.540650198000037], [87.23781883400005, 25.541077210000026], [87.23882397800008, 25.541270464000036], [87.24225183700008, 25.54136705700006], [87.24515220700005, 25.54135569300007], [87.24754827600003, 25.540671545000066], [87.24945666200006, 25.540312765000067], [87.25040127400007, 25.54089580400006], [87.25120199000008, 25.54115372800004], [87.25177353300006, 25.54176350000006], [87.25421608100004, 25.541946144000065], [87.25514666100008, 25.541630885000075], [87.25602317300007, 25.540719909000074], [87.25755558700007, 25.540662525000073]]]]}}]}