{"type": "FeatureCollection", "features": [{"type": "Feature", "properties": {"OBJECTID": 4244, "GPCODE": "93861", "GPNAME_1": "PARDIARA", "DIST_CEN_C": "10", "BLK_NAME": "AMDABAD", "ST_NAME": "BIHAR", "ST_CODE_1": "10", "GPCODE2011": "96415", "REMARKS": "FINALIZED", "MAP_STATUS": "COMPLETED", "BLK_C_2001": "100016", "BLK_C_2011": "01157", "DIST_NAME": "KATIHAR", "code2011": 0.0, "Shape_Leng": 0.16241883567, "Shape_Area": 0.00132951066, "Area": 14.8242}, "geometry": {"type": "MultiPolygon", "coordinates": [[[[87.72224066200005, 25.29549282800008], [87.72281244800007, 25.295041205000075], [87.72355504400008, 25.29443781200007], [87.72405967600008, 25.29385651800004], [87.72443598500007, 25.29356148200003], [87.72452331300008, 25.292969111000048], [87.72462821300007, 25.292268105000062], [87.72505204600003, 25.291868561000058], [87.72567037800007, 25.291749952000032], [87.72638797000008, 25.291629614000044], [87.72676406300008, 25.291321124000035], [87.72730641300006, 25.290888004000067], [87.72791288700006, 25.29019210200005], [87.72838574400004, 25.289760142000034], [87.72911061400004, 25.28926536000006], [87.72987660900003, 25.289085529000033], [87.73109277700007, 25.28906508600005], [87.73222756900003, 25.28895135500005], [87.73364660000004, 25.288900389000048], [87.73500726700007, 25.289391763000026], [87.73612127800004, 25.289963941000053], [87.73678884500004, 25.290800672000046], [87.73744969900008, 25.291308283000035], [87.73886875700003, 25.291009211000073], [87.74034476400004, 25.290587352000045], [87.74162060400005, 25.29008321500004], [87.74258171100007, 25.289733170000034], [87.74387565600006, 25.289391083000055], [87.74514200500005, 25.289157664000072], [87.74649864400004, 25.288724201000036], [87.74748693200007, 25.288247398000067], [87.74779396700006, 25.28573994900006], [87.74711656700003, 25.28266063700005], [87.74684945800004, 25.279917571000055], [87.74636740600005, 25.27916783300003], [87.74585062900007, 25.278418817000045], [87.74529090900006, 25.277273449000063], [87.74482929500005, 25.275824226000054], [87.74430503100007, 25.274709897000037], [87.74394025300006, 25.273141706000047], [87.74374418300005, 25.27180981500004], [87.74368832000005, 25.27077778100005], [87.74367454700007, 25.26961873600004], [87.74350869100005, 25.269030619000034], [87.74308744100006, 25.26882566200004], [87.74278028900005, 25.26837523300003], [87.74277937100004, 25.267599387000075], [87.74276544300005, 25.266918494000038], [87.74291220500004, 25.265842399000064], [87.74291189400003, 25.26412829700007], [87.74086498900004, 25.26332379300004], [87.73842624500008, 25.26253488900005], [87.73306912700008, 25.261533376000045], [87.72784231500003, 25.260588136000024], [87.71993459700008, 25.259141700000043], [87.71105738600005, 25.257607203000077], [87.71101037800008, 25.26020185400006], [87.71141052500008, 25.266745085000025], [87.711299, 25.271054909000043], [87.71136656400006, 25.274649057000033], [87.70648778400005, 25.277441338000074], [87.69715523500008, 25.282468149000067], [87.69573778400007, 25.283339745000035], [87.69329198000008, 25.28468387500004], [87.69324453900003, 25.285537228000067], [87.69373308800004, 25.28662084800004], [87.69413073800007, 25.288129964000063], [87.69470157500007, 25.289848197000026], [87.69525828700006, 25.29111554600007], [87.69572429600004, 25.292560421000076], [87.69631067500006, 25.293818271000077], [87.69681608600007, 25.294260953000048], [87.69760808300003, 25.294626796000045], [87.69855717200005, 25.295648603000075], [87.70112123000007, 25.29524059000005], [87.70398800600003, 25.295071147000044], [87.70632308200004, 25.29488350200006], [87.70822051400006, 25.294666912000025], [87.70952358800008, 25.294767033000028], [87.71053191800007, 25.29502543600006], [87.71170149800008, 25.295154770000067], [87.71273842900007, 25.295110402000034], [87.71377826600008, 25.295453955000028], [87.71468297300004, 25.29550198000004], [87.71602132000004, 25.295628496000063], [87.71666406400004, 25.295983155000044], [87.71749990700005, 25.29605939100003], [87.71830286900007, 25.29623091700006], [87.71931046400005, 25.296453075000045], [87.72028714700008, 25.296865274000027], [87.72103100700008, 25.29681675100005], [87.72154055100003, 25.296474428000067], [87.72224066200005, 25.29549282800008]]]]}}, {"type": "Feature", "properties": {"OBJECTID": 4245, "GPCODE": "93857", "GPNAME_1": "KISHANPUR", "DIST_CEN_C": "10", "BLK_NAME": "AMDABAD", "ST_NAME": "BIHAR", "ST_CODE_1": "10", "GPCODE2011": "96411", "REMARKS": "FINALIZED", "MAP_STATUS": "COMPLETED", "BLK_C_2001": "100016", "BLK_C_2011": "01157", "DIST_NAME": "KATIHAR", "code2011": 0.0, "Shape_Leng": 0.20459968587, "Shape_Area": 0.0012134091, "Area": 13.5242}, "geometry": {"type": "MultiPolygon", "coordinates": [[[[87.71093462200008, 25.351012990000072], [87.71317392800006, 25.350952936000056], [87.71379585700004, 25.350996721000058], [87.71451113000006, 25.350993731000074], [87.71484559000004, 25.35082581200004], [87.71512474800005, 25.350383564000026], [87.71558710100004, 25.350154797000073], [87.71610604200004, 25.349776188000078], [87.71680456300004, 25.349435180000057], [87.71797744500003, 25.349456201000066], [87.71924443000006, 25.349222909000048], [87.72038776400007, 25.34876624900005], [87.72117271100007, 25.34876657500007], [87.72221196600003, 25.348325137000074], [87.72290691000006, 25.347812737000027], [87.72356592200003, 25.347481410000057], [87.72443144300007, 25.347290951000048], [87.72536631500003, 25.347338440000044], [87.72624275100009, 25.347684634000075], [87.72685112500005, 25.34803977100006], [87.72745452900006, 25.34815143800006], [87.72821560200003, 25.347958150000068], [87.72945535400004, 25.347847067000032], [87.73105938100008, 25.347820111000033], [87.73199436100003, 25.34786755500005], [87.73328742300004, 25.34744876600007], [87.73398144000004, 25.34713481800003], [87.73471021500006, 25.346820329000025], [87.73561033500005, 25.346620244000064], [87.73650236200007, 25.346271323000053], [87.73759925400003, 25.345982217000028], [87.73832183300004, 25.345361069000035], [87.73931509700003, 25.34486161600006], [87.74004627400006, 25.344664323000075], [87.74091158100003, 25.344469264000054], [87.74160316400008, 25.344033542000034], [87.74289675000006, 25.343646259000025], [87.74423994200004, 25.343014611000058], [87.74385889500007, 25.34260153200006], [87.74371551600007, 25.342148364000025], [87.74330444400005, 25.341726830000027], [87.74319961300006, 25.34145793400006], [87.74279163400007, 25.341189628000052], [87.74258569300008, 25.340832225000042], [87.74237586800007, 25.34029001500005], [87.74209705200008, 25.33977595700003], [87.74177604900007, 25.33890174800007], [87.74143898100004, 25.338695433000055], [87.74086856300005, 25.338493129000028], [87.74072950300007, 25.338251843000023], [87.74056204300007, 25.33710890900005], [87.74045961900003, 25.33623105500004], [87.74050141700008, 25.335607778000053], [87.74067150800005, 25.33493734600006], [87.74085235800004, 25.33430730300006], [87.74091855600005, 25.333173889000022], [87.74107961300007, 25.332066060000045], [87.74108797300005, 25.33101941800004], [87.74130521600006, 25.328773786000056], [87.74141011900008, 25.32734659700003], [87.74121267400005, 25.325956090000034], [87.74114749800003, 25.324468634000027], [87.74154660400006, 25.32164709500006], [87.74147615200008, 25.32062881400003], [87.74161817400005, 25.320292636000033], [87.74249816400004, 25.320088250000026], [87.74336285300006, 25.319870705000028], [87.74428294800003, 25.319931808000035], [87.74433625500006, 25.319385101000023], [87.74442510500006, 25.31886934100004], [87.74471610300003, 25.31828705600003], [87.74456902700007, 25.317653490000055], [87.74434985100004, 25.31689936500004], [87.74433743500003, 25.31629058900006], [87.74432060900006, 25.315469929000074], [87.74433609700003, 25.314531415000033], [87.74452033400007, 25.313829105000025], [87.74458051100004, 25.313372481000044], [87.74442412200005, 25.31228346000006], [87.74436510900006, 25.311102643000027], [87.74479522100006, 25.310761545000048], [87.74528824900005, 25.30986007300004], [87.74441703000008, 25.309757544000036], [87.74291147400004, 25.309719823000023], [87.74177828500007, 25.309680339000067], [87.74023739300009, 25.309611635000067], [87.73887020700005, 25.309544467000023], [87.73742994900005, 25.309541684000067], [87.73599448500005, 25.309534315000064], [87.73469065400008, 25.30940292200006], [87.73403407900008, 25.309837987000037], [87.73303365600003, 25.309976627000026], [87.73175908300004, 25.309817569000074], [87.72919301800005, 25.309892304000073], [87.72828938400005, 25.30990754100003], [87.72738833000005, 25.310044411000035], [87.72719526600008, 25.310318323000047], [87.72687373600007, 25.310869558000036], [87.72648398200005, 25.311485034000043], [87.72602593300007, 25.311916793000023], [87.72522842000006, 25.312020370000027], [87.72418767000005, 25.311884520000035], [87.72315384500007, 25.311843169000042], [87.72145209200005, 25.31193034000006], [87.71998570800008, 25.31210826000006], [87.71831690600004, 25.312104616000056], [87.71775200100006, 25.31241631200004], [87.71756641300004, 25.313059934000023], [87.71694134100005, 25.313584700000035], [87.71617924500003, 25.31371918800005], [87.71538359000004, 25.314156490000073], [87.71409021900007, 25.314543549000064], [87.71318774900004, 25.31461726200007], [87.71185160900006, 25.31460794700007], [87.71091812800006, 25.31486708700004], [87.71033993200007, 25.314272292000055], [87.70950819500007, 25.313663663000057], [87.70862514300006, 25.312979141000028], [87.70788154700006, 25.31255397500007], [87.70680311000007, 25.312026193000065], [87.70525706400008, 25.311460926000052], [87.70392421400004, 25.310874161000072], [87.70314768000009, 25.310539748000053], [87.70224564400007, 25.310387819000027], [87.69912509900007, 25.310304356000074], [87.69717545400005, 25.310408839000047], [87.69550699700005, 25.310666534000063], [87.69437531600005, 25.310698896000076], [87.69190529400004, 25.31086152300003], [87.69201440400008, 25.311595091000072], [87.69257696300008, 25.312154132000046], [87.69335420900006, 25.312777262000054], [87.69399325700005, 25.313434354000037], [87.69524536600005, 25.31445107500008], [87.69580867100007, 25.315050719000055], [87.69625654500004, 25.31558917600006], [87.69660923000004, 25.316332112000055], [87.69718322700004, 25.316967629000033], [87.69741818700004, 25.317784810000035], [87.69778772500007, 25.31788240000003], [87.69833332800005, 25.317602712000053], [87.69924699200004, 25.317343898000047], [87.69997421400006, 25.31695294900004], [87.70066777200003, 25.316621096000063], [87.70197836100004, 25.316342250000048], [87.70329783800008, 25.316261594000025], [87.70447767300004, 25.315908206000074], [87.70572548800004, 25.315720481000028], [87.70663971500005, 25.31549330300004], [87.70788803800008, 25.31533263500006], [87.70976326000005, 25.316208075000077], [87.71149216400005, 25.31672511000005], [87.71245737800007, 25.317299888000036], [87.71334695600007, 25.317573780000032], [87.71433334600005, 25.31772421100004], [87.71512673100005, 25.318148434000022], [87.71587234600008, 25.31866831700006], [87.71666423300007, 25.31902043200006], [87.71689398400008, 25.319575970000074], [87.71680382000005, 25.320759328000065], [87.71638187700006, 25.32346844500006], [87.71621959300006, 25.325262015000078], [87.71617647400006, 25.326566358000036], [87.71620602300004, 25.328022859000043], [87.71640310500004, 25.32941349400005], [87.71602487500007, 25.330601702000024], [87.71523644400008, 25.330664486000046], [87.71396834300003, 25.33059547000005], [87.71256808200008, 25.330618843000025], [87.71096553900009, 25.33070877800003], [87.71037249200003, 25.33036683000006], [87.70944993300003, 25.330188213000042], [87.70791069300003, 25.32997032000003], [87.70734550300006, 25.330024811000044], [87.70731500100004, 25.330237322000073], [87.70747690000007, 25.330870634000064], [87.70751603100007, 25.331826315000058], [87.70749838900008, 25.332674669000028], [87.70753049600006, 25.333522206000055], [87.70747326100008, 25.333888600000023], [87.70735789200006, 25.33481519000003], [87.70736237200003, 25.335771487000045], [87.70711287400007, 25.337683759000072], [87.70734823800007, 25.338514359000044], [87.70785989400008, 25.339006562000066], [87.70852987500007, 25.339220898000065], [87.70895503700007, 25.339610753000045], [87.70923859500004, 25.340363919000026], [87.70949793200003, 25.340905362000058], [87.70963055300007, 25.34157082100006], [87.70961054800006, 25.342297340000073], [87.70962925300006, 25.34322177000007], [87.70952271500005, 25.345321140000067], [87.70932239600006, 25.346961988000032], [87.70930125900009, 25.348369744000024], [87.70928362600006, 25.34921809000008], [87.70848207300008, 25.350359211000068], [87.70867471500009, 25.350793545000045], [87.70912994100007, 25.35095284500005], [87.71011331900007, 25.350936440000055], [87.71093462200008, 25.351012990000072]]]]}}, {"type": "Feature", "properties": {"OBJECTID": 4247, "GPCODE": "93854", "GPNAME_1": "DURGAPUR", "DIST_CEN_C": "10", "BLK_NAME": "AMDABAD", "ST_NAME": "BIHAR", "ST_CODE_1": "10", "GPCODE2011": "96408", "REMARKS": "FINALIZED", "MAP_STATUS": "COMPLETED", "BLK_C_2001": "100016", "BLK_C_2011": "01157", "DIST_NAME": "KATIHAR", "code2011": 0.0, "Shape_Leng": 0.15333357857, "Shape_Area": 0.00101483797, "Area": 11.3145}, "geometry": {"type": "MultiPolygon", "coordinates": [[[[87.83545020700006, 25.273412208000025], [87.83283085900007, 25.27283882300003], [87.83092387700003, 25.274406294000073], [87.82880767700004, 25.275073723000048], [87.82639284100009, 25.275896341000077], [87.82520253900003, 25.276586871000063], [87.82371777400004, 25.277502453000068], [87.82199400400003, 25.278290069000036], [87.82013375000008, 25.279364705000035], [87.81788937600004, 25.280458716000055], [87.81533779100005, 25.281568202000074], [87.81264405500008, 25.28198422300005], [87.81483980500008, 25.28401232600004], [87.81715633500005, 25.286897597000063], [87.81853814600004, 25.289496431000032], [87.81873458100006, 25.29171033700004], [87.81903948700005, 25.293696417000035], [87.81989300100008, 25.295654694000064], [87.82041797200003, 25.29824119500006], [87.81809275600006, 25.299871159000077], [87.81568111700005, 25.30159458600008], [87.81381310700004, 25.301917666000065], [87.81232145700005, 25.302221733000067], [87.81184749200008, 25.30270333200008], [87.81178471100003, 25.303736083000047], [87.81075993900004, 25.305503845000032], [87.81087832200006, 25.307442731000037], [87.81188192600007, 25.30945144800006], [87.81341538500004, 25.311890921000042], [87.81646854400003, 25.31654181300007], [87.81877636900003, 25.320600032000073], [87.81997290100009, 25.319567926000047], [87.82231631100007, 25.316647884000076], [87.82503197300008, 25.31370898600005], [87.82761835600007, 25.311710465000033], [87.83169962700003, 25.30972119300003], [87.83605491600008, 25.307633037000073], [87.84052392200005, 25.305878594000035], [87.84458955000008, 25.305163263000054], [87.84617238300007, 25.30508306200005], [87.84715503400008, 25.304354056000022], [87.84772370900004, 25.302966817000026], [87.84898528500008, 25.300695438000048], [87.85238217300008, 25.295174496000072], [87.85291007800004, 25.292592650000074], [87.85077735800007, 25.29112529200006], [87.84735672600004, 25.290355116000057], [87.84439248200005, 25.289620649000028], [87.84247375300004, 25.28901006800004], [87.83968193200008, 25.28791297600003], [87.83722781100005, 25.28703454600003], [87.83755089200008, 25.284895007000046], [87.83748928700004, 25.281772252000053], [87.83781580800007, 25.278629841000054], [87.83875485400006, 25.27545557800005], [87.83545020700006, 25.273412208000025]]]]}}, {"type": "Feature", "properties": {"OBJECTID": 4248, "GPCODE": "93858", "GPNAME_1": "LAKHANPUR", "DIST_CEN_C": "10", "BLK_NAME": "AMDABAD", "ST_NAME": "BIHAR", "ST_CODE_1": "10", "GPCODE2011": "96412", "REMARKS": "FINALIZED", "MAP_STATUS": "COMPLETED", "BLK_C_2001": "100016", "BLK_C_2011": "01157", "DIST_NAME": "KATIHAR", "code2011": 0.0, "Shape_Leng": 0.26509376364, "Shape_Area": 0.00159382884, "Area": 17.7576}, "geometry": {"type": "MultiPolygon", "coordinates": [[[[87.76104544600008, 25.407224588000076], [87.76270638000005, 25.406989217000046], [87.76441942400004, 25.40761342500008], [87.76570290700005, 25.40759981100007], [87.76650696500008, 25.40796527300006], [87.76738776100007, 25.408170556000073], [87.76936661500008, 25.406420130000072], [87.77051428300007, 25.405074065000065], [87.77036802300006, 25.404222321000077], [87.76942565700006, 25.40272323100004], [87.76757160400007, 25.401785283000038], [87.76655643600003, 25.399087116000032], [87.76656746800006, 25.397712037000076], [87.76628064700003, 25.394547816000056], [87.76571034700004, 25.392944145000058], [87.76492027500007, 25.390836035000063], [87.76448136300007, 25.38828087400003], [87.76434091400006, 25.385968387000048], [87.76487604000005, 25.383879767000053], [87.76668943400006, 25.381039801000043], [87.76852296200008, 25.38008879100005], [87.77178093200007, 25.379238130000033], [87.77415037300005, 25.37770046600008], [87.77613738000008, 25.376907300000028], [87.77850925100006, 25.376865296000062], [87.78056633600005, 25.37722427400007], [87.78514105800008, 25.37714858800007], [87.78953260500003, 25.376850795000053], [87.78933139000009, 25.373548131000064], [87.78984389400006, 25.37082587900005], [87.78900409300007, 25.366784979000045], [87.78807087600006, 25.361207817000036], [87.78741564600006, 25.35184165900006], [87.78524786500003, 25.345479105000038], [87.78441772200006, 25.341591686000072], [87.78431921600009, 25.340852385000062], [87.78431916500006, 25.340852383000026], [87.78057726400004, 25.340712427000028], [87.77763869300009, 25.341232328000046], [87.77571552300003, 25.34160810000003], [87.77396277600008, 25.341416872000025], [87.77345391700004, 25.34375379900007], [87.77418506000004, 25.346224921000044], [87.77412823600008, 25.347679680000056], [87.77436105300006, 25.34911990100005], [87.77425622700008, 25.349785069000063], [87.77283210900003, 25.350252538000063], [87.77138398700004, 25.350325199000054], [87.77051515400007, 25.350368787000036], [87.77055513700003, 25.35102677900005], [87.77031346300004, 25.351830807000056], [87.76966139900009, 25.353051417000074], [87.76850186000007, 25.355485374000068], [87.76759207600008, 25.357246891000045], [87.76540285100003, 25.359468538000044], [87.76361599500007, 25.36114199000008], [87.76223963700005, 25.36239885400005], [87.76007408500004, 25.36501512600006], [87.75789370700005, 25.364992332000043], [87.75596300200004, 25.36429711100004], [87.75371072100006, 25.36308997100008], [87.75185310200004, 25.36120306300006], [87.74748625600006, 25.36038139300007], [87.74679994800005, 25.36025228500006], [87.74549799800008, 25.36024281600004], [87.74456240000006, 25.36016838000006], [87.74372431400008, 25.360002141000052], [87.74305062800005, 25.35986021900004], [87.74313951300007, 25.360796995000044], [87.74292283700004, 25.36162156300003], [87.74280930600008, 25.362624960000062], [87.74285154200004, 25.36322863500004], [87.74303290300008, 25.363834573000076], [87.74308633000004, 25.364740305000055], [87.74313726800005, 25.365772442000036], [87.74305349100007, 25.366531741000074], [87.74309576300004, 25.36689639900004], [87.74356830700003, 25.36715898800003], [87.74457727000004, 25.367417068000066], [87.74534466500006, 25.36752591000004], [87.74662173500008, 25.367774904000044], [87.74748617200004, 25.368125640000073], [87.75014569200005, 25.369849518000024], [87.75219605400008, 25.37101648400005], [87.75490459000008, 25.371515659000067], [87.75736170900007, 25.37171001200005], [87.75902540000004, 25.37226152200003], [87.75939936700007, 25.372665977000054], [87.75945057700005, 25.373509780000063], [87.75884355200003, 25.375021279000066], [87.75865529400005, 25.37767553200007], [87.75807394300006, 25.379608919000077], [87.75757020500004, 25.380903688000046], [87.75682149600004, 25.38199908100006], [87.75543367600005, 25.384078642000077], [87.75475627800006, 25.384429933000035], [87.75407878200008, 25.384781270000076], [87.75205285300007, 25.385940548000065], [87.75033043200006, 25.386344075000068], [87.74868577900008, 25.386108970000066], [87.74748305900005, 25.384752554000045], [87.74596659400004, 25.384715181000047], [87.74580294700007, 25.384975094000026], [87.74571575600004, 25.385567442000024], [87.74586611600006, 25.386354296000036], [87.74594694100006, 25.387142322000045], [87.74574610400003, 25.387768187000063], [87.74551367600003, 25.388787101000048], [87.74523787200008, 25.39011346700005], [87.74495147700009, 25.391651996000064], [87.74495334700003, 25.39246839200007], [87.74463739600003, 25.393294773000036], [87.74447027700006, 25.39411399200003], [87.74448311500004, 25.394736271000056], [87.74381676100006, 25.394959638000046], [87.74286924900008, 25.395282405000046], [87.74149932000006, 25.396094981000033], [87.74056197400006, 25.396674671000028], [87.74023594600004, 25.39725313100007], [87.73986433500005, 25.397065405000035], [87.73909576700004, 25.396911515000056], [87.73813375900005, 25.396530851000023], [87.73739628200008, 25.39643955400004], [87.73662127600005, 25.39693534500003], [87.73585899000005, 25.397088067000027], [87.73472037600004, 25.39778837600005], [87.73397386000005, 25.398468554000033], [87.73503123500006, 25.398649256000056], [87.73573294300007, 25.398695988000043], [87.73597119200008, 25.39892199700006], [87.73584418500008, 25.39927150400007], [87.73556995900003, 25.39971371300004], [87.73519060700005, 25.400360635000027], [87.73511830500007, 25.400713678000045], [87.73520535400007, 25.401808422000045], [87.73554168300006, 25.402695866000045], [87.73590249000006, 25.40308222500005], [87.73635803700006, 25.40324143600003], [87.73705665000006, 25.403139362000047], [87.73756075900008, 25.403239090000056], [87.73768181700007, 25.403570865000063], [87.73787744900005, 25.40414041300005], [87.73834081400008, 25.40467843500005], [87.73850355400003, 25.405343274000074], [87.73883307500006, 25.405901527000026], [87.73945954500005, 25.406878814000038], [87.74142892000003, 25.40669214600007], [87.74266120000004, 25.406671233000054], [87.74453681500006, 25.406761216000064], [87.74560186400004, 25.40658982000008], [87.74680371600004, 25.406542374000026], [87.74714493000005, 25.406581669000047], [87.74714506000004, 25.406581721000066], [87.74876107100005, 25.40723067500005], [87.74999810300005, 25.407371694000062], [87.75102777300003, 25.40777664700005], [87.75186848400006, 25.408748888000048], [87.75214331500007, 25.40959734300003], [87.75297791400004, 25.410468491000074], [87.75358369200006, 25.411249691000023], [87.75430744500005, 25.41121348000007], [87.75600568600004, 25.410672049000027], [87.75712573300007, 25.409804483000073], [87.75861392700006, 25.408563511000068], [87.76104544600008, 25.407224588000076]]]]}}, {"type": "Feature", "properties": {"OBJECTID": 4252, "GPCODE": "93859", "GPNAME_1": "NORTH AMDABAD", "DIST_CEN_C": "10", "BLK_NAME": "AMDABAD", "ST_NAME": "BIHAR", "ST_CODE_1": "10", "GPCODE2011": "96413", "REMARKS": "FINALIZED", "MAP_STATUS": "COMPLETED", "BLK_C_2001": "100016", "BLK_C_2011": "01157", "DIST_NAME": "KATIHAR", "code2011": 0.0, "Shape_Leng": 0.11488146112, "Shape_Area": 0.00068020585, "Area": 7.58238}, "geometry": {"type": "MultiPolygon", "coordinates": [[[[87.77791611800006, 25.307484845000033], [87.77816473300004, 25.309675755000058], [87.77864356500004, 25.311855097000034], [87.77941669000006, 25.313180255000077], [87.78093764300007, 25.315412224000056], [87.78436365700009, 25.318597623000073], [87.78739997100007, 25.321068053000033], [87.79051961200008, 25.323009635000062], [87.79382496200003, 25.32420731600007], [87.79604994700009, 25.324724824000043], [87.79689386600006, 25.325311932000034], [87.79728370200007, 25.326026800000022], [87.79808271600007, 25.327770263000048], [87.79860048800003, 25.32868848800007], [87.79898946000003, 25.329452066000044], [87.79898948300007, 25.329452111000023], [87.80127161300004, 25.329301911000073], [87.80839117800008, 25.327601877000063], [87.81274036400004, 25.32505292600007], [87.81757981700008, 25.321632128000033], [87.81877636900003, 25.320600032000073], [87.81646854400003, 25.31654181300007], [87.81341538500004, 25.311890921000042], [87.81188192600007, 25.30945144800006], [87.81087832200006, 25.307442731000037], [87.80756455900007, 25.30691688400003], [87.80607977500006, 25.306574242000067], [87.80533738300005, 25.30583185000006], [87.80537618100004, 25.30503648800004], [87.80545159700006, 25.303490460000035], [87.80408102800004, 25.302633854000078], [87.80231070900004, 25.301320392000036], [87.80031196100003, 25.300977749000026], [87.79831321400007, 25.300635107000062], [87.79660000200005, 25.300806428000044], [87.79382079200008, 25.302234105000025], [87.79259115200006, 25.304077610000036], [87.79267865100007, 25.305089458000054], [87.79201240100008, 25.30585088500004], [87.79125097400004, 25.306707491000054], [87.79106061700008, 25.308135168000035], [87.78965078600004, 25.309045312000023], [87.78780670400005, 25.30907505500005], [87.78664671700005, 25.309015569000053], [87.78536775700007, 25.308807366000053], [87.78459443200006, 25.308361217000026], [87.78399956700008, 25.307587892000072], [87.78295855200008, 25.30681456700006], [87.78209599800005, 25.306130472000063], [87.78087652400006, 25.305922269000064], [87.77885398200004, 25.305922269000064], [87.77799993500008, 25.30506733900006], [87.77791611800006, 25.307484845000033]]]]}}, {"type": "Feature", "properties": {"OBJECTID": 4253, "GPCODE": "93860", "GPNAME_1": "NORTH KARIMULLAPUR", "DIST_CEN_C": "10", "BLK_NAME": "AMDABAD", "ST_NAME": "BIHAR", "ST_CODE_1": "10", "GPCODE2011": "96414", "REMARKS": "FINALIZED", "MAP_STATUS": "COMPLETED", "BLK_C_2001": "100016", "BLK_C_2011": "01157", "DIST_NAME": "KATIHAR", "code2011": 0.0, "Shape_Leng": 0.08290161394, "Shape_Area": 0.00025902211, "Area": 2.88695}, "geometry": {"type": "MultiPolygon", "coordinates": [[[[87.76565402700004, 25.32619475200005], [87.76277655400008, 25.32591453300006], [87.75998929100007, 25.326160320000042], [87.75683362300003, 25.32610621400005], [87.75552755100006, 25.32574714100008], [87.75452583800006, 25.324630038000066], [87.75353055400006, 25.323618705000058], [87.75242522200006, 25.322719066000047], [87.750408, 25.32218335400006], [87.74853280500008, 25.322064902000022], [87.74686865000007, 25.319960197000057], [87.74625092600007, 25.319988701000057], [87.74535047500007, 25.31991372300007], [87.74428294800003, 25.319931808000035], [87.74336285300006, 25.319870705000028], [87.74249816400004, 25.320088250000026], [87.74161817400005, 25.320292636000033], [87.74147615200008, 25.32062881400003], [87.74154660400006, 25.32164709500006], [87.74114749800003, 25.324468634000027], [87.74121267400005, 25.325956090000034], [87.74141011900008, 25.32734659700003], [87.74130521600006, 25.328773786000056], [87.74108797300005, 25.33101941800004], [87.74107961300007, 25.332066060000045], [87.74091855600005, 25.333173889000022], [87.74085235800004, 25.33430730300006], [87.74067150800005, 25.33493734600006], [87.74050141700008, 25.335607778000053], [87.74045961900003, 25.33623105500004], [87.74056204300007, 25.33710890900005], [87.74072950300007, 25.338251843000023], [87.74086856300005, 25.338493129000028], [87.74143898100004, 25.338695433000055], [87.74177604900007, 25.33890174800007], [87.74209705200008, 25.33977595700003], [87.74237586800007, 25.34029001500005], [87.74258569300008, 25.340832225000042], [87.74279163400007, 25.341189628000052], [87.74319961300006, 25.34145793400006], [87.74330444400005, 25.341726830000027], [87.74371551600007, 25.342148364000025], [87.74385889500007, 25.34260153200006], [87.74423994200004, 25.343014611000058], [87.74516417600006, 25.34254336500004], [87.74662293000006, 25.34197283700007], [87.74748730000005, 25.341732619000027], [87.74812192300004, 25.34033719100006], [87.74856186600005, 25.339890702000048], [87.74920905600004, 25.339009361000024], [87.75056762800006, 25.338304707000077], [87.75158321300006, 25.337723303000075], [87.75365294600005, 25.337195313000052], [87.75442941200004, 25.33651976300007], [87.75449448600006, 25.33566754000003], [87.75420397900007, 25.33472711400003], [87.75411418100003, 25.33324596600005], [87.75402438400005, 25.331764817000078], [87.75394100800008, 25.33038953600004], [87.75444848200004, 25.329250649000073], [87.75476315900005, 25.32854443000008], [87.75543590900008, 25.32808625800004], [87.75749263300008, 25.327346568000053], [87.75970432600008, 25.327235766000058], [87.76201304000006, 25.326801775000035], [87.76513661300004, 25.32632680100005], [87.76565402700004, 25.32619475200005]]]]}}, {"type": "Feature", "properties": {"OBJECTID": 4256, "GPCODE": "93851", "GPNAME_1": "BAIRIYA", "DIST_CEN_C": "10", "BLK_NAME": "AMDABAD", "ST_NAME": "BIHAR", "ST_CODE_1": "10", "GPCODE2011": "96405", "REMARKS": "FINALIZED", "MAP_STATUS": "COMPLETED", "BLK_C_2001": "100016", "BLK_C_2011": "01157", "DIST_NAME": "KATIHAR", "code2011": 0.0, "Shape_Leng": 0.18354661821, "Shape_Area": 0.00123447978, "Area": 13.7572}, "geometry": {"type": "MultiPolygon", "coordinates": [[[[87.76759207600008, 25.357246891000045], [87.76850186000007, 25.355485374000068], [87.76966139900009, 25.353051417000074], [87.77031346300004, 25.351830807000056], [87.77055513700003, 25.35102677900005], [87.77051515400007, 25.350368787000036], [87.77138398700004, 25.350325199000054], [87.77283210900003, 25.350252538000063], [87.77425622700008, 25.349785069000063], [87.77436105300006, 25.34911990100005], [87.77412823600008, 25.347679680000056], [87.77418506000004, 25.346224921000044], [87.77345391700004, 25.34375379900007], [87.77396277600008, 25.341416872000025], [87.77571552300003, 25.34160810000003], [87.77763869300009, 25.341232328000046], [87.78057726400004, 25.340712427000028], [87.77982917700007, 25.338516223000056], [87.77943820800004, 25.337139712000067], [87.77917750100005, 25.336222071000066], [87.77964855300007, 25.33554688600003], [87.78061311500005, 25.33456760300004], [87.78129767900003, 25.334138514000074], [87.78095440300007, 25.332761873000038], [87.78079237200006, 25.331722225000078], [87.77963952400006, 25.32951690400006], [87.77843084700004, 25.329904250000027], [87.77588283600005, 25.330244493000066], [87.77448600600007, 25.330314620000024], [87.77290839500006, 25.32933263600006], [87.76853800900005, 25.326580702000058], [87.76617141200006, 25.326062715000035], [87.76565406300006, 25.326194756000064], [87.76565402700004, 25.32619475200005], [87.76513661300004, 25.32632680100005], [87.76201304000006, 25.326801775000035], [87.75970432600008, 25.327235766000058], [87.75749263300008, 25.327346568000053], [87.75543590900008, 25.32808625800004], [87.75476315900005, 25.32854443000008], [87.75444848200004, 25.329250649000073], [87.75394100800008, 25.33038953600004], [87.75402438400005, 25.331764817000078], [87.75411418100003, 25.33324596600005], [87.75420397900007, 25.33472711400003], [87.75449448600006, 25.33566754000003], [87.75442941200004, 25.33651976300007], [87.75365294600005, 25.337195313000052], [87.75158321300006, 25.337723303000075], [87.75056762800006, 25.338304707000077], [87.74920905600004, 25.339009361000024], [87.74856186600005, 25.339890702000048], [87.74812192300004, 25.34033719100006], [87.74748730000005, 25.341732619000027], [87.74662293000006, 25.34197283700007], [87.74516417600006, 25.34254336500004], [87.74423994200004, 25.343014611000058], [87.74289675000006, 25.343646259000025], [87.74160316400008, 25.344033542000034], [87.74091158100003, 25.344469264000054], [87.74004627400006, 25.344664323000075], [87.73931509700003, 25.34486161600006], [87.73832183300004, 25.345361069000035], [87.73759925400003, 25.345982217000028], [87.73650236200007, 25.346271323000053], [87.73561033500005, 25.346620244000064], [87.73471021500006, 25.346820329000025], [87.73398144000004, 25.34713481800003], [87.73328742300004, 25.34744876600007], [87.73199436100003, 25.34786755500005], [87.73105938100008, 25.347820111000033], [87.72945535400004, 25.347847067000032], [87.72821560200003, 25.347958150000068], [87.72745452900006, 25.34815143800006], [87.72685112500005, 25.34803977100006], [87.72624275100009, 25.347684634000075], [87.72536631500003, 25.347338440000044], [87.72443144300007, 25.347290951000048], [87.72356592200003, 25.347481410000057], [87.72290691000006, 25.347812737000027], [87.72221196600003, 25.348325137000074], [87.72117271100007, 25.34876657500007], [87.72038776400007, 25.34876624900005], [87.71924443000006, 25.349222909000048], [87.71797744500003, 25.349456201000066], [87.71680456300004, 25.349435180000057], [87.71610604200004, 25.349776188000078], [87.71558710100004, 25.350154797000073], [87.71512474800005, 25.350383564000026], [87.71484559000004, 25.35082581200004], [87.71533456600008, 25.35190923400006], [87.71674535700004, 25.353856884000038], [87.71753548000004, 25.35484510300006], [87.71846095500007, 25.35613776100007], [87.71951122900003, 25.356724668000027], [87.72052247100004, 25.35734374900005], [87.72180880500008, 25.358052901000065], [87.72278409800003, 25.35837031400007], [87.72409759700008, 25.35895273400007], [87.72483643800007, 25.359120800000028], [87.72625250900006, 25.359615774000076], [87.72742956600007, 25.36007859700004], [87.72800563100003, 25.36055609300007], [87.72861846300003, 25.361123192000036], [87.72926287900003, 25.361536345000047], [87.73084122600005, 25.36219094300003], [87.73174460000007, 25.36068716500006], [87.73287462400003, 25.35885018600004], [87.73397475400003, 25.357009248000054], [87.73561437400008, 25.357256819000042], [87.73685656000004, 25.357506434000072], [87.73846708900004, 25.357786031000046], [87.74010915100007, 25.35815068200003], [87.74102234000009, 25.358590916000026], [87.74116332300008, 25.35892225300006], [87.74173755700008, 25.359305034000045], [87.74305062800005, 25.35986021900004], [87.74372431400008, 25.360002141000052], [87.74456240000006, 25.36016838000006], [87.74549799800008, 25.36024281600004], [87.74679994800005, 25.36025228500006], [87.74748625600006, 25.36038139300007], [87.75185310200004, 25.36120306300006], [87.75371072100006, 25.36308997100008], [87.75596300200004, 25.36429711100004], [87.75789370700005, 25.364992332000043], [87.76007408500004, 25.36501512600006], [87.76223963700005, 25.36239885400005], [87.76361599500007, 25.36114199000008], [87.76540285100003, 25.359468538000044], [87.76759207600008, 25.357246891000045]]]]}}, {"type": "Feature", "properties": {"OBJECTID": 4260, "GPCODE": "93856", "GPNAME_1": "JANGLATAL", "DIST_CEN_C": "10", "BLK_NAME": "AMDABAD", "ST_NAME": "BIHAR", "ST_CODE_1": "10", "GPCODE2011": "96410", "REMARKS": "FINALIZED", "MAP_STATUS": "COMPLETED", "BLK_C_2001": "100016", "BLK_C_2011": "01157", "DIST_NAME": "KATIHAR", "code2011": 0.0, "Shape_Leng": 0.24341538547, "Shape_Area": 0.00177873364, "Area": 19.8173}, "geometry": {"type": "MultiPolygon", "coordinates": [[[[87.73662127600005, 25.39693534500003], [87.73739628200008, 25.39643955400004], [87.73813375900005, 25.396530851000023], [87.73909576700004, 25.396911515000056], [87.73986433500005, 25.397065405000035], [87.74023594600004, 25.39725313100007], [87.74056197400006, 25.396674671000028], [87.74149932000006, 25.396094981000033], [87.74286924900008, 25.395282405000046], [87.74381676100006, 25.394959638000046], [87.74448311500004, 25.394736271000056], [87.74447027700006, 25.39411399200003], [87.74463739600003, 25.393294773000036], [87.74495334700003, 25.39246839200007], [87.74495147700009, 25.391651996000064], [87.74523787200008, 25.39011346700005], [87.74551367600003, 25.388787101000048], [87.74574610400003, 25.387768187000063], [87.74594694100006, 25.387142322000045], [87.74586611600006, 25.386354296000036], [87.74571575600004, 25.385567442000024], [87.74580294700007, 25.384975094000026], [87.74596659400004, 25.384715181000047], [87.74748305900005, 25.384752554000045], [87.74868577900008, 25.386108970000066], [87.75033043200006, 25.386344075000068], [87.75205285300007, 25.385940548000065], [87.75407878200008, 25.384781270000076], [87.75475627800006, 25.384429933000035], [87.75543367600005, 25.384078642000077], [87.75682149600004, 25.38199908100006], [87.75757020500004, 25.380903688000046], [87.75807394300006, 25.379608919000077], [87.75865529400005, 25.37767553200007], [87.75884355200003, 25.375021279000066], [87.75945057700005, 25.373509780000063], [87.75939936700007, 25.372665977000054], [87.75902540000004, 25.37226152200003], [87.75736170900007, 25.37171001200005], [87.75490459000008, 25.371515659000067], [87.75219605400008, 25.37101648400005], [87.75014569200005, 25.369849518000024], [87.74748617200004, 25.368125640000073], [87.74662173500008, 25.367774904000044], [87.74534466500006, 25.36752591000004], [87.74457727000004, 25.367417068000066], [87.74356830700003, 25.36715898800003], [87.74309576300004, 25.36689639900004], [87.74305349100007, 25.366531741000074], [87.74313726800005, 25.365772442000036], [87.74308633000004, 25.364740305000055], [87.74303290300008, 25.363834573000076], [87.74285154200004, 25.36322863500004], [87.74280930600008, 25.362624960000062], [87.74292283700004, 25.36162156300003], [87.74313951300007, 25.360796995000044], [87.74305062800005, 25.35986021900004], [87.74173755700008, 25.359305034000045], [87.74116332300008, 25.35892225300006], [87.74102234000009, 25.358590916000026], [87.74010915100007, 25.35815068200003], [87.73846708900004, 25.357786031000046], [87.73685656000004, 25.357506434000072], [87.73561437400008, 25.357256819000042], [87.73397475400003, 25.357009248000054], [87.73287462400003, 25.35885018600004], [87.73174460000007, 25.36068716500006], [87.73084122600005, 25.36219094300003], [87.72907737000008, 25.364376796000045], [87.72787960700003, 25.36606152300004], [87.72637515100007, 25.367818959000033], [87.72433978200007, 25.36936881400004], [87.72275698400006, 25.370455480000032], [87.72140647000003, 25.37147957700006], [87.72045572800005, 25.372375158000068], [87.71957708200006, 25.373391299000048], [87.71886658500006, 25.374616591000063], [87.71779035400004, 25.375938354000027], [87.71736680200007, 25.37661306700005], [87.71697743400006, 25.377012038000032], [87.71631066100008, 25.377456256000073], [87.71579562000005, 25.377541544000053], [87.71518961200007, 25.37730810100004], [87.71458828800007, 25.376573820000033], [87.71361766900003, 25.375755609000066], [87.71260631400008, 25.375136490000045], [87.71107496900004, 25.374602699000036], [87.71016098600006, 25.374130808000075], [87.70821090800007, 25.373527311000032], [87.70659065300003, 25.37301753400004], [87.70548304600004, 25.37279693000005], [87.70431447900006, 25.372753284000055], [87.70364145000008, 25.37264268100006], [87.70336833200008, 25.37240361000005], [87.70322386900006, 25.371891848000075], [87.70307508500008, 25.37092440300006], [87.70304447500007, 25.369409278000035], [87.70295580900006, 25.36846797000004], [87.70297417200004, 25.367651215000024], [87.70289724800006, 25.36728707700007], [87.70272357200008, 25.36680727600003], [87.70250644300006, 25.366143349000026], [87.70249292000005, 25.365475935000063], [87.70245394800008, 25.365020960000038], [87.70214735200005, 25.36484558500007], [87.70137933100006, 25.364705039000057], [87.70105942300006, 25.36436754300007], [87.70081370200006, 25.363762644000076], [87.70058733300004, 25.363130329000057], [87.70031452300003, 25.36290939500003], [87.69999789200006, 25.36297324900005], [87.69980438200008, 25.363233584000056], [87.69968223300003, 25.363826535000044], [87.69950519200006, 25.364163293000047], [87.69910007500005, 25.36403474800005], [87.69863989000004, 25.363631861000044], [87.69814988400003, 25.363234049000027], [87.69775875300007, 25.36281196500005], [87.69702980600005, 25.36238657100006], [87.69655798400004, 25.362150816000053], [87.69600518700008, 25.362083247000044], [87.69564430800006, 25.361683252000034], [87.69537159000004, 25.36121417000004], [87.69522402600006, 25.36054899000004], [87.69483115800006, 25.36028488200003], [87.69419823600003, 25.36018708900008], [87.69320951600008, 25.360190014000068], [87.69184034500006, 25.36004572300004], [87.69048132200004, 25.359914928000023], [87.68891247400006, 25.359972432000063], [87.68812807100005, 25.35999901200006], [87.68754219600004, 25.360022187000027], [87.68694825800009, 25.35963954600004], [87.68610202100007, 25.35906267200005], [87.68532738100004, 25.358588243000042], [87.68478675400007, 25.358385179000038], [87.68298755500007, 25.35859987200007], [87.68269187900006, 25.358722012000044], [87.68241422400007, 25.359245417000068], [87.68200795400008, 25.359797873000048], [87.68170042700007, 25.360317227000053], [87.68138034400005, 25.360958596000046], [87.68059647600006, 25.361760944000025], [87.68069605100004, 25.36301336100007], [87.68084961900007, 25.363980678000075], [87.68070259600006, 25.36507470400005], [87.68072806100008, 25.36634646300007], [87.68025629000005, 25.367599273000053], [87.68003669300003, 25.368297595000058], [87.67988426500006, 25.369121078000035], [87.67936178600007, 25.369828882000036], [87.67890767900008, 25.37047246000003], [87.67858823100005, 25.37114531000003], [87.67844413700004, 25.372388229000023], [87.67922254500007, 25.37279945800003], [87.67979858800004, 25.373277124000026], [87.68072510400003, 25.373888857000054], [87.68212307800007, 25.375214508000056], [87.68311057200003, 25.376136503000055], [87.68392496500007, 25.376853786000027], [87.68450791300006, 25.377678681000077], [87.68494761800008, 25.378785634000053], [87.68496860200008, 25.379831873000057], [87.68498594200008, 25.38069763200008], [87.68489055100008, 25.38163755900007], [87.68576925400004, 25.382092173000046], [87.68629538800008, 25.38255708400004], [87.68695774100007, 25.383119022000074], [87.68716465100005, 25.383526120000056], [87.68724330800006, 25.383980413000074], [87.68743541700007, 25.38438769100003], [87.68898714400007, 25.384452183000064], [87.69007382600006, 25.38437106300006], [87.69109161400007, 25.384327090000056], [87.69215201700007, 25.383930642000053], [87.69349435400005, 25.383466265000038], [87.69440223300006, 25.38363613300004], [87.69511687300007, 25.383592716000067], [87.69556687200009, 25.38348151100007], [87.69619633500008, 25.383150773000068], [87.69670901700005, 25.382948240000076], [87.69737778600006, 25.38284238400007], [87.69779745600005, 25.382957215000033], [87.69805348600005, 25.383331903000055], [87.69812946700006, 25.383894446000056], [87.69839904600008, 25.384692922000056], [87.69887527200007, 25.385884944000054], [87.69952720200007, 25.38691614700008], [87.70005164300005, 25.38803064700005], [87.70032892100005, 25.388468059000047], [87.70125739600007, 25.38892177500003], [87.70251105400007, 25.38972184100004], [87.70370053800008, 25.390793684000073], [87.70482279100008, 25.391731244000027], [87.70608315600003, 25.392860564000046], [87.70731295200005, 25.39419777100005], [87.70780753600008, 25.393837657000063], [87.70847176300003, 25.393749865000075], [87.70892377600006, 25.39374231000005], [87.70927198200008, 25.393510959000025], [87.70994131100008, 25.39269685100004], [87.71046295800005, 25.391952858000025], [87.71071004000004, 25.39188553500003], [87.71150267500008, 25.392251196000075], [87.71243138800008, 25.392709352000054], [87.71306439600005, 25.393046081000023], [87.71371067800004, 25.393057877000047], [87.71424865700004, 25.393360065000024], [87.71457180400006, 25.393855360000032], [87.71567842800005, 25.393530100000078], [87.71722780800008, 25.393228960000044], [87.71947548000009, 25.392807851000043], [87.72228331400004, 25.39207507900005], [87.72419770500005, 25.39163695600007], [87.72622583900005, 25.391178758000024], [87.72808691500006, 25.390809148000073], [87.72934707400003, 25.390463133000026], [87.72969080300004, 25.390502489000028], [87.72996794700003, 25.390930827000034], [87.73044793400004, 25.39155883500007], [87.73134943200006, 25.392626224000026], [87.73239241600004, 25.394291123000073], [87.73293478200009, 25.39554058600004], [87.73355739600004, 25.39657653000006], [87.73390988400007, 25.397526864000042], [87.73397386000005, 25.398468554000033], [87.73472037600004, 25.39778837600005], [87.73585899000005, 25.397088067000027], [87.73662127600005, 25.39693534500003]]]]}}, {"type": "Feature", "properties": {"OBJECTID": 4263, "GPCODE": "93850", "GPNAME_1": "BAIDA", "DIST_CEN_C": "10", "BLK_NAME": "AMDABAD", "ST_NAME": "BIHAR", "ST_CODE_1": "10", "GPCODE2011": "96404", "REMARKS": "FINALIZED", "MAP_STATUS": "COMPLETED", "BLK_C_2001": "100016", "BLK_C_2011": "01157", "DIST_NAME": "KATIHAR", "code2011": 0.0, "Shape_Leng": 0.14446986452, "Shape_Area": 0.00074450185, "Area": 8.29232}, "geometry": {"type": "MultiPolygon", "coordinates": [[[[87.71831658500008, 25.428377528000055], [87.71908621900008, 25.428333027000065], [87.72017642000003, 25.428404915000044], [87.72059484900007, 25.42796035600003], [87.72112282100005, 25.427522967000073], [87.72184997600004, 25.427104779000047], [87.72242582700005, 25.426576329000056], [87.72332839100005, 25.426714505000064], [87.72442789200005, 25.426515557000073], [87.72575730100004, 25.425888704000045], [87.72612926100004, 25.425359248000063], [87.72555631900008, 25.42457041700004], [87.72487685900006, 25.42294443000003], [87.72455237900004, 25.421903377000035], [87.72434350400005, 25.420197246000043], [87.72570592500006, 25.42021496900003], [87.72616495300008, 25.419814823000024], [87.72704081100005, 25.419376012000043], [87.72805485000004, 25.419859598000073], [87.72919498900006, 25.420679405000044], [87.72989388000008, 25.420581965000054], [87.73058592500007, 25.42038983200007], [87.73151455900006, 25.420347106000065], [87.73183998100006, 25.419971764000024], [87.73230980300008, 25.419372887000065], [87.73327539800005, 25.419189677000077], [87.73392133800007, 25.418935215000033], [87.73409555700005, 25.41846316500005], [87.73394093000007, 25.417464344000052], [87.73384993500008, 25.41690653300003], [87.73442561500008, 25.41662165500003], [87.73591046000007, 25.41655141900003], [87.73713068700005, 25.41642709200005], [87.73828749700004, 25.41660143100006], [87.73935583100007, 25.41658338900004], [87.73989869700006, 25.416876399000046], [87.74002387500008, 25.41740660000005], [87.74003578800006, 25.417983751000065], [87.73991057800004, 25.418423406000045], [87.73899909100004, 25.418817800000056], [87.73840944100004, 25.419391619000066], [87.73786220200003, 25.42033911200008], [87.73732402700006, 25.42100225300004], [87.73742194700003, 25.421893753000063], [87.73737608500005, 25.423531938000053], [87.73757176700008, 25.425075845000038], [87.73807354200005, 25.42674991900003], [87.73861523800008, 25.42698437100006], [87.73934316200007, 25.426606616000072], [87.74027860900009, 25.425923170000033], [87.74107264100007, 25.425133868000046], [87.74158134200007, 25.423763003000033], [87.74158991000007, 25.42272986200004], [87.74194080400008, 25.421907474000022], [87.74218603400004, 25.420780106000052], [87.74179773900005, 25.419785314000023], [87.74140875600006, 25.418758939000043], [87.74171801100005, 25.41735986900005], [87.74122269600008, 25.413096488000065], [87.74113496800004, 25.411974778000058], [87.74054177200009, 25.41068115400003], [87.73968144600008, 25.409450734000075], [87.73942171100003, 25.408183128000076], [87.73945954500005, 25.406878814000038], [87.73883307500006, 25.405901527000026], [87.73850355400003, 25.405343274000074], [87.73834081400008, 25.40467843500005], [87.73787744900005, 25.40414041300005], [87.73768181700007, 25.403570865000063], [87.73756075900008, 25.403239090000056], [87.73705665000006, 25.403139362000047], [87.73635803700006, 25.40324143600003], [87.73590249000006, 25.40308222500005], [87.73554168300006, 25.402695866000045], [87.73520535400007, 25.401808422000045], [87.73511830500007, 25.400713678000045], [87.73519060700005, 25.400360635000027], [87.73556995900003, 25.39971371300004], [87.73584418500008, 25.39927150400007], [87.73597119200008, 25.39892199700006], [87.73573294300007, 25.398695988000043], [87.73503123500006, 25.398649256000056], [87.73397386000005, 25.398468554000033], [87.73221207600005, 25.398832167000023], [87.72962192300008, 25.39903816900005], [87.72620504700006, 25.39940240900006], [87.72381930300008, 25.399641075000034], [87.72206205300006, 25.400229894000063], [87.72067017800003, 25.400708868000038], [87.71834333900006, 25.401397547000045], [87.71635946800006, 25.40208939100006], [87.71593216300005, 25.40209656500008], [87.71579844800004, 25.40138601800004], [87.71571447600007, 25.400922878000074], [87.71524769700005, 25.400452527000027], [87.71354456200004, 25.401022330000046], [87.71123641400004, 25.401656417000027], [87.71154357700004, 25.402828605000025], [87.71172774900003, 25.403822474000037], [87.71034884300008, 25.404206412000065], [87.70910789700008, 25.404772982000054], [87.70808153400003, 25.405141942000057], [87.70693498200006, 25.405463319000035], [87.70673615000004, 25.405710277000026], [87.70602596700007, 25.406962556000053], [87.70570322100008, 25.407960341000035], [87.70549034300006, 25.408735317000037], [87.70524110500008, 25.40943412200005], [87.70520678800005, 25.410440606000066], [87.70505712600004, 25.41237381700006], [87.70474812600008, 25.412825525000073], [87.70350642300008, 25.413608595000028], [87.70327046100005, 25.414474119000033], [87.70305227900008, 25.415235618000054], [87.70323253000004, 25.416035566000062], [87.70378024300004, 25.41657216300007], [87.70517246700007, 25.416837633000057], [87.70602983000003, 25.417202318000022], [87.70713719900004, 25.41739575300005], [87.70817100100004, 25.41812283200005], [87.70953482500005, 25.41870444700004], [87.71049410700005, 25.41967634200006], [87.71155492200006, 25.42173358200006], [87.71171087600004, 25.422069257000032], [87.71163540200007, 25.422756196000023], [87.71275919900006, 25.423752336000064], [87.71384792200007, 25.424735467000062], [87.71485627900006, 25.425674937000053], [87.71562151200004, 25.426388329000076], [87.71620749200008, 25.426847673000054], [87.71669200100007, 25.427204870000025], [87.71701624900004, 25.427501653000036], [87.71722460300003, 25.427971867000053], [87.71743108800007, 25.428347236000036], [87.71797058300007, 25.428473565000047], [87.71831658500008, 25.428377528000055]]]]}}, {"type": "Feature", "properties": {"OBJECTID": 4435, "GPCODE": "93855", "GPNAME_1": "EAST KARIMULLAPUR", "DIST_CEN_C": "10", "BLK_NAME": "AMDABAD", "ST_NAME": "BIHAR", "ST_CODE_1": "10", "GPCODE2011": "96409", "REMARKS": "FINALIZED", "MAP_STATUS": "COMPLETED", "BLK_C_2001": "100016", "BLK_C_2011": "01157", "DIST_NAME": "KATIHAR", "code2011": 0.0, "Shape_Leng": 0.19540020944, "Shape_Area": 0.00138721426, "Area": 15.4636}, "geometry": {"type": "MultiPolygon", "coordinates": [[[[87.79898948300007, 25.329452111000023], [87.79898946000003, 25.329452066000044], [87.79860048800003, 25.32868848800007], [87.79808271600007, 25.327770263000048], [87.79728370200007, 25.326026800000022], [87.79689386600006, 25.325311932000034], [87.79604994700009, 25.324724824000043], [87.79382496200003, 25.32420731600007], [87.79051961200008, 25.323009635000062], [87.78739997100007, 25.321068053000033], [87.78436365700009, 25.318597623000073], [87.78093764300007, 25.315412224000056], [87.77941669000006, 25.313180255000077], [87.77864356500004, 25.311855097000034], [87.77816473300004, 25.309675755000058], [87.77791611800006, 25.307484845000033], [87.77799993500008, 25.30506733900006], [87.77895924200004, 25.303760046000036], [87.78041252200006, 25.303038995000065], [87.78131221100006, 25.302592610000033], [87.78252700900003, 25.301692152000044], [87.78289768100007, 25.299946042000045], [87.78044012200007, 25.299192635000054], [87.77878378900004, 25.298925017000045], [87.77664135700007, 25.29859413300005], [87.77488359000006, 25.29824390400006], [87.77330227400006, 25.297621712000023], [87.77230341500007, 25.297058023000034], [87.77128906600007, 25.29465332500007], [87.77038161700006, 25.292418767000072], [87.76885415600003, 25.291092237000043], [87.76552063200006, 25.290207043000066], [87.76375770700008, 25.28976928800006], [87.76250748200005, 25.289831978000052], [87.76053109300005, 25.28905404900007], [87.75728861300007, 25.288076454000077], [87.75492226000006, 25.287230331000046], [87.75346909500007, 25.28712769400005], [87.75240595800005, 25.28709327000007], [87.75118753300006, 25.287680446000024], [87.75084528000008, 25.28839916900006], [87.74943977000004, 25.289083452000057], [87.74828048500007, 25.289053812000077], [87.74830333800008, 25.289312665000068], [87.74922417500005, 25.29051419500007], [87.75070116700005, 25.29115355400006], [87.75079449900005, 25.29269419800005], [87.75102542000008, 25.294346865000023], [87.75014878100006, 25.294985129000054], [87.74846118600004, 25.29518850900007], [87.74857602800006, 25.297084718000065], [87.74748478000004, 25.29927652500004], [87.74675441900007, 25.29926181700006], [87.74642083100008, 25.29946139200007], [87.74639765900008, 25.299782048000054], [87.74643463100006, 25.30062041900004], [87.74649068000008, 25.301896060000047], [87.74647885900004, 25.302775956000062], [87.74652791400007, 25.303713368000047], [87.74658381500006, 25.304745383000068], [87.74657144300005, 25.30583722600005], [87.74645548000007, 25.306718828000044], [87.74637537800004, 25.307658459000038], [87.74612662500004, 25.30836179000005], [87.74577294100004, 25.309035433000076], [87.74528824900005, 25.30986007300004], [87.74479522100006, 25.310761545000048], [87.74436510900006, 25.311102643000027], [87.74442412200005, 25.31228346000006], [87.74458051100004, 25.313372481000044], [87.74452033400007, 25.313829105000025], [87.74433609700003, 25.314531415000033], [87.74432060900006, 25.315469929000074], [87.74433743500003, 25.31629058900006], [87.74434985100004, 25.31689936500004], [87.74456902700007, 25.317653490000055], [87.74471610300003, 25.31828705600003], [87.74442510500006, 25.31886934100004], [87.74433625500006, 25.319385101000023], [87.74428294800003, 25.319931808000035], [87.74535047500007, 25.31991372300007], [87.74625092600007, 25.319988701000057], [87.74686865000007, 25.319960197000057], [87.74853280500008, 25.322064902000022], [87.750408, 25.32218335400006], [87.75242522200006, 25.322719066000047], [87.75353055400006, 25.323618705000058], [87.75452583800006, 25.324630038000066], [87.75552755100006, 25.32574714100008], [87.75683362300003, 25.32610621400005], [87.75998929100007, 25.326160320000042], [87.76277655400008, 25.32591453300006], [87.76565402700004, 25.32619475200005], [87.76565406300006, 25.326194756000064], [87.76617141200006, 25.326062715000035], [87.76853800900005, 25.326580702000058], [87.77290839500006, 25.32933263600006], [87.77448600600007, 25.330314620000024], [87.77588283600005, 25.330244493000066], [87.77843084700004, 25.329904250000027], [87.77963952400006, 25.32951690400006], [87.78079237200006, 25.331722225000078], [87.78095440300007, 25.332761873000038], [87.78129767900003, 25.334138514000074], [87.78061311500005, 25.33456760300004], [87.77964855300007, 25.33554688600003], [87.77917750100005, 25.336222071000066], [87.77943820800004, 25.337139712000067], [87.77982917700007, 25.338516223000056], [87.78057726400004, 25.340712427000028], [87.78431916500006, 25.340852383000026], [87.78431921600009, 25.340852385000062], [87.78422071000006, 25.340113074000044], [87.78629047100009, 25.338385478000077], [87.78754911400006, 25.33736921900004], [87.78880768700003, 25.336353002000067], [87.79009487300004, 25.33198216900007], [87.79077063600005, 25.33032460800007], [87.79166131100004, 25.329644494000036], [87.79367452400004, 25.329543194000053], [87.79670730700008, 25.329602281000064], [87.79898948300007, 25.329452111000023]]]]}}, {"type": "Feature", "properties": {"OBJECTID": 4436, "GPCODE": "93853", "GPNAME_1": "CHOUKIYA PAHARPUR", "DIST_CEN_C": "10", "BLK_NAME": "AMDABAD", "ST_NAME": "BIHAR", "ST_CODE_1": "10", "GPCODE2011": "96407", "REMARKS": "FINALIZED", "MAP_STATUS": "COMPLETED", "BLK_C_2001": "100016", "BLK_C_2011": "01157", "DIST_NAME": "KATIHAR", "code2011": 0.0, "Shape_Leng": 0.3452796094, "Shape_Area": 0.00289557569, "Area": 32.2945}, "geometry": {"type": "MultiPolygon", "coordinates": [[[[87.84662588900005, 25.26453745500004], [87.84522821800005, 25.26334361100004], [87.84150878800006, 25.262086714000077], [87.83778576100008, 25.260769809000067], [87.83428276900008, 25.258718947000034], [87.83137028600004, 25.25549383500004], [87.83035774400008, 25.25301577700003], [87.82954709200004, 25.251671611000063], [87.82970108200004, 25.25094117900005], [87.82984906100006, 25.250495258000058], [87.82992472900008, 25.250267420000057], [87.82952481200005, 25.249143445000072], [87.82835123200005, 25.248359683000047], [87.82501375400005, 25.245758292000062], [87.82247590700007, 25.244320728000048], [87.81898828000004, 25.242509642000073], [87.81850969700008, 25.24193931700006], [87.81972784000004, 25.238945099000034], [87.82126367500007, 25.23510006500004], [87.82427228900008, 25.232127410000032], [87.82601151800003, 25.225934450000068], [87.82767488500008, 25.223012324000024], [87.82117441600008, 25.22325690300005], [87.81448679700009, 25.224325239000052], [87.80121282900006, 25.228703978000055], [87.79076922700006, 25.23113746000007], [87.77719597100008, 25.233891286000073], [87.76493968200003, 25.235982125000078], [87.75565238600007, 25.239187104000052], [87.74507435800007, 25.243664869000042], [87.73757048100003, 25.24659828700004], [87.73704405500007, 25.249885686000027], [87.73445402800007, 25.25222830000007], [87.72373744800007, 25.253646014000026], [87.71662631200007, 25.25533839800005], [87.71105738600005, 25.257607203000077], [87.71993459700008, 25.259141700000043], [87.72784231500003, 25.260588136000024], [87.73306912700008, 25.261533376000045], [87.73842624500008, 25.26253488900005], [87.74086498900004, 25.26332379300004], [87.74291189400003, 25.26412829700007], [87.74748446000007, 25.263654108000026], [87.75026034100006, 25.264215172000036], [87.75303624700007, 25.264776187000052], [87.75590167900003, 25.26434843800007], [87.76030303300007, 25.264767306000067], [87.76280305400007, 25.265578796000057], [87.76360126200007, 25.264768210000057], [87.76533378600004, 25.264120926000032], [87.76826545700004, 25.26292303100007], [87.77081727400008, 25.261814208000033], [87.77291254800008, 25.260798327000032], [87.77503749200008, 25.260271338000052], [87.77723062900003, 25.25960068200004], [87.78012774100006, 25.259104880000052], [87.78326373700008, 25.25873703600007], [87.78580226800005, 25.258679420000078], [87.78855846200008, 25.258400632000075], [87.78990259900007, 25.25770254400004], [87.79078588900006, 25.257027549000043], [87.79226224800004, 25.255972576000033], [87.79330762700005, 25.25542952400008], [87.79562867000004, 25.25433188900007], [87.79830252600004, 25.25641993200003], [87.80007388500007, 25.257686516000035], [87.80125612400008, 25.258181603000025], [87.80183404000007, 25.25876872400005], [87.80207796800005, 25.25943435000005], [87.80218667400004, 25.260106699000062], [87.80161240500007, 25.26069031700007], [87.80129702900007, 25.261075963000053], [87.80104926100006, 25.26145820100004], [87.80103033900008, 25.262260325000057], [87.80115393600005, 25.264287855000077], [87.80159666300005, 25.26599103700005], [87.80333464700004, 25.26559535100006], [87.80549303400005, 25.264315604000046], [87.80720473800005, 25.263489684000035], [87.80896131200006, 25.263401073000068], [87.810579, 25.264367124000046], [87.81278231900006, 25.26604319300003], [87.81445632300006, 25.266821441000047], [87.81577007100003, 25.26724811200006], [87.81717396500005, 25.268040063000058], [87.81902448100004, 25.268377927000074], [87.82119410100006, 25.268391566000048], [87.82311583000006, 25.26891725100006], [87.82388373400005, 25.268878439000048], [87.82492898800007, 25.268335274000037], [87.82607666700005, 25.268207191000045], [87.82588928700005, 25.266923593000058], [87.82592023800004, 25.26641187900003], [87.82683511500005, 25.265061853000077], [87.82779836800006, 25.264502992000075], [87.82921386900006, 25.264204625000048], [87.83007689900006, 25.264047582000046], [87.83139575300004, 25.26420763400006], [87.83260077700004, 25.264543424000067], [87.83376085100008, 25.265164949000052], [87.83486580500005, 25.26590264200007], [87.83658186500008, 25.26745961200004], [87.83866744400007, 25.26894125000007], [87.84007967400004, 25.26960665400003], [87.84205131800007, 25.270243613000048], [87.84428527000006, 25.27109412200008], [87.84530862400004, 25.271000038000068], [87.84621429500004, 25.26923303700005], [87.84711040300004, 25.265958175000037], [87.84662588900005, 25.26453745500004]]]]}}, {"type": "Feature", "properties": {"OBJECTID": 4437, "GPCODE": "93852", "GPNAME_1": "BHAWANIPUR KHATTI", "DIST_CEN_C": "10", "BLK_NAME": "AMDABAD", "ST_NAME": "BIHAR", "ST_CODE_1": "10", "GPCODE2011": "96406", "REMARKS": "FINALIZED", "MAP_STATUS": "COMPLETED", "BLK_C_2001": "100016", "BLK_C_2011": "01157", "DIST_NAME": "KATIHAR", "code2011": 0.0, "Shape_Leng": 0.15290892892, "Shape_Area": 0.00061648158, "Area": 6.87431}, "geometry": {"type": "MultiPolygon", "coordinates": [[[[87.84526427200007, 25.273583835000068], [87.84530862400004, 25.271000038000068], [87.84428527000006, 25.27109412200008], [87.84205131800007, 25.270243613000048], [87.84007967400004, 25.26960665400003], [87.83866744400007, 25.26894125000007], [87.83658186500008, 25.26745961200004], [87.83486580500005, 25.26590264200007], [87.83376085100008, 25.265164949000052], [87.83260077700004, 25.264543424000067], [87.83139575300004, 25.26420763400006], [87.83007689900006, 25.264047582000046], [87.82921386900006, 25.264204625000048], [87.82779836800006, 25.264502992000075], [87.82683511500005, 25.265061853000077], [87.82592023800004, 25.26641187900003], [87.82588928700005, 25.266923593000058], [87.82607666700005, 25.268207191000045], [87.82492898800007, 25.268335274000037], [87.82388373400005, 25.268878439000048], [87.82311583000006, 25.26891725100006], [87.82119410100006, 25.268391566000048], [87.81902448100004, 25.268377927000074], [87.81717396500005, 25.268040063000058], [87.81577007100003, 25.26724811200006], [87.81445632300006, 25.266821441000047], [87.81278231900006, 25.26604319300003], [87.810579, 25.264367124000046], [87.80896131200006, 25.263401073000068], [87.80720473800005, 25.263489684000035], [87.80549303400005, 25.264315604000046], [87.80333464700004, 25.26559535100006], [87.80159666300005, 25.26599103700005], [87.80250585100003, 25.268316266000056], [87.80260725300008, 25.269979309000064], [87.80332193300006, 25.27202847500007], [87.80426157900007, 25.273470512000074], [87.80654766100008, 25.275499981000053], [87.80844900100004, 25.277668018000043], [87.80991151300003, 25.279083740000033], [87.81157346000003, 25.280548843000076], [87.81264405500008, 25.28198422300005], [87.81533779100005, 25.281568202000074], [87.81788937600004, 25.280458716000055], [87.82013375000008, 25.279364705000035], [87.82199400400003, 25.278290069000036], [87.82371777400004, 25.277502453000068], [87.82520253900003, 25.276586871000063], [87.82639284100009, 25.275896341000077], [87.82880767700004, 25.275073723000048], [87.83092387700003, 25.274406294000073], [87.83283085900007, 25.27283882300003], [87.83545020700006, 25.273412208000025], [87.83875485400006, 25.27545557800005], [87.83781580800007, 25.278629841000054], [87.83748928700004, 25.281772252000053], [87.83755089200008, 25.284895007000046], [87.83722781100005, 25.28703454600003], [87.83968193200008, 25.28791297600003], [87.84247375300004, 25.28901006800004], [87.84439248200005, 25.289620649000028], [87.84735672600004, 25.290355116000057], [87.85077735800007, 25.29112529200006], [87.85291007800004, 25.292592650000074], [87.85343796700005, 25.290010890000076], [87.85271047800006, 25.28586814600004], [87.85176977300006, 25.282658238000067], [87.85134228300006, 25.28009837700006], [87.85005023800005, 25.27887303800003], [87.84818937500006, 25.278291308000064], [87.84728871900006, 25.27738422300007], [87.84638810400008, 25.27647716000007], [87.84526427200007, 25.273583835000068]]]]}}, {"type": "Feature", "properties": {"OBJECTID": 4448, "GPCODE": "93863", "GPNAME_1": "SOUTH KARIMULLAPUR", "DIST_CEN_C": "10", "BLK_NAME": "AMDABAD", "ST_NAME": "BIHAR", "ST_CODE_1": "10", "GPCODE2011": "96417", "REMARKS": "FINALIZED", "MAP_STATUS": "COMPLETED", "BLK_C_2001": "100016", "BLK_C_2011": "01157", "DIST_NAME": "KATIHAR", "code2011": 0.0, "Shape_Leng": 0.37399060612, "Shape_Area": 0.00273690552, "Area": 30.5156}, "geometry": {"type": "MultiPolygon", "coordinates": [[[[87.71091812800006, 25.31486708700004], [87.71185160900006, 25.31460794700007], [87.71318774900004, 25.31461726200007], [87.71409021900007, 25.314543549000064], [87.71538359000004, 25.314156490000073], [87.71617924500003, 25.31371918800005], [87.71694134100005, 25.313584700000035], [87.71756641300004, 25.313059934000023], [87.71775200100006, 25.31241631200004], [87.71831690600004, 25.312104616000056], [87.71998570800008, 25.31210826000006], [87.72145209200005, 25.31193034000006], [87.72315384500007, 25.311843169000042], [87.72418767000005, 25.311884520000035], [87.72522842000006, 25.312020370000027], [87.72602593300007, 25.311916793000023], [87.72648398200005, 25.311485034000043], [87.72687373600007, 25.310869558000036], [87.72719526600008, 25.310318323000047], [87.72738833000005, 25.310044411000035], [87.72828938400005, 25.30990754100003], [87.72919301800005, 25.309892304000073], [87.73175908300004, 25.309817569000074], [87.73303365600003, 25.309976627000026], [87.73403407900008, 25.309837987000037], [87.73469065400008, 25.30940292200006], [87.73599448500005, 25.309534315000064], [87.73742994900005, 25.309541684000067], [87.73887020700005, 25.309544467000023], [87.74023739300009, 25.309611635000067], [87.74177828500007, 25.309680339000067], [87.74291147400004, 25.309719823000023], [87.74441703000008, 25.309757544000036], [87.74528824900005, 25.30986007300004], [87.74577294100004, 25.309035433000076], [87.74612662500004, 25.30836179000005], [87.74637537800004, 25.307658459000038], [87.74645548000007, 25.306718828000044], [87.74657144300005, 25.30583722600005], [87.74658381500006, 25.304745383000068], [87.74652791400007, 25.303713368000047], [87.74647885900004, 25.302775956000062], [87.74649068000008, 25.301896060000047], [87.74643463100006, 25.30062041900004], [87.74639765900008, 25.299782048000054], [87.74642083100008, 25.29946139200007], [87.74675441900007, 25.29926181700006], [87.74748478000004, 25.29927652500004], [87.74857602800006, 25.297084718000065], [87.74846118600004, 25.29518850900007], [87.75014878100006, 25.294985129000054], [87.75102542000008, 25.294346865000023], [87.75079449900005, 25.29269419800005], [87.75070116700005, 25.29115355400006], [87.74922417500005, 25.29051419500007], [87.74830333800008, 25.289312665000068], [87.74828048500007, 25.289053812000077], [87.74943977000004, 25.289083452000057], [87.75084528000008, 25.28839916900006], [87.75118753300006, 25.287680446000024], [87.75240595800005, 25.28709327000007], [87.75346909500007, 25.28712769400005], [87.75492226000006, 25.287230331000046], [87.75728861300007, 25.288076454000077], [87.76053109300005, 25.28905404900007], [87.76250748200005, 25.289831978000052], [87.76375770700008, 25.28976928800006], [87.76552063200006, 25.290207043000066], [87.76885415600003, 25.291092237000043], [87.77038161700006, 25.292418767000072], [87.77128906600007, 25.29465332500007], [87.77230341500007, 25.297058023000034], [87.77330227400006, 25.297621712000023], [87.77488359000006, 25.29824390400006], [87.77664135700007, 25.29859413300005], [87.77878378900004, 25.298925017000045], [87.78044012200007, 25.299192635000054], [87.78289768100007, 25.299946042000045], [87.78353372600003, 25.299300232000064], [87.78460267200006, 25.297843304000025], [87.78640906100009, 25.295823108000036], [87.78709330500004, 25.294385504000047], [87.78797522200006, 25.29302561700007], [87.78848303400008, 25.29185996500007], [87.78722383200005, 25.290231213000027], [87.78857025300005, 25.28909537000004], [87.78912199800004, 25.288471838000078], [87.78957589100008, 25.287317003000055], [87.78991364800004, 25.28640639400004], [87.79017886700007, 25.28538024100004], [87.79054905700008, 25.28500412900007], [87.79082120100009, 25.285169175000078], [87.79193901000008, 25.285232110000038], [87.79275573100006, 25.284654776000025], [87.79371389900007, 25.28424915000005], [87.79501321700008, 25.28406454000003], [87.79618183600007, 25.28388650100004], [87.79761546600008, 25.283754748000035], [87.79870058200004, 25.283283053000048], [87.79968054100004, 25.28323368300005], [87.80047889000008, 25.283431751000023], [87.80165463000003, 25.284444867000047], [87.80304459700005, 25.284672749000038], [87.80336756500003, 25.28459692000007], [87.80419509900008, 25.284197720000066], [87.80515684300008, 25.283851299000048], [87.80663039400008, 25.283300412000074], [87.80757400600004, 25.282657046000054], [87.80894946500007, 25.28264731300004], [87.81062984700009, 25.282264604000034], [87.81264405500008, 25.28198422300005], [87.81157346000003, 25.280548843000076], [87.80991151300003, 25.279083740000033], [87.80844900100004, 25.277668018000043], [87.80654766100008, 25.275499981000053], [87.80426157900007, 25.273470512000074], [87.80332193300006, 25.27202847500007], [87.80260725300008, 25.269979309000064], [87.80250585100003, 25.268316266000056], [87.80159666300005, 25.26599103700005], [87.80115393600005, 25.264287855000077], [87.80103033900008, 25.262260325000057], [87.80104926100006, 25.26145820100004], [87.80129702900007, 25.261075963000053], [87.80161240500007, 25.26069031700007], [87.80218667400004, 25.260106699000062], [87.80207796800005, 25.25943435000005], [87.80183404000007, 25.25876872400005], [87.80125612400008, 25.258181603000025], [87.80007388500007, 25.257686516000035], [87.79830252600004, 25.25641993200003], [87.79562867000004, 25.25433188900007], [87.79330762700005, 25.25542952400008], [87.79226224800004, 25.255972576000033], [87.79078588900006, 25.257027549000043], [87.78990259900007, 25.25770254400004], [87.78855846200008, 25.258400632000075], [87.78580226800005, 25.258679420000078], [87.78326373700008, 25.25873703600007], [87.78012774100006, 25.259104880000052], [87.77723062900003, 25.25960068200004], [87.77503749200008, 25.260271338000052], [87.77291254800008, 25.260798327000032], [87.77081727400008, 25.261814208000033], [87.76826545700004, 25.26292303100007], [87.76533378600004, 25.264120926000032], [87.76360126200007, 25.264768210000057], [87.76280305400007, 25.265578796000057], [87.76030303300007, 25.264767306000067], [87.75590167900003, 25.26434843800007], [87.75303624700007, 25.264776187000052], [87.75026034100006, 25.264215172000036], [87.74748446000007, 25.263654108000026], [87.74291189400003, 25.26412829700007], [87.74291220500004, 25.265842399000064], [87.74276544300005, 25.266918494000038], [87.74277937100004, 25.267599387000075], [87.74278028900005, 25.26837523300003], [87.74308744100006, 25.26882566200004], [87.74350869100005, 25.269030619000034], [87.74367454700007, 25.26961873600004], [87.74368832000005, 25.27077778100005], [87.74374418300005, 25.27180981500004], [87.74394025300006, 25.273141706000047], [87.74430503100007, 25.274709897000037], [87.74482929500005, 25.275824226000054], [87.74529090900006, 25.277273449000063], [87.74585062900007, 25.278418817000045], [87.74636740600005, 25.27916783300003], [87.74684945800004, 25.279917571000055], [87.74711656700003, 25.28266063700005], [87.74779396700006, 25.28573994900006], [87.74748693200007, 25.288247398000067], [87.74649864400004, 25.288724201000036], [87.74514200500005, 25.289157664000072], [87.74387565600006, 25.289391083000055], [87.74258171100007, 25.289733170000034], [87.74162060400005, 25.29008321500004], [87.74034476400004, 25.290587352000045], [87.73886875700003, 25.291009211000073], [87.73744969900008, 25.291308283000035], [87.73678884500004, 25.290800672000046], [87.73612127800004, 25.289963941000053], [87.73500726700007, 25.289391763000026], [87.73364660000004, 25.288900389000048], [87.73222756900003, 25.28895135500005], [87.73109277700007, 25.28906508600005], [87.72987660900003, 25.289085529000033], [87.72911061400004, 25.28926536000006], [87.72838574400004, 25.289760142000034], [87.72791288700006, 25.29019210200005], [87.72730641300006, 25.290888004000067], [87.72676406300008, 25.291321124000035], [87.72638797000008, 25.291629614000044], [87.72567037800007, 25.291749952000032], [87.72505204600003, 25.291868561000058], [87.72462821300007, 25.292268105000062], [87.72452331300008, 25.292969111000048], [87.72443598500007, 25.29356148200003], [87.72405967600008, 25.29385651800004], [87.72355504400008, 25.29443781200007], [87.72281244800007, 25.295041205000075], [87.72224066200005, 25.29549282800008], [87.72154055100003, 25.296474428000067], [87.72103100700008, 25.29681675100005], [87.72028714700008, 25.296865274000027], [87.71931046400005, 25.296453075000045], [87.71830286900007, 25.29623091700006], [87.71749990700005, 25.29605939100003], [87.71666406400004, 25.295983155000044], [87.71602132000004, 25.295628496000063], [87.71468297300004, 25.29550198000004], [87.71377826600008, 25.295453955000028], [87.71273842900007, 25.295110402000034], [87.71170149800008, 25.295154770000067], [87.71053191800007, 25.29502543600006], [87.70952358800008, 25.294767033000028], [87.70822051400006, 25.294666912000025], [87.70632308200004, 25.29488350200006], [87.70398800600003, 25.295071147000044], [87.70112123000007, 25.29524059000005], [87.69855717200005, 25.295648603000075], [87.69937259500006, 25.296934229000044], [87.69971957500007, 25.297397593000028], [87.69925354900005, 25.29768052600008], [87.69782835800004, 25.298173290000022], [87.69622806900009, 25.298605794000025], [87.69528979800003, 25.300105435000035], [87.69566754500005, 25.300613460000022], [87.69644668500007, 25.301331332000075], [87.69702972300007, 25.301926120000076], [87.69788448200006, 25.30294496700003], [87.69846325300006, 25.303571395000063], [87.69843588500004, 25.303937228000052], [87.69807823700006, 25.304425856000023], [87.69752388100005, 25.30501247500007], [87.69679760900004, 25.305448538000064], [87.69601171600004, 25.30612916000007], [87.69548722800005, 25.306715300000064], [87.69488462900006, 25.306635094000058], [87.69294607800003, 25.30654540200004], [87.69037565600007, 25.306402911000077], [87.68833648200007, 25.30649984100006], [87.68626574700005, 25.30625882100003], [87.68512529600008, 25.306097243000067], [87.68461189700008, 25.307495062000044], [87.68451743700007, 25.30872819900003], [87.68441532900005, 25.309334355000033], [87.68452164000007, 25.30968442300008], [87.68502575000008, 25.30981140600005], [87.68605720100004, 25.309731268000064], [87.68650293400003, 25.309421642000075], [87.68696413900005, 25.30914341600004], [87.68787376200004, 25.30943055800003], [87.68872947000006, 25.30975023700006], [87.68943429100005, 25.309982185000024], [87.69034355500008, 25.310251356000038], [87.69100344300006, 25.31071412800003], [87.69130315300004, 25.310799347000057], [87.69159890300006, 25.31044258600008], [87.69186706300007, 25.31043820700006], [87.69190529400004, 25.31086152300003], [87.69437531600005, 25.310698896000076], [87.69550699700005, 25.310666534000063], [87.69717545400005, 25.310408839000047], [87.69912509900007, 25.310304356000074], [87.70224564400007, 25.310387819000027], [87.70314768000009, 25.310539748000053], [87.70392421400004, 25.310874161000072], [87.70525706400008, 25.311460926000052], [87.70680311000007, 25.312026193000065], [87.70788154700006, 25.31255397500007], [87.70862514300006, 25.312979141000028], [87.70950819500007, 25.313663663000057], [87.71033993200007, 25.314272292000055], [87.71091812800006, 25.31486708700004]]]]}}, {"type": "Feature", "properties": {"OBJECTID": 4457, "GPCODE": "93859", "GPNAME_1": "SOUTH AMDABAD", "DIST_CEN_C": "10", "BLK_NAME": "AMDABAD", "ST_NAME": "BIHAR", "ST_CODE_1": "10", "GPCODE2011": "96416", "REMARKS": "FINALIZED", "MAP_STATUS": "COMPLETED", "BLK_C_2001": "100016", "BLK_C_2011": "01157", "DIST_NAME": "KATIHAR", "code2011": 0.0, "Shape_Leng": 0.12548391525, "Shape_Area": 0.00067097719, "Area": 7.48072}, "geometry": {"type": "MultiPolygon", "coordinates": [[[[87.81178471100003, 25.303736083000047], [87.81184749200008, 25.30270333200008], [87.81232145700005, 25.302221733000067], [87.81381310700004, 25.301917666000065], [87.81568111700005, 25.30159458600008], [87.81809275600006, 25.299871159000077], [87.82041797200003, 25.29824119500006], [87.81989300100008, 25.295654694000064], [87.81903948700005, 25.293696417000035], [87.81873458100006, 25.29171033700004], [87.81853814600004, 25.289496431000032], [87.81715633500005, 25.286897597000063], [87.81483980500008, 25.28401232600004], [87.81264405500008, 25.28198422300005], [87.81062984700009, 25.282264604000034], [87.80894946500007, 25.28264731300004], [87.80757400600004, 25.282657046000054], [87.80663039400008, 25.283300412000074], [87.80515684300008, 25.283851299000048], [87.80419509900008, 25.284197720000066], [87.80336756500003, 25.28459692000007], [87.80304459700005, 25.284672749000038], [87.80165463000003, 25.284444867000047], [87.80047889000008, 25.283431751000023], [87.79968054100004, 25.28323368300005], [87.79870058200004, 25.283283053000048], [87.79761546600008, 25.283754748000035], [87.79618183600007, 25.28388650100004], [87.79501321700008, 25.28406454000003], [87.79371389900007, 25.28424915000005], [87.79275573100006, 25.284654776000025], [87.79193901000008, 25.285232110000038], [87.79082120100009, 25.285169175000078], [87.79054905700008, 25.28500412900007], [87.79017886700007, 25.28538024100004], [87.78991364800004, 25.28640639400004], [87.78957589100008, 25.287317003000055], [87.78912199800004, 25.288471838000078], [87.78857025300005, 25.28909537000004], [87.78722383200005, 25.290231213000027], [87.78848303400008, 25.29185996500007], [87.78797522200006, 25.29302561700007], [87.78709330500004, 25.294385504000047], [87.78640906100009, 25.295823108000036], [87.78460267200006, 25.297843304000025], [87.78353372600003, 25.299300232000064], [87.78289768100007, 25.299946042000045], [87.78252700900003, 25.301692152000044], [87.78131221100006, 25.302592610000033], [87.78041252200006, 25.303038995000065], [87.77895924200004, 25.303760046000036], [87.77799993500008, 25.30506733900006], [87.77885398200004, 25.305922269000064], [87.78087652400006, 25.305922269000064], [87.78209599800005, 25.306130472000063], [87.78295855200008, 25.30681456700006], [87.78399956700008, 25.307587892000072], [87.78459443200006, 25.308361217000026], [87.78536775700007, 25.308807366000053], [87.78664671700005, 25.309015569000053], [87.78780670400005, 25.30907505500005], [87.78965078600004, 25.309045312000023], [87.79106061700008, 25.308135168000035], [87.79125097400004, 25.306707491000054], [87.79201240100008, 25.30585088500004], [87.79267865100007, 25.305089458000054], [87.79259115200006, 25.304077610000036], [87.79382079200008, 25.302234105000025], [87.79660000200005, 25.300806428000044], [87.79831321400007, 25.300635107000062], [87.80031196100003, 25.300977749000026], [87.80231070900004, 25.301320392000036], [87.80408102800004, 25.302633854000078], [87.80545159700006, 25.303490460000035], [87.80537618100004, 25.30503648800004], [87.80533738300005, 25.30583185000006], [87.80607977500006, 25.306574242000067], [87.80756455900007, 25.30691688400003], [87.81087832200006, 25.307442731000037], [87.81075993900004, 25.305503845000032], [87.81178471100003, 25.303736083000047]]]]}}]}