{"type": "FeatureCollection", "features": [{"type": "Feature", "properties": {"OBJECTID": 6934, "GPCODE": "94608", "GPNAME_1": "RAKHBARI", "DIST_CEN_C": "05", "BLK_NAME": "ANDHRATHARHI", "ST_NAME": "BIHAR", "ST_CODE_1": "10", "GPCODE2011": "97162", "REMARKS": "FINALIZED", "MAP_STATUS": "COMPLETED", "BLK_C_2001": "050017", "BLK_C_2011": "01096", "DIST_NAME": "MADHUBANI", "code2011": 0.0, "Shape_Leng": 0.23976287755, "Shape_Area": 0.00137220231, "Area": 15.1643}, "geometry": {"type": "MultiPolygon", "coordinates": [[[[86.29282313700008, 26.379327733000025], [86.29294756900003, 26.378686015000028], [86.29322979500006, 26.377745368000035], [86.29256120500008, 26.37695153800007], [86.29204044300008, 26.37586783200004], [86.29211688100008, 26.37433300400005], [86.29285846400006, 26.37322656200007], [86.29424534600008, 26.372002620000046], [86.29390703700005, 26.37060619300007], [86.29378666300005, 26.36946990900003], [86.29343638000006, 26.368962562000036], [86.29338863500004, 26.36810552700007], [86.29478712800005, 26.367075545000034], [86.29644162500006, 26.36609323700003], [86.29708303000007, 26.36555607300005], [86.29661668000006, 26.364390729000036], [86.29512770900004, 26.363724775000037], [86.29482633700007, 26.362526633000073], [86.29505606900005, 26.361884161000035], [86.29614906600005, 26.361429437000027], [86.29701101400008, 26.361454740000056], [86.29730460800005, 26.359575379000034], [86.29796700600008, 26.35802731700005], [86.29804972400007, 26.35720092300005], [86.29706850900004, 26.355610631000047], [86.29616190600007, 26.354516227000033], [86.29599994300008, 26.35321330800008], [86.29826589500004, 26.351188636000074], [86.29871278600007, 26.34963764300005], [86.30062274000005, 26.348685018000026], [86.30081691600003, 26.348006674000032], [86.30085327000006, 26.345930688000067], [86.30068162100008, 26.345223452000027], [86.30081377900007, 26.343773975000033], [86.30074426600004, 26.342736614000046], [86.30080393100008, 26.339920384000038], [86.29663659800008, 26.34047438600004], [86.29068353500008, 26.340747832000034], [86.28578721200006, 26.34101344100003], [86.28482650800004, 26.340000503000056], [86.28406024500003, 26.340006092000067], [86.28358235000007, 26.33977488900007], [86.28346863300004, 26.339383117000068], [86.28308688900006, 26.337571783000044], [86.28230652400003, 26.332609113000046], [86.27980422400003, 26.332825697000033], [86.27871696400007, 26.332779346000052], [86.27839567700005, 26.33383306500008], [86.27811529400003, 26.334972234000077], [86.27747425400008, 26.33667349700005], [86.27660561700003, 26.337568746000045], [86.27619469100006, 26.338072800000077], [86.27515873300007, 26.339343512000028], [86.27453172300005, 26.34094540500007], [86.27466549800005, 26.341914640000027], [86.27555480200004, 26.342797285000074], [86.27611047900007, 26.343894302000024], [86.27584816000007, 26.34538082800003], [86.27444045300007, 26.347069576000024], [86.27355077200008, 26.347865565000063], [86.27335609700003, 26.34850780000005], [86.27221765600007, 26.35006372500004], [86.27248009400006, 26.350851487000057], [86.27351080100004, 26.35185044900004], [86.27395938100005, 26.35273624100006], [86.27352248400007, 26.353181603000053], [86.27167909000008, 26.353181198000073], [86.27056708700007, 26.35376218400006], [86.26821602200005, 26.35414447000005], [86.26730960000003, 26.353031764000036], [86.26655830700008, 26.350762762000045], [86.26586105900003, 26.35065041100006], [86.26559876000005, 26.34986254200004], [86.26327625000005, 26.347771677000026], [86.26130028000006, 26.347505795000075], [86.25907914600003, 26.346682128000054], [86.25759363100008, 26.345785615000068], [86.25581462500008, 26.345107707000068], [86.25458989400005, 26.345396003000076], [86.25265528200003, 26.345851802000027], [86.25236631100006, 26.34776716500005], [86.25046225400007, 26.347699246000047], [86.25037626700004, 26.348191731000043], [86.24880610300005, 26.34850051500007], [86.24860699300007, 26.34865080700007], [86.24850854000005, 26.35001876700005], [86.24828143400003, 26.35099056000007], [86.24766729000004, 26.35145094300003], [86.24693262200003, 26.352001760000064], [86.24561995200008, 26.35197928100007], [86.24566058700003, 26.35261980300004], [86.24631360600006, 26.354000533000033], [86.24714539800004, 26.35519514200007], [86.24754768200006, 26.355372857000077], [86.24766731200003, 26.35537424300003], [86.24853466600007, 26.355384036000032], [86.24882808700005, 26.35572490900006], [86.24941619500004, 26.35769733500007], [86.24974876400006, 26.358502758000043], [86.25037688700007, 26.359897260000025], [86.25335236100005, 26.359858340000073], [86.25428962800004, 26.35991953100006], [86.25606313700007, 26.359920549000037], [86.25666806600003, 26.360358587000064], [86.25884472900003, 26.360641076000036], [86.25921278400006, 26.362646580000046], [86.25990615600006, 26.363449409000054], [86.26084602200007, 26.36494544900006], [86.26236931800008, 26.36727669100003], [86.26309169600006, 26.368539671000065], [86.26355405600003, 26.36927643000007], [86.26442026000007, 26.369780195000033], [86.26505718500005, 26.369856859000038], [86.26617224100005, 26.369605298000067], [86.26968535700007, 26.368014524000046], [86.26908884800008, 26.366272397000046], [86.26900118400005, 26.36483806500007], [86.27022049200008, 26.36448645200005], [86.27122541500006, 26.364249121000057], [86.27160063500008, 26.367044214000032], [86.27229911700005, 26.367846969000027], [86.27752509700008, 26.367344785000057], [86.27791727600004, 26.368063978000066], [86.27939192800005, 26.36938910500004], [86.27953864600005, 26.37181129100003], [86.27907336300007, 26.37244183400003], [86.27671119800004, 26.372179036000034], [86.27545337700008, 26.372715998000047], [86.27494581200006, 26.373112175000074], [86.27456014500007, 26.37482971700007], [86.27360856700005, 26.374868093000032], [86.27374296200009, 26.375905035000073], [86.27458208400003, 26.377315913000075], [86.27564683800006, 26.377606164000042], [86.27668470400005, 26.37881710100004], [86.27772517500006, 26.380885396000053], [86.27927732000006, 26.38075686600007], [86.28042689700004, 26.380437261000054], [86.28088349300003, 26.380501681000055], [86.28123747700005, 26.380873661000066], [86.28102177500006, 26.38140321800006], [86.27992358800003, 26.381311821000054], [86.27986387600004, 26.383044995000034], [86.28047511000005, 26.383600157000046], [86.28072359800007, 26.386761628000045], [86.28238380300007, 26.388626937000026], [86.28445233000008, 26.388512685000023], [86.28589093400007, 26.388574531000074], [86.28697470800006, 26.38705040700006], [86.28746442900007, 26.386897959000066], [86.28803279500005, 26.387142080000046], [86.28827079600006, 26.386860555000055], [86.28842073800007, 26.385131208000075], [86.28927124100005, 26.38443009300005], [86.29010960900007, 26.38404496100003], [86.29121556400008, 26.383323982000036], [86.29211230600004, 26.38330391100004], [86.29258622600008, 26.383070329000077], [86.29283261100005, 26.382062174000055], [86.29284808000006, 26.379873583000062], [86.29282313700008, 26.379327733000025]]]]}}, {"type": "Feature", "properties": {"OBJECTID": 6994, "GPCODE": "94600", "GPNAME_1": "HARNA", "DIST_CEN_C": "05", "BLK_NAME": "ANDHRATHARHI", "ST_NAME": "BIHAR", "ST_CODE_1": "10", "GPCODE2011": "97154", "REMARKS": "FINALIZED", "MAP_STATUS": "COMPLETED", "BLK_C_2001": "050017", "BLK_C_2011": "01096", "DIST_NAME": "MADHUBANI", "code2011": 0.0, "Shape_Leng": 0.15328327585, "Shape_Area": 0.00048272654, "Area": 5.33618}, "geometry": {"type": "MultiPolygon", "coordinates": [[[[86.28670370200007, 26.32751884700008], [86.28685989400003, 26.326497892000077], [86.28686181900008, 26.32503588000003], [86.28731156000003, 26.324355728000057], [86.28719488600007, 26.323630053000045], [86.28699947000007, 26.322498766000024], [86.28745428400003, 26.321836637000047], [86.28772901300005, 26.320070314000077], [86.28817940900007, 26.31947593600006], [86.29027583700008, 26.318702607000034], [86.29013459500004, 26.317467219000036], [86.29015918400006, 26.31629825500005], [86.29048172900008, 26.314287852000064], [86.28825321600004, 26.314272419000076], [86.28689595600008, 26.313691125000048], [86.28545976000004, 26.312677145000066], [86.28464596400005, 26.311266069000055], [86.28405460400006, 26.31064758800005], [86.28320666800005, 26.309895613000037], [86.28138551500007, 26.310080154000048], [86.28071200500005, 26.31036474600006], [86.27919812100004, 26.310741208000024], [86.27729966400005, 26.31124662600007], [86.27598426100008, 26.311423027000046], [86.27530980900008, 26.311608383000078], [86.27432408500005, 26.31169658500005], [86.27385114700007, 26.312011391000055], [86.27317621900005, 26.312133506000066], [86.27203432500005, 26.31268314600004], [86.27151030200008, 26.313463004000027], [86.27096985500003, 26.31407604700007], [86.27002528800006, 26.314858967000077], [86.26892719800009, 26.31469974600003], [86.26795760200008, 26.314345702000026], [86.26693049500005, 26.314285262000055], [86.26506540500003, 26.314036721000036], [86.26392936800005, 26.313534838000066], [86.26322443100008, 26.312515463000068], [86.26278649400007, 26.31225681600006], [86.26212425500006, 26.31211257500007], [86.26176057500004, 26.312331818000075], [86.26163615600007, 26.313000518000024], [86.26249685600004, 26.31292680100006], [86.26343550100006, 26.313759487000027], [86.26349591100006, 26.31437272000005], [86.26287747800006, 26.31522998400004], [86.26245162200007, 26.316356648000067], [86.26255014600008, 26.31732612500008], [86.26284328600008, 26.317635413000062], [86.26376252400007, 26.31795836300006], [86.26526067900005, 26.318046983000045], [86.26833131900008, 26.318142575000024], [86.26969294900005, 26.319220461000043], [86.27171386800006, 26.32010854500004], [86.27171961200008, 26.320753797000066], [86.27151870500006, 26.321265192000055], [86.27063083000007, 26.321668635000037], [86.26909263300007, 26.323295036000047], [86.26879107400003, 26.324317016000066], [86.26860219100007, 26.325617946000023], [86.26908125700004, 26.326571226000056], [86.26996785300008, 26.327156090000074], [86.27044567600007, 26.32738733700006], [86.27239681400005, 26.327156841000033], [86.27347049800005, 26.32680163200007], [86.27427939400008, 26.327093689000037], [86.27519622200003, 26.327696367000044], [86.27805378300008, 26.330279596000025], [86.27852133000005, 26.331047888000057], [86.27871696400007, 26.332779346000052], [86.27980422400003, 26.332825697000033], [86.28230652400003, 26.332609113000046], [86.28497324100005, 26.332292059000054], [86.28454874900007, 26.33130689500007], [86.28469960000007, 26.330249886000047], [86.28542055900004, 26.329093990000047], [86.28597823900003, 26.328164882000067], [86.28670370200007, 26.32751884700008]]], [[[86.29663659800008, 26.34047438600004], [86.30080393100008, 26.339920384000038], [86.30098010300009, 26.338912794000066], [86.30393641500007, 26.336819839000043], [86.30315711200006, 26.335390634000078], [86.30307972100007, 26.335142966000035], [86.30244276600007, 26.335048417000053], [86.30229180700007, 26.334422282000048], [86.30177559400005, 26.334376444000043], [86.30166045700008, 26.33383577500007], [86.29804588400003, 26.334011143000055], [86.29738636900004, 26.33197183300007], [86.29502790400005, 26.332020644000067], [86.29323492200007, 26.33203366500004], [86.29097425500004, 26.33237953500003], [86.28860968000004, 26.33400762100007], [86.28960930500006, 26.335453436000023], [86.28997790600005, 26.335780166000063], [86.28994723200003, 26.336272207000036], [86.28954889300007, 26.33653682000005], [86.28918242400005, 26.33644477200005], [86.28778752000005, 26.335597458000052], [86.28748698700008, 26.33504011900004], [86.28708335900006, 26.33471359500004], [86.28660901500007, 26.334879525000076], [86.28628177300004, 26.33524281800004], [86.28607754300003, 26.336498809000034], [86.28418202100005, 26.337369855000077], [86.28308688900006, 26.337571783000044], [86.28346863300004, 26.339383117000068], [86.28358235000007, 26.33977488900007], [86.28406024500003, 26.340006092000067], [86.28482650800004, 26.340000503000056], [86.28578721200006, 26.34101344100003], [86.29068353500008, 26.340747832000034], [86.29663659800008, 26.34047438600004]]]]}}, {"type": "Feature", "properties": {"OBJECTID": 6996, "GPCODE": "94607", "GPNAME_1": "NANAUR", "DIST_CEN_C": "05", "BLK_NAME": "ANDHRATHARHI", "ST_NAME": "BIHAR", "ST_CODE_1": "10", "GPCODE2011": "97161", "REMARKS": "FINALIZED", "MAP_STATUS": "COMPLETED", "BLK_C_2001": "050017", "BLK_C_2011": "01096", "DIST_NAME": "MADHUBANI", "code2011": 0.0, "Shape_Leng": 0.20295717231, "Shape_Area": 0.0009649483, "Area": 10.667}, "geometry": {"type": "MultiPolygon", "coordinates": [[[[86.34068964900007, 26.33889597700005], [86.34070494700006, 26.33626055900004], [86.34146254600006, 26.335329760000036], [86.34409249100008, 26.335377409000046], [86.34687612800008, 26.335784743000033], [86.35042489200004, 26.33605542500004], [86.35155205800004, 26.33555037800005], [86.35361861000007, 26.33534492900003], [86.35359341900005, 26.334266727000056], [86.35205747300006, 26.334445453000058], [86.35193670400008, 26.333327311000062], [86.35252166900005, 26.33322352400006], [86.35199488800004, 26.331548944000076], [86.35056817000003, 26.33162304600006], [86.35007716300004, 26.33001136000007], [86.34943173500005, 26.326898226000026], [86.34993280400005, 26.325870077000047], [86.34983550200008, 26.324056772000063], [86.34927532000006, 26.323072852000053], [86.34773699800007, 26.321392393000053], [86.34750997700007, 26.320685685000058], [86.345894, 26.320860521000043], [86.34481607100008, 26.320200888000045], [86.34449901700003, 26.319499397000072], [86.34321348300006, 26.31966262800006], [86.34215348000004, 26.319833175000042], [86.34106246200008, 26.319381204000024], [86.34094368400008, 26.314729705000047], [86.34011835300004, 26.31269181500005], [86.34019058500007, 26.30810656400007], [86.34148872200007, 26.306630102000042], [86.34117604500005, 26.30426342000004], [86.34091147900006, 26.30167979600003], [86.33554562300003, 26.29918445900006], [86.33369197600007, 26.300150592000023], [86.33205159400006, 26.300361550000048], [86.33129325400006, 26.29957755500004], [86.33044525100007, 26.298302402000047], [86.33007030900006, 26.295669919000034], [86.32936910800004, 26.29511119700004], [86.32863179700007, 26.294426324000028], [86.32766591300003, 26.293928127000072], [86.32665209500004, 26.293128032000027], [86.32593636400009, 26.291531415000065], [86.32418625700006, 26.29177463600007], [86.32419059000006, 26.29279000300005], [86.32416643700003, 26.29396341000006], [86.32349407300006, 26.294347495000068], [86.32337313700003, 26.29480869300005], [86.32363422000003, 26.29543396400004], [86.32401550300006, 26.29659979400003], [86.32429835300007, 26.29740546900007], [86.32417788600009, 26.298462251000046], [86.32351224600006, 26.299586399000077], [86.32289123900006, 26.299572958000056], [86.32139960500007, 26.300161716000048], [86.31975280900008, 26.30022364900003], [86.31964145500007, 26.301722635000033], [86.31865790400008, 26.30204130000004], [86.31830696300005, 26.303627864000077], [86.31827554700004, 26.30402061500007], [86.31781068100008, 26.305210910000028], [86.31760610700007, 26.30692265500005], [86.31741691200006, 26.30812886600006], [86.31764174500006, 26.308619067000052], [86.31826581700005, 26.308961923000027], [86.31942971900008, 26.309196949000068], [86.32091111900007, 26.30911814600006], [86.32514758400004, 26.309122630000047], [86.32961180700005, 26.309400426000025], [86.33136816800004, 26.30979780000007], [86.33394841400008, 26.30994529900005], [86.33412700600007, 26.311920412000063], [86.33390825400005, 26.313700054000037], [86.33312194800004, 26.313687920000064], [86.33182415700009, 26.313598458000058], [86.33002874100004, 26.313314167000044], [86.32893304300006, 26.313421624000057], [86.32779989200003, 26.313267732000043], [86.32695922600004, 26.313337225000055], [86.32590027200007, 26.31308345700006], [86.32546102300006, 26.313235663000057], [86.32492290900007, 26.31407898200007], [86.32450327300006, 26.316356450000058], [86.32399358700007, 26.31647310900007], [86.32348330300005, 26.31652653900005], [86.31996745500004, 26.316489630000035], [86.31804561700005, 26.31607524900005], [86.31663841800008, 26.316072211000062], [86.31580135200005, 26.316538682000044], [86.31447158600008, 26.316792219000035], [86.31389305100004, 26.31759072500006], [86.31325476700005, 26.31788876400003], [86.31224866500008, 26.317945895000037], [86.31102313200006, 26.319750962000057], [86.30945081200008, 26.31976253700003], [86.30921196700007, 26.32103232000003], [86.31058705300006, 26.321356109000078], [86.31345210300003, 26.320856535000075], [86.31373614000006, 26.321793084000035], [86.31385416000006, 26.322649522000063], [86.31413067500006, 26.323319836000053], [86.31496464900005, 26.32415304700004], [86.31604303600005, 26.324329962000036], [86.31627349800004, 26.325429330000077], [86.31660114500005, 26.325657027000034], [86.31673540000008, 26.326098314000035], [86.31717815000007, 26.32632513200008], [86.31749356000006, 26.32685070100007], [86.31818474100004, 26.32685912100004], [86.31812504300007, 26.328542696000056], [86.31790758100004, 26.32885568100005], [86.31798353100004, 26.331129445000045], [86.31844990500008, 26.333368637000035], [86.31987568300008, 26.33319110800005], [86.32108806400004, 26.33377319300007], [86.32240254900006, 26.333470051000063], [86.32364608100005, 26.33362320200007], [86.32463792900006, 26.33417533200003], [86.32529249300006, 26.33400797400003], [86.32603036500007, 26.33472440500003], [86.32661389700007, 26.33445827500003], [86.32734570900004, 26.334520436000048], [86.32822883900008, 26.335235854000075], [86.33013451800008, 26.33548771900007], [86.33127067800007, 26.33593940800006], [86.33266500500008, 26.336687029000075], [86.33310901500005, 26.337568075000036], [86.33527462600006, 26.33830982300003], [86.33499368600008, 26.339331746000028], [86.33579448200004, 26.339262546000043], [86.33714267200008, 26.33882358900007], [86.33798385600005, 26.338785700000074], [86.34004959300006, 26.34061101900005], [86.34021843300008, 26.33939136200007], [86.34068964900007, 26.33889597700005]]]]}}, {"type": "Feature", "properties": {"OBJECTID": 7005, "GPCODE": "94599", "GPNAME_1": "HARARI", "DIST_CEN_C": "05", "BLK_NAME": "ANDHRATHARHI", "ST_NAME": "BIHAR", "ST_CODE_1": "10", "GPCODE2011": "97153", "REMARKS": "FINALIZED", "MAP_STATUS": "COMPLETED", "BLK_C_2001": "050017", "BLK_C_2011": "01096", "DIST_NAME": "MADHUBANI", "code2011": 0.0, "Shape_Leng": 0.13901297109, "Shape_Area": 0.00055475879, "Area": 6.13226}, "geometry": {"type": "MultiPolygon", "coordinates": [[[[86.30738480000008, 26.33708781100006], [86.30858936700008, 26.336812703000078], [86.30921432100007, 26.337236759000064], [86.31020698300006, 26.337888192000037], [86.31298722200006, 26.337935361000063], [86.31485155100006, 26.33805236200004], [86.31579776600006, 26.337454171000047], [86.31616721000006, 26.336228556000037], [86.31656477700005, 26.33589614300007], [86.31666990700006, 26.335335807000035], [86.31721323200009, 26.33450604500007], [86.31735328600007, 26.33394540100005], [86.31844990500008, 26.333368637000035], [86.31798353100004, 26.331129445000045], [86.31790758100004, 26.32885568100005], [86.31812504300007, 26.328542696000056], [86.31818474100004, 26.32685912100004], [86.31749356000006, 26.32685070100007], [86.31717815000007, 26.32632513200008], [86.31673540000008, 26.326098314000035], [86.31660114500005, 26.325657027000034], [86.31627349800004, 26.325429330000077], [86.31604303600005, 26.324329962000036], [86.31496464900005, 26.32415304700004], [86.31413067500006, 26.323319836000053], [86.31385416000006, 26.322649522000063], [86.31373614000006, 26.321793084000035], [86.31345210300003, 26.320856535000075], [86.31058705300006, 26.321356109000078], [86.30921196700007, 26.32103232000003], [86.30690960700008, 26.321180236000032], [86.30533746300006, 26.319016744000066], [86.30362410500004, 26.31948959700003], [86.30230122200004, 26.318858528000078], [86.30183242900006, 26.319620058000055], [86.30070043900008, 26.319596751000063], [86.29847620000004, 26.318967747000045], [86.29877835000008, 26.318045013000074], [86.29983590000006, 26.315365909000036], [86.29891683400007, 26.312854602000073], [86.29847119500005, 26.312298337000072], [86.29612207600007, 26.311688237000055], [86.29488193300006, 26.31188229600008], [86.29379223300003, 26.312648290000027], [86.29168588000005, 26.313981298000044], [86.29048172900008, 26.314287852000064], [86.29015918400006, 26.31629825500005], [86.29013459500004, 26.317467219000036], [86.29027583700008, 26.318702607000034], [86.28817940900007, 26.31947593600006], [86.28772901300005, 26.320070314000077], [86.28745428400003, 26.321836637000047], [86.28699947000007, 26.322498766000024], [86.28719488600007, 26.323630053000045], [86.28731156000003, 26.324355728000057], [86.28686181900008, 26.32503588000003], [86.28685989400003, 26.326497892000077], [86.28670370200007, 26.32751884700008], [86.28597823900003, 26.328164882000067], [86.28542055900004, 26.329093990000047], [86.28469960000007, 26.330249886000047], [86.28454874900007, 26.33130689500007], [86.28497324100005, 26.332292059000054], [86.28230652400003, 26.332609113000046], [86.28308688900006, 26.337571783000044], [86.28418202100005, 26.337369855000077], [86.28607754300003, 26.336498809000034], [86.28628177300004, 26.33524281800004], [86.28660901500007, 26.334879525000076], [86.28708335900006, 26.33471359500004], [86.28748698700008, 26.33504011900004], [86.28778752000005, 26.335597458000052], [86.28918242400005, 26.33644477200005], [86.28954889300007, 26.33653682000005], [86.28994723200003, 26.336272207000036], [86.28997790600005, 26.335780166000063], [86.28960930500006, 26.335453436000023], [86.28860968000004, 26.33400762100007], [86.29097425500004, 26.33237953500003], [86.29323492200007, 26.33203366500004], [86.29502790400005, 26.332020644000067], [86.29738636900004, 26.33197183300007], [86.29804588400003, 26.334011143000055], [86.30166045700008, 26.33383577500007], [86.30177559400005, 26.334376444000043], [86.30229180700007, 26.334422282000048], [86.30244276600007, 26.335048417000053], [86.30307972100007, 26.335142966000035], [86.30315711200006, 26.335390634000078], [86.30393641500007, 26.336819839000043], [86.30098010300009, 26.338912794000066], [86.30080393100008, 26.339920384000038], [86.30074426600004, 26.342736614000046], [86.30267597500006, 26.341995934000067], [86.30329222700004, 26.34146342500003], [86.303169, 26.34001586200003], [86.30349156200003, 26.339688629000023], [86.30411197500007, 26.339616372000023], [86.30491466000007, 26.33865374800007], [86.30578311000005, 26.33775843500007], [86.30738480000008, 26.33708781100006]]]]}}, {"type": "Feature", "properties": {"OBJECTID": 7009, "GPCODE": "94605", "GPNAME_1": "MAILAM", "DIST_CEN_C": "05", "BLK_NAME": "ANDHRATHARHI", "ST_NAME": "BIHAR", "ST_CODE_1": "10", "GPCODE2011": "97159", "REMARKS": "FINALIZED", "MAP_STATUS": "COMPLETED", "BLK_C_2001": "050017", "BLK_C_2011": "01096", "DIST_NAME": "MADHUBANI", "code2011": 0.0, "Shape_Leng": 0.12084138106, "Shape_Area": 0.00042509853, "Area": 4.698}, "geometry": {"type": "MultiPolygon", "coordinates": [[[[86.24330297600005, 26.36044281900007], [86.24563871700008, 26.360011447000034], [86.24766727900004, 26.36009507700004], [86.24807432300008, 26.36011185700005], [86.24929556100005, 26.359985977000065], [86.25037688700007, 26.359897260000025], [86.24974876400006, 26.358502758000043], [86.24941619500004, 26.35769733500007], [86.24882808700005, 26.35572490900006], [86.24853466600007, 26.355384036000032], [86.24766731200003, 26.35537424300003], [86.24754768200006, 26.355372857000077], [86.24714539800004, 26.35519514200007], [86.24631360600006, 26.354000533000033], [86.24566058700003, 26.35261980300004], [86.24561995200008, 26.35197928100007], [86.24693262200003, 26.352001760000064], [86.24766729000004, 26.35145094300003], [86.24828143400003, 26.35099056000007], [86.24850854000005, 26.35001876700005], [86.24860699300007, 26.34865080700007], [86.24880610300005, 26.34850051500007], [86.25037626700004, 26.348191731000043], [86.25046225400007, 26.347699246000047], [86.25236631100006, 26.34776716500005], [86.25265528200003, 26.345851802000027], [86.25107185000007, 26.346359264000057], [86.24962006300007, 26.34616935200006], [86.24891046200008, 26.346076522000033], [86.24803014400004, 26.345640441000057], [86.24766735000009, 26.345672621000062], [86.24543738300008, 26.345870572000024], [86.24489311000008, 26.34607286000005], [86.24467503900007, 26.346336132000033], [86.24485697500006, 26.348279795000053], [86.24467498000007, 26.348678156000062], [86.24417719700006, 26.349042549000046], [86.24300456900005, 26.348983060000023], [86.24169064900008, 26.34938925000006], [86.24052945900007, 26.350087709000036], [86.24019822800005, 26.35002231200008], [86.23896443300004, 26.351019090000023], [86.23670575900007, 26.351661897000042], [86.23593463700007, 26.351698742000053], [86.23301830100007, 26.352774745000033], [86.23293533600008, 26.351259097000025], [86.23380023100003, 26.349872279000067], [86.23482008700006, 26.349043992000077], [86.23587826700003, 26.349199159000023], [86.23671842800007, 26.349030945000038], [86.23674874000005, 26.34847118400006], [86.23513664900008, 26.34798588600006], [86.23401881400008, 26.345525233000046], [86.23190175600007, 26.341586739000036], [86.23142619400005, 26.341621538000027], [86.22811277800008, 26.343092787000046], [86.22742067600007, 26.342998198000032], [86.22672980500005, 26.34363012700004], [86.22622299200003, 26.344125461000033], [86.22521537800003, 26.34581557000007], [86.22564125600007, 26.34880899600006], [86.22484224000004, 26.34970336500004], [86.22503421100004, 26.35049179200007], [86.22482545300005, 26.351878571000043], [86.22443305000007, 26.352869518000034], [86.22253097100008, 26.35304486900003], [86.22227958600007, 26.353538393000065], [86.22268722900003, 26.354361503000064], [86.22277485500007, 26.35584547600007], [86.22256329000004, 26.356902863000073], [86.22151315100007, 26.358326990000023], [86.22170992800005, 26.360884206000037], [86.22245336800006, 26.362323192000076], [86.22342063500008, 26.362375272000065], [86.22459039000006, 26.362669693000043], [86.22477530700007, 26.363209916000073], [86.22539844300007, 26.36343587700003], [86.22825587200003, 26.363655496000035], [86.23030604900003, 26.364390569000022], [86.23093120500005, 26.364846584000077], [86.23159578600007, 26.365830292000055], [86.23229628400009, 26.36632187200007], [86.23288775400005, 26.366940515000067], [86.23415783000007, 26.366661091000026], [86.23629366500006, 26.366253767000046], [86.23749376500007, 26.365401716000065], [86.23938845400005, 26.364914761000023], [86.24095183300005, 26.36378036900004], [86.24258693900003, 26.36223930600005], [86.24315818300005, 26.361084575000064], [86.24330297600005, 26.36044281900007]]]]}}, {"type": "Feature", "properties": {"OBJECTID": 7017, "GPCODE": "94596", "GPNAME_1": "DUMARA", "DIST_CEN_C": "05", "BLK_NAME": "ANDHRATHARHI", "ST_NAME": "BIHAR", "ST_CODE_1": "10", "GPCODE2011": "97150", "REMARKS": "FINALIZED", "MAP_STATUS": "COMPLETED", "BLK_C_2001": "050017", "BLK_C_2011": "01096", "DIST_NAME": "MADHUBANI", "code2011": 0.0, "Shape_Leng": 0.16560036614, "Shape_Area": 0.00095117287, "Area": 10.5118}, "geometry": {"type": "MultiPolygon", "coordinates": [[[[86.33760897100007, 26.365615108000043], [86.33708434700009, 26.364170603000048], [86.33406823500007, 26.364143803000047], [86.33158032100005, 26.364361158000065], [86.33116055000005, 26.361250787000074], [86.32971824300006, 26.359682218000046], [86.32944652600008, 26.35793798700007], [86.32906178600007, 26.355896722000068], [86.32799102300004, 26.354952670000046], [86.32736383800005, 26.354298523000068], [86.32743342500004, 26.35370233900005], [86.33372171000008, 26.353853551000043], [86.33415013900003, 26.352532620000034], [86.33517073500008, 26.352394032000063], [86.33523599400007, 26.35133759300004], [86.33607566200004, 26.351132678000056], [86.33639140600008, 26.35007888000007], [86.33665585300008, 26.346746662000044], [86.33879906200008, 26.345611380000037], [86.34098705100007, 26.344971964000024], [86.34068145700007, 26.34176145300006], [86.34004959300006, 26.34061101900005], [86.33798385600005, 26.338785700000074], [86.33714267200008, 26.33882358900007], [86.33579448200004, 26.339262546000043], [86.33499368600008, 26.339331746000028], [86.33527462600006, 26.33830982300003], [86.33310901500005, 26.337568075000036], [86.33266500500008, 26.336687029000075], [86.33127067800007, 26.33593940800006], [86.33013451800008, 26.33548771900007], [86.32822883900008, 26.335235854000075], [86.32734570900004, 26.334520436000048], [86.32661389700007, 26.33445827500003], [86.32603036500007, 26.33472440500003], [86.32529249300006, 26.33400797400003], [86.32463792900006, 26.33417533200003], [86.32364608100005, 26.33362320200007], [86.32240254900006, 26.333470051000063], [86.32108806400004, 26.33377319300007], [86.31987568300008, 26.33319110800005], [86.31844990500008, 26.333368637000035], [86.31735328600007, 26.33394540100005], [86.31721323200009, 26.33450604500007], [86.31666990700006, 26.335335807000035], [86.31656477700005, 26.33589614300007], [86.31616721000006, 26.336228556000037], [86.31579776600006, 26.337454171000047], [86.31485155100006, 26.33805236200004], [86.31298722200006, 26.337935361000063], [86.31020698300006, 26.337888192000037], [86.30921432100007, 26.337236759000064], [86.30858936700008, 26.336812703000078], [86.30738480000008, 26.33708781100006], [86.30578311000005, 26.33775843500007], [86.30491466000007, 26.33865374800007], [86.30411197500007, 26.339616372000023], [86.30417011300005, 26.33994528200003], [86.30456078400005, 26.341048038000054], [86.30459946800005, 26.343100939000067], [86.30613203400009, 26.343089648000046], [86.30830855500005, 26.342829917000074], [86.31059049800007, 26.342596465000042], [86.31187346300004, 26.34321416000006], [86.31242983100003, 26.343801168000027], [86.31106195200005, 26.34649623200005], [86.31070904900008, 26.34789773600005], [86.31199888600008, 26.34871401500004], [86.31165218800004, 26.350246278000043], [86.31171659700004, 26.351811651000048], [86.31121235500007, 26.35254184100006], [86.31139840500003, 26.354810284000052], [86.31081243200003, 26.35483265700003], [86.31040205000005, 26.355972886000075], [86.31031013400008, 26.357422025000062], [86.30895672700007, 26.357878802000073], [86.30903357400007, 26.358618299000057], [86.30935588100004, 26.35990193400005], [86.30972803200007, 26.360607689000062], [86.31001058500004, 26.36138168900004], [86.31057475700004, 26.36280801500004], [86.31140300400006, 26.363541935000057], [86.31200302900004, 26.36505362300005], [86.31199880100007, 26.36623148600006], [86.31189614100003, 26.367057954000074], [86.31224116200008, 26.36918084000007], [86.31258171900004, 26.370807307000064], [86.31383333200006, 26.373433250000062], [86.31424763600006, 26.37491034800007], [86.31470490400005, 26.37560187500003], [86.31810335800003, 26.375211010000044], [86.32295835700006, 26.37412333900005], [86.32675146100007, 26.373070486000074], [86.33095877900007, 26.372939547000044], [86.33164407300006, 26.372284553000043], [86.33492701500006, 26.37133925200004], [86.33649662200008, 26.37096178400003], [86.33737033900007, 26.37062577100005], [86.33887172000004, 26.37045192900007], [86.33902020500005, 26.368126876000076], [86.33878120300005, 26.36774961800006], [86.33769523100005, 26.36680128100005], [86.33760897100007, 26.365615108000043]]]]}}, {"type": "Feature", "properties": {"OBJECTID": 7022, "GPCODE": "94592", "GPNAME_1": "ANDHARA GAUR", "DIST_CEN_C": "05", "BLK_NAME": "ANDHRATHARHI", "ST_NAME": "BIHAR", "ST_CODE_1": "10", "GPCODE2011": "97146", "REMARKS": "FINALIZED", "MAP_STATUS": "COMPLETED", "BLK_C_2001": "050017", "BLK_C_2011": "01096", "DIST_NAME": "MADHUBANI", "code2011": 0.0, "Shape_Leng": 0.14671847133, "Shape_Area": 0.00076338771, "Area": 8.43545}, "geometry": {"type": "MultiPolygon", "coordinates": [[[[86.30887156100005, 26.390279005000025], [86.31094873800004, 26.389469439000038], [86.31197923500008, 26.389827299000046], [86.31252574100006, 26.389854855000067], [86.31376802400007, 26.389814081000054], [86.31482632700005, 26.38937749300004], [86.31647179300006, 26.389035845000024], [86.31661103700003, 26.388371508000034], [86.31638123000005, 26.38735336900004], [86.31669919200004, 26.38596565000006], [86.31628514300007, 26.385079791000067], [86.31612922100004, 26.38392572300006], [86.31325291000007, 26.381181034000065], [86.31327770400009, 26.38005722500003], [86.31352902700007, 26.37959504300005], [86.31358683300004, 26.37824544700004], [86.31404188800008, 26.376509248000048], [86.31470490400005, 26.37560187500003], [86.31424763600006, 26.37491034800007], [86.31383333200006, 26.373433250000062], [86.31258171900004, 26.370807307000064], [86.31224116200008, 26.36918084000007], [86.31189614100003, 26.367057954000074], [86.31199880100007, 26.36623148600006], [86.31200302900004, 26.36505362300005], [86.31140300400006, 26.363541935000057], [86.31057475700004, 26.36280801500004], [86.31001058500004, 26.36138168900004], [86.30972803200007, 26.360607689000062], [86.30935588100004, 26.35990193400005], [86.30903357400007, 26.358618299000057], [86.30895672700007, 26.357878802000073], [86.31031013400008, 26.357422025000062], [86.31040205000005, 26.355972886000075], [86.31081243200003, 26.35483265700003], [86.31139840500003, 26.354810284000052], [86.31121235500007, 26.35254184100006], [86.31171659700004, 26.351811651000048], [86.31165218800004, 26.350246278000043], [86.31199888600008, 26.34871401500004], [86.31070904900008, 26.34789773600005], [86.31106195200005, 26.34649623200005], [86.31242983100003, 26.343801168000027], [86.31187346300004, 26.34321416000006], [86.31059049800007, 26.342596465000042], [86.30830855500005, 26.342829917000074], [86.30613203400009, 26.343089648000046], [86.30459946800005, 26.343100939000067], [86.30456078400005, 26.341048038000054], [86.30417011300005, 26.33994528200003], [86.30411197500007, 26.339616372000023], [86.30349156200003, 26.339688629000023], [86.303169, 26.34001586200003], [86.30329222700004, 26.34146342500003], [86.30267597500006, 26.341995934000067], [86.30074426600004, 26.342736614000046], [86.30081377900007, 26.343773975000033], [86.30068162100008, 26.345223452000027], [86.30085327000006, 26.345930688000067], [86.30081691600003, 26.348006674000032], [86.30062274000005, 26.348685018000026], [86.29871278600007, 26.34963764300005], [86.29826589500004, 26.351188636000074], [86.29599994300008, 26.35321330800008], [86.29616190600007, 26.354516227000033], [86.29706850900004, 26.355610631000047], [86.29804972400007, 26.35720092300005], [86.29796700600008, 26.35802731700005], [86.29730460800005, 26.359575379000034], [86.29701101400008, 26.361454740000056], [86.29614906600005, 26.361429437000027], [86.29505606900005, 26.361884161000035], [86.29482633700007, 26.362526633000073], [86.29512770900004, 26.363724775000037], [86.29661668000006, 26.364390729000036], [86.29708303000007, 26.36555607300005], [86.29644162500006, 26.36609323700003], [86.29478712800005, 26.367075545000034], [86.29338863500004, 26.36810552700007], [86.29343638000006, 26.368962562000036], [86.29378666300005, 26.36946990900003], [86.29390703700005, 26.37060619300007], [86.29424534600008, 26.372002620000046], [86.29285846400006, 26.37322656200007], [86.29211688100008, 26.37433300400005], [86.29204044300008, 26.37586783200004], [86.29256120500008, 26.37695153800007], [86.29322979500006, 26.377745368000035], [86.29294756900003, 26.378686015000028], [86.29282313700008, 26.379327733000025], [86.29383211500004, 26.37953697300003], [86.29478191800007, 26.37929536300004], [86.29566893800006, 26.37876093600005], [86.29608046100003, 26.37938521500007], [86.29620032700007, 26.381008800000075], [86.29617383800007, 26.381965665000052], [86.29654413500003, 26.382459307000033], [86.29681917900007, 26.384072771000035], [86.29734902700005, 26.38614466000007], [86.29957049000006, 26.38909304400005], [86.30077925300003, 26.389774574000057], [86.30287021400005, 26.389926247000062], [86.30408889200004, 26.391135606000034], [86.30544108000004, 26.39105796900003], [86.30671587600006, 26.390719131000026], [86.30887156100005, 26.390279005000025]]]]}}, {"type": "Feature", "properties": {"OBJECTID": 7026, "GPCODE": "94598", "GPNAME_1": "GANGDWAR", "DIST_CEN_C": "05", "BLK_NAME": "ANDHRATHARHI", "ST_NAME": "BIHAR", "ST_CODE_1": "10", "GPCODE2011": "97152", "REMARKS": "FINALIZED", "MAP_STATUS": "COMPLETED", "BLK_C_2001": "050017", "BLK_C_2011": "01096", "DIST_NAME": "MADHUBANI", "code2011": 0.0, "Shape_Leng": 0.13472173536, "Shape_Area": 0.00078132298, "Area": 8.63311}, "geometry": {"type": "MultiPolygon", "coordinates": [[[[86.24674439200004, 26.397737547000077], [86.24766551600004, 26.397241546000032], [86.24922344500004, 26.39640266400005], [86.25100513700005, 26.394973271000026], [86.25021781000004, 26.39316473100007], [86.24848324200008, 26.391331167000033], [86.24766730900006, 26.390378447000046], [86.24719248100007, 26.389823973000034], [86.24766725400008, 26.389848362000066], [86.25400030700007, 26.39017348400006], [86.25511254400004, 26.387828195000054], [86.25659662200007, 26.386202293000053], [86.25786963200005, 26.38507422200007], [86.25794554200007, 26.38343119600006], [86.25672002400006, 26.38136402300006], [86.25587225300006, 26.380679592000035], [86.25378456000004, 26.38029710400008], [86.25309438400006, 26.378700003000063], [86.25479134400007, 26.37736138300005], [86.25589084600006, 26.375309508000043], [86.25694172500005, 26.37400251200006], [86.25802327000008, 26.372198981000054], [86.25803215700006, 26.37091278500003], [86.25805893500007, 26.369956009000077], [86.25711097900006, 26.368103447000067], [86.25686075400006, 26.36698615100005], [86.25723727600007, 26.365909500000043], [86.25803279000007, 26.364635904000068], [86.25990615600006, 26.363449409000054], [86.25921278400006, 26.362646580000046], [86.25884472900003, 26.360641076000036], [86.25666806600003, 26.360358587000064], [86.25606313700007, 26.359920549000037], [86.25428962800004, 26.35991953100006], [86.25335236100005, 26.359858340000073], [86.25037688700007, 26.359897260000025], [86.24929556100005, 26.359985977000065], [86.24807432300008, 26.36011185700005], [86.24766727900004, 26.36009507700004], [86.24563871700008, 26.360011447000034], [86.24330297600005, 26.36044281900007], [86.24315818300005, 26.361084575000064], [86.24258693900003, 26.36223930600005], [86.24095183300005, 26.36378036900004], [86.23938845400005, 26.364914761000023], [86.23749376500007, 26.365401716000065], [86.23629366500006, 26.366253767000046], [86.23415783000007, 26.366661091000026], [86.23288775400005, 26.366940515000067], [86.23281570900008, 26.367306574000054], [86.23172136500006, 26.36764342400005], [86.22998098600004, 26.36861206100008], [86.23017077100008, 26.36913422300006], [86.23125084600008, 26.370665616000053], [86.23212072700005, 26.371625300000062], [86.23256695600008, 26.372249457000066], [86.23370915800007, 26.373423916000036], [86.23495292300004, 26.37533320400007], [86.23409465200007, 26.379878725000026], [86.23441686400008, 26.380657235000058], [86.23445597800008, 26.38231756400006], [86.23447177400004, 26.382994320000023], [86.23483858000003, 26.387242574000027], [86.23456168700005, 26.388859984000078], [86.23227549700005, 26.39108233500008], [86.23202444500004, 26.392203142000028], [86.23218620000006, 26.393555780000042], [86.23252616800005, 26.394640967000043], [86.23302334400006, 26.395364072000064], [86.23327029200004, 26.396120535000023], [86.23362433100004, 26.397088240000073], [86.23472648400008, 26.397649313000045], [86.23668251100008, 26.397252222000077], [86.23946670100008, 26.397593984000025], [86.23988136200006, 26.399206623000055], [86.24295371400007, 26.39924398100004], [86.24430274300005, 26.398774368000034], [86.24568941800004, 26.398602250000067], [86.24568567900008, 26.398173583000073], [86.24674439200004, 26.397737547000077]]]]}}, {"type": "Feature", "properties": {"OBJECTID": 7029, "GPCODE": "94609", "GPNAME_1": "SHIVA", "DIST_CEN_C": "05", "BLK_NAME": "ANDHRATHARHI", "ST_NAME": "BIHAR", "ST_CODE_1": "10", "GPCODE2011": "97163", "REMARKS": "FINALIZED", "MAP_STATUS": "COMPLETED", "BLK_C_2001": "050017", "BLK_C_2011": "01096", "DIST_NAME": "MADHUBANI", "code2011": 0.0, "Shape_Leng": 0.12509518125, "Shape_Area": 0.00049024874, "Area": 5.41685}, "geometry": {"type": "MultiPolygon", "coordinates": [[[[86.28072359800007, 26.386761628000045], [86.28047511000005, 26.383600157000046], [86.27986387600004, 26.383044995000034], [86.27992358800003, 26.381311821000054], [86.28102177500006, 26.38140321800006], [86.28123747700005, 26.380873661000066], [86.28088349300003, 26.380501681000055], [86.28042689700004, 26.380437261000054], [86.27927732000006, 26.38075686600007], [86.27772517500006, 26.380885396000053], [86.27668470400005, 26.37881710100004], [86.27564683800006, 26.377606164000042], [86.27458208400003, 26.377315913000075], [86.27374296200009, 26.375905035000073], [86.27360856700005, 26.374868093000032], [86.27456014500007, 26.37482971700007], [86.27494581200006, 26.373112175000074], [86.27545337700008, 26.372715998000047], [86.27671119800004, 26.372179036000034], [86.27907336300007, 26.37244183400003], [86.27953864600005, 26.37181129100003], [86.27939192800005, 26.36938910500004], [86.27791727600004, 26.368063978000066], [86.27752509700008, 26.367344785000057], [86.27229911700005, 26.367846969000027], [86.27160063500008, 26.367044214000032], [86.27122541500006, 26.364249121000057], [86.27022049200008, 26.36448645200005], [86.26900118400005, 26.36483806500007], [86.26908884800008, 26.366272397000046], [86.26968535700007, 26.368014524000046], [86.26617224100005, 26.369605298000067], [86.26505718500005, 26.369856859000038], [86.26442026000007, 26.369780195000033], [86.26355405600003, 26.36927643000007], [86.26309169600006, 26.368539671000065], [86.26236931800008, 26.36727669100003], [86.26084602200007, 26.36494544900006], [86.25990615600006, 26.363449409000054], [86.25803279000007, 26.364635904000068], [86.25723727600007, 26.365909500000043], [86.25686075400006, 26.36698615100005], [86.25711097900006, 26.368103447000067], [86.25805893500007, 26.369956009000077], [86.25803215700006, 26.37091278500003], [86.25802327000008, 26.372198981000054], [86.25694172500005, 26.37400251200006], [86.25589084600006, 26.375309508000043], [86.25479134400007, 26.37736138300005], [86.25309438400006, 26.378700003000063], [86.25378456000004, 26.38029710400008], [86.25587225300006, 26.380679592000035], [86.25672002400006, 26.38136402300006], [86.25794554200007, 26.38343119600006], [86.25786963200005, 26.38507422200007], [86.25896461700006, 26.38480032500007], [86.26079949400008, 26.385482313000068], [86.26138533600005, 26.385442003000037], [86.26258367800006, 26.384382153000047], [86.26532972200005, 26.384394292000025], [86.26562340500004, 26.385317318000034], [86.26688356300008, 26.387316380000073], [86.26756025200007, 26.38905794200008], [86.26925375300004, 26.39016953500004], [86.27065062400004, 26.391179403000024], [86.27206690900005, 26.393804526000054], [86.27311070400003, 26.394550695000078], [86.27413355800007, 26.394611104000035], [86.27740772900006, 26.394817729000067], [86.27819019600008, 26.39433382900006], [86.27925091800006, 26.39188943700003], [86.28103922000008, 26.39182690100006], [86.28186165200003, 26.39132913000003], [86.28245385100007, 26.39030057100007], [86.28216695800006, 26.38903455600007], [86.28238380300007, 26.388626937000026], [86.28072359800007, 26.386761628000045]]]]}}, {"type": "Feature", "properties": {"OBJECTID": 7044, "GPCODE": "94606", "GPNAME_1": "MARUKIYA", "DIST_CEN_C": "05", "BLK_NAME": "ANDHRATHARHI", "ST_NAME": "BIHAR", "ST_CODE_1": "10", "GPCODE2011": "97160", "REMARKS": "FINALIZED", "MAP_STATUS": "COMPLETED", "BLK_C_2001": "050017", "BLK_C_2011": "01096", "DIST_NAME": "MADHUBANI", "code2011": 0.0, "Shape_Leng": 0.12939990276, "Shape_Area": 0.0005947493, "Area": 6.56988}, "geometry": {"type": "MultiPolygon", "coordinates": [[[[86.31817942700008, 26.419672836000075], [86.31835451200004, 26.41962860500007], [86.31879888300006, 26.419440338000072], [86.32010824700006, 26.41902894100008], [86.32083328600004, 26.41884304200005], [86.32115796300008, 26.41872322000006], [86.32139675100007, 26.41852742100008], [86.32159307600006, 26.418074739000076], [86.32169676600006, 26.417906955000035], [86.32206686300003, 26.41781843600006], [86.32250284400004, 26.417810660000043], [86.32314883200007, 26.417751676000023], [86.32468656400005, 26.417645393000043], [86.32544292700004, 26.41758552400006], [86.32602348200004, 26.417499991000057], [86.32788604000007, 26.417287370000054], [86.32796487100006, 26.417137895000053], [86.32809033700005, 26.41661801200007], [86.32834631700007, 26.41611972900006], [86.32858133800005, 26.416063819000044], [86.32898200800008, 26.416024680000078], [86.32969964000006, 26.416123046000052], [86.33035322500007, 26.416339263000054], [86.33087567500007, 26.41646614700005], [86.33126064100009, 26.416368442000078], [86.33156507000007, 26.41622631000007], [86.33215492100004, 26.41605485200006], [86.33244618700007, 26.416115878000028], [86.33275350600007, 26.416289489000064], [86.33299887200008, 26.416260587000068], [86.33338275700004, 26.416041032000066], [86.33417594300005, 26.41563799000005], [86.33349795300006, 26.413887745000068], [86.33313189100005, 26.41279405800003], [86.33298972800003, 26.41206857000003], [86.33295105400003, 26.41168531900007], [86.33299976500007, 26.410994540000047], [86.33297907500008, 26.41039007200004], [86.33288248200006, 26.409704902000044], [86.33270330800008, 26.409304692000035], [86.33233610400003, 26.408093575000066], [86.33209076000009, 26.407572037000023], [86.33186014800003, 26.40703222600007], [86.33153446200004, 26.406506759000024], [86.33120947700007, 26.40604441800008], [86.33173504800004, 26.405706534000046], [86.32918773400007, 26.404545745000064], [86.32818535300004, 26.403855527000076], [86.32758173500008, 26.40311722000007], [86.32716658500004, 26.402132107000057], [86.32664908900006, 26.401445640000077], [86.32469901200005, 26.40030507700004], [86.32329447500007, 26.398537762000046], [86.32298514000007, 26.39705996400005], [86.32242681300005, 26.395746530000054], [86.32102424800007, 26.394732644000044], [86.31787721100005, 26.394724606000068], [86.31756399900007, 26.39361096400006], [86.31719331300008, 26.392292970000028], [86.31647179300006, 26.389035845000024], [86.31482632700005, 26.38937749300004], [86.31376802400007, 26.389814081000054], [86.31252574100006, 26.389854855000067], [86.31197923500008, 26.389827299000046], [86.31094873800004, 26.389469439000038], [86.30887156100005, 26.390279005000025], [86.30671587600006, 26.390719131000026], [86.30544108000004, 26.39105796900003], [86.30616532000005, 26.394644509000045], [86.30687858700009, 26.396484878000024], [86.30858245500008, 26.39867883900007], [86.30831352800004, 26.40105439200005], [86.30943291000006, 26.40345125600004], [86.31021821000007, 26.40602205400006], [86.30876484200007, 26.407120348000035], [86.30732996300009, 26.406404459000044], [86.30743089600008, 26.405383846000063], [86.30728039800005, 26.404816466000057], [86.30467589700004, 26.404443061000052], [86.30299359200006, 26.40461786000003], [86.29740105400003, 26.40521853100006], [86.29778449200006, 26.407160582000074], [86.29947252800008, 26.407608496000023], [86.29991505200007, 26.407772211000065], [86.29993053500004, 26.40948677500006], [86.30052926900004, 26.41281163700006], [86.30059787600004, 26.41263506300004], [86.30122012400005, 26.411619693000034], [86.30163767700003, 26.411237570000026], [86.30232663300006, 26.410939145000043], [86.30299418200008, 26.41104710700006], [86.30365130800004, 26.41110991800008], [86.30441396200007, 26.411208057000067], [86.30518653500008, 26.41128360500005], [86.30592296300006, 26.41125114700003], [86.30666354400006, 26.41111927700007], [86.30728390000007, 26.411001918000068], [86.30802628400005, 26.41106863600004], [86.30851798900005, 26.41277070700005], [86.30866834000005, 26.413324556000077], [86.30890985100007, 26.414518599000075], [86.30916103700008, 26.415130427000065], [86.30954194300006, 26.415678101000026], [86.31027793600003, 26.416687952000075], [86.31086384600007, 26.41773055400006], [86.31140188600006, 26.418466590000037], [86.31175057100006, 26.418775373000074], [86.31220912900005, 26.419038201000035], [86.31283631200006, 26.41911470200006], [86.31317221000006, 26.419121259000065], [86.31350808600007, 26.419127813000046], [86.31419968400007, 26.41911811800003], [86.31574322200004, 26.419093071000077], [86.31657551700005, 26.419118466000043], [86.31685116500006, 26.419116445000043], [86.31719306100007, 26.41923124300007], [86.31746050700008, 26.41942775900003], [86.31771777800003, 26.419610877000025], [86.31800444300006, 26.41971704200006], [86.31817942700008, 26.419672836000075]]]]}}, {"type": "Feature", "properties": {"OBJECTID": 7048, "GPCODE": "94595", "GPNAME_1": "DEOHAR", "DIST_CEN_C": "05", "BLK_NAME": "ANDHRATHARHI", "ST_NAME": "BIHAR", "ST_CODE_1": "10", "GPCODE2011": "97149", "REMARKS": "FINALIZED", "MAP_STATUS": "COMPLETED", "BLK_C_2001": "050017", "BLK_C_2011": "01096", "DIST_NAME": "MADHUBANI", "code2011": 0.0, "Shape_Leng": 0.14552629308, "Shape_Area": 0.00088204404, "Area": 9.74384}, "geometry": {"type": "MultiPolygon", "coordinates": [[[[86.24391671100005, 26.41745436000008], [86.24625024300008, 26.417207984000072], [86.24693138000004, 26.417731195000044], [86.24739750400005, 26.417708342000026], [86.24766728100008, 26.417616734000035], [86.24924560400007, 26.417858384000056], [86.24951221200007, 26.417973851000056], [86.24967256900004, 26.417972689000067], [86.24988310800006, 26.417971180000052], [86.25053678600005, 26.417628187000048], [86.25100241800004, 26.417570819000048], [86.25126806400004, 26.41757345600007], [86.25178897200004, 26.417538179000076], [86.25247537000007, 26.41750631800005], [86.25379278100007, 26.417420406000076], [86.25460906400008, 26.417333445000054], [86.25473403100005, 26.41730092100005], [86.25606082000007, 26.417133695000075], [86.25728326600006, 26.417070977000037], [86.25786211900004, 26.41678259100007], [86.25848610600008, 26.416484849000028], [86.25874064600004, 26.416370267000048], [86.25912097600008, 26.41629990100006], [86.25979239300005, 26.41628158700007], [86.26046009100008, 26.41640325700007], [86.26093163600007, 26.416445046000035], [86.26188518600009, 26.416587210000046], [86.26274292200009, 26.416666922000047], [86.26335537400007, 26.41677532700004], [86.26407795400007, 26.416869560000066], [86.26484022400007, 26.41692279700004], [86.26559208700007, 26.416930971000056], [86.26617798500007, 26.416868186000045], [86.26687824400005, 26.416705258000036], [86.26711329300008, 26.41664944000007], [86.26954704100007, 26.41640643100004], [86.27024845500006, 26.416374442000063], [86.27261710900007, 26.41613638800004], [86.27305273300004, 26.41609267700005], [86.27318785200004, 26.416069121000078], [86.27424660800006, 26.415923906000046], [86.27426995500008, 26.414577886000075], [86.27520865300005, 26.41361446600007], [86.27531460600005, 26.412557786000036], [86.27394752300006, 26.410988244000066], [86.27114843700008, 26.409000175000074], [86.27043700700006, 26.40732209500004], [86.26984481300008, 26.406667542000037], [86.26987209000004, 26.405778343000065], [86.26985388000008, 26.403702743000053], [86.26936965800007, 26.40278562700007], [86.26895710300005, 26.398045944000046], [86.27022858300006, 26.397310394000044], [86.27000088600005, 26.395926641000074], [86.26855917300009, 26.394389123000053], [86.26976077100005, 26.393690161000052], [86.27206690900005, 26.393804526000054], [86.27065062400004, 26.391179403000024], [86.26925375300004, 26.39016953500004], [86.26756025200007, 26.38905794200008], [86.26688356300008, 26.387316380000073], [86.26562340500004, 26.385317318000034], [86.26532972200005, 26.384394292000025], [86.26258367800006, 26.384382153000047], [86.26138533600005, 26.385442003000037], [86.26079949400008, 26.385482313000068], [86.25896461700006, 26.38480032500007], [86.25786963200005, 26.38507422200007], [86.25659662200007, 26.386202293000053], [86.25511254400004, 26.387828195000054], [86.25400030700007, 26.39017348400006], [86.24766725400008, 26.389848362000066], [86.24719248100007, 26.389823973000034], [86.24766730900006, 26.390378447000046], [86.24848324200008, 26.391331167000033], [86.25021781000004, 26.39316473100007], [86.25100513700005, 26.394973271000026], [86.24922344500004, 26.39640266400005], [86.24766551600004, 26.397241546000032], [86.24674439200004, 26.397737547000077], [86.24568567900008, 26.398173583000073], [86.24568941800004, 26.398602250000067], [86.24430274300005, 26.398774368000034], [86.24295371400007, 26.39924398100004], [86.23988136200006, 26.399206623000055], [86.23996221700008, 26.399864939000054], [86.23865799000004, 26.40265815400005], [86.23884271900005, 26.404926680000074], [86.23866910600003, 26.405717586000037], [86.23803621400003, 26.406141637000076], [86.23590978600004, 26.40714446900006], [86.23578607400003, 26.40792150200008], [86.23536404700008, 26.409571460000052], [86.23404761800003, 26.409761023000044], [86.23415166200004, 26.410211554000057], [86.23540914900008, 26.41073991500008], [86.23577847000007, 26.411152525000034], [86.23593919800004, 26.412960963000046], [86.23618551700008, 26.41599165200006], [86.23583292100005, 26.419315303000076], [86.23671174300006, 26.41950782500004], [86.23783746000004, 26.41926988000006], [86.23987924100004, 26.41889475800008], [86.24071928500007, 26.41865880000006], [86.24217267300008, 26.418057649000048], [86.24286010700007, 26.417560985000023], [86.24391671100005, 26.41745436000008]]]]}}, {"type": "Feature", "properties": {"OBJECTID": 7050, "GPCODE": "94597", "GPNAME_1": "GANAULI", "DIST_CEN_C": "05", "BLK_NAME": "ANDHRATHARHI", "ST_NAME": "BIHAR", "ST_CODE_1": "10", "GPCODE2011": "97151", "REMARKS": "FINALIZED", "MAP_STATUS": "COMPLETED", "BLK_C_2001": "050017", "BLK_C_2011": "01096", "DIST_NAME": "MADHUBANI", "code2011": 0.0, "Shape_Leng": 0.15731366228, "Shape_Area": 0.00090920786, "Area": 10.0441}, "geometry": {"type": "MultiPolygon", "coordinates": [[[[86.29972512000006, 26.41477132400007], [86.30046073400007, 26.41298802600005], [86.30052926900004, 26.41281163700006], [86.29993053500004, 26.40948677500006], [86.29991505200007, 26.407772211000065], [86.29947252800008, 26.407608496000023], [86.29778449200006, 26.407160582000074], [86.29740105400003, 26.40521853100006], [86.30299359200006, 26.40461786000003], [86.30467589700004, 26.404443061000052], [86.30728039800005, 26.404816466000057], [86.30743089600008, 26.405383846000063], [86.30732996300009, 26.406404459000044], [86.30876484200007, 26.407120348000035], [86.31021821000007, 26.40602205400006], [86.30943291000006, 26.40345125600004], [86.30831352800004, 26.40105439200005], [86.30858245500008, 26.39867883900007], [86.30687858700009, 26.396484878000024], [86.30616532000005, 26.394644509000045], [86.30544108000004, 26.39105796900003], [86.30408889200004, 26.391135606000034], [86.30287021400005, 26.389926247000062], [86.30077925300003, 26.389774574000057], [86.29957049000006, 26.38909304400005], [86.29734902700005, 26.38614466000007], [86.29681917900007, 26.384072771000035], [86.29654413500003, 26.382459307000033], [86.29617383800007, 26.381965665000052], [86.29620032700007, 26.381008800000075], [86.29608046100003, 26.37938521500007], [86.29566893800006, 26.37876093600005], [86.29478191800007, 26.37929536300004], [86.29383211500004, 26.37953697300003], [86.29282313700008, 26.379327733000025], [86.29284808000006, 26.379873583000062], [86.29283261100005, 26.382062174000055], [86.29258622600008, 26.383070329000077], [86.29211230600004, 26.38330391100004], [86.29121556400008, 26.383323982000036], [86.29010960900007, 26.38404496100003], [86.28927124100005, 26.38443009300005], [86.28842073800007, 26.385131208000075], [86.28827079600006, 26.386860555000055], [86.28803279500005, 26.387142080000046], [86.28746442900007, 26.386897959000066], [86.28697470800006, 26.38705040700006], [86.28589093400007, 26.388574531000074], [86.28445233000008, 26.388512685000023], [86.28238380300007, 26.388626937000026], [86.28216695800006, 26.38903455600007], [86.28245385100007, 26.39030057100007], [86.28186165200003, 26.39132913000003], [86.28103922000008, 26.39182690100006], [86.27925091800006, 26.39188943700003], [86.27819019600008, 26.39433382900006], [86.27740772900006, 26.394817729000067], [86.27413355800007, 26.394611104000035], [86.27311070400003, 26.394550695000078], [86.27206690900005, 26.393804526000054], [86.26976077100005, 26.393690161000052], [86.26855917300009, 26.394389123000053], [86.27000088600005, 26.395926641000074], [86.27022858300006, 26.397310394000044], [86.26895710300005, 26.398045944000046], [86.26936965800007, 26.40278562700007], [86.26985388000008, 26.403702743000053], [86.26987209000004, 26.405778343000065], [86.26984481300008, 26.406667542000037], [86.27043700700006, 26.40732209500004], [86.27114843700008, 26.409000175000074], [86.27394752300006, 26.410988244000066], [86.27531460600005, 26.412557786000036], [86.27520865300005, 26.41361446600007], [86.27426995500008, 26.414577886000075], [86.27424660800006, 26.415923906000046], [86.27530536100005, 26.41577868400003], [86.27586104200003, 26.415702530000033], [86.27616667100006, 26.415686765000032], [86.27732733700003, 26.415448325000057], [86.27798755000003, 26.415294687000028], [86.27921668000005, 26.414861631000065], [86.28069218400003, 26.41451708200003], [86.28142131100003, 26.41422754200005], [86.28244115800004, 26.413926872000047], [86.28320208800005, 26.41383563100004], [86.28390906600004, 26.413866694000035], [86.28451786900007, 26.414124024000046], [86.28500906200009, 26.41412490400006], [86.28573072700004, 26.41412425200008], [86.28598066500007, 26.414614275000076], [86.28651819300006, 26.415864844000055], [86.28672873200009, 26.41643645000005], [86.28692589900004, 26.417179548000036], [86.28715772600003, 26.417877248000025], [86.28745332800008, 26.418430150000063], [86.28810727000007, 26.41869614600006], [86.28862083000007, 26.41894964900007], [86.28892637800004, 26.419484381000075], [86.28932227500007, 26.42004107100007], [86.29044600700007, 26.41903117800007], [86.29099815800004, 26.41856238500003], [86.29168243200007, 26.41830019500003], [86.29234361800007, 26.41825471900006], [86.29287531000006, 26.417736477000062], [86.29344408700007, 26.41745250500003], [86.29408517900004, 26.417393654000023], [86.29434509700008, 26.41732409000008], [86.29473787300003, 26.416969314000028], [86.29543745400008, 26.416729506000024], [86.29617297200008, 26.416597799000044], [86.29576056700006, 26.41532832200005], [86.29829252500008, 26.414867512000058], [86.29876349500006, 26.414846057000034], [86.29972512000006, 26.41477132400007]]]]}}, {"type": "Feature", "properties": {"OBJECTID": 7053, "GPCODE": "94593", "GPNAME_1": "ANDHRATHARHI (N)", "DIST_CEN_C": "05", "BLK_NAME": "ANDHRATHARHI", "ST_NAME": "BIHAR", "ST_CODE_1": "10", "GPCODE2011": "97147", "REMARKS": "FINALIZED", "MAP_STATUS": "COMPLETED", "BLK_C_2001": "050017", "BLK_C_2011": "01096", "DIST_NAME": "MADHUBANI", "code2011": 0.0, "Shape_Leng": 0.16391960066, "Shape_Area": 0.00067107927, "Area": 7.41362}, "geometry": {"type": "MultiPolygon", "coordinates": [[[[86.34309510800006, 26.389727976000074], [86.34256761700004, 26.39042922300007], [86.33920068000003, 26.39261356800006], [86.33854632800006, 26.393089460000056], [86.33783843800006, 26.394231601000058], [86.33498308500003, 26.394003173000044], [86.33132823300008, 26.394003173000044], [86.32892973600008, 26.39331788800007], [86.32761627400004, 26.393032353000024], [86.32601727600007, 26.393432102000077], [86.32253374500004, 26.393374995000045], [86.32047789100005, 26.393831852000062], [86.318936, 26.393888959000037], [86.31756399900007, 26.39361096400006], [86.31787721100005, 26.394724606000068], [86.32102424800007, 26.394732644000044], [86.32242681300005, 26.395746530000054], [86.32298514000007, 26.39705996400005], [86.32329447500007, 26.398537762000046], [86.32469901200005, 26.40030507700004], [86.32664908900006, 26.401445640000077], [86.32716658500004, 26.402132107000057], [86.32758173500008, 26.40311722000007], [86.32818535300004, 26.403855527000076], [86.32918773400007, 26.404545745000064], [86.33173504800004, 26.405706534000046], [86.33226061600004, 26.405368649000025], [86.33216007800007, 26.404800831000045], [86.33275377200005, 26.404521130000035], [86.33337858000004, 26.404340422000075], [86.33400441800006, 26.40427244600005], [86.33416565400006, 26.404902985000035], [86.33545806400008, 26.404843536000044], [86.33618418200007, 26.404779405000056], [86.33682284400004, 26.404481203000046], [86.33741162000007, 26.404201499000067], [86.33788410200003, 26.403814375000024], [86.33833038000006, 26.403310102000034], [86.33871617000005, 26.402765656000042], [86.33925972300005, 26.402477282000063], [86.33978887200004, 26.40225660400006], [86.34015485300006, 26.40173937800006], [86.34041958500006, 26.401119188000052], [86.34120317000009, 26.400242366000043], [86.34170045000008, 26.39983240300006], [86.34227438100004, 26.39957537500004], [86.34296943900006, 26.399412123000047], [86.34365410500004, 26.399212833000036], [86.34480493600006, 26.399028041000065], [86.34548002400004, 26.39887847700004], [86.34597428600006, 26.39867613200005], [86.34602916300008, 26.39811618600004], [86.34611396200006, 26.397551527000076], [86.34677378500004, 26.397374957000068], [86.34813451500008, 26.397129880000023], [86.34948495000003, 26.39684875100005], [86.34961349300005, 26.39613933800007], [86.34960273800004, 26.395534734000023], [86.34959278100007, 26.395011389000047], [86.34958086900008, 26.393757047000065], [86.35009890100008, 26.393423635000033], [86.35076559900006, 26.39345013600007], [86.35139282400007, 26.39353550100003], [86.35197187500006, 26.393824349000056], [86.35204251900007, 26.394405991000042], [86.35207330800006, 26.395010334000062], [86.35199845200003, 26.39557496300006], [86.35204342800006, 26.396089060000065], [86.35208438400008, 26.396702472000072], [86.35236014400004, 26.397246319000033], [86.35278222800008, 26.397892854000077], [86.35386363600009, 26.39936455000003], [86.35451535300007, 26.40043352400005], [86.35482620700003, 26.400981647000037], [86.35511236000008, 26.401557011000023], [86.35554855200007, 26.402623049000056], [86.35576937000008, 26.403189927000028], [86.35587981400005, 26.403735054000038], [86.35619759800005, 26.40499610300003], [86.35626532100008, 26.40526410700005], [86.35633304000004, 26.405532019000077], [86.35647376700007, 26.406103992000055], [86.35664794200005, 26.40649075600004], [86.35715985900003, 26.40657701300006], [86.35727518900006, 26.407623036000075], [86.35801787700007, 26.40773010500004], [86.35862100900005, 26.407910419000075], [86.35931419100007, 26.408071970000037], [86.35936937800005, 26.408071567000036], [86.36000215900003, 26.408211082000037], [86.36086209300004, 26.408511211000075], [86.36136873500004, 26.408561397000028], [86.36234821000005, 26.407741589000068], [86.36286571800008, 26.407358540000075], [86.36351324400005, 26.407461814000044], [86.36396838600007, 26.40736798200004], [86.36438351300006, 26.40728351200005], [86.36497347300008, 26.407130057000074], [86.36531891700008, 26.40709123000005], [86.36573669800003, 26.407277497000052], [86.36642957200007, 26.40741647400006], [86.36709663900007, 26.407460938000042], [86.36787291500008, 26.40741422700006], [86.36847395100006, 26.407373454000037], [86.36881165400007, 26.407318915000076], [86.36914945800004, 26.407264372000043], [86.36967710800008, 26.40689027600007], [86.37011923700004, 26.406480628000054], [86.37042465900004, 26.405932285000063], [86.37067944900008, 26.405334632000063], [86.37095107200008, 26.404917382000065], [86.37120315700008, 26.40455892600005], [86.37117020100004, 26.403742470000054], [86.37109946900006, 26.403160933000038], [86.37122264200008, 26.401905507000038], [86.37133231800004, 26.401331533000075], [86.37156544800007, 26.401081533000024], [86.37045967500006, 26.39939462500007], [86.36939476100008, 26.398613304000037], [86.36931462300004, 26.394462458000078], [86.36992545400005, 26.393374691000076], [86.37011511000009, 26.390701885000055], [86.37016648800005, 26.388233198000023], [86.36905545900004, 26.386824947000036], [86.36700778300008, 26.387003367000034], [86.36627304000007, 26.38667976000005], [86.36591286300006, 26.386745707000046], [86.36177673200007, 26.387039651000066], [86.36054327700003, 26.388005788000044], [86.35892386200004, 26.386863229000028], [86.35763486200005, 26.38621439900004], [86.35628026800003, 26.38603075700007], [86.35474572400005, 26.385907264000025], [86.35426630900008, 26.385550023000064], [86.35418363200006, 26.38476098500007], [86.35352225600008, 26.38423805700006], [86.35291977500003, 26.382528045000072], [86.35275373000007, 26.38035433300007], [86.35226874500006, 26.379405887000075], [86.35047384800004, 26.37928437200003], [86.34614081800004, 26.38611119500007], [86.34309510800006, 26.389727976000074]]]]}}, {"type": "Feature", "properties": {"OBJECTID": 7216, "GPCODE": "94593", "GPNAME_1": "ANDHRATHARHI (S)", "DIST_CEN_C": "05", "BLK_NAME": "ANDHRATHARHI", "ST_NAME": "BIHAR", "ST_CODE_1": "10", "GPCODE2011": "97148", "REMARKS": "FINALIZED", "MAP_STATUS": "COMPLETED", "BLK_C_2001": "050017", "BLK_C_2011": "01096", "DIST_NAME": "MADHUBANI", "code2011": 0.0, "Shape_Leng": 0.10334899668, "Shape_Area": 0.00065164915, "Area": 7.19985}, "geometry": {"type": "MultiPolygon", "coordinates": [[[[86.33854632800006, 26.393089460000056], [86.33920068000003, 26.39261356800006], [86.34256761700004, 26.39042922300007], [86.34309510800006, 26.389727976000074], [86.34614081800004, 26.38611119500007], [86.35047384800004, 26.37928437200003], [86.35008276900004, 26.376620526000067], [86.34920071800008, 26.37606769000007], [86.34820944200004, 26.375619545000063], [86.34703430500008, 26.375330766000047], [86.34648511100005, 26.375005518000023], [86.34613546600008, 26.373000173000037], [86.34600653500007, 26.371020205000036], [86.34494485100004, 26.370536506000064], [86.34450018400008, 26.370142746000056], [86.34128174500006, 26.370465117000037], [86.33887172000004, 26.37045192900007], [86.33737033900007, 26.37062577100005], [86.33649662200008, 26.37096178400003], [86.33492701500006, 26.37133925200004], [86.33164407300006, 26.372284553000043], [86.33095877900007, 26.372939547000044], [86.32675146100007, 26.373070486000074], [86.32295835700006, 26.37412333900005], [86.31810335800003, 26.375211010000044], [86.31470490400005, 26.37560187500003], [86.31404188800008, 26.376509248000048], [86.31358683300004, 26.37824544700004], [86.31352902700007, 26.37959504300005], [86.31327770400009, 26.38005722500003], [86.31325291000007, 26.381181034000065], [86.31612922100004, 26.38392572300006], [86.31628514300007, 26.385079791000067], [86.31669919200004, 26.38596565000006], [86.31638123000005, 26.38735336900004], [86.31661103700003, 26.388371508000034], [86.31647179300006, 26.389035845000024], [86.31719331300008, 26.392292970000028], [86.31756399900007, 26.39361096400006], [86.318936, 26.393888959000037], [86.32047789100005, 26.393831852000062], [86.32253374500004, 26.393374995000045], [86.32601727600007, 26.393432102000077], [86.32761627400004, 26.393032353000024], [86.32892973600008, 26.39331788800007], [86.33132823300008, 26.394003173000044], [86.33498308500003, 26.394003173000044], [86.33783843800006, 26.394231601000058], [86.33854632800006, 26.393089460000056]]]]}}, {"type": "Feature", "properties": {"OBJECTID": 7233, "GPCODE": "94604", "GPNAME_1": "MAHARAIL", "DIST_CEN_C": "05", "BLK_NAME": "ANDHRATHARHI", "ST_NAME": "BIHAR", "ST_CODE_1": "10", "GPCODE2011": "97158", "REMARKS": "FINALIZED", "MAP_STATUS": "COMPLETED", "BLK_C_2001": "050017", "BLK_C_2011": "01096", "DIST_NAME": "MADHUBANI", "code2011": 0.0, "Shape_Leng": 0.12519843955, "Shape_Area": 0.00084996325, "Area": 9.3978}, "geometry": {"type": "MultiPolygon", "coordinates": [[[[86.27317621900005, 26.312133506000066], [86.27385114700007, 26.312011391000055], [86.27432408500005, 26.31169658500005], [86.27530980900008, 26.311608383000078], [86.27598426100008, 26.311423027000046], [86.27729966400005, 26.31124662600007], [86.27919812100004, 26.310741208000024], [86.28071200500005, 26.31036474600006], [86.28138551500007, 26.310080154000048], [86.28320666800005, 26.309895613000037], [86.28290690800009, 26.309327581000048], [86.28268708700006, 26.308911030000047], [86.28226894200003, 26.30749710200007], [86.28138662400005, 26.306828273000065], [86.28101878400008, 26.306549438000047], [86.28082594800009, 26.305138414000055], [86.28091623600005, 26.30289502900007], [86.28075793900007, 26.301416047000032], [86.28129844300008, 26.300816491000035], [86.28139635100007, 26.299435018000054], [86.28204082600007, 26.298144257000047], [86.28192339900005, 26.29732385500006], [86.28133384000006, 26.29633986400006], [86.28089542900005, 26.296013521000077], [86.28077882200006, 26.295287915000074], [86.28165056000006, 26.294789754000078], [86.28363189100008, 26.29462656000004], [86.28447557900006, 26.292097994000073], [86.28517117300004, 26.292061353000065], [86.28527170700005, 26.290973094000037], [86.28493720200004, 26.290515248000077], [86.28398340200005, 26.289664779000077], [86.28401408400003, 26.289172628000074], [86.28371518300008, 26.28877770300005], [86.28425422500004, 26.287465196000028], [86.28290798300003, 26.286400884000045], [86.28151185600007, 26.285341421000055], [86.28105947600005, 26.28571021600004], [86.27983062400006, 26.28545275600004], [86.27912374400006, 26.285904604000052], [86.27813962500005, 26.286155370000074], [86.27711250600004, 26.286063425000066], [86.27541061200003, 26.285534090000056], [86.27335599700007, 26.284740945000067], [86.27240932800004, 26.28525763400006], [86.27016608300005, 26.285210423000024], [86.26902533600008, 26.284722113000043], [86.26595915000007, 26.285041713000055], [86.26499144300004, 26.284868033000066], [86.26318907700005, 26.283721035000042], [86.26189082700006, 26.283531680000067], [86.26035513200009, 26.28310020400005], [86.25754109200005, 26.283052304000023], [86.25675973600005, 26.28358575200008], [86.25630476200007, 26.28365664000006], [86.25526992900006, 26.28440398200007], [86.25455010200005, 26.28569507900005], [86.25428394000005, 26.286766467000064], [86.25369267500008, 26.28844922600007], [86.25335166600007, 26.28896161600005], [86.25255488000005, 26.290041165000048], [86.25247229300004, 26.290912680000076], [86.25284901800006, 26.292227720000028], [86.25335545600007, 26.29347412900006], [86.25323667800006, 26.294792611000048], [86.25253205200005, 26.295537661000026], [86.25139431900004, 26.29540117600004], [86.25103082000004, 26.295633833000068], [86.25060280900004, 26.296512259000053], [86.25035217000004, 26.297060059000046], [86.24867137300004, 26.29899858700003], [86.24871150100006, 26.299589440000034], [86.24958185000008, 26.30065290400006], [86.25013696200006, 26.301736525000024], [86.25059928200005, 26.304847046000077], [86.25064606300003, 26.30561835900005], [86.25111086600003, 26.306684595000036], [86.25155074900005, 26.308924214000058], [86.25216510300004, 26.310481347000064], [86.25450299600004, 26.310415301000035], [86.25503731400005, 26.310826718000044], [86.25645052700008, 26.31152526900007], [86.25666451100005, 26.31310320500006], [86.25758483700008, 26.31355697300006], [86.26041192700006, 26.31330699800003], [86.26163615600007, 26.313000518000024], [86.26176057500004, 26.312331818000075], [86.26212425500006, 26.31211257500007], [86.26278649400007, 26.31225681600006], [86.26322443100008, 26.312515463000068], [86.26392936800005, 26.313534838000066], [86.26506540500003, 26.314036721000036], [86.26693049500005, 26.314285262000055], [86.26795760200008, 26.314345702000026], [86.26892719800009, 26.31469974600003], [86.27002528800006, 26.314858967000077], [86.27096985500003, 26.31407604700007], [86.27151030200008, 26.313463004000027], [86.27203432500005, 26.31268314600004], [86.27317621900005, 26.312133506000066]]]]}}, {"type": "Feature", "properties": {"OBJECTID": 7270, "GPCODE": "94602", "GPNAME_1": "KARN PUR", "DIST_CEN_C": "05", "BLK_NAME": "ANDHRATHARHI", "ST_NAME": "BIHAR", "ST_CODE_1": "10", "GPCODE2011": "97156", "REMARKS": "FINALIZED", "MAP_STATUS": "COMPLETED", "BLK_C_2001": "050017", "BLK_C_2011": "01096", "DIST_NAME": "MADHUBANI", "code2011": 0.0, "Shape_Leng": 0.09765304719, "Shape_Area": 0.00036035235, "Area": 3.98423}, "geometry": {"type": "MultiPolygon", "coordinates": [[[[86.28425422500004, 26.287465196000028], [86.28371518300008, 26.28877770300005], [86.28401408400003, 26.289172628000074], [86.28398340200005, 26.289664779000077], [86.28493720200004, 26.290515248000077], [86.28527170700005, 26.290973094000037], [86.28517117300004, 26.292061353000065], [86.28447557900006, 26.292097994000073], [86.28363189100008, 26.29462656000004], [86.28165056000006, 26.294789754000078], [86.28077882200006, 26.295287915000074], [86.28089542900005, 26.296013521000077], [86.28133384000006, 26.29633986400006], [86.28192339900005, 26.29732385500006], [86.28204082600007, 26.298144257000047], [86.28139635100007, 26.299435018000054], [86.28129844300008, 26.300816491000035], [86.28075793900007, 26.301416047000032], [86.28091623600005, 26.30289502900007], [86.28082594800009, 26.305138414000055], [86.28101878400008, 26.306549438000047], [86.28138662400005, 26.306828273000065], [86.28226894200003, 26.30749710200007], [86.28268708700006, 26.308911030000047], [86.28290690800009, 26.309327581000048], [86.28320666800005, 26.309895613000037], [86.28405460400006, 26.31064758800005], [86.28464596400005, 26.311266069000055], [86.28545976000004, 26.312677145000066], [86.28689595600008, 26.313691125000048], [86.28825321600004, 26.314272419000076], [86.29048172900008, 26.314287852000064], [86.29168588000005, 26.313981298000044], [86.29379223300003, 26.312648290000027], [86.29488193300006, 26.31188229600008], [86.29612207600007, 26.311688237000055], [86.29628667300005, 26.30938108500004], [86.29598616500004, 26.308823751000034], [86.29562984300009, 26.305383317000064], [86.29722253800009, 26.303760672000067], [86.29720752200006, 26.303196709000076], [86.29715587800007, 26.302475126000047], [86.29643472400005, 26.301343200000076], [86.29546049000004, 26.301020907000066], [86.29326318400007, 26.298320382000043], [86.29475072800005, 26.297258087000046], [86.29497370400009, 26.295884629000057], [86.29584945600004, 26.295828620000066], [86.29688811100004, 26.295523252000066], [86.29649741200006, 26.294388956000034], [86.29621332500005, 26.293420783000045], [86.29820606700008, 26.293424326000036], [86.29963772400004, 26.294501359000037], [86.30061089700007, 26.294706372000064], [86.30108387000007, 26.294405100000063], [86.30107256800005, 26.293155152000054], [86.30141458800006, 26.29277362700003], [86.30208047100007, 26.29166770100005], [86.30141792700005, 26.290927945000078], [86.29978846100005, 26.290678145000072], [86.29861559100004, 26.289978292000058], [86.29751583900008, 26.289607212000078], [86.29662224600008, 26.289893575000065], [86.29538171300004, 26.29001990200004], [86.29490560300007, 26.289973720000035], [86.29475289800007, 26.289135498000064], [86.29292386200007, 26.286712064000028], [86.29280465300008, 26.28570657800003], [86.29255874900008, 26.285081106000064], [86.28936444900006, 26.287297452000075], [86.28825651400007, 26.28769800200007], [86.28690817600005, 26.288086859000032], [86.28515627500008, 26.288131029000056], [86.28431930500005, 26.287513233000027], [86.28425422500004, 26.287465196000028]]]]}}, {"type": "Feature", "properties": {"OBJECTID": 7277, "GPCODE": "94601", "GPNAME_1": "JALSAIN", "DIST_CEN_C": "05", "BLK_NAME": "ANDHRATHARHI", "ST_NAME": "BIHAR", "ST_CODE_1": "10", "GPCODE2011": "97155", "REMARKS": "FINALIZED", "MAP_STATUS": "COMPLETED", "BLK_C_2001": "050017", "BLK_C_2011": "01096", "DIST_NAME": "MADHUBANI", "code2011": 0.0, "Shape_Leng": 0.18506037813, "Shape_Area": 0.00127650763, "Area": 14.1062}, "geometry": {"type": "MultiPolygon", "coordinates": [[[[86.36591286300006, 26.386745707000046], [86.36627304000007, 26.38667976000005], [86.36700778300008, 26.387003367000034], [86.36905545900004, 26.386824947000036], [86.36847088500008, 26.384397352000065], [86.36922568800009, 26.383173071000044], [86.37006235400008, 26.382638607000047], [86.37045740600007, 26.38204434000005], [86.37062089800008, 26.379768821000027], [86.37033345900005, 26.378543728000068], [86.36955539600007, 26.377363023000044], [86.36943630600007, 26.376438934000078], [86.36985461100005, 26.37409824300005], [86.36855558500008, 26.372393637000073], [86.36744661000006, 26.37118395600004], [86.36652572800006, 26.370762425000066], [86.36645050200008, 26.370235097000034], [86.36600111200005, 26.369349588000034], [86.36595438100005, 26.36813161500004], [86.36491798200007, 26.368211936000023], [86.36334291600008, 26.36801211200003], [86.36418427600006, 26.367450503000043], [86.36483454000006, 26.366818230000035], [86.36566510500006, 26.36566110600006], [86.36587047600005, 26.36253684500008], [86.36598449200005, 26.36084830200008], [86.36880390200008, 26.361255002000064], [86.36877828000007, 26.36119657100005], [86.36722991900007, 26.357512993000057], [86.36783654500005, 26.355996608000055], [86.36889337900004, 26.355460341000025], [86.36835734800007, 26.35286084300003], [86.36718150000007, 26.352477416000056], [86.36693272400004, 26.351617513000065], [86.36687729400006, 26.35106294700006], [86.36683747100005, 26.350566852000043], [86.36580752300006, 26.350245509000047], [86.36593593900005, 26.34797467800007], [86.36435174900004, 26.347842635000063], [86.36393094100004, 26.348879236000073], [86.36309105600003, 26.34904822200008], [86.36265416300006, 26.347372978000067], [86.36239299000005, 26.347293845000024], [86.36102572900006, 26.346794518000024], [86.36040314400003, 26.345599040000025], [86.35917640600007, 26.344602244000043], [86.35908559000006, 26.34295589900006], [86.35892488100006, 26.34290747400007], [86.35820658700004, 26.34269649500004], [86.35773850600003, 26.33983463800007], [86.35539636700008, 26.33952333600007], [86.35598608400005, 26.336224668000057], [86.35398185100007, 26.336668833000033], [86.35361861000007, 26.33534492900003], [86.35155205800004, 26.33555037800005], [86.35042489200004, 26.33605542500004], [86.34687612800008, 26.335784743000033], [86.34409249100008, 26.335377409000046], [86.34146254600006, 26.335329760000036], [86.34070494700006, 26.33626055900004], [86.34068964900007, 26.33889597700005], [86.34021843300008, 26.33939136200007], [86.34004959300006, 26.34061101900005], [86.34068145700007, 26.34176145300006], [86.34098705100007, 26.344971964000024], [86.33879906200008, 26.345611380000037], [86.33665585300008, 26.346746662000044], [86.33639140600008, 26.35007888000007], [86.33607566200004, 26.351132678000056], [86.33523599400007, 26.35133759300004], [86.33517073500008, 26.352394032000063], [86.33415013900003, 26.352532620000034], [86.33372171000008, 26.353853551000043], [86.32743342500004, 26.35370233900005], [86.32736383800005, 26.354298523000068], [86.32799102300004, 26.354952670000046], [86.32906178600007, 26.355896722000068], [86.32944652600008, 26.35793798700007], [86.32971824300006, 26.359682218000046], [86.33116055000005, 26.361250787000074], [86.33158032100005, 26.364361158000065], [86.33406823500007, 26.364143803000047], [86.33708434700009, 26.364170603000048], [86.33760897100007, 26.365615108000043], [86.33769523100005, 26.36680128100005], [86.33878120300005, 26.36774961800006], [86.33902020500005, 26.368126876000076], [86.33887172000004, 26.37045192900007], [86.34128174500006, 26.370465117000037], [86.34450018400008, 26.370142746000056], [86.34494485100004, 26.370536506000064], [86.34600653500007, 26.371020205000036], [86.34613546600008, 26.373000173000037], [86.34648511100005, 26.375005518000023], [86.34703430500008, 26.375330766000047], [86.34820944200004, 26.375619545000063], [86.34920071800008, 26.37606769000007], [86.35008276900004, 26.376620526000067], [86.35047384800004, 26.37928437200003], [86.35226874500006, 26.379405887000075], [86.35275373000007, 26.38035433300007], [86.35291977500003, 26.382528045000072], [86.35352225600008, 26.38423805700006], [86.35418363200006, 26.38476098500007], [86.35426630900008, 26.385550023000064], [86.35474572400005, 26.385907264000025], [86.35628026800003, 26.38603075700007], [86.35763486200005, 26.38621439900004], [86.35892386200004, 26.386863229000028], [86.36054327700003, 26.388005788000044], [86.36177673200007, 26.387039651000066], [86.36591286300006, 26.386745707000046]]]]}}, {"type": "Feature", "properties": {"OBJECTID": 7278, "GPCODE": "94603", "GPNAME_1": "MADANA", "DIST_CEN_C": "05", "BLK_NAME": "ANDHRATHARHI", "ST_NAME": "BIHAR", "ST_CODE_1": "10", "GPCODE2011": "97157", "REMARKS": "FINALIZED", "MAP_STATUS": "COMPLETED", "BLK_C_2001": "050017", "BLK_C_2011": "01096", "DIST_NAME": "MADHUBANI", "code2011": 0.0, "Shape_Leng": 0.116733807, "Shape_Area": 0.00054549458, "Area": 6.02667}, "geometry": {"type": "MultiPolygon", "coordinates": [[[[86.37179860700007, 26.40083149800006], [86.37231295700008, 26.400647031000062], [86.37300483200005, 26.400673149000056], [86.37380086100006, 26.40059927200008], [86.37439115700005, 26.400481762000027], [86.37520523900008, 26.400195671000063], [86.37569894700005, 26.399952561000077], [86.37745110900005, 26.39924843800003], [86.37851408200004, 26.39879327400007], [86.37872392300005, 26.398719440000036], [86.37904734200004, 26.399001218000024], [86.37974919800007, 26.39902266400003], [86.38039715200006, 26.399175564000075], [86.38107426000005, 26.39923336700008], [86.38151096100006, 26.398792232000062], [86.38165921300003, 26.39858345600004], [86.38195726300006, 26.398310380000055], [86.38257616500005, 26.398052746000076], [86.38325640300008, 26.397921035000024], [86.38381942700005, 26.397587147000024], [86.38448818300003, 26.397306662000062], [86.38506924700005, 26.39728845700006], [86.38583075200006, 26.397264353000025], [86.38656264900004, 26.397285646000057], [86.38707658100003, 26.397570398000028], [86.38780683300007, 26.39742916600005], [86.38831807300005, 26.397948512000028], [86.38898499700008, 26.397992887000044], [86.38987111100005, 26.39789554400005], [86.39042682200005, 26.39835589300003], [86.39106702000004, 26.398229007000054], [86.39173256800007, 26.398124374000076], [86.39237383000005, 26.398105798000074], [86.39297048000003, 26.398137102000078], [86.39345714300003, 26.39735371000006], [86.39410669900008, 26.39666253200005], [86.39504978100007, 26.39625791000003], [86.39503099800004, 26.39434934600007], [86.39487000300005, 26.39276670600003], [86.39390820700004, 26.391786239000055], [86.39169992600006, 26.390418502000045], [86.39021798400006, 26.388521593000064], [86.39006882600006, 26.388125733000038], [86.38900692700008, 26.386636063000026], [86.38874397600006, 26.385884599000065], [86.38826241100008, 26.385324359000037], [86.38836103900007, 26.384141338000063], [86.38838955000006, 26.38295436800007], [86.38851438900008, 26.380877604000034], [86.38705268700005, 26.37897145000005], [86.38476540300007, 26.37717560300007], [86.38574744100003, 26.375647150000077], [86.38777915500003, 26.373853180000026], [86.38709713400004, 26.371751277000044], [86.37730620600007, 26.37268152100006], [86.37496784600006, 26.372830762000035], [86.37078953500009, 26.37181207800006], [86.36856645700004, 26.369889183000055], [86.36757954500007, 26.369896890000064], [86.36757009000007, 26.368908670000053], [86.36672746800008, 26.368816034000076], [86.36624457600004, 26.36809779200007], [86.36595438100005, 26.36813161500004], [86.36600111200005, 26.369349588000034], [86.36645050200008, 26.370235097000034], [86.36652572800006, 26.370762425000066], [86.36744661000006, 26.37118395600004], [86.36855558500008, 26.372393637000073], [86.36985461100005, 26.37409824300005], [86.36943630600007, 26.376438934000078], [86.36955539600007, 26.377363023000044], [86.37033345900005, 26.378543728000068], [86.37062089800008, 26.379768821000027], [86.37045740600007, 26.38204434000005], [86.37006235400008, 26.382638607000047], [86.36922568800009, 26.383173071000044], [86.36847088500008, 26.384397352000065], [86.36905545900004, 26.386824947000036], [86.37016648800005, 26.388233198000023], [86.37011511000009, 26.390701885000055], [86.36992545400005, 26.393374691000076], [86.36931462300004, 26.394462458000078], [86.36939476100008, 26.398613304000037], [86.37045967500006, 26.39939462500007], [86.37156544800007, 26.401081533000024], [86.37179860700007, 26.40083149800006]]]]}}]}