{"type": "FeatureCollection", "features": [{"type": "Feature", "properties": {"OBJECTID": 2276, "GPCODE": "95023", "GPNAME_1": "ETAHRI", "DIST_CEN_C": "24", "BLK_NAME": "JAMALPUR", "ST_NAME": "BIHAR", "ST_CODE_1": "10", "GPCODE2011": "97577", "REMARKS": "FINALIZED", "MAP_STATUS": "COMPLETED", "BLK_C_2001": "240003", "BLK_C_2011": "01358", "DIST_NAME": "MUNGER", "code2011": 0.0, "Shape_Leng": 0.12082147817, "Shape_Area": 0.00048389588, "Area": 5.39367}, "geometry": {"type": "MultiPolygon", "coordinates": [[[[86.56331848100007, 25.319571739000025], [86.56627726700003, 25.309833740000045], [86.56867120800007, 25.303453778000062], [86.56867033300006, 25.30337255300003], [86.56867028200008, 25.303372550000063], [86.56651363800006, 25.303220285000066], [86.56586585000008, 25.303465292000055], [86.56512488700008, 25.303828407000026], [86.56450268200007, 25.303685056000063], [86.56414107800003, 25.303304637000053], [86.56359695800006, 25.302582924000035], [86.56310084300009, 25.30169829700003], [86.56288055100003, 25.299687539000047], [86.56267737100006, 25.298804871000073], [86.56317854200006, 25.296936579000032], [86.56300704700004, 25.296225055000036], [86.56247972600005, 25.29567013700006], [86.56130986400007, 25.29538274400005], [86.56016503600006, 25.296503022000024], [86.55926294600005, 25.297576062000076], [86.55836607900005, 25.298676149000073], [86.55726883400007, 25.299606512000025], [86.55561849100008, 25.30036125500004], [86.55386854300008, 25.301085272000023], [86.55237667700004, 25.301333043000056], [86.55014722000004, 25.301339166000048], [86.54989859700004, 25.302230449000035], [86.54988901400003, 25.303191784000035], [86.54980016800005, 25.30371152600003], [86.54949019200006, 25.303980507000063], [86.54835505500006, 25.304166529000042], [86.54699648400003, 25.304349916000035], [86.54602030400008, 25.304534545000024], [86.54410443400008, 25.304925569000034], [86.54420005700007, 25.30659938100007], [86.54413437900007, 25.30789966900005], [86.54240001700003, 25.308239771000046], [86.54130873200006, 25.308348609000063], [86.53885400700005, 25.308189565000077], [86.53762016400003, 25.308430533000035], [86.53725613200004, 25.30876313400006], [86.53733660800003, 25.309326487000078], [86.53779038600004, 25.310911115000067], [86.53798629900007, 25.31252947400003], [86.53818646600007, 25.314080207000075], [86.53846875400006, 25.31494868200008], [86.53910445500009, 25.31682949800006], [86.53969278900007, 25.317519384000036], [86.54093485800007, 25.318036547000077], [86.54155976000004, 25.318428194000035], [86.54155009800007, 25.318455323000023], [86.54271135500005, 25.317917112000032], [86.54358855700008, 25.318207338000036], [86.54424527200007, 25.318792690000066], [86.54505077800007, 25.319349731000045], [86.54596684600006, 25.320036712000046], [86.54626653000008, 25.320661375000043], [86.54689146100003, 25.321053], [86.54798106300007, 25.321241994000047], [86.54950702000008, 25.32089904000003], [86.55008545100009, 25.32065934600007], [86.55051395000004, 25.31986126700008], [86.55098327200005, 25.31962701200007], [86.55189412300007, 25.319817456000067], [86.55189834000004, 25.320214583000052], [86.55198277700003, 25.321138947000065], [86.55218724200006, 25.32168322700005], [86.55300606800006, 25.321626386000048], [86.55354830200008, 25.321255989000065], [86.55429921100006, 25.32042352800005], [86.55495079800005, 25.320056700000066], [86.55589715500008, 25.319849787000066], [86.55683740900008, 25.319543616000033], [86.55733970600005, 25.319142002000035], [86.55810007700006, 25.318738121000024], [86.55853669300006, 25.318702683000026], [86.55907827200008, 25.318264662000047], [86.56012031500006, 25.31726707400003], [86.56077371100008, 25.317062677000024], [86.56172602200007, 25.317415224000058], [86.56191542600004, 25.318406365000044], [86.56088738600005, 25.32069904000008], [86.55914345900004, 25.324315840000054], [86.55884054600006, 25.326633530000038], [86.55910132100007, 25.327326249000066], [86.55990621200004, 25.32781552000006], [86.56068234000008, 25.32793947400006], [86.56223673400007, 25.324252191000028], [86.56331848100007, 25.319571739000025]]]]}}, {"type": "Feature", "properties": {"OBJECTID": 2278, "GPCODE": "95027", "GPNAME_1": "PATAM(EAST)", "DIST_CEN_C": "24", "BLK_NAME": "JAMALPUR", "ST_NAME": "BIHAR", "ST_CODE_1": "10", "GPCODE2011": "97581", "REMARKS": "FINALIZED", "MAP_STATUS": "COMPLETED", "BLK_C_2001": "240003", "BLK_C_2011": "01358", "DIST_NAME": "MUNGER", "code2011": 0.0, "Shape_Leng": 0.10588536044, "Shape_Area": 0.00034106214, "Area": 3.80107}, "geometry": {"type": "MultiPolygon", "coordinates": [[[[86.52581824700007, 25.33650396300004], [86.52701380200006, 25.335902340000075], [86.52765997500006, 25.33500321500003], [86.52947314900007, 25.334558810000033], [86.53209598100005, 25.33506400600004], [86.53315801600007, 25.33545190500007], [86.53413735800007, 25.33554263800005], [86.53502505100005, 25.335413059000075], [86.53708277200008, 25.33554848500006], [86.53796910000005, 25.33529704800003], [86.53854955600008, 25.334764041000028], [86.53923569700004, 25.334360908000065], [86.53992775300009, 25.334521777000077], [86.54080983600005, 25.335272229000054], [86.54194111900006, 25.335627846000023], [86.54291341300006, 25.335055241000077], [86.54356478100004, 25.334652359000074], [86.54354440900005, 25.334602912000037], [86.54305849000008, 25.333284939000066], [86.54245743200005, 25.33140830800005], [86.54262045900003, 25.329917624000075], [86.54334301700004, 25.329216337000048], [86.54400629600008, 25.328533583000024], [86.54465722800006, 25.32809910900005], [86.54552378800008, 25.327856844000053], [86.54631768400003, 25.327321879000067], [86.54733279300007, 25.32704669800006], [86.54798310900009, 25.326549027000056], [86.54830240800004, 25.325751981000053], [86.54861524100005, 25.324359251000033], [86.54882847700009, 25.323860978000027], [86.54984222700006, 25.32345490700004], [86.55063853400009, 25.323150070000054], [86.55201874200003, 25.323106258000053], [86.55234501100006, 25.322972493000066], [86.55218724200006, 25.32168322700005], [86.55198277700003, 25.321138947000065], [86.55189834000004, 25.320214583000052], [86.55189412300007, 25.319817456000067], [86.55098327200005, 25.31962701200007], [86.55051395000004, 25.31986126700008], [86.55008545100009, 25.32065934600007], [86.54950702000008, 25.32089904000003], [86.54798106300007, 25.321241994000047], [86.54689146100003, 25.321053], [86.54626653000008, 25.320661375000043], [86.54596684600006, 25.320036712000046], [86.54505077800007, 25.319349731000045], [86.54424527200007, 25.318792690000066], [86.54358855700008, 25.318207338000036], [86.54271135500005, 25.317917112000032], [86.54155009800007, 25.318455323000023], [86.53992803300008, 25.31910134000003], [86.53909453700004, 25.31917633100005], [86.53767576300004, 25.319319601000075], [86.53706213800007, 25.319523510000067], [86.53695566200008, 25.319790691000037], [86.53739856500005, 25.32034639500006], [86.53773266900004, 25.320939214000077], [86.53700687200006, 25.321342637000043], [86.53635594800005, 25.32177708100005], [86.53629477200008, 25.322571872000026], [86.53633550500007, 25.323131094000075], [86.53666921400009, 25.32369232800005], [86.53623082100006, 25.324973310000075], [86.53607639700004, 25.32540338700005], [86.53572856000005, 25.325379272000077], [86.53488117000006, 25.32555820400006], [86.53472497800004, 25.325816791000022], [86.53447511000007, 25.32613489000005], [86.53409980500004, 25.326341170000035], [86.53325118000004, 25.326402760000065], [86.53239585600005, 25.326297397000076], [86.53185412400006, 25.325787586000047], [86.53090541800003, 25.325308476000032], [86.52998821100005, 25.32545632500006], [86.52939443600008, 25.32566461600004], [86.52789825800005, 25.326007033000053], [86.52723777700004, 25.326012750000075], [86.52622023100008, 25.325592809000057], [86.52565554900008, 25.325737574000073], [86.52442555200008, 25.32589266900004], [86.52309870100004, 25.325818353000045], [86.52208706000005, 25.325484102000075], [86.52173349600008, 25.324914001000025], [86.52201144200006, 25.324424286000067], [86.52188424900004, 25.32413655000005], [86.52118783100008, 25.324029687000063], [86.52055926300005, 25.32423369600008], [86.52056258900006, 25.32454959000006], [86.52054533600005, 25.325754654000036], [86.52039003700008, 25.326098969000043], [86.51975964000007, 25.326136005000023], [86.51906558600007, 25.326254771000038], [86.51804843800005, 25.32682312600008], [86.51679910200005, 25.327980144000037], [86.51561632200008, 25.329339633000075], [86.51562071800004, 25.32976835000005], [86.51612876500008, 25.32990840700006], [86.51688186800004, 25.32973041500003], [86.51763818600006, 25.329868316000045], [86.51792855300005, 25.330091512000024], [86.51796324000009, 25.330551479000064], [86.51805795400008, 25.331538989000023], [86.51772627100007, 25.33354560600003], [86.52009734900008, 25.335167891000026], [86.52148591700006, 25.33591408700005], [86.52229172400007, 25.336502832000065], [86.52330705900005, 25.336227806000068], [86.52505458500008, 25.336149517000024], [86.52581824700007, 25.33650396300004]]]]}}, {"type": "Feature", "properties": {"OBJECTID": 2308, "GPCODE": "95031", "GPNAME_1": "SINGHIYA", "DIST_CEN_C": "24", "BLK_NAME": "JAMALPUR", "ST_NAME": "BIHAR", "ST_CODE_1": "10", "GPCODE2011": "97585", "REMARKS": "FINALIZED", "MAP_STATUS": "COMPLETED", "BLK_C_2001": "240003", "BLK_C_2011": "01358", "DIST_NAME": "MUNGER", "code2011": 0.0, "Shape_Leng": 0.12214747396, "Shape_Area": 0.000486542, "Area": 5.42397}, "geometry": {"type": "MultiPolygon", "coordinates": [[[[86.42054275100008, 25.30457277800008], [86.42090334200003, 25.303337855000052], [86.42167341600003, 25.303385904000038], [86.42248961300004, 25.30203451400007], [86.42715101100003, 25.300900720000072], [86.42722641400007, 25.303043820000028], [86.43038644100005, 25.302738799000053], [86.43057517900007, 25.30070193100005], [86.42948063800009, 25.300471420000065], [86.42948075000004, 25.29843611600006], [86.42681759200008, 25.29927876200003], [86.42384731700008, 25.29968152400005], [86.42241935500005, 25.300410390000025], [86.42136322800008, 25.300044171000025], [86.42082734200005, 25.29905565000007], [86.42238561200008, 25.298966536000023], [86.42354738900008, 25.29844726300007], [86.42632899900008, 25.298046068000076], [86.42674371300006, 25.297803587000033], [86.42673848700008, 25.297257525000077], [86.42884294100008, 25.297173044000033], [86.42808094100008, 25.29591097800005], [86.42803027100007, 25.29478311400004], [86.42885239400005, 25.294054463000066], [86.42922651100008, 25.292183109000064], [86.43045210500009, 25.29209657100006], [86.42969174100006, 25.291006001000028], [86.42892559400008, 25.289816160000044], [86.42817804100008, 25.28849986800003], [86.42771174300003, 25.28699619300005], [86.42534704500008, 25.28735801600004], [86.42526031100005, 25.286090581000053], [86.41666550800005, 25.287029785000072], [86.41181190800006, 25.287239559000056], [86.40763658000003, 25.287240807000046], [86.40752014600008, 25.286998053000048], [86.40746386400008, 25.285256418000074], [86.40655773100008, 25.28498819500004], [86.40441440600006, 25.28514042000006], [86.40408108700007, 25.285589825000045], [86.40342534100006, 25.288162858000078], [86.40262201200005, 25.29247], [86.40404036900009, 25.295437573000072], [86.40372344000008, 25.29762886700007], [86.40324905700004, 25.301008309000053], [86.40390993100004, 25.303160367000032], [86.40478787500007, 25.304624774000047], [86.40605344700003, 25.305607675000033], [86.40892250500008, 25.30654191900004], [86.41548433200006, 25.30938760500004], [86.41930130600008, 25.310760952000066], [86.42071851400004, 25.31148979200003], [86.42094660000004, 25.311451868000063], [86.42119466200006, 25.30987490600006], [86.42143836000008, 25.307855593000056], [86.42135629500007, 25.307066533000068], [86.42037314000004, 25.30655981500007], [86.42058641500006, 25.305497582000044], [86.42054275100008, 25.30457277800008]]]]}}, {"type": "Feature", "properties": {"OBJECTID": 2312, "GPCODE": "95026", "GPNAME_1": "PARHAM", "DIST_CEN_C": "24", "BLK_NAME": "JAMALPUR", "ST_NAME": "BIHAR", "ST_CODE_1": "10", "GPCODE2011": "97580", "REMARKS": "FINALIZED", "MAP_STATUS": "COMPLETED", "BLK_C_2001": "240003", "BLK_C_2011": "01358", "DIST_NAME": "MUNGER", "code2011": 0.0, "Shape_Leng": 0.14211250377, "Shape_Area": 0.00054101106, "Area": 6.03063}, "geometry": {"type": "MultiPolygon", "coordinates": [[[[86.44642932100004, 25.317858820000026], [86.44804703200003, 25.31774192300003], [86.45128527100007, 25.317783262000034], [86.45364744700004, 25.317114176000075], [86.45488810000006, 25.31652182600004], [86.45559536700006, 25.31573084300004], [86.45569366700005, 25.314633360000073], [86.45511664900005, 25.313026954000065], [86.45437526100005, 25.312369585000056], [86.45354155800004, 25.311929633000034], [86.45293059900007, 25.310905647000027], [86.45242616700006, 25.30961002400005], [86.45140551700007, 25.308833071000038], [86.45064506500006, 25.30825709900006], [86.44950510400008, 25.30696664800007], [86.44878001500007, 25.305943528000057], [86.44811442000008, 25.305420996000066], [86.44705777800004, 25.305018853000036], [86.44502371900006, 25.304692388000035], [86.44463163000006, 25.30318816600004], [86.44465122200006, 25.30164912300006], [86.44445513400007, 25.30089705900008], [86.44391849100003, 25.29984082900006], [86.44364861900004, 25.299157066000078], [86.44366367400005, 25.29866498000007], [86.44467004200004, 25.29749249300005], [86.44514879100007, 25.29669889400003], [86.44521224300007, 25.295570059000056], [86.44520614400005, 25.294951887000025], [86.44631414800006, 25.293512287000055], [86.44343912900007, 25.293995867000035], [86.43937939200003, 25.294168581000065], [86.43940179800006, 25.296460945000035], [86.43151627800006, 25.296880916000077], [86.43045210500009, 25.29209657100006], [86.42922651100008, 25.292183109000064], [86.42885239400005, 25.294054463000066], [86.42803027100007, 25.29478311400004], [86.42808094100008, 25.29591097800005], [86.42884294100008, 25.297173044000033], [86.42673848700008, 25.297257525000077], [86.42674371300006, 25.297803587000033], [86.42632899900008, 25.298046068000076], [86.42354738900008, 25.29844726300007], [86.42238561200008, 25.298966536000023], [86.42082734200005, 25.29905565000007], [86.42136322800008, 25.300044171000025], [86.42241935500005, 25.300410390000025], [86.42384731700008, 25.29968152400005], [86.42681759200008, 25.29927876200003], [86.42948075000004, 25.29843611600006], [86.42948063800009, 25.300471420000065], [86.43057517900007, 25.30070193100005], [86.43038644100005, 25.302738799000053], [86.42722641400007, 25.303043820000028], [86.42715101100003, 25.300900720000072], [86.42248961300004, 25.30203451400007], [86.42167341600003, 25.303385904000038], [86.42090334200003, 25.303337855000052], [86.42054275100008, 25.30457277800008], [86.42058641500006, 25.305497582000044], [86.42037314000004, 25.30655981500007], [86.42135629500007, 25.307066533000068], [86.42143836000008, 25.307855593000056], [86.42119466200006, 25.30987490600006], [86.42501293100008, 25.311383410000076], [86.42716752200005, 25.312359119000064], [86.42840166700006, 25.313139066000076], [86.43082183800004, 25.31435173500006], [86.43295846800004, 25.315002503000073], [86.43598360800007, 25.316620981000028], [86.43916841200007, 25.318820225000024], [86.44237676500006, 25.321380244000068], [86.44343660800007, 25.322089193000068], [86.44403846400007, 25.322188174000075], [86.44497130400003, 25.321101964000036], [86.44556931900007, 25.318786485000032], [86.44642932100004, 25.317858820000026]]]]}}, {"type": "Feature", "properties": {"OBJECTID": 2314, "GPCODE": "95022", "GPNAME_1": "BANK", "DIST_CEN_C": "24", "BLK_NAME": "JAMALPUR", "ST_NAME": "BIHAR", "ST_CODE_1": "10", "GPCODE2011": "97583", "REMARKS": "FINALIZED", "MAP_STATUS": "COMPLETED", "BLK_C_2001": "240003", "BLK_C_2011": "01358", "DIST_NAME": "MUNGER", "code2011": 0.0, "Shape_Leng": 0.11802763392, "Shape_Area": 0.00050459926, "Area": 5.62249}, "geometry": {"type": "MultiPolygon", "coordinates": [[[[86.49499772200005, 25.366408249000074], [86.49623750700005, 25.366190163000056], [86.49636232200004, 25.367218045000072], [86.49760494200007, 25.367275222000046], [86.49824993100003, 25.367241955000054], [86.49924371500003, 25.367211662000045], [86.50100471100006, 25.367435949000026], [86.50156464100007, 25.36701139400003], [86.50157152300005, 25.366997837000042], [86.50174157200007, 25.365182266000033], [86.50181748600005, 25.363872874000037], [86.50128229800004, 25.363516374000028], [86.49978724700009, 25.363068749000035], [86.49956544000008, 25.362271865000025], [86.49974252600003, 25.361133103000043], [86.50032491800005, 25.36076261200003], [86.50157273200006, 25.360851324000066], [86.50248431100005, 25.360130533000074], [86.50325674500004, 25.35988021600008], [86.50437017600007, 25.359460058000025], [86.50512074600005, 25.359986251000066], [86.50586886100007, 25.36026865900004], [86.50712054500008, 25.360258025000064], [86.50715057600007, 25.360280259000035], [86.50928407100008, 25.35954450400004], [86.51049797600007, 25.35875789200003], [86.51186280200005, 25.35671546800006], [86.51342334100008, 25.35583106400003], [86.51610364900006, 25.354670784000064], [86.51864965300007, 25.35397199700003], [86.52118980200004, 25.35342014300005], [86.51984304100006, 25.351700739000023], [86.51913500500007, 25.350497370000028], [86.51834246100003, 25.350237993000064], [86.51619362100007, 25.34948025600005], [86.51497242000005, 25.34908004600004], [86.51437125300004, 25.34858428800004], [86.51395581300005, 25.347807165000063], [86.51385812300003, 25.347013735000075], [86.51269004900007, 25.34693347700005], [86.51172877200008, 25.346688991000065], [86.51141184200009, 25.346299028000033], [86.51106373400006, 25.34577852500007], [86.51075080500004, 25.34506365900006], [86.50966033100008, 25.34505046000004], [86.50882071200004, 25.345030544000053], [86.50744260100004, 25.34529951500008], [86.50728423900006, 25.346316261000027], [86.50585990500008, 25.346432277000076], [86.50450795800003, 25.346827363000045], [86.50219091200006, 25.346603334000065], [86.49955425400003, 25.346697926000047], [86.49626787100004, 25.346888265000075], [86.49528564500008, 25.34652201700004], [86.49518025500004, 25.345448807000025], [86.49344820500005, 25.345598799000072], [86.49336668200004, 25.344913589000043], [86.48793931100005, 25.344584719000068], [86.48755101900008, 25.345477009000035], [86.48773536600004, 25.347000777000062], [86.48662845200005, 25.34903191500007], [86.48675518200008, 25.350741259000074], [86.48590831800004, 25.352458741000078], [86.48465666900006, 25.35344851600007], [86.48462462000003, 25.354202421000025], [86.48722938300006, 25.354383621000068], [86.48755186000005, 25.356777349000026], [86.48756264900004, 25.35783774600003], [86.48677596200008, 25.35815123200007], [86.48698399700004, 25.360035908000043], [86.48759055500005, 25.36203454500003], [86.48725545200006, 25.362791], [86.48726135000004, 25.36337314000008], [86.48775975000007, 25.364018782000073], [86.48818219100008, 25.365008042000056], [86.48798308700003, 25.367406087000063], [86.48796734200005, 25.367803387000038], [86.48786389800006, 25.36886478300005], [86.48816997500006, 25.369169098000043], [86.48870077400005, 25.369575302000044], [86.48926710500007, 25.369570477000025], [86.49028414100007, 25.369426538000027], [86.49141143200006, 25.369380982000052], [86.49143894300005, 25.368184745000065], [86.49207936400006, 25.36814326800004], [86.49475095300005, 25.36801695400004], [86.49499772200005, 25.366408249000074]]]]}}, {"type": "Feature", "properties": {"OBJECTID": 2327, "GPCODE": "95029", "GPNAME_1": "RAM NAGAR", "DIST_CEN_C": "24", "BLK_NAME": "JAMALPUR", "ST_NAME": "BIHAR", "ST_CODE_1": "10", "GPCODE2011": "97576", "REMARKS": "FINALIZED", "MAP_STATUS": "COMPLETED", "BLK_C_2001": "240003", "BLK_C_2011": "01358", "DIST_NAME": "MUNGER", "code2011": 0.0, "Shape_Leng": 0.12983998001, "Shape_Area": 0.00040242644, "Area": 4.48465}, "geometry": {"type": "MultiPolygon", "coordinates": [[[[86.49955425400003, 25.346697926000047], [86.50219091200006, 25.346603334000065], [86.50450795800003, 25.346827363000045], [86.50585990500008, 25.346432277000076], [86.50728423900006, 25.346316261000027], [86.50744260100004, 25.34529951500008], [86.50882071200004, 25.345030544000053], [86.50966033100008, 25.34505046000004], [86.51075080500004, 25.34506365900006], [86.51043787800006, 25.344348785000022], [86.51032944200006, 25.343465233000074], [86.51062638800005, 25.341932771000074], [86.51083449100008, 25.340441725000062], [86.51084876200008, 25.340441760000033], [86.51078767700005, 25.339286818000062], [86.51045496100005, 25.338811366000073], [86.51063660600005, 25.337070529000073], [86.51064018700004, 25.33703620600005], [86.51063971600007, 25.33699107900003], [86.51061294800007, 25.335849516000053], [86.51030882700007, 25.335256401000038], [86.51030868900006, 25.33380330700004], [86.51024030100007, 25.332955476000052], [86.51026421400007, 25.33190821100004], [86.51028812500005, 25.330861023000068], [86.51026973400008, 25.330044368000074], [86.51025134200006, 25.329227678000052], [86.51024461500003, 25.327621171000033], [86.50853573900008, 25.327586095000072], [86.50851057000006, 25.327608990000044], [86.50716811100006, 25.32788209100005], [86.50643360700008, 25.328411866000067], [86.50529672800008, 25.32845315900005], [86.50516695800007, 25.32791269300003], [86.50429256600006, 25.327888504000043], [86.50326061400006, 25.32798757000006], [86.50214181100006, 25.328344574000027], [86.50070981700009, 25.329141953000033], [86.50026236600007, 25.329583547000027], [86.50000252600006, 25.329910664000067], [86.49942781400006, 25.33004644600004], [86.49857763200004, 25.33029708600003], [86.49759592300006, 25.331090913000025], [86.49661653500004, 25.330999862000056], [86.49632478800004, 25.33209443100003], [86.49436848800008, 25.332147058000032], [86.49315996100006, 25.33198579900005], [86.49286229000006, 25.332502816000044], [86.49236601500007, 25.333513349000043], [86.48970753900005, 25.333382320000055], [86.48824010100003, 25.333155486000067], [86.48830409600004, 25.332130456000073], [86.48867276600004, 25.33126993600007], [86.48866266600004, 25.330277214000034], [86.48729400100007, 25.329020567000043], [86.48711534500006, 25.328056279000066], [86.48658443900007, 25.327618469000072], [86.48617332000003, 25.32772570000003], [86.48523257900007, 25.328004364000037], [86.48514386400007, 25.32856016200003], [86.48425532300007, 25.330074954000054], [86.48426326100008, 25.330855666000048], [86.48490418600005, 25.330881817000034], [86.48490937900004, 25.331396276000078], [86.48615236600006, 25.331525751000072], [86.48672154700006, 25.332306275000064], [86.48692912300004, 25.334154785000067], [86.48702525200008, 25.335796690000052], [86.48689007800004, 25.337643607000075], [86.48908022500007, 25.33810812100006], [86.48936682000004, 25.34039824100006], [86.48861990100005, 25.34118974100005], [86.48790260700008, 25.34098824000006], [86.48669570000004, 25.340998326000033], [86.48595804700005, 25.34220495900007], [86.48038508400003, 25.342215457000066], [86.48028426500008, 25.337649256000077], [86.47759407300003, 25.337834172000044], [86.47794145400007, 25.338788], [86.47711860700008, 25.33944469000005], [86.47717808300007, 25.341398345000073], [86.47777905300006, 25.341393306000043], [86.47779045400006, 25.342521497000064], [86.47779072300006, 25.34254813600006], [86.47926092400007, 25.342629776000024], [86.47935128200004, 25.34263479300006], [86.48040485100006, 25.342693738000037], [86.48069368500006, 25.345223046000058], [86.48155659000008, 25.34508044200004], [86.48196896600007, 25.34459864100006], [86.48580916400005, 25.344665793000047], [86.48589134000008, 25.34541869900005], [86.48755101900008, 25.345477009000035], [86.48793931100005, 25.344584719000068], [86.49336668200004, 25.344913589000043], [86.49344820500005, 25.345598799000072], [86.49518025500004, 25.345448807000025], [86.49528564500008, 25.34652201700004], [86.49626787100004, 25.346888265000075], [86.49955425400003, 25.346697926000047]]]]}}, {"type": "Feature", "properties": {"OBJECTID": 2328, "GPCODE": "95028", "GPNAME_1": "PATAM(WEST)", "DIST_CEN_C": "24", "BLK_NAME": "JAMALPUR", "ST_NAME": "BIHAR", "ST_CODE_1": "10", "GPCODE2011": "97582", "REMARKS": "FINALIZED", "MAP_STATUS": "COMPLETED", "BLK_C_2001": "240003", "BLK_C_2011": "01358", "DIST_NAME": "MUNGER", "code2011": 0.0, "Shape_Leng": 0.15751446868, "Shape_Area": 0.0007811989, "Area": 8.70733}, "geometry": {"type": "MultiPolygon", "coordinates": [[[[86.51772627100007, 25.33354560600003], [86.51805795400008, 25.331538989000023], [86.51796324000009, 25.330551479000064], [86.51792855300005, 25.330091512000024], [86.51763818600006, 25.329868316000045], [86.51688186800004, 25.32973041500003], [86.51612876500008, 25.32990840700006], [86.51562071800004, 25.32976835000005], [86.51561632200008, 25.329339633000075], [86.51679910200005, 25.327980144000037], [86.51804843800005, 25.32682312600008], [86.51906558600007, 25.326254771000038], [86.51975964000007, 25.326136005000023], [86.52039003700008, 25.326098969000043], [86.52054533600005, 25.325754654000036], [86.52056258900006, 25.32454959000006], [86.52055926300005, 25.32423369600008], [86.52118783100008, 25.324029687000063], [86.52188424900004, 25.32413655000005], [86.52201144200006, 25.324424286000067], [86.52173349600008, 25.324914001000025], [86.52208706000005, 25.325484102000075], [86.52309870100004, 25.325818353000045], [86.52442555200008, 25.32589266900004], [86.52565554900008, 25.325737574000073], [86.52622023100008, 25.325592809000057], [86.52723777700004, 25.326012750000075], [86.52789825800005, 25.326007033000053], [86.52939443600008, 25.32566461600004], [86.52998821100005, 25.32545632500006], [86.53090541800003, 25.325308476000032], [86.53185412400006, 25.325787586000047], [86.53239585600005, 25.326297397000076], [86.53325118000004, 25.326402760000065], [86.53409980500004, 25.326341170000035], [86.53447511000007, 25.32613489000005], [86.53472497800004, 25.325816791000022], [86.53488117000006, 25.32555820400006], [86.53572856000005, 25.325379272000077], [86.53607639700004, 25.32540338700005], [86.53623082100006, 25.324973310000075], [86.53666921400009, 25.32369232800005], [86.53633550500007, 25.323131094000075], [86.53629477200008, 25.322571872000026], [86.53635594800005, 25.32177708100005], [86.53700687200006, 25.321342637000043], [86.53773266900004, 25.320939214000077], [86.53739856500005, 25.32034639500006], [86.53695566200008, 25.319790691000037], [86.53706213800007, 25.319523510000067], [86.53767576300004, 25.319319601000075], [86.53909453700004, 25.31917633100005], [86.53992803300008, 25.31910134000003], [86.54155009800007, 25.318455323000023], [86.54155976000004, 25.318428194000035], [86.54093485800007, 25.318036547000077], [86.53969278900007, 25.317519384000036], [86.53910445500009, 25.31682949800006], [86.53846875400006, 25.31494868200008], [86.53818646600007, 25.314080207000075], [86.53798629900007, 25.31252947400003], [86.53779038600004, 25.310911115000067], [86.53733660800003, 25.309326487000078], [86.53725613200004, 25.30876313400006], [86.53762016400003, 25.308430533000035], [86.53885400700005, 25.308189565000077], [86.54130873200006, 25.308348609000063], [86.54240001700003, 25.308239771000046], [86.54213245000005, 25.30688823400004], [86.54085952900004, 25.307197220000035], [86.53981011100007, 25.307504315000074], [86.53864544900006, 25.30724822600007], [86.53816497300005, 25.30642653600006], [86.53743164100007, 25.306103489000066], [86.53659537200008, 25.305912211000077], [86.53583215500004, 25.306049734000055], [86.53543593500007, 25.30661735500007], [86.53519074800005, 25.307377624000026], [86.53465054600008, 25.30794643400003], [86.53374150700006, 25.30791825700004], [86.53264364100005, 25.307399841000063], [86.53227314200007, 25.30664490500004], [86.53284364500007, 25.305647021000027], [86.53345661000003, 25.304915193000056], [86.53308821100006, 25.304354215000046], [86.53202503000006, 25.30383553000007], [86.53085982700009, 25.303516199000057], [86.53019988200003, 25.30309318600007], [86.52979603800009, 25.302464866000037], [86.52840605400007, 25.30201660000006], [86.52738885200006, 25.30208858800006], [86.52660712300008, 25.30187874300003], [86.52572495800007, 25.30109660900007], [86.52495310100005, 25.30040832000003], [86.52444320100005, 25.30007874900008], [86.52385874600003, 25.30021918700004], [86.52335821300005, 25.300783155000033], [86.52284961800007, 25.301053812000077], [86.52149997000004, 25.30066828500003], [86.52007943400008, 25.300152496000067], [86.51829224200009, 25.29970307900004], [86.51549142200008, 25.299663922000036], [86.51246006800005, 25.299906494000027], [86.51067979400005, 25.300120286000038], [86.50810145100007, 25.30047180300005], [86.50407312000004, 25.301300363000053], [86.50246048800005, 25.301891698000077], [86.50122762200004, 25.30223157000006], [86.50000023600006, 25.30262556300005], [86.50022290800007, 25.30303443500003], [86.50079630400006, 25.303264213000034], [86.50173251900009, 25.303527039000073], [86.50291839000005, 25.303927629000043], [86.50324048500005, 25.30434006300004], [86.50339559400004, 25.304938994000054], [86.50361416900006, 25.305424509000034], [86.50397523700008, 25.30577799400004], [86.50487002600005, 25.306347981000044], [86.50656560300007, 25.307538511000075], [86.50817325800006, 25.30838682900003], [86.50838618600005, 25.30880466800005], [86.50873701400008, 25.31007433900004], [86.50892215500005, 25.31116936600006], [86.50948900200007, 25.313168262000033], [86.50971949900008, 25.317200869000033], [86.50975203500008, 25.32130729800008], [86.50960925000004, 25.322856425000055], [86.50986339100007, 25.325340933000064], [86.51005143500004, 25.326237364000065], [86.51024461500003, 25.327621171000033], [86.51025134200006, 25.329227678000052], [86.51026973400008, 25.330044368000074], [86.51028812500005, 25.330861023000068], [86.51026421400007, 25.33190821100004], [86.51024030100007, 25.332955476000052], [86.51030868900006, 25.33380330700004], [86.51152105700004, 25.33432996700003], [86.51251809700005, 25.33516529900004], [86.51360160200005, 25.333323805000077], [86.51451927600004, 25.332733777000044], [86.51772627100007, 25.33354560600003]]]]}}, {"type": "Feature", "properties": {"OBJECTID": 2329, "GPCODE": "95025", "GPNAME_1": "INDRUKH(WEST)", "DIST_CEN_C": "24", "BLK_NAME": "JAMALPUR", "ST_NAME": "BIHAR", "ST_CODE_1": "10", "GPCODE2011": "97579", "REMARKS": "FINALIZED", "MAP_STATUS": "COMPLETED", "BLK_C_2001": "240003", "BLK_C_2011": "01358", "DIST_NAME": "MUNGER", "code2011": 0.0, "Shape_Leng": 0.26727264761, "Shape_Area": 0.00208240405, "Area": 23.2069}, "geometry": {"type": "MultiPolygon", "coordinates": [[[[86.46388969200007, 25.370549117000053], [86.46462422600007, 25.367000422000046], [86.46404022200005, 25.361255779000032], [86.46174704500004, 25.352496985000073], [86.46113997700007, 25.35039895400007], [86.45968533000007, 25.34797840300007], [86.45918839700005, 25.34695808300006], [86.45918086300009, 25.346204455000077], [86.45951180200007, 25.34551576700005], [86.46019913200007, 25.34470681700003], [86.45998821800003, 25.342483722000054], [86.46187696400006, 25.341118841000025], [86.46258677000003, 25.340566919000025], [86.46382871100008, 25.340588268000033], [86.46545190400008, 25.340985550000028], [86.46554760700008, 25.343105837000053], [86.46705885200004, 25.343233303000034], [86.46704338800004, 25.341689939000048], [86.46730422300004, 25.34144862000005], [86.47106649900007, 25.341178297000056], [86.47532175800006, 25.341039213000045], [86.47579412400006, 25.341089402000023], [86.47583773900004, 25.34167762800007], [86.47584035700004, 25.341712938000057], [86.47588040500005, 25.34225306700006], [86.47614566300007, 25.342453893000027], [86.47772612500006, 25.342544548000035], [86.47779072300006, 25.34254813600006], [86.47779045400006, 25.342521497000064], [86.47777905300006, 25.341393306000043], [86.47717808300007, 25.341398345000073], [86.47711860700008, 25.33944469000005], [86.47794145400007, 25.338788], [86.47759407300003, 25.337834172000044], [86.47412926500004, 25.338034459000028], [86.47398613100006, 25.33861785700003], [86.47375770500008, 25.338619755000025], [86.47281688500004, 25.338419970000075], [86.47239009100008, 25.33746677700003], [86.47055106000005, 25.337824976000036], [86.46944803400004, 25.33680511600005], [86.46942066400004, 25.33407055300006], [86.46896798400007, 25.33400211000003], [86.46742969200005, 25.334633062000023], [86.46668216300003, 25.33488290400004], [86.46570492500007, 25.33499481900003], [86.46389685400004, 25.334978129000035], [86.46363493800004, 25.335115651000024], [86.46326606900004, 25.33597168800003], [86.46177116000007, 25.336976778000064], [86.46166782700004, 25.338074279000068], [86.45848124700007, 25.338285460000066], [86.45758514200008, 25.337078888000065], [86.45634076800008, 25.33430457700007], [86.45377986100004, 25.330489514000078], [86.45198825800009, 25.32811221600008], [86.44770521800007, 25.323372406000033], [86.44652542800009, 25.322082215000023], [86.44497130400003, 25.321101964000036], [86.44403846400007, 25.322188174000075], [86.44343660800007, 25.322089193000068], [86.44237676500006, 25.321380244000068], [86.43916841200007, 25.318820225000024], [86.43598360800007, 25.316620981000028], [86.43295846800004, 25.315002503000073], [86.43082183800004, 25.31435173500006], [86.42840166700006, 25.313139066000076], [86.42716752200005, 25.312359119000064], [86.42501293100008, 25.311383410000076], [86.42119466200006, 25.30987490600006], [86.42094660000004, 25.311451868000063], [86.42071851400004, 25.31148979200003], [86.41930130600008, 25.310760952000066], [86.41548433200006, 25.30938760500004], [86.40892250500008, 25.30654191900004], [86.40605344700003, 25.305607675000033], [86.40568352500009, 25.309532380000064], [86.40578270100008, 25.31213110500005], [86.40555972700008, 25.31845112800005], [86.40550078200005, 25.320094306000044], [86.40553412800006, 25.321515675000057], [86.40661523200004, 25.324485715000037], [86.40630484400003, 25.327362927000024], [86.40664861400006, 25.33008612200007], [86.40651490800008, 25.331693777000055], [86.40511722200006, 25.335130133000064], [86.40476998900004, 25.33569701600004], [86.40700260300008, 25.33701528100005], [86.40771513800007, 25.336734472000046], [86.41158141700004, 25.339032667000026], [86.41510151800009, 25.340959059000056], [86.42349016500003, 25.345531854000058], [86.42590928400006, 25.34657309100004], [86.42600369700006, 25.34863021800004], [86.43025593800007, 25.350189345000047], [86.43297960000007, 25.351367924000044], [86.43682411200007, 25.351846943000055], [86.44082764900008, 25.35284359600007], [86.44252860500006, 25.353565425000056], [86.44466487100004, 25.354595104000055], [86.44490309200006, 25.355586052000035], [86.44416597000009, 25.357406233000063], [86.44391124100008, 25.36182194400004], [86.44456002600003, 25.36464181300005], [86.44488562600003, 25.366931803000057], [86.44476299200005, 25.370118925000043], [86.44516055000008, 25.370133718000034], [86.44777253600006, 25.36799139900006], [86.44893588800005, 25.367571233000035], [86.44933993200004, 25.367734909000035], [86.45219368500005, 25.36894819400004], [86.45552302500005, 25.370527568000057], [86.45911386300008, 25.371901663000074], [86.46113992800008, 25.372796593000032], [86.46342700500009, 25.373463729000036], [86.46388969200007, 25.370549117000053]]]]}}, {"type": "Feature", "properties": {"OBJECTID": 2330, "GPCODE": "95030", "GPNAME_1": "RAMPUR KALAN", "DIST_CEN_C": "24", "BLK_NAME": "JAMALPUR", "ST_NAME": "BIHAR", "ST_CODE_1": "10", "GPCODE2011": "97584", "REMARKS": "FINALIZED", "MAP_STATUS": "COMPLETED", "BLK_C_2001": "240003", "BLK_C_2011": "01358", "DIST_NAME": "MUNGER", "code2011": 0.0, "Shape_Leng": 0.06885309238, "Shape_Area": 0.0002189422, "Area": 2.44005}, "geometry": {"type": "MultiPolygon", "coordinates": [[[[86.55733898100004, 25.336629311000024], [86.55735073600005, 25.33587557900006], [86.55842047500005, 25.333289200000024], [86.56035935100005, 25.329309718000047], [86.56068234000008, 25.32793947400006], [86.55990621200004, 25.32781552000006], [86.55910132100007, 25.327326249000066], [86.55884054600006, 25.326633530000038], [86.55914345900004, 25.324315840000054], [86.56088738600005, 25.32069904000008], [86.56191542600004, 25.318406365000044], [86.56172602200007, 25.317415224000058], [86.56077371100008, 25.317062677000024], [86.56012031500006, 25.31726707400003], [86.55907827200008, 25.318264662000047], [86.55853669300006, 25.318702683000026], [86.55810007700006, 25.318738121000024], [86.55733970600005, 25.319142002000035], [86.55683740900008, 25.319543616000033], [86.55589715500008, 25.319849787000066], [86.55495079800005, 25.320056700000066], [86.55429921100006, 25.32042352800005], [86.55354830200008, 25.321255989000065], [86.55300606800006, 25.321626386000048], [86.55218724200006, 25.32168322700005], [86.55234501100006, 25.322972493000066], [86.55201874200003, 25.323106258000053], [86.55063853400009, 25.323150070000054], [86.54984222700006, 25.32345490700004], [86.54882847700009, 25.323860978000027], [86.54861524100005, 25.324359251000033], [86.54830240800004, 25.325751981000053], [86.54798310900009, 25.326549027000056], [86.54733279300007, 25.32704669800006], [86.54631768400003, 25.327321879000067], [86.54552378800008, 25.327856844000053], [86.54465722800006, 25.32809910900005], [86.54400629600008, 25.328533583000024], [86.54334301700004, 25.329216337000048], [86.54262045900003, 25.329917624000075], [86.54245743200005, 25.33140830800005], [86.54305849000008, 25.333284939000066], [86.54354440900005, 25.334602912000037], [86.54356478100004, 25.334652359000074], [86.54505221100004, 25.33440912100008], [86.54629334000003, 25.334826958000065], [86.54760803600004, 25.335144839000066], [86.54844831500003, 25.33570149800005], [86.54898728500007, 25.336870159000057], [86.54943636600007, 25.337989915000037], [86.54977056700005, 25.33858261100005], [86.55024519600005, 25.33884467300004], [86.55093305100007, 25.33860394800007], [86.55157969700008, 25.33777242000008], [86.55259540900005, 25.337533302000054], [86.55343049000004, 25.337128782000036], [86.55429206600007, 25.336426173000063], [86.55538357900008, 25.33631724600008], [86.55733898100004, 25.336629311000024]]]]}}, {"type": "Feature", "properties": {"OBJECTID": 2331, "GPCODE": "95024", "GPNAME_1": "INDRUKH(EAST)", "DIST_CEN_C": "24", "BLK_NAME": "JAMALPUR", "ST_NAME": "BIHAR", "ST_CODE_1": "10", "GPCODE2011": "97578", "REMARKS": "FINALIZED", "MAP_STATUS": "COMPLETED", "BLK_C_2001": "240003", "BLK_C_2011": "01358", "DIST_NAME": "MUNGER", "code2011": 0.0, "Shape_Leng": 0.21573645166, "Shape_Area": 0.00148855193, "Area": 16.5917}, "geometry": {"type": "MultiPolygon", "coordinates": [[[[86.48669570000004, 25.340998326000033], [86.48790260700008, 25.34098824000006], [86.48861990100005, 25.34118974100005], [86.48936682000004, 25.34039824100006], [86.48908022500007, 25.33810812100006], [86.48689007800004, 25.337643607000075], [86.48702525200008, 25.335796690000052], [86.48692912300004, 25.334154785000067], [86.48672154700006, 25.332306275000064], [86.48615236600006, 25.331525751000072], [86.48490937900004, 25.331396276000078], [86.48490418600005, 25.330881817000034], [86.48426326100008, 25.330855666000048], [86.48279079400004, 25.33062880800003], [86.48281269800003, 25.329360457000064], [86.47987121400007, 25.33021093600007], [86.47941518800008, 25.32980406200005], [86.48068463600003, 25.32862910600005], [86.48210340400004, 25.32748446900007], [86.48285585200006, 25.32723904200003], [86.48432182500005, 25.327330544000063], [86.48457481900004, 25.32436346000003], [86.48496987100003, 25.322681359000057], [86.48574736700004, 25.32147885100005], [86.48612559800006, 25.31960736800005], [86.48635988200004, 25.316762211000025], [86.48602925400007, 25.313547275000076], [86.48560103000005, 25.312454208000077], [86.48438643200006, 25.311679135000077], [86.48081102200007, 25.311672963000035], [86.48068720400005, 25.31071723900004], [86.47575666600005, 25.31075833500006], [86.47558072500004, 25.310055771000066], [86.47496378300008, 25.308454227000027], [86.47364559500005, 25.308226001000037], [86.47365276800008, 25.305486632000054], [86.47364899700005, 25.30510755100005], [86.47424813600009, 25.304452655000034], [86.47409639300008, 25.30268939800004], [86.47326874500004, 25.302353319000076], [86.47317726900008, 25.301158059000045], [86.47378093200007, 25.300945513000045], [86.47391057700008, 25.299026387000026], [86.47465902400006, 25.298406431000046], [86.47439036800006, 25.297858107000025], [86.47370748900005, 25.295620789000054], [86.47438087000006, 25.29493376000005], [86.47482707900008, 25.290922566000063], [86.47473095900006, 25.28876621200004], [86.47393648700006, 25.28826280900006], [86.47227837000008, 25.28827655400005], [86.47084787600005, 25.288216182000042], [86.47087871800005, 25.287326862000043], [86.46661647600007, 25.288576093000074], [86.46277845600008, 25.28904994100003], [86.46067483900003, 25.289202576000037], [86.45781000900007, 25.289194448000046], [86.45634790500003, 25.289445581000052], [86.45497961400008, 25.290156335000063], [86.45258143200004, 25.291647092000062], [86.45167954100003, 25.291825912000036], [86.45066679200005, 25.29183419000003], [86.45029088300004, 25.29197266600005], [86.44984478200007, 25.292558445000054], [86.44966254800005, 25.293209799000067], [86.44815225700006, 25.29260828200006], [86.44739763100006, 25.292614453000056], [86.44631414800006, 25.293512287000055], [86.44520614400005, 25.294951887000025], [86.44521224300007, 25.295570059000056], [86.44514879100007, 25.29669889400003], [86.44467004200004, 25.29749249300005], [86.44366367400005, 25.29866498000007], [86.44364861900004, 25.299157066000078], [86.44391849100003, 25.29984082900006], [86.44445513400007, 25.30089705900008], [86.44465122200006, 25.30164912300006], [86.44463163000006, 25.30318816600004], [86.44502371900006, 25.304692388000035], [86.44705777800004, 25.305018853000036], [86.44811442000008, 25.305420996000066], [86.44878001500007, 25.305943528000057], [86.44950510400008, 25.30696664800007], [86.45064506500006, 25.30825709900006], [86.45140551700007, 25.308833071000038], [86.45242616700006, 25.30961002400005], [86.45293059900007, 25.310905647000027], [86.45354155800004, 25.311929633000034], [86.45437526100005, 25.312369585000056], [86.45511664900005, 25.313026954000065], [86.45569366700005, 25.314633360000073], [86.45559536700006, 25.31573084300004], [86.45488810000006, 25.31652182600004], [86.45364744700004, 25.317114176000075], [86.45128527100007, 25.317783262000034], [86.44804703200003, 25.31774192300003], [86.44642932100004, 25.317858820000026], [86.44556931900007, 25.318786485000032], [86.44497130400003, 25.321101964000036], [86.44652542800009, 25.322082215000023], [86.44770521800007, 25.323372406000033], [86.45198825800009, 25.32811221600008], [86.45377986100004, 25.330489514000078], [86.45634076800008, 25.33430457700007], [86.45758514200008, 25.337078888000065], [86.45848124700007, 25.338285460000066], [86.46166782700004, 25.338074279000068], [86.46177116000007, 25.336976778000064], [86.46326606900004, 25.33597168800003], [86.46363493800004, 25.335115651000024], [86.46389685400004, 25.334978129000035], [86.46570492500007, 25.33499481900003], [86.46668216300003, 25.33488290400004], [86.46742969200005, 25.334633062000023], [86.46896798400007, 25.33400211000003], [86.46942066400004, 25.33407055300006], [86.46944803400004, 25.33680511600005], [86.47055106000005, 25.337824976000036], [86.47239009100008, 25.33746677700003], [86.47281688500004, 25.338419970000075], [86.47375770500008, 25.338619755000025], [86.47398613100006, 25.33861785700003], [86.47412926500004, 25.338034459000028], [86.47759407300003, 25.337834172000044], [86.48028426500008, 25.337649256000077], [86.48038508400003, 25.342215457000066], [86.48595804700005, 25.34220495900007], [86.48669570000004, 25.340998326000033]]]]}}, {"type": "Feature", "properties": {"OBJECTID": 2334, "GPCODE": "240301", "GPNAME_1": "JAMALPUR NAGAR PARISHAD", "DIST_CEN_C": "24", "BLK_NAME": "JAMALPUR", "ST_NAME": "BIHAR", "ST_CODE_1": "10", "GPCODE2011": "801358", "REMARKS": "FINALIZED", "MAP_STATUS": "COMPLETED", "BLK_C_2001": "240003", "BLK_C_2011": "01358", "DIST_NAME": "MUNGER", "code2011": 0.0, "Shape_Leng": 0.15803066732, "Shape_Area": 0.00088967647, "Area": 9.91659}, "geometry": {"type": "MultiPolygon", "coordinates": [[[[86.49286229000006, 25.332502816000044], [86.49315996100006, 25.33198579900005], [86.49436848800008, 25.332147058000032], [86.49632478800004, 25.33209443100003], [86.49661653500004, 25.330999862000056], [86.49759592300006, 25.331090913000025], [86.49857763200004, 25.33029708600003], [86.49942781400006, 25.33004644600004], [86.50000252600006, 25.329910664000067], [86.50026236600007, 25.329583547000027], [86.50070981700009, 25.329141953000033], [86.50214181100006, 25.328344574000027], [86.50326061400006, 25.32798757000006], [86.50429256600006, 25.327888504000043], [86.50516695800007, 25.32791269300003], [86.50529672800008, 25.32845315900005], [86.50643360700008, 25.328411866000067], [86.50716811100006, 25.32788209100005], [86.50851057000006, 25.327608990000044], [86.50853573900008, 25.327586095000072], [86.51024461500003, 25.327621171000033], [86.51005143500004, 25.326237364000065], [86.50986339100007, 25.325340933000064], [86.50960925000004, 25.322856425000055], [86.50975203500008, 25.32130729800008], [86.50971949900008, 25.317200869000033], [86.50948900200007, 25.313168262000033], [86.50892215500005, 25.31116936600006], [86.50873701400008, 25.31007433900004], [86.50838618600005, 25.30880466800005], [86.50817325800006, 25.30838682900003], [86.50656560300007, 25.307538511000075], [86.50487002600005, 25.306347981000044], [86.50397523700008, 25.30577799400004], [86.50361416900006, 25.305424509000034], [86.50339559400004, 25.304938994000054], [86.50324048500005, 25.30434006300004], [86.50291839000005, 25.303927629000043], [86.50173251900009, 25.303527039000073], [86.50079630400006, 25.303264213000034], [86.50022290800007, 25.30303443500003], [86.50000023600006, 25.30262556300005], [86.49971259600005, 25.301693857000032], [86.49928944000004, 25.300614334000045], [86.49891271100006, 25.299710412000024], [86.49870750300005, 25.298579450000034], [86.49869257100005, 25.297124197000073], [86.49758562500006, 25.29715828600007], [86.49596752400004, 25.29720810200007], [86.49300131600006, 25.297986758000036], [86.48931912200004, 25.298667653000052], [86.48875139700004, 25.298500896000064], [86.48871314600007, 25.298158269000055], [86.48729432700009, 25.295841449000022], [86.48605389500005, 25.295919569000034], [86.48537859100009, 25.29640356500005], [86.48534795500007, 25.296819011000025], [86.48471805000008, 25.296882978000042], [86.48339820500007, 25.296966243000043], [86.48309953300009, 25.296896466000078], [86.48184897500005, 25.296464712000045], [86.48181004600008, 25.296054299000048], [86.48178641200008, 25.29470518200003], [86.47930379200005, 25.29469425800005], [86.47863037000008, 25.294871417000024], [86.47587955900008, 25.294858112000043], [86.47438087000006, 25.29493376000005], [86.47370748900005, 25.295620789000054], [86.47439036800006, 25.297858107000025], [86.47465902400006, 25.298406431000046], [86.47391057700008, 25.299026387000026], [86.47378093200007, 25.300945513000045], [86.47317726900008, 25.301158059000045], [86.47326874500004, 25.302353319000076], [86.47409639300008, 25.30268939800004], [86.47424813600009, 25.304452655000034], [86.47364899700005, 25.30510755100005], [86.47365276800008, 25.305486632000054], [86.47364559500005, 25.308226001000037], [86.47496378300008, 25.308454227000027], [86.47558072500004, 25.310055771000066], [86.47575666600005, 25.31075833500006], [86.48068720400005, 25.31071723900004], [86.48081102200007, 25.311672963000035], [86.48438643200006, 25.311679135000077], [86.48560103000005, 25.312454208000077], [86.48602925400007, 25.313547275000076], [86.48635988200004, 25.316762211000025], [86.48612559800006, 25.31960736800005], [86.48574736700004, 25.32147885100005], [86.48496987100003, 25.322681359000057], [86.48457481900004, 25.32436346000003], [86.48432182500005, 25.327330544000063], [86.48285585200006, 25.32723904200003], [86.48210340400004, 25.32748446900007], [86.48068463600003, 25.32862910600005], [86.47941518800008, 25.32980406200005], [86.47987121400007, 25.33021093600007], [86.48281269800003, 25.329360457000064], [86.48279079400004, 25.33062880800003], [86.48426326100008, 25.330855666000048], [86.48425532300007, 25.330074954000054], [86.48514386400007, 25.32856016200003], [86.48523257900007, 25.328004364000037], [86.48617332000003, 25.32772570000003], [86.48658443900007, 25.327618469000072], [86.48711534500006, 25.328056279000066], [86.48729400100007, 25.329020567000043], [86.48866266600004, 25.330277214000034], [86.48867276600004, 25.33126993600007], [86.48830409600004, 25.332130456000073], [86.48824010100003, 25.333155486000067], [86.48970753900005, 25.333382320000055], [86.49236601500007, 25.333513349000043], [86.49286229000006, 25.332502816000044]]]]}}]}