{"type": "FeatureCollection", "features": [{"type": "Feature", "properties": {"OBJECTID": 2259, "GPCODE": "95077", "GPNAME_1": "GANAILI", "DIST_CEN_C": "24", "BLK_NAME": "TARAPUR", "ST_NAME": "BIHAR", "ST_CODE_1": "10", "GPCODE2011": "97631", "REMARKS": "FINALIZED", "MAP_STATUS": "COMPLETED", "BLK_C_2001": "240007", "BLK_C_2011": "01362", "DIST_NAME": "MUNGER", "code2011": 0.0, "Shape_Leng": 0.10488027306, "Shape_Area": 0.00037418382, "Area": 4.17913}, "geometry": {"type": "MultiPolygon", "coordinates": [[[[86.62519400400004, 25.06775520700006], [86.62597073000006, 25.066308376000052], [86.62695222200006, 25.065879626000026], [86.62794795000008, 25.066290053000046], [86.62887371200009, 25.066642561000037], [86.62986679500005, 25.066813767000042], [86.63104843600007, 25.06656366200008], [86.63209514700009, 25.065768627000068], [86.63302152400007, 25.06529972000004], [86.63450949800006, 25.064965484000027], [86.63595515300005, 25.064392344000055], [86.63832559600007, 25.06409040500006], [86.63959638500006, 25.06383935300005], [86.64161718900004, 25.06373917600007], [86.64372864100005, 25.063760038000055], [86.64544723800003, 25.064104910000026], [86.64659105500004, 25.064455219000024], [86.64782487700006, 25.064443630000028], [86.65019208000007, 25.063857167000037], [86.65208094100007, 25.063920574000065], [86.65397339400005, 25.06386206800005], [86.65445722700008, 25.06413733100004], [86.65572342700005, 25.063484550000055], [86.65710885700008, 25.06459064200004], [86.65804328100006, 25.06440119900003], [86.65841846900008, 25.064271319000056], [86.65873846100004, 25.064087787000062], [86.65903941200008, 25.06352982100003], [86.65933416800004, 25.06331042000005], [86.65916754700004, 25.06260349300004], [86.65888050400008, 25.061771355000076], [86.65857292200008, 25.060880661000056], [86.65812400500005, 25.060194463000073], [86.65721099200005, 25.058790556000076], [86.65630204100006, 25.057743199000072], [86.65583584100006, 25.056840531000034], [86.65576648400008, 25.055970167000055], [86.65606045500004, 25.05524082100004], [86.65656887200004, 25.05463577100005], [86.65668326000008, 25.054237620000038], [86.65707875500004, 25.053723872000035], [86.65738992500007, 25.053197443000045], [86.65764541300007, 25.052576742000042], [86.65783721800005, 25.05230408600005], [86.65783561300003, 25.052304157000037], [86.65640913300007, 25.052367348000075], [86.65491866400004, 25.05246267900003], [86.65333813600006, 25.05247764300003], [86.65271649400006, 25.052284889000077], [86.65187443800005, 25.051448978000053], [86.65125234000004, 25.050773347000074], [86.65022791800004, 25.051324556000054], [86.64904701600005, 25.052057768000054], [86.64799977100006, 25.05278964400003], [86.64682463900004, 25.05359953800007], [86.64554584400008, 25.05357094200008], [86.64356798300008, 25.053512762000025], [86.64185401500004, 25.053564952000045], [86.64115020200006, 25.053553392000026], [86.64045138100005, 25.05354191200007], [86.63867718700004, 25.053964719000078], [86.63683078300005, 25.054139946000078], [86.63546775300006, 25.05411202700003], [86.63445737200004, 25.054162034000058], [86.63339791100003, 25.053810876000057], [86.63269033900008, 25.053456406000066], [86.63212227600008, 25.05362417400005], [86.63127779500007, 25.052991185000053], [86.63023226300004, 25.05344317500004], [86.62961785200008, 25.053886619000025], [86.62888225500006, 25.054574950000074], [86.62934464500006, 25.055157344000065], [86.62987976000005, 25.055594608000035], [86.62988964400006, 25.05647453000006], [86.62950496500008, 25.057520573000033], [86.62898770600003, 25.058685187000037], [86.62838052600006, 25.05933169700006], [86.62794583100003, 25.05945751200005], [86.62689126100008, 25.05954401300005], [86.62596376500005, 25.05947595500004], [86.62513614500006, 25.059921330000066], [86.62421946500007, 25.06037208300006], [86.62347305200007, 25.060536954000042], [86.62273016400007, 25.061026696000056], [86.62167475100006, 25.061036433000027], [86.62031609800005, 25.061409979000075], [86.62005611900008, 25.062098348000063], [86.62013191400007, 25.063117635000026], [86.62079694300007, 25.06365303800004], [86.62080702100008, 25.06455552400007], [86.62075194600004, 25.065395371000022], [86.62141769300007, 25.065989442000046], [86.62215194000004, 25.06694393600003], [86.62307565000003, 25.06711594500007], [86.62386848400007, 25.067108606000033], [86.62519400400004, 25.06775520700006]]]]}}, {"type": "Feature", "properties": {"OBJECTID": 2262, "GPCODE": "95074", "GPNAME_1": "BELADIH", "DIST_CEN_C": "24", "BLK_NAME": "TARAPUR", "ST_NAME": "BIHAR", "ST_CODE_1": "10", "GPCODE2011": "97628", "REMARKS": "FINALIZED", "MAP_STATUS": "COMPLETED", "BLK_C_2001": "240007", "BLK_C_2011": "01362", "DIST_NAME": "MUNGER", "code2011": 0.0, "Shape_Leng": 0.12454425472, "Shape_Area": 0.00042044463, "Area": 4.6954}, "geometry": {"type": "MultiPolygon", "coordinates": [[[[86.62296052600004, 25.080335330000025], [86.62400274600003, 25.079125222000073], [86.62538876400004, 25.07941481100005], [86.62551520200003, 25.078750224000032], [86.62616827300008, 25.078202584000053], [86.62728620500008, 25.07801173400003], [86.62846805000004, 25.077761554000062], [86.62866218100004, 25.07739871800004], [86.62890894000003, 25.075537153000028], [86.63094332600008, 25.074854779000077], [86.63166683200006, 25.074848072000066], [86.63246782500005, 25.07556272900007], [86.63322328200007, 25.074865154000065], [86.634141, 25.074495588000048], [86.63539474000004, 25.074483893000036], [86.63704080800005, 25.074531740000054], [86.63803393700005, 25.074698471000033], [86.63901741100005, 25.074450090000028], [86.63967649100005, 25.074443901000052], [86.64083347700006, 25.074640713000065], [86.64143020000006, 25.074815604000037], [86.64208599500006, 25.074511613000027], [86.64273423000003, 25.07354425500006], [86.64332278300003, 25.072997190000024], [86.64424242900003, 25.07280810000003], [86.64595639300006, 25.07273331700003], [86.64701064100007, 25.07260154900007], [86.64706748400005, 25.07193762600008], [86.64812237000007, 25.071869040000024], [86.64813117800009, 25.07264966400004], [86.64840480000004, 25.073608275000026], [86.64855778500004, 25.075290136000035], [86.64962897600003, 25.07666101700005], [86.65115774900005, 25.07511222100004], [86.65093987700004, 25.07295257100003], [86.65159209900008, 25.072346243000027], [86.65270870900008, 25.072037858000044], [86.65342530300006, 25.07142635500003], [86.65395012900007, 25.070942996000042], [86.65406179500008, 25.069439212000077], [86.65497941400008, 25.069069521000074], [86.65615640100003, 25.06797980700003], [86.65640807900007, 25.06701609600003], [86.65639911900007, 25.066235474000052], [86.65513992600006, 25.06576450500006], [86.65427032100007, 25.06469415600003], [86.65445722700008, 25.06413733100004], [86.65397339400005, 25.06386206800005], [86.65208094100007, 25.063920574000065], [86.65019208000007, 25.063857167000037], [86.64782487700006, 25.064443630000028], [86.64659105500004, 25.064455219000024], [86.64544723800003, 25.064104910000026], [86.64372864100005, 25.063760038000055], [86.64161718900004, 25.06373917600007], [86.63959638500006, 25.06383935300005], [86.63832559600007, 25.06409040500006], [86.63595515300005, 25.064392344000055], [86.63450949800006, 25.064965484000027], [86.63302152400007, 25.06529972000004], [86.63209514700009, 25.065768627000068], [86.63104843600007, 25.06656366200008], [86.62986679500005, 25.066813767000042], [86.62887371200009, 25.066642561000037], [86.62794795000008, 25.066290053000046], [86.62695222200006, 25.065879626000026], [86.62597073000006, 25.066308376000052], [86.62519400400004, 25.06775520700006], [86.62386848400007, 25.067108606000033], [86.62307565000003, 25.06711594500007], [86.62215194000004, 25.06694393600003], [86.62141769300007, 25.065989442000046], [86.62075194600004, 25.065395371000022], [86.62080702100008, 25.06455552400007], [86.62079694300007, 25.06365303800004], [86.62013191400007, 25.063117635000026], [86.62005611900008, 25.062098348000063], [86.62031609800005, 25.061409979000075], [86.61960889700003, 25.061096074000034], [86.61907912800007, 25.060699370000066], [86.61780336600003, 25.061397041000077], [86.61781342200004, 25.06229952800004], [86.61801761800007, 25.062839190000034], [86.61737258000005, 25.064104238000027], [86.61698349200003, 25.06477121900008], [86.61715138900007, 25.065162318000034], [86.61723341400005, 25.06629883200003], [86.61710704700005, 25.066963412000064], [86.61632282800008, 25.067751345000033], [86.61554020000005, 25.068236943000045], [86.61653501700005, 25.06900853600007], [86.61654173300008, 25.069613140000058], [86.61628708900008, 25.070333064000067], [86.61563737100005, 25.071182966000038], [86.61518642900006, 25.072085179000055], [86.61512373300008, 25.07268593400005], [86.61579577900005, 25.073401860000047], [86.61592927700008, 25.073820326000032], [86.61593466500005, 25.074303159000067], [86.61541799500003, 25.07508866300003], [86.61582052200004, 25.075626472000067], [86.61675553600008, 25.076818351000043], [86.61764999200005, 25.077022242000055], [86.61890620600008, 25.07766955900007], [86.61970917700006, 25.078564722000067], [86.62044478300004, 25.07963647300005], [86.62078689300006, 25.08053588300004], [86.62159183400007, 25.081611571000053], [86.62155959800003, 25.08182398100007], [86.62237449000008, 25.081121431000042], [86.62296052600004, 25.080335330000025]]]]}}, {"type": "Feature", "properties": {"OBJECTID": 2267, "GPCODE": "95073", "GPNAME_1": "AFZAL NAGAR", "DIST_CEN_C": "24", "BLK_NAME": "TARAPUR", "ST_NAME": "BIHAR", "ST_CODE_1": "10", "GPCODE2011": "97627", "REMARKS": "FINALIZED", "MAP_STATUS": "COMPLETED", "BLK_C_2001": "240007", "BLK_C_2011": "01362", "DIST_NAME": "MUNGER", "code2011": 0.0, "Shape_Leng": 0.13718353271, "Shape_Area": 0.00044891168, "Area": 5.0127}, "geometry": {"type": "MultiPolygon", "coordinates": [[[[86.62772213200003, 25.102309658000024], [86.62877727300008, 25.102241113000048], [86.63075770600005, 25.10246195900004], [86.63404385200005, 25.101528682000037], [86.63373652200005, 25.097569281000062], [86.63364776900005, 25.095408432000056], [86.63449769600004, 25.09473712600004], [86.63495256200008, 25.094191325000054], [86.63428054000008, 25.09305581600006], [86.63391023100007, 25.092310158000032], [86.63389678700008, 25.09110980300005], [86.63408546600004, 25.090264133000062], [86.63460474900006, 25.08971777900007], [86.63473047000008, 25.088999030000025], [86.63445762700007, 25.088099073000024], [86.63385006700008, 25.086962914000026], [86.63305168900007, 25.086491988000034], [86.63304223200004, 25.085648183000046], [86.63296632600003, 25.084629005000068], [86.63295690100006, 25.083789713000044], [86.63327853300007, 25.083303814000033], [86.63392687900006, 25.08233649700003], [86.63405391400005, 25.081735093000077], [86.63457316200004, 25.08118873600006], [86.63456577900007, 25.080529883000054], [86.63456106100006, 25.080110236000053], [86.63368196800008, 25.07819597500003], [86.63360747400003, 25.07729404400004], [86.63246782500005, 25.07556272900007], [86.63166683200006, 25.074848072000066], [86.63094332600008, 25.074854779000077], [86.62890894000003, 25.075537153000028], [86.62866218100004, 25.07739871800004], [86.62846805000004, 25.077761554000062], [86.62728620500008, 25.07801173400003], [86.62616827300008, 25.078202584000053], [86.62551520200003, 25.078750224000032], [86.62538876400004, 25.07941481100005], [86.62400274600003, 25.079125222000073], [86.62296052600004, 25.080335330000025], [86.62237449000008, 25.081121431000042], [86.62155959800003, 25.08182398100007], [86.62159183400007, 25.081611571000053], [86.62078689300006, 25.08053588300004], [86.62044478300004, 25.07963647300005], [86.61970917700006, 25.078564722000067], [86.61890620600008, 25.07766955900007], [86.61764999200005, 25.077022242000055], [86.61675553600008, 25.076818351000043], [86.61582052200004, 25.075626472000067], [86.61541799500003, 25.07508866300003], [86.61593466500005, 25.074303159000067], [86.61592927700008, 25.073820326000032], [86.61579577900005, 25.073401860000047], [86.61512373300008, 25.07268593400005], [86.61518642900006, 25.072085179000055], [86.61563737100005, 25.071182966000038], [86.61628708900008, 25.070333064000067], [86.61654173300008, 25.069613140000058], [86.61653501700005, 25.06900853600007], [86.61554020000005, 25.068236943000045], [86.61393312200005, 25.06855857900007], [86.61303870100005, 25.06835015200005], [86.61238280500004, 25.068193720000068], [86.61184877100004, 25.068306964000044], [86.61132023300007, 25.068907460000048], [86.61044033000007, 25.069565370000078], [86.60997541300009, 25.070544468000037], [86.61022159600003, 25.071300375000078], [86.61064444700008, 25.071887643000025], [86.61041671800007, 25.07281042900007], [86.61024551400004, 25.073461804000033], [86.61007734300006, 25.07438397800007], [86.61038893600005, 25.075676362000024], [86.61027606900007, 25.07621899000003], [86.60978094200004, 25.077162145000045], [86.60985716300007, 25.07867783300003], [86.61058447900007, 25.07991226200005], [86.61070925500007, 25.080885860000024], [86.61119884300007, 25.082126949000042], [86.61090799500005, 25.08272077400005], [86.61080109000005, 25.083804908000047], [86.61052418800006, 25.08521091700004], [86.61071756800004, 25.086563089000038], [86.61143053900008, 25.086935582000024], [86.61150081600005, 25.087909756000045], [86.61079364700004, 25.088507375000063], [86.61050957100008, 25.089268163000042], [86.61022243600007, 25.090191453000045], [86.61146641800008, 25.090180007000072], [86.61272750200004, 25.089727233000076], [86.61284124600007, 25.089440853000042], [86.61303016300008, 25.088595203000068], [86.61328486100007, 25.087875292000035], [86.61393670700005, 25.08720593700008], [86.61491423900009, 25.08641620900005], [86.61530413400004, 25.08581242500003], [86.61595931600004, 25.08544536200003], [86.61668783500005, 25.085438605000036], [86.61672591000007, 25.086191978000045], [86.61693682700007, 25.087331721000055], [86.61707381000008, 25.08805257000006], [86.61760470400003, 25.08810633300004], [86.61819343100007, 25.08755936700004], [86.61878259500008, 25.087495258000047], [86.61964535800007, 25.08796571000005], [86.62076074400005, 25.087535702000025], [86.62129785000008, 25.08813095000005], [86.62190399800005, 25.089149812000073], [86.62197717700008, 25.089929787000074], [86.62171978500004, 25.090410603000066], [86.62146178500006, 25.090832651000028], [86.62146719500004, 25.091315481000038], [86.62113980700008, 25.09173819600005], [86.62072527800007, 25.092793579000045], [86.61974397400007, 25.09370062800008], [86.61962315200003, 25.094423848000076], [86.61976268900008, 25.095383811000033], [86.62035754800007, 25.095378338000046], [86.62108454000008, 25.095673979000026], [86.62175044500003, 25.09626804000004], [86.62339836600006, 25.096013613000025], [86.62424835100006, 25.095342364000032], [86.62511191700008, 25.095875877000026], [86.62478453000006, 25.09629859900008], [86.62427394900004, 25.097625623000056], [86.62455274000007, 25.099062675000027], [86.62476314900005, 25.10014381700006], [86.62517108600008, 25.10115991300006], [86.62532175900003, 25.10266133700003], [86.62611926800008, 25.103497813000047], [86.62713337800005, 25.10285665600003], [86.62772213200003, 25.102309658000024]]]]}}, {"type": "Feature", "properties": {"OBJECTID": 2270, "GPCODE": "95082", "GPNAME_1": "PARBHARA", "DIST_CEN_C": "24", "BLK_NAME": "TARAPUR", "ST_NAME": "BIHAR", "ST_CODE_1": "10", "GPCODE2011": "97636", "REMARKS": "FINALIZED", "MAP_STATUS": "COMPLETED", "BLK_C_2001": "240007", "BLK_C_2011": "01362", "DIST_NAME": "MUNGER", "code2011": 0.0, "Shape_Leng": 0.17615256845, "Shape_Area": 0.00076215977, "Area": 8.509}, "geometry": {"type": "MultiPolygon", "coordinates": [[[[86.63490873600006, 25.119766175000052], [86.63542412300006, 25.11885885600003], [86.63621123300004, 25.118314471000076], [86.63759097600007, 25.11799916700005], [86.63884453100007, 25.11792877000005], [86.64062693200003, 25.11815127400007], [86.64201368900007, 25.118016431000058], [86.64307030900005, 25.118069647000027], [86.64392996900006, 25.118242085000077], [86.64491033500008, 25.117691286000024], [86.64516766700007, 25.11720601500008], [86.64539547500004, 25.116752607000024], [86.64538596600005, 25.115913329000023], [86.64550058100008, 25.114653112000042], [86.64622169100005, 25.11398295600003], [86.64647560800006, 25.113199809000037], [86.64719052400005, 25.112412420000055], [86.64747643600003, 25.11401629100004], [86.64958786300008, 25.113527047000048], [86.64916501100004, 25.11209143900004], [86.65128082400008, 25.11243245600008], [86.65155186100003, 25.11315193300004], [86.65293981800005, 25.113138855000045], [86.65386399800008, 25.113310580000075], [86.65459206000008, 25.11324506300008], [86.65538500700006, 25.113657231000047], [86.65539051300004, 25.114135540000063], [86.65633361600004, 25.114663619000055], [86.65708783500008, 25.114290926000024], [86.65880198900004, 25.114179894000074], [86.66010883800004, 25.113571807000028], [86.66116750500004, 25.113376644000027], [86.66204861000006, 25.113250958000037], [86.66213721100007, 25.11233851800006], [86.66212916500007, 25.11163463500003], [86.66283677400008, 25.111086343000068], [86.66396262100005, 25.11069649600006], [86.66467897200005, 25.110906326000077], [86.66527759600007, 25.11165875300003], [86.66622558200004, 25.11132475100004], [86.66651679700004, 25.11078047600006], [86.66626449400007, 25.109537339000042], [86.66595648400005, 25.108624114000065], [86.66677997700003, 25.10780402300003], [86.66760581400007, 25.107200385000056], [86.66801101500005, 25.106654969000033], [86.66800165500007, 25.10584276800006], [86.66722335100008, 25.104988251000066], [86.66674435900006, 25.10472203100005], [86.66525982300004, 25.104952827000034], [86.66407508300006, 25.10496417300004], [86.66300689700006, 25.105190918000062], [86.66212084800009, 25.105736397000044], [86.66105263800006, 25.10553443400005], [86.65971446500004, 25.105565257000023], [86.65903935700004, 25.104190754000058], [86.65919913800008, 25.103855257000077], [86.65992021700004, 25.10318502900003], [86.65991397300007, 25.10264804700006], [86.65950438400006, 25.101510184000063], [86.65897465600005, 25.101573914000028], [86.65832023000007, 25.10199973500005], [86.65766854500004, 25.102669364000064], [86.65714314500008, 25.102674292000074], [86.65634318700006, 25.102077208000026], [86.65561330400004, 25.101547049000033], [86.65672523500007, 25.100814487000036], [86.65727801500003, 25.09973517000003], [86.65852926200006, 25.099479661000032], [86.65984359600003, 25.09910614100005], [86.66056886000007, 25.098801390000062], [86.66114917900006, 25.09753223200005], [86.66199354800005, 25.09638245900004], [86.66164619800008, 25.095063508000067], [86.66176768700007, 25.093983767000054], [86.66116319400004, 25.093145598000035], [86.66121321000008, 25.091886104000025], [86.65983557800007, 25.08976003500004], [86.65826408100008, 25.090614341000048], [86.65708785200007, 25.09135208600003], [86.65603219700006, 25.091362149000076], [86.65393512300005, 25.092641006000065], [86.65279846800007, 25.09424933200006], [86.65168790500007, 25.095099213000026], [86.65077137400004, 25.096010498000055], [86.64965529800008, 25.096382050000045], [86.64926968400005, 25.097346886000025], [86.64847063100007, 25.096393185000068], [86.64852686300009, 25.095670593000023], [86.64733663600003, 25.095623166000053], [86.64647566200006, 25.095328890000076], [86.64503524500003, 25.095942613000034], [86.64371594400006, 25.096316036000076], [86.64194468600004, 25.097054804000038], [86.64063506000008, 25.097847815000023], [86.64031319900005, 25.098753397000053], [86.63973626800004, 25.099900496000032], [86.63914683800004, 25.100384448000057], [86.63803883000008, 25.10147785500004], [86.63677996800004, 25.101065419000065], [86.63566114400004, 25.101197756000033], [86.63519924100007, 25.101563057000078], [86.63404385200005, 25.101528682000037], [86.63075770600005, 25.10246195900004], [86.62877727300008, 25.102241113000048], [86.62772213200003, 25.102309658000024], [86.62713337800005, 25.10285665600003], [86.62611926800008, 25.103497813000047], [86.62612750900007, 25.104228868000064], [86.62563164700003, 25.10555120600003], [86.62530096600005, 25.10656070400006], [86.62539907400009, 25.107800823000048], [86.62558389200007, 25.108805465000046], [86.62644287800003, 25.109808403000045], [86.62628902700004, 25.11112760000003], [86.62553110600004, 25.112064265000072], [86.62520622100004, 25.11315488100007], [86.62487376000007, 25.11401092600005], [86.62522702000007, 25.115013970000064], [86.62498402500006, 25.116334033000044], [86.62516616400006, 25.117108501000075], [86.62397407800006, 25.117349767000064], [86.62362769700007, 25.116969367000024], [86.62226497600005, 25.116593882000075], [86.61962272500006, 25.116618266000046], [86.61741691800006, 25.11710348300005], [86.61656593400005, 25.11726476000007], [86.61609082600006, 25.117788139000027], [86.61582147900003, 25.118981956000027], [86.61726410300008, 25.118964189000053], [86.61811849100008, 25.11910971800006], [86.61847102400003, 25.120040651000068], [86.61864382400006, 25.12042720000005], [86.61873677200003, 25.12119802600006], [86.61951129100004, 25.121736948000034], [86.61917866800007, 25.122592981000025], [86.61918820000005, 25.123445796000055], [86.61961888800005, 25.12382987600006], [86.62009068100008, 25.12522907700003], [86.62127020200006, 25.124735246000057], [86.62311344100004, 25.12418119000006], [86.62353375600009, 25.12363571800006], [86.62438040500007, 25.12308636000006], [86.62607037600003, 25.122141016000057], [86.62666073100007, 25.121282584000028], [86.62839515400003, 25.12076104600004], [86.63001283100004, 25.120434601000056], [86.63213521000006, 25.120026780000046], [86.63299719500003, 25.119964562000064], [86.63490873600006, 25.119766175000052]]]]}}, {"type": "Feature", "properties": {"OBJECTID": 2272, "GPCODE": "95080", "GPNAME_1": "LAUNA", "DIST_CEN_C": "24", "BLK_NAME": "TARAPUR", "ST_NAME": "BIHAR", "ST_CODE_1": "10", "GPCODE2011": "97634", "REMARKS": "FINALIZED", "MAP_STATUS": "COMPLETED", "BLK_C_2001": "240007", "BLK_C_2011": "01362", "DIST_NAME": "MUNGER", "code2011": 0.0, "Shape_Leng": 0.11898834559, "Shape_Area": 0.00064085617, "Area": 7.15508}, "geometry": {"type": "MultiPolygon", "coordinates": [[[[86.61962272500006, 25.116618266000046], [86.62226497600005, 25.116593882000075], [86.62362769700007, 25.116969367000024], [86.62397407800006, 25.117349767000064], [86.62516616400006, 25.117108501000075], [86.62498402500006, 25.116334033000044], [86.62522702000007, 25.115013970000064], [86.62487376000007, 25.11401092600005], [86.62520622100004, 25.11315488100007], [86.62553110600004, 25.112064265000072], [86.62628902700004, 25.11112760000003], [86.62644287800003, 25.109808403000045], [86.62558389200007, 25.108805465000046], [86.62539907400009, 25.107800823000048], [86.62530096600005, 25.10656070400006], [86.62563164700003, 25.10555120600003], [86.62612750900007, 25.104228868000064], [86.62611926800008, 25.103497813000047], [86.62532175900003, 25.10266133700003], [86.62517108600008, 25.10115991300006], [86.62476314900005, 25.10014381700006], [86.62455274000007, 25.099062675000027], [86.62427394900004, 25.097625623000056], [86.62478453000006, 25.09629859900008], [86.62511191700008, 25.095875877000026], [86.62424835100006, 25.095342364000032], [86.62339836600006, 25.096013613000025], [86.62175044500003, 25.09626804000004], [86.62108454000008, 25.095673979000026], [86.62035754800007, 25.095378338000046], [86.61976268900008, 25.095383811000033], [86.61962315200003, 25.094423848000076], [86.61974397400007, 25.09370062800008], [86.62072527800007, 25.092793579000045], [86.62113980700008, 25.09173819600005], [86.62146719500004, 25.091315481000038], [86.62146178500006, 25.090832651000028], [86.62171978500004, 25.090410603000066], [86.62197717700008, 25.089929787000074], [86.62190399800005, 25.089149812000073], [86.62129785000008, 25.08813095000005], [86.62076074400005, 25.087535702000025], [86.61964535800007, 25.08796571000005], [86.61878259500008, 25.087495258000047], [86.61819343100007, 25.08755936700004], [86.61760470400003, 25.08810633300004], [86.61707381000008, 25.08805257000006], [86.61693682700007, 25.087331721000055], [86.61672591000007, 25.086191978000045], [86.61668783500005, 25.085438605000036], [86.61595931600004, 25.08544536200003], [86.61530413400004, 25.08581242500003], [86.61491423900009, 25.08641620900005], [86.61393670700005, 25.08720593700008], [86.61328486100007, 25.087875292000035], [86.61303016300008, 25.088595203000068], [86.61284124600007, 25.089440853000042], [86.61272750200004, 25.089727233000076], [86.61146641800008, 25.090180007000072], [86.61022243600007, 25.090191453000045], [86.60897878800006, 25.090690265000035], [86.60738141800005, 25.09102531700006], [86.60584104400004, 25.091580924000027], [86.60495005800004, 25.091697318000058], [86.60440956300005, 25.090781658000026], [86.60398790300007, 25.090302603000055], [86.60427728400003, 25.08911761300004], [86.60225682300006, 25.088847187000056], [86.60134490900003, 25.088855531000036], [86.60067897000005, 25.089150373000052], [86.60033115400006, 25.089979381000035], [86.60018450200005, 25.09106381400005], [86.59995797900007, 25.092108437000036], [86.59949010900004, 25.092834749000076], [86.59905753000004, 25.09316357800003], [86.59779947000004, 25.093712028000027], [86.59768931600007, 25.09450729400004], [86.59744363000004, 25.095610691000047], [86.59740710500006, 25.095899854000038], [86.59781550800005, 25.09697478700008], [86.59865654200007, 25.097725315000048], [86.59910033600005, 25.09887208600003], [86.59978958500005, 25.100237744000026], [86.59976732000007, 25.101821941000026], [86.59972425500007, 25.10332058700004], [86.59969685600004, 25.104435584000043], [86.60018699000005, 25.105730855000047], [86.60071038800004, 25.106443601000024], [86.60134670500008, 25.107051541000033], [86.60163222300008, 25.107771029000048], [86.60241923700005, 25.108553607000033], [86.60242601400006, 25.10917634900005], [86.60303117600006, 25.110100492000072], [86.60401996400003, 25.110750319000033], [86.60411943700007, 25.111679097000035], [86.60438167800004, 25.112529691000077], [86.60532285500005, 25.11290914600005], [86.60634491300004, 25.112976527000058], [86.60753955200005, 25.112965664000058], [86.60856769600008, 25.113578949000043], [86.60840356400007, 25.114433473000076], [86.60841128500005, 25.115132844000073], [86.60825043600005, 25.11582928100006], [86.60859938600004, 25.11644891800006], [86.60936193300006, 25.116360670000063], [86.61072609400009, 25.11642943700008], [86.61166824100007, 25.116885575000026], [86.61261463100004, 25.117729849000057], [86.61347508600005, 25.11841689700003], [86.61483605900008, 25.118639104000067], [86.61582147900003, 25.118981956000027], [86.61609082600006, 25.117788139000027], [86.61656593400005, 25.11726476000007], [86.61741691800006, 25.11710348300005], [86.61962272500006, 25.116618266000046]]]]}}, {"type": "Feature", "properties": {"OBJECTID": 2284, "GPCODE": "95075", "GPNAME_1": "BIHMA", "DIST_CEN_C": "24", "BLK_NAME": "TARAPUR", "ST_NAME": "BIHAR", "ST_CODE_1": "10", "GPCODE2011": "97629", "REMARKS": "FINALIZED", "MAP_STATUS": "COMPLETED", "BLK_C_2001": "240007", "BLK_C_2011": "01362", "DIST_NAME": "MUNGER", "code2011": 0.0, "Shape_Leng": 0.13936278916, "Shape_Area": 0.00071429793, "Area": 7.97621}, "geometry": {"type": "MultiPolygon", "coordinates": [[[[86.63566114400004, 25.101197756000033], [86.63677996800004, 25.101065419000065], [86.63803883000008, 25.10147785500004], [86.63914683800004, 25.100384448000057], [86.63973626800004, 25.099900496000032], [86.64031319900005, 25.098753397000053], [86.64063506000008, 25.097847815000023], [86.64194468600004, 25.097054804000038], [86.64371594400006, 25.096316036000076], [86.64503524500003, 25.095942613000034], [86.64647566200006, 25.095328890000076], [86.64733663600003, 25.095623166000053], [86.64852686300009, 25.095670593000023], [86.64847063100007, 25.096393185000068], [86.64926968400005, 25.097346886000025], [86.64965529800008, 25.096382050000045], [86.65077137400004, 25.096010498000055], [86.65168790500007, 25.095099213000026], [86.65279846800007, 25.09424933200006], [86.65393512300005, 25.092641006000065], [86.65603219700006, 25.091362149000076], [86.65708785200007, 25.09135208600003], [86.65826408100008, 25.090614341000048], [86.65983557800007, 25.08976003500004], [86.66085560300007, 25.089235882000025], [86.66187079500008, 25.08871626100006], [86.66265327700006, 25.088230530000033], [86.66311295600008, 25.087684615000057], [86.66263190800004, 25.08636690800006], [86.66315257000008, 25.085522551000054], [86.66321142800007, 25.085039064000057], [86.66379578700008, 25.084135468000056], [86.66490899800004, 25.083524698000076], [86.66457641700003, 25.083196971000064], [86.66658029600006, 25.082317302000035], [86.66642628200003, 25.080992043000037], [86.66647403800005, 25.079976197000065], [86.66624824600007, 25.079305930000032], [86.66557178900007, 25.078667073000076], [86.66508358500005, 25.078017333000048], [86.66514165800004, 25.07783170400006], [86.66519829000003, 25.07765068300006], [86.66513276000006, 25.077127862000054], [86.66512525300004, 25.07647352300006], [86.66494041200008, 25.075049232000026], [86.66458960000006, 25.07428989300007], [86.66448324900006, 25.073659075000023], [86.66447434100007, 25.072878452000054], [86.66440563500004, 25.07208031700003], [86.66422408700004, 25.070944878000034], [86.66387975000004, 25.070311785000058], [86.66307926100006, 25.070084757000075], [86.66176247100003, 25.069785887000023], [86.66093925600006, 25.069306311000048], [86.66063358700006, 25.069015926000077], [86.66050825300005, 25.068457434000038], [86.66020486200006, 25.067932325000072], [86.65979823100008, 25.067480411000076], [86.65942834600008, 25.067204125000046], [86.65863319200008, 25.067013062000058], [86.65756916300006, 25.06671183900005], [86.65726882100006, 25.066443888000038], [86.65692244700006, 25.065630338000062], [86.65687697400006, 25.065120840000077], [86.65710885700008, 25.06459064200004], [86.65572342700005, 25.063484550000055], [86.65445722700008, 25.06413733100004], [86.65427032100007, 25.06469415600003], [86.65513992600006, 25.06576450500006], [86.65639911900007, 25.066235474000052], [86.65640807900007, 25.06701609600003], [86.65615640100003, 25.06797980700003], [86.65497941400008, 25.069069521000074], [86.65406179500008, 25.069439212000077], [86.65395012900007, 25.070942996000042], [86.65342530300006, 25.07142635500003], [86.65270870900008, 25.072037858000044], [86.65159209900008, 25.072346243000027], [86.65093987700004, 25.07295257100003], [86.65115774900005, 25.07511222100004], [86.64962897600003, 25.07666101700005], [86.64855778500004, 25.075290136000035], [86.64840480000004, 25.073608275000026], [86.64813117800009, 25.07264966400004], [86.64812237000007, 25.071869040000024], [86.64706748400005, 25.07193762600008], [86.64701064100007, 25.07260154900007], [86.64595639300006, 25.07273331700003], [86.64424242900003, 25.07280810000003], [86.64332278300003, 25.072997190000024], [86.64273423000003, 25.07354425500006], [86.64208599500006, 25.074511613000027], [86.64143020000006, 25.074815604000037], [86.64083347700006, 25.074640713000065], [86.63967649100005, 25.074443901000052], [86.63901741100005, 25.074450090000028], [86.63803393700005, 25.074698471000033], [86.63704080800005, 25.074531740000054], [86.63539474000004, 25.074483893000036], [86.634141, 25.074495588000048], [86.63322328200007, 25.074865154000065], [86.63246782500005, 25.07556272900007], [86.63360747400003, 25.07729404400004], [86.63368196800008, 25.07819597500003], [86.63456106100006, 25.080110236000053], [86.63456577900007, 25.080529883000054], [86.63457316200004, 25.08118873600006], [86.63405391400005, 25.081735093000077], [86.63392687900006, 25.08233649700003], [86.63327853300007, 25.083303814000033], [86.63295690100006, 25.083789713000044], [86.63296632600003, 25.084629005000068], [86.63304223200004, 25.085648183000046], [86.63305168900007, 25.086491988000034], [86.63385006700008, 25.086962914000026], [86.63445762700007, 25.088099073000024], [86.63473047000008, 25.088999030000025], [86.63460474900006, 25.08971777900007], [86.63408546600004, 25.090264133000062], [86.63389678700008, 25.09110980300005], [86.63391023100007, 25.092310158000032], [86.63428054000008, 25.09305581600006], [86.63495256200008, 25.094191325000054], [86.63449769600004, 25.09473712600004], [86.63364776900005, 25.095408432000056], [86.63373652200005, 25.097569281000062], [86.63404385200005, 25.101528682000037], [86.63519924100007, 25.101563057000078], [86.63566114400004, 25.101197756000033]]]]}}, {"type": "Feature", "properties": {"OBJECTID": 2285, "GPCODE": "95084", "GPNAME_1": "TARAPUR", "DIST_CEN_C": "24", "BLK_NAME": "TARAPUR", "ST_NAME": "BIHAR", "ST_CODE_1": "10", "GPCODE2011": "97638", "REMARKS": "FINALIZED", "MAP_STATUS": "COMPLETED", "BLK_C_2001": "240007", "BLK_C_2011": "01362", "DIST_NAME": "MUNGER", "code2011": 0.0, "Shape_Leng": 0.06781844146, "Shape_Area": 0.00012427464, "Area": 1.38762}, "geometry": {"type": "MultiPolygon", "coordinates": [[[[86.66657901800005, 25.09381610500003], [86.66617005300003, 25.09274144400007], [86.66821912700004, 25.09289784300006], [86.66919712600009, 25.092170959000043], [86.67123579300005, 25.091429361000053], [86.67268244400003, 25.090932704000068], [86.67478558500005, 25.09105691600007], [86.67410915400006, 25.090436157000056], [86.67332455000007, 25.089879503000077], [86.67306472700005, 25.089701526000056], [86.67220133200004, 25.08919987400003], [86.67157924000009, 25.088551417000076], [86.67081122800005, 25.087723932000074], [86.67019111700006, 25.08681376000004], [86.67030718600006, 25.084849561000055], [86.67024162700005, 25.084326651000026], [86.66971771100003, 25.08402026500005], [86.66928008600007, 25.08389814900005], [86.66855787300005, 25.083598194000047], [86.66798345500007, 25.08363974200006], [86.66726252900008, 25.083448099000066], [86.66679635300005, 25.082996743000024], [86.66658029600006, 25.082317302000035], [86.66457641700003, 25.083196971000064], [86.66490899800004, 25.083524698000076], [86.66379578700008, 25.084135468000056], [86.66321142800007, 25.085039064000057], [86.66315257000008, 25.085522551000054], [86.66263190800004, 25.08636690800006], [86.66311295600008, 25.087684615000057], [86.66265327700006, 25.088230530000033], [86.66187079500008, 25.08871626100006], [86.66085560300007, 25.089235882000025], [86.65983557800007, 25.08976003500004], [86.66121321000008, 25.091886104000025], [86.66116319400004, 25.093145598000035], [86.66176768700007, 25.093983767000054], [86.66164619800008, 25.095063508000067], [86.66199354800005, 25.09638245900004], [86.66114917900006, 25.09753223200005], [86.66056886000007, 25.098801390000062], [86.65984359600003, 25.09910614100005], [86.65852926200006, 25.099479661000032], [86.65727801500003, 25.09973517000003], [86.65672523500007, 25.100814487000036], [86.65561330400004, 25.101547049000033], [86.65634318700006, 25.102077208000026], [86.65714314500008, 25.102674292000074], [86.65766854500004, 25.102669364000064], [86.65832023000007, 25.10199973500005], [86.65897465600005, 25.101573914000028], [86.65950438400006, 25.101510184000063], [86.66080899400004, 25.10029286300005], [86.66212270800008, 25.09986064900005], [86.66357023900008, 25.09942717200005], [86.66482012600005, 25.099054267000042], [86.66492886100008, 25.09731120300006], [86.66523209200005, 25.096951820000072], [86.66613678400006, 25.095444908000047], [86.66636448000008, 25.09499146400003], [86.66658731700005, 25.094538046000025], [86.66657901800005, 25.09381610500003]]]]}}, {"type": "Feature", "properties": {"OBJECTID": 2286, "GPCODE": "95078", "GPNAME_1": "GAZIPUR", "DIST_CEN_C": "24", "BLK_NAME": "TARAPUR", "ST_NAME": "BIHAR", "ST_CODE_1": "10", "GPCODE2011": "97632", "REMARKS": "FINALIZED", "MAP_STATUS": "COMPLETED", "BLK_C_2001": "240007", "BLK_C_2011": "01362", "DIST_NAME": "MUNGER", "code2011": 0.0, "Shape_Leng": 0.08222079579, "Shape_Area": 0.00017881284, "Area": 1.99645}, "geometry": {"type": "MultiPolygon", "coordinates": [[[[86.67361069800006, 25.105170801000043], [86.67301026000007, 25.104689135000058], [86.67300334100008, 25.104093572000068], [86.67335645600008, 25.10376519600004], [86.67425251100008, 25.104081587000053], [86.67497249700006, 25.104616144000033], [86.67521863600007, 25.105317771000045], [86.67540024900006, 25.105586851000055], [86.67616794000008, 25.10552532400004], [86.67676333300005, 25.105573707000076], [86.67735258400006, 25.105080677000046], [86.67740512100005, 25.104484480000053], [86.67710137700004, 25.10394587500008], [86.67679892600006, 25.10351558600007], [86.67679208500005, 25.102919926000027], [86.67648590100004, 25.102169196000034], [86.67594494600007, 25.101686999000037], [86.67529306500006, 25.10147665100004], [86.67463999400007, 25.10159128300006], [86.67440900900004, 25.102189192000026], [86.67399697600007, 25.102567665000038], [86.67357993400003, 25.10251756400004], [86.67321686400004, 25.101984001000062], [86.67267018600006, 25.101014457000076], [86.67212986200008, 25.100153195000075], [86.67147619700006, 25.10021356200008], [86.67046754700004, 25.100439911000024], [86.66989843800008, 25.099244906000024], [86.67081423700006, 25.098274926000045], [86.67265811400006, 25.098257198000056], [86.67476964400004, 25.09823701700003], [86.67622335200008, 25.09834483000003], [86.67694708900007, 25.09833790700003], [86.67786200100005, 25.097728886000027], [86.67791118600007, 25.095986440000047], [86.67743418300006, 25.094610084000067], [86.67742625100004, 25.093500066000047], [86.67681994100008, 25.09294181200005], [86.67625318500006, 25.092369590000033], [86.67585008800006, 25.09180937600007], [86.67512553700004, 25.09130635200006], [86.67478558500005, 25.09105691600007], [86.67268244400003, 25.090932704000068], [86.67123579300005, 25.091429361000053], [86.66919712600009, 25.092170959000043], [86.66821912700004, 25.09289784300006], [86.66617005300003, 25.09274144400007], [86.66657901800005, 25.09381610500003], [86.66658731700005, 25.094538046000025], [86.66636448000008, 25.09499146400003], [86.66613678400006, 25.095444908000047], [86.66523209200005, 25.096951820000072], [86.66492886100008, 25.09731120300006], [86.66482012600005, 25.099054267000042], [86.66357023900008, 25.09942717200005], [86.66212270800008, 25.09986064900005], [86.66080899400004, 25.10029286300005], [86.65950438400006, 25.101510184000063], [86.65991397300007, 25.10264804700006], [86.65992021700004, 25.10318502900003], [86.65919913800008, 25.103855257000077], [86.65903935700004, 25.104190754000058], [86.65971446500004, 25.105565257000023], [86.66105263800006, 25.10553443400005], [86.66212084800009, 25.105736397000044], [86.66300689700006, 25.105190918000062], [86.66407508300006, 25.10496417300004], [86.66525982300004, 25.104952827000034], [86.66674435900006, 25.10472203100005], [86.66722335100008, 25.104988251000066], [86.66800165500007, 25.10584276800006], [86.66801101500005, 25.106654969000033], [86.66760581400007, 25.107200385000056], [86.66837726300008, 25.10746375900004], [86.67034152300005, 25.107553299000074], [86.67111793800007, 25.10781662900007], [86.67301400900004, 25.107581843000048], [86.67463696900006, 25.10645609000005], [86.67439403500003, 25.106029770000077], [86.67391502400005, 25.105763573000047], [86.67361069800006, 25.105170801000043]]]]}}, {"type": "Feature", "properties": {"OBJECTID": 2287, "GPCODE": "95076", "GPNAME_1": "DHOBAI", "DIST_CEN_C": "24", "BLK_NAME": "TARAPUR", "ST_NAME": "BIHAR", "ST_CODE_1": "10", "GPCODE2011": "97630", "REMARKS": "FINALIZED", "MAP_STATUS": "COMPLETED", "BLK_C_2001": "240007", "BLK_C_2011": "01362", "DIST_NAME": "MUNGER", "code2011": 0.0, "Shape_Leng": 0.14228828549, "Shape_Area": 0.00048817571, "Area": 5.45012}, "geometry": {"type": "MultiPolygon", "coordinates": [[[[86.68752559300003, 25.11992888800006], [86.68781942900006, 25.119199508000065], [86.68818408900006, 25.118582162000052], [86.68863142800006, 25.11825741900003], [86.68900884900006, 25.118732178000073], [86.68903766600005, 25.119074847000036], [86.68942218000007, 25.11973001000007], [86.69005093100003, 25.12049551100006], [86.69104862900008, 25.120165474000032], [86.69100856200004, 25.118870707000042], [86.69096255800008, 25.11705700400006], [86.69072058400008, 25.11587694700006], [86.69068283700005, 25.115407920000052], [86.69064510300007, 25.114939052000068], [86.68918174700008, 25.114867539000045], [86.68927135300004, 25.11404976600005], [86.68952421800003, 25.11362763900007], [86.68971763000008, 25.11321057300006], [86.69032891800003, 25.112496202000045], [86.69029160400004, 25.111851176000073], [86.69022341800007, 25.111107223000033], [86.69009231700005, 25.110075064000057], [86.69009784100007, 25.108856556000035], [86.69123007900004, 25.108592848000058], [86.69219026300004, 25.10845720700007], [86.69286378200007, 25.108396448000065], [86.69340213200007, 25.108224225000072], [86.69406055100006, 25.108145683000032], [86.69440578300004, 25.10798882100005], [86.69447529500007, 25.107153295000046], [86.69444604100005, 25.106354852000038], [86.69424135400004, 25.105815307000057], [86.69373455400006, 25.10487248900006], [86.69348549800009, 25.10435145100007], [86.69278666000008, 25.103938534000065], [86.69219619200004, 25.103899214000023], [86.69169200200008, 25.103597207000064], [86.69104783100005, 25.103201821000027], [86.69080204400007, 25.102531809000027], [86.69043410000006, 25.10159218800004], [86.69048654200003, 25.100991472000032], [86.68982754500007, 25.10017207800007], [86.68939814700008, 25.099485771000047], [86.68889370800008, 25.098746034000044], [86.68792986400007, 25.098137122000026], [86.68687691300005, 25.09711386300006], [86.68654035000003, 25.096309354000027], [86.68564729100007, 25.09497312900004], [86.68481147100005, 25.093437859000062], [86.68391808900003, 25.092065605000073], [86.68308860800005, 25.091076249000025], [86.68261912100007, 25.09162679700006], [86.68220435200004, 25.09219045900005], [86.68173154300007, 25.09245224400007], [86.68102582500006, 25.092720775000032], [86.67973170700003, 25.09311683100003], [86.67813829100004, 25.093348776000028], [86.67742625100004, 25.093500066000047], [86.67743418300006, 25.094610084000067], [86.67791118600007, 25.095986440000047], [86.67786200100005, 25.097728886000027], [86.67694708900007, 25.09833790700003], [86.67622335200008, 25.09834483000003], [86.67476964400004, 25.09823701700003], [86.67265811400006, 25.098257198000056], [86.67081423700006, 25.098274926000045], [86.66989843800008, 25.099244906000024], [86.67046754700004, 25.100439911000024], [86.67147619700006, 25.10021356200008], [86.67212986200008, 25.100153195000075], [86.67267018600006, 25.101014457000076], [86.67321686400004, 25.101984001000062], [86.67357993400003, 25.10251756400004], [86.67399697600007, 25.102567665000038], [86.67440900900004, 25.102189192000026], [86.67463999400007, 25.10159128300006], [86.67529306500006, 25.10147665100004], [86.67594494600007, 25.101686999000037], [86.67648590100004, 25.102169196000034], [86.67679208500005, 25.102919926000027], [86.67679892600006, 25.10351558600007], [86.67710137700004, 25.10394587500008], [86.67740512100005, 25.104484480000053], [86.67735258400006, 25.105080677000046], [86.67676333300005, 25.105573707000076], [86.67616794000008, 25.10552532400004], [86.67540024900006, 25.105586851000055], [86.67521863600007, 25.105317771000045], [86.67497249700006, 25.104616144000033], [86.67425251100008, 25.104081587000053], [86.67335645600008, 25.10376519600004], [86.67300334100008, 25.104093572000068], [86.67301026000007, 25.104689135000058], [86.67361069800006, 25.105170801000043], [86.67391502400005, 25.105763573000047], [86.67439403500003, 25.106029770000077], [86.67463696900006, 25.10645609000005], [86.67301400900004, 25.107581843000048], [86.67111793800007, 25.10781662900007], [86.67034152300005, 25.107553299000074], [86.66837726300008, 25.10746375900004], [86.66760581400007, 25.107200385000056], [86.66677997700003, 25.10780402300003], [86.66595648400005, 25.108624114000065], [86.66626449400007, 25.109537339000042], [86.66651679700004, 25.11078047600006], [86.66622558200004, 25.11132475100004], [86.66527759600007, 25.11165875300003], [86.66467897200005, 25.110906326000077], [86.66396262100005, 25.11069649600006], [86.66283677400008, 25.111086343000068], [86.66212916500007, 25.11163463500003], [86.66213721100007, 25.11233851800006], [86.66204861000006, 25.113250958000037], [86.66321859900006, 25.114110831000062], [86.66382866000004, 25.114565302000074], [86.66408995300003, 25.11529835700003], [86.66474970000007, 25.115752434000058], [86.66521106300007, 25.116208332000042], [86.66580838300007, 25.115557332000037], [86.66580358900006, 25.115142115000026], [86.66579509400003, 25.11440664400004], [86.66609281600006, 25.11399313100003], [86.66695533400008, 25.113984883000057], [86.66710936300007, 25.114443705000042], [86.66777272500008, 25.115218120000065], [86.66843425200005, 25.115396846000067], [86.66919268100008, 25.115389573000073], [86.66989668200006, 25.115382801000067], [86.67100864300005, 25.11550753000006], [86.67141940200008, 25.115873626000052], [86.67182465000008, 25.11619019500006], [86.67247694600007, 25.115998941000043], [86.67323270500003, 25.115761474000067], [86.67354415800008, 25.116539256000067], [86.67462782400008, 25.115924089000032], [86.67522208100007, 25.115864250000072], [86.67558463700004, 25.11634815900004], [86.67600479800006, 25.11666905100003], [86.67660351600006, 25.11742143200007], [86.67699784000007, 25.118071961000055], [86.67816380800008, 25.11856623600005], [86.67846619500006, 25.118563314000028], [86.67896699500005, 25.11814331000005], [86.67983114200007, 25.118690049000065], [86.67999219600006, 25.11932926700007], [86.67954471200005, 25.12006923000007], [86.67964761800005, 25.121241575000056], [86.68051821100005, 25.121070716000077], [86.68083735300007, 25.120796874000064], [86.68130738100007, 25.12029138400004], [86.68150152700008, 25.11992848500006], [86.68210082400003, 25.119877617000043], [86.68235266400006, 25.120213598000078], [86.68236118800007, 25.12094003900006], [86.68264642700007, 25.12159618900006], [86.68283005300003, 25.12245633200007], [86.68317733400005, 25.122475605000034], [86.68391987700005, 25.121949392000033], [86.68439229100005, 25.12164698600003], [86.68538132800006, 25.121001093000075], [86.68590423900008, 25.12077040500003], [86.68692543600008, 25.120760533000066], [86.68740662200008, 25.120358766000038], [86.68752559300003, 25.11992888800006]]]]}}, {"type": "Feature", "properties": {"OBJECTID": 2288, "GPCODE": "95079", "GPNAME_1": "KHAIRA", "DIST_CEN_C": "24", "BLK_NAME": "TARAPUR", "ST_NAME": "BIHAR", "ST_CODE_1": "10", "GPCODE2011": "97633", "REMARKS": "FINALIZED", "MAP_STATUS": "COMPLETED", "BLK_C_2001": "240007", "BLK_C_2011": "01362", "DIST_NAME": "MUNGER", "code2011": 0.0, "Shape_Leng": 0.18843383493, "Shape_Area": 0.00117030105, "Area": 13.0628}, "geometry": {"type": "MultiPolygon", "coordinates": [[[[86.63750561200004, 25.15560563100007], [86.63794982500008, 25.154545461000055], [86.63738091200008, 25.153354877000027], [86.63731059900005, 25.15151876500005], [86.63846566500007, 25.151047706000043], [86.63956549700004, 25.150071629000024], [86.63930217700005, 25.149153505000072], [86.63979497300005, 25.14799807600008], [86.63911153800007, 25.14589247500004], [86.64114059500008, 25.145963686000073], [86.64206150600006, 25.145837707000055], [86.64284529500009, 25.14498639800007], [86.64429682600007, 25.144855402000076], [86.64581414100007, 25.144841176000057], [86.64661095500009, 25.145131493000065], [86.64745981400006, 25.144342790000053], [86.64744892800007, 25.14338166600004], [86.64736720000008, 25.142303883000068], [86.64805342400007, 25.141602427000066], [86.64778173200006, 25.14082428000006], [86.64717649500005, 25.13992740200007], [86.64715867300004, 25.138366119000068], [86.64748204200004, 25.137582301000066], [86.64872459500003, 25.13697036600007], [86.64997083700007, 25.13623662200007], [86.65009992600005, 25.135815655000044], [86.65008963600008, 25.134913201000074], [86.64929359400008, 25.134681570000055], [86.64790757000009, 25.134455390000028], [86.64790342100008, 25.134094429000072], [86.64578583000008, 25.13363602900006], [86.64400175100008, 25.13329182600006], [86.64188890000008, 25.133248495000032], [86.64102843000006, 25.133017378000034], [86.64106500700007, 25.13055298100005], [86.64190906000005, 25.129344666000065], [86.64375699400006, 25.129205488000025], [86.64477732600005, 25.12910562600007], [86.64490302900003, 25.12838688200003], [86.64469579800004, 25.127603562000047], [86.64409407400007, 25.127009051000073], [86.64316712600004, 25.126598066000042], [86.64269627200008, 25.126182784000036], [86.64163979700004, 25.125709807000078], [86.64064481800006, 25.12542134200004], [86.63997999100008, 25.124944623000033], [86.63892263700006, 25.124837229000036], [86.63760321800004, 25.124786415000074], [86.63660629500004, 25.124317392000023], [86.63541324300007, 25.123606495000047], [86.63467772500007, 25.123013082000057], [86.63460239300008, 25.12205259700005], [86.63459150400007, 25.121091466000053], [86.63366267400005, 25.120499891000065], [86.63299719500003, 25.119964562000064], [86.63213521000006, 25.120026780000046], [86.63001283100004, 25.120434601000056], [86.62839515400003, 25.12076104600004], [86.62666073100007, 25.121282584000028], [86.62607037600003, 25.122141016000057], [86.62438040500007, 25.12308636000006], [86.62353375600009, 25.12363571800006], [86.62311344100004, 25.12418119000006], [86.62127020200006, 25.124735246000057], [86.62009068100008, 25.12522907700003], [86.61961888800005, 25.12382987600006], [86.61918820000005, 25.123445796000055], [86.61917866800007, 25.122592981000025], [86.61951129100004, 25.121736948000034], [86.61873677200003, 25.12119802600006], [86.61864382400006, 25.12042720000005], [86.61847102400003, 25.120040651000068], [86.61811849100008, 25.11910971800006], [86.61726410300008, 25.118964189000053], [86.61582147900003, 25.118981956000027], [86.61483605900008, 25.118639104000067], [86.61347508600005, 25.11841689700003], [86.61261463100004, 25.117729849000057], [86.61166824100007, 25.116885575000026], [86.61072609400009, 25.11642943700008], [86.60936193300006, 25.116360670000063], [86.60859938600004, 25.11644891800006], [86.60758158700008, 25.116765083000075], [86.60639031300008, 25.117087362000063], [86.60486103300008, 25.117336065000075], [86.60359056600004, 25.11811932300003], [86.60342717400005, 25.118590185000073], [86.60258979000008, 25.119992344000025], [86.60183917200004, 25.12116345900006], [86.60081621200004, 25.121014899000045], [86.60005202400004, 25.121409941000024], [86.59954818300008, 25.12203733000007], [86.59904778700007, 25.122971521000068], [86.59820184300008, 25.12359746800007], [86.59766477500006, 25.12390024000007], [86.59702387400006, 25.12423093800004], [86.59686017000007, 25.12467471100007], [86.59859353400003, 25.125845894000065], [86.59979114000004, 25.126538995000033], [86.60062974200008, 25.127501651000046], [86.60087965500009, 25.128582408000057], [86.60106471900008, 25.129176432000065], [86.60208320000004, 25.129812472000026], [86.60232557400008, 25.130654235000065], [86.60191283300009, 25.131899012000076], [86.60140811600007, 25.132445164000046], [86.60073486200008, 25.13299740100007], [86.60022840700003, 25.133390101000032], [86.60133582000003, 25.133533404000048], [86.60210600900007, 25.133679853000046], [86.60203388100007, 25.13523298100006], [86.60263654500005, 25.135931459000062], [86.60348308300007, 25.135355138000023], [86.60421451300004, 25.134680519000028], [86.60455320800008, 25.134366017000048], [86.60671329900003, 25.134648627000047], [86.60689213600006, 25.135576677000074], [86.60681822400005, 25.13650704400004], [86.60767353600005, 25.136729355000057], [86.60800298000004, 25.13603134500005], [86.60799702400004, 25.135489851000045], [86.60824536900003, 25.13463459600007], [86.60909644800006, 25.134468852000055], [86.60969571300006, 25.13485146800008], [86.60995207300004, 25.135160548000044], [86.61038956000004, 25.136162871000067], [86.61115813400005, 25.136155823000024], [86.61200685500006, 25.13622477800004], [86.61252847700007, 25.13676597500006], [86.61244613500008, 25.137385056000028], [86.61202831700007, 25.13816508900004], [86.61203616500006, 25.138864539000053], [86.61213394400005, 25.139635338000062], [86.61316055400005, 25.140090715000042], [86.61304582200006, 25.141368945000067], [86.61384286300006, 25.142142282000066], [86.61477874800005, 25.142914468000072], [86.61565334400007, 25.144409144000065], [86.61605579500008, 25.14536668900007], [86.61659362000006, 25.146020615000054], [86.61745149900008, 25.146012667000036], [86.61870664300005, 25.146059777000062], [86.61923965700004, 25.146718231000023], [86.61925113500007, 25.147738020000077], [86.61866407100007, 25.148465505000047], [86.61802983800004, 25.14940105100004], [86.61816510200003, 25.150857491000068], [86.61674259200004, 25.150924703000044], [86.61650877300008, 25.151305974000024], [86.61651657600004, 25.15200993800005], [86.61664345200006, 25.15270825500005], [86.61694401300008, 25.152976270000067], [86.61771258100003, 25.152969102000043], [86.61884322900005, 25.152958693000073], [86.61973815500005, 25.153600277000066], [86.62049125800007, 25.154428169000028], [86.62073513000007, 25.155391657000052], [86.62179844600007, 25.15556684200004], [86.62634034300004, 25.155479617000026], [86.63224985300008, 25.15528469800006], [86.63502845400006, 25.155398683000044], [86.63607037200006, 25.15587177900005], [86.63685254700005, 25.155751602000066], [86.63750561200004, 25.15560563100007]]]]}}, {"type": "Feature", "properties": {"OBJECTID": 2290, "GPCODE": "95083", "GPNAME_1": "RAMPUR BISAI", "DIST_CEN_C": "24", "BLK_NAME": "TARAPUR", "ST_NAME": "BIHAR", "ST_CODE_1": "10", "GPCODE2011": "97637", "REMARKS": "FINALIZED", "MAP_STATUS": "COMPLETED", "BLK_C_2001": "240007", "BLK_C_2011": "01362", "DIST_NAME": "MUNGER", "code2011": 0.0, "Shape_Leng": 0.10832074647, "Shape_Area": 0.00035833082, "Area": 3.99999}, "geometry": {"type": "MultiPolygon", "coordinates": [[[[86.65599303800008, 25.134708378000028], [86.65753922300007, 25.134630496000057], [86.65976094600006, 25.13465455100004], [86.66178341100004, 25.134590213000024], [86.66205590500005, 25.133283379000034], [86.66159131600006, 25.132552171000043], [86.66027529300004, 25.132379668000056], [86.65880590900008, 25.131797969000047], [86.65738650500003, 25.131256403000066], [86.65737860700006, 25.13057049100007], [86.65833024900007, 25.130101204000027], [86.65817094100004, 25.129182031000028], [86.65790648500007, 25.128173666000066], [86.65814769900004, 25.127160487000026], [86.65753443500006, 25.126430783000046], [86.65701291700003, 25.125054738000074], [86.65614051700004, 25.123776914000075], [86.65546837700003, 25.12267311200003], [86.65515910600004, 25.122075823000046], [86.65565187900006, 25.12138071000004], [86.65670387400007, 25.120590014000072], [86.65705773200006, 25.12031132000004], [86.65740548900004, 25.11994248600007], [86.65704824200003, 25.119485586000053], [86.65643840300004, 25.119491379000067], [86.65583046000006, 25.119221830000072], [86.65572760300006, 25.118897919000062], [86.65622489800006, 25.11815763800007], [86.65657000800007, 25.117558631000065], [86.65665858700004, 25.116637168000068], [86.65659845300007, 25.115717129000075], [86.65633361600004, 25.114663619000055], [86.65539051300004, 25.114135540000063], [86.65538500700006, 25.113657231000047], [86.65459206000008, 25.11324506300008], [86.65386399800008, 25.113310580000075], [86.65293981800005, 25.113138855000045], [86.65155186100003, 25.11315193300004], [86.65128082400008, 25.11243245600008], [86.64916501100004, 25.11209143900004], [86.64958786300008, 25.113527047000048], [86.64747643600003, 25.11401629100004], [86.64719052400005, 25.112412420000055], [86.64647560800006, 25.113199809000037], [86.64622169100005, 25.11398295600003], [86.64550058100008, 25.114653112000042], [86.64538596600005, 25.115913329000023], [86.64539547500004, 25.116752607000024], [86.64516766700007, 25.11720601500008], [86.64491033500008, 25.117691286000024], [86.64392996900006, 25.118242085000077], [86.64307030900005, 25.118069647000027], [86.64201368900007, 25.118016431000058], [86.64062693200003, 25.11815127400007], [86.63884453100007, 25.11792877000005], [86.63759097600007, 25.11799916700005], [86.63621123300004, 25.118314471000076], [86.63542412300006, 25.11885885600003], [86.63490873600006, 25.119766175000052], [86.63299719500003, 25.119964562000064], [86.63366267400005, 25.120499891000065], [86.63459150400007, 25.121091466000053], [86.63460239300008, 25.12205259700005], [86.63467772500007, 25.123013082000057], [86.63541324300007, 25.123606495000047], [86.63660629500004, 25.124317392000023], [86.63760321800004, 25.124786415000074], [86.63892263700006, 25.124837229000036], [86.63997999100008, 25.124944623000033], [86.64064481800006, 25.12542134200004], [86.64163979700004, 25.125709807000078], [86.64269627200008, 25.126182784000036], [86.64316712600004, 25.126598066000042], [86.64409407400007, 25.127009051000073], [86.64469579800004, 25.127603562000047], [86.64490302900003, 25.12838688200003], [86.64477732600005, 25.12910562600007], [86.64375699400006, 25.129205488000025], [86.64190906000005, 25.129344666000065], [86.64106500700007, 25.13055298100005], [86.64102843000006, 25.133017378000034], [86.64188890000008, 25.133248495000032], [86.64400175100008, 25.13329182600006], [86.64578583000008, 25.13363602900006], [86.64790342100008, 25.134094429000072], [86.64790757000009, 25.134455390000028], [86.64929359400008, 25.134681570000055], [86.65008963600008, 25.134913201000074], [86.65009992600005, 25.135815655000044], [86.65139473600004, 25.136737608000033], [86.65213394900007, 25.137633133000065], [86.65291881300004, 25.137323382000034], [86.65297521200006, 25.136181047000036], [86.65296555100008, 25.13534178200007], [86.65414432500006, 25.134789124000065], [86.65599303800008, 25.134708378000028]]]]}}, {"type": "Feature", "properties": {"OBJECTID": 2297, "GPCODE": "95081", "GPNAME_1": "MANIKPUR", "DIST_CEN_C": "24", "BLK_NAME": "TARAPUR", "ST_NAME": "BIHAR", "ST_CODE_1": "10", "GPCODE2011": "97635", "REMARKS": "FINALIZED", "MAP_STATUS": "COMPLETED", "BLK_C_2001": "240007", "BLK_C_2011": "01362", "DIST_NAME": "MUNGER", "code2011": 0.0, "Shape_Leng": 0.13445873851, "Shape_Area": 0.00063397961, "Area": 7.07667}, "geometry": {"type": "MultiPolygon", "coordinates": [[[[86.67657175800008, 25.151362547000076], [86.67742057500004, 25.150573677000068], [86.67903821000004, 25.15065284800005], [86.68085468100008, 25.150770687000033], [86.68125278700006, 25.15003130200006], [86.68236884100008, 25.15048080200006], [86.68287576200004, 25.150566166000033], [86.68347321400006, 25.149924045000034], [86.68371639500003, 25.149091362000036], [86.68344685000005, 25.147667932000047], [86.68323014900005, 25.14652383400005], [86.68249961100008, 25.144689603000074], [86.68341244900006, 25.144725911000023], [86.68391828400007, 25.14472101000007], [86.68436087500004, 25.14398116500007], [86.68277710900009, 25.14127527900007], [86.68249839600008, 25.14118770500005], [86.68169003300005, 25.14033354600008], [86.68250278000005, 25.139441237000028], [86.68330300600007, 25.138332354000056], [86.68359284700006, 25.137670711000055], [86.68363896900007, 25.13737687300005], [86.68310384000006, 25.13656528300004], [86.68238941700008, 25.135254418000045], [86.68165560900007, 25.133988895000073], [86.68095778300005, 25.13282686900004], [86.68059206400005, 25.131652521000035], [86.68176408100004, 25.13138846700008], [86.68285478400009, 25.130949233000024], [86.68259658400007, 25.130062734000035], [86.68266696200004, 25.129723522000063], [86.68343510600005, 25.129260346000024], [86.68253243600003, 25.12796489300007], [86.68144407500006, 25.128611644000046], [86.68117114500006, 25.128591734000054], [86.68118244400006, 25.12743187700005], [86.68019199700007, 25.12626359500007], [86.67971222700004, 25.125514569000075], [86.67937053200006, 25.124272275000067], [86.67879644700008, 25.12308646200006], [86.67825644300007, 25.121841579000034], [86.67815120900008, 25.121323618000076], [86.67964761800005, 25.121241575000056], [86.67954471200005, 25.12006923000007], [86.67999219600006, 25.11932926700007], [86.67983114200007, 25.118690049000065], [86.67896699500005, 25.11814331000005], [86.67846619500006, 25.118563314000028], [86.67816380800008, 25.11856623600005], [86.67699784000007, 25.118071961000055], [86.67660351600006, 25.11742143200007], [86.67600479800006, 25.11666905100003], [86.67558463700004, 25.11634815900004], [86.67522208100007, 25.115864250000072], [86.67462782400008, 25.115924089000032], [86.67354415800008, 25.116539256000067], [86.67323270500003, 25.115761474000067], [86.67247694600007, 25.115998941000043], [86.67182465000008, 25.11619019500006], [86.67141940200008, 25.115873626000052], [86.67100864300005, 25.11550753000006], [86.66989668200006, 25.115382801000067], [86.66919268100008, 25.115389573000073], [86.66843425200005, 25.115396846000067], [86.66777272500008, 25.115218120000065], [86.66710936300007, 25.114443705000042], [86.66695533400008, 25.113984883000057], [86.66609281600006, 25.11399313100003], [86.66579509400003, 25.11440664400004], [86.66580358900006, 25.115142115000026], [86.66580838300007, 25.115557332000037], [86.66521106300007, 25.116208332000042], [86.66474970000007, 25.115752434000058], [86.66408995300003, 25.11529835700003], [86.66382866000004, 25.114565302000074], [86.66321859900006, 25.114110831000062], [86.66204861000006, 25.113250958000037], [86.66116750500004, 25.113376644000027], [86.66010883800004, 25.113571807000028], [86.65880198900004, 25.114179894000074], [86.65708783500008, 25.114290926000024], [86.65633361600004, 25.114663619000055], [86.65659845300007, 25.115717129000075], [86.65665858700004, 25.116637168000068], [86.65657000800007, 25.117558631000065], [86.65622489800006, 25.11815763800007], [86.65572760300006, 25.118897919000062], [86.65583046000006, 25.119221830000072], [86.65643840300004, 25.119491379000067], [86.65704824200003, 25.119485586000053], [86.65740548900004, 25.11994248600007], [86.65705773200006, 25.12031132000004], [86.65670387400007, 25.120590014000072], [86.65565187900006, 25.12138071000004], [86.65515910600004, 25.122075823000046], [86.65546837700003, 25.12267311200003], [86.65614051700004, 25.123776914000075], [86.65701291700003, 25.125054738000074], [86.65753443500006, 25.126430783000046], [86.65814769900004, 25.127160487000026], [86.65790648500007, 25.128173666000066], [86.65817094100004, 25.129182031000028], [86.65833024900007, 25.130101204000027], [86.65737860700006, 25.13057049100007], [86.65738650500003, 25.131256403000066], [86.65880590900008, 25.131797969000047], [86.66027529300004, 25.132379668000056], [86.66159131600006, 25.132552171000043], [86.66205590500005, 25.133283379000034], [86.66178341100004, 25.134590213000024], [86.66235141400006, 25.135690364000027], [86.66326505800004, 25.13623229700005], [86.66442477300006, 25.13617606400004], [86.66609495100005, 25.13652568200007], [86.66726212400005, 25.137114720000056], [86.66807502500006, 25.137517580000065], [86.66783548100005, 25.13867067800004], [86.66946519800007, 25.13980584600006], [86.66990853300007, 25.13869593100003], [86.67102721800006, 25.139375683000026], [86.67149293700004, 25.14019703100007], [86.67189294100007, 25.142192366000074], [86.67317925600008, 25.14406643500007], [86.67370900600008, 25.146128227000077], [86.67438540700005, 25.148008049000055], [86.67440409000005, 25.149614452000037], [86.67507702600005, 25.15075868300005], [86.67593909800007, 25.151115979000053], [86.67657175800008, 25.151362547000076]]]]}}]}