{"type": "FeatureCollection", "features": [{"type": "Feature", "properties": {"OBJECTID": 2273, "GPCODE": "95017", "GPNAME_1": "MAHGAMA", "DIST_CEN_C": "24", "BLK_NAME": "DHARHARA", "ST_NAME": "BIHAR", "ST_CODE_1": "10", "GPCODE2011": "97571", "REMARKS": "FINALIZED", "MAP_STATUS": "COMPLETED", "BLK_C_2001": "240004", "BLK_C_2011": "01359", "DIST_NAME": "MUNGER", "code2011": 0.0, "Shape_Leng": 0.28138198759, "Shape_Area": 0.0014139332, "Area": 15.7714}, "geometry": {"type": "MultiPolygon", "coordinates": [[[[86.37576772600005, 25.255512242000066], [86.37794966000007, 25.25529255600003], [86.38043204400003, 25.255372803000057], [86.38212579000003, 25.25549980100004], [86.38403914300005, 25.25469524600004], [86.38610304400004, 25.25406569100005], [86.38774104700008, 25.25406657900004], [86.38851322100004, 25.252246419000073], [86.38871555600008, 25.25190042500003], [86.38956841600003, 25.250442028000066], [86.38991538500005, 25.249329148000072], [86.39005676400006, 25.248520238000026], [86.39215625900005, 25.248531052000033], [86.39320744600008, 25.24841918900006], [86.39480257700006, 25.248627975000034], [86.39630155500004, 25.24864787200005], [86.39759353900007, 25.248809356000038], [86.39872725500004, 25.24903523300003], [86.39875961800004, 25.24773069200006], [86.39880812000007, 25.246552450000024], [86.39913066500003, 25.245493900000042], [86.40135017000006, 25.245593885000062], [86.40278755500003, 25.245397712000056], [86.40320717300006, 25.24358466800004], [86.40425410600005, 25.239884837000034], [86.40459087300007, 25.238234887000033], [86.40529257300005, 25.236342989000036], [86.40532822300008, 25.23590947400004], [86.40653537300005, 25.23603992900007], [86.40775791300007, 25.236228892000042], [86.40951721800008, 25.236485918000028], [86.41041245800005, 25.236690991000046], [86.41081659500009, 25.235356480000064], [86.41130265000004, 25.233240550000062], [86.41178383300007, 25.232180735000043], [86.41227212200005, 25.230813891000025], [86.41274316800008, 25.229736063000075], [86.41326997700008, 25.228770637000025], [86.41529519400007, 25.228831469000056], [86.41874892700008, 25.228822266000066], [86.42178727500004, 25.228965111000036], [86.42341158800008, 25.229137281000078], [86.42373945000008, 25.230208807000054], [86.42427042300005, 25.230719064000027], [86.42487957800006, 25.230596943000023], [86.42502541400006, 25.23027531100007], [86.42558470700004, 25.22909297500007], [86.42805959300006, 25.228955946000042], [86.42972716600008, 25.228978737000034], [86.43011496900004, 25.228023352000037], [86.42991633100007, 25.227496914000028], [86.43013192700005, 25.226700896000068], [86.43056870500004, 25.22619652700007], [86.43115495800004, 25.225754039000037], [86.43010577100006, 25.223993335000046], [86.42943939500003, 25.222811673000024], [86.42919137800004, 25.222308200000043], [86.42758166000004, 25.222104436000052], [86.42499054100006, 25.222007645000076], [86.42347480500007, 25.221766952000053], [86.42201846200004, 25.221516777000033], [86.42048450300007, 25.22144773100007], [86.42205349700004, 25.21999565400006], [86.42421388000008, 25.218642575000047], [86.42571696900006, 25.217570137000052], [86.42714944700003, 25.216380833000073], [86.42779908100005, 25.215829576000033], [86.42922751800006, 25.21628752500004], [86.43030592100007, 25.21696944000007], [86.43071150000009, 25.216830780000066], [86.43122702200003, 25.216271535000033], [86.43138185700008, 25.215345168000056], [86.43217941400007, 25.215726935000077], [86.43455128900007, 25.214196017000063], [86.43805141900003, 25.21185732300006], [86.43688701400004, 25.20998018800003], [86.43625319900008, 25.20858167500006], [86.43591495300006, 25.207979685000055], [86.43516403200005, 25.206771701000037], [86.43491037300004, 25.205176133000066], [86.43493404500003, 25.200960690000045], [86.43381609200009, 25.20079367900007], [86.43178626400004, 25.201229571000056], [86.43042093300005, 25.201642159000073], [86.42818291300006, 25.201596830000028], [86.42594234500007, 25.20231413600004], [86.42481883100004, 25.202589385000067], [86.42350765600008, 25.202969807000045], [86.42139732400005, 25.202778934000037], [86.42051809000003, 25.20266863200004], [86.41998918600007, 25.202875869000025], [86.41743461800007, 25.202413125000078], [86.41631361300006, 25.202435557000058], [86.41583832400005, 25.202538556000036], [86.41429119200006, 25.203669955000066], [86.41294177200007, 25.203671606000057], [86.41041769800006, 25.204327730000045], [86.40845168800007, 25.204717730000027], [86.40709705600005, 25.20522475200005], [86.40535799200006, 25.20547309400007], [86.40578129000005, 25.20669735100006], [86.40625471600003, 25.20796182400005], [86.40678180500004, 25.209659069000054], [86.40727888900005, 25.21185759800005], [86.40924065700005, 25.211526304000074], [86.40953086100006, 25.211257767000063], [86.41025461800007, 25.21015085600004], [86.41143725800003, 25.209288638000032], [86.41196852100006, 25.20933407600006], [86.41197695400007, 25.210218644000065], [86.41260970300004, 25.211012479000033], [86.41263354200004, 25.211431928000025], [86.41219229300003, 25.211467071000072], [86.41200155300004, 25.211761898000077], [86.41204002300003, 25.213715707000063], [86.41218498200004, 25.215917013000023], [86.41149495800005, 25.216405285000064], [86.41091501600005, 25.216996522000045], [86.41013391700005, 25.218338551000045], [86.40930721100005, 25.219067153000026], [86.40885350000008, 25.21989207200005], [86.40767119800006, 25.22027143500003], [86.40693226100007, 25.220313264000026], [86.40639514700007, 25.220182083000054], [86.40535483100007, 25.219838242000037], [86.40443765300006, 25.21939854200008], [86.40478961100007, 25.218312669000056], [86.40552094700007, 25.217463004000024], [86.40575197400005, 25.21670757000004], [86.40491506300003, 25.21635752000003], [86.40228915900008, 25.216242629000078], [86.40246910900004, 25.217437242000074], [86.40245832500005, 25.218398614000023], [86.40092854200003, 25.218762537000032], [86.39852337000008, 25.218916621000062], [86.39761065200008, 25.218950756000027], [86.39655418400008, 25.21899054900007], [86.39531579700008, 25.21921678600006], [86.39520005900005, 25.218513660000042], [86.39483073400004, 25.218281801000046], [86.39429612200007, 25.21842136500004], [86.39385746600004, 25.21873617600005], [86.39326605900004, 25.218636953000043], [86.39263672600003, 25.218727536000074], [86.39216992400009, 25.218157951000023], [86.39176101000004, 25.217944489000047], [86.39091272600007, 25.217964590000065], [86.39057674600008, 25.21812063400006], [86.38983927100008, 25.218311311000036], [86.38912457500004, 25.218298798000035], [86.38634964400006, 25.21817126700006], [86.38476715000007, 25.21820596300006], [86.38462455500007, 25.218342406000033], [86.38408560900007, 25.218549651000046], [86.38420490100003, 25.21910383200003], [86.38485786000007, 25.219956275000072], [86.38536117800004, 25.221256697000058], [86.38504484000003, 25.22139459500005], [86.38262660900006, 25.221747066000034], [86.38320920200005, 25.223028837000072], [86.38395471500007, 25.22369558400004], [86.38476052200008, 25.223901541000032], [86.38631628200005, 25.224178368000025], [86.38798559300005, 25.22440027700003], [86.38967081300007, 25.224725722000073], [86.39071203500004, 25.225169048000055], [86.39139861400008, 25.22588582900005], [86.39123553300004, 25.227024399000072], [86.39102382200008, 25.227734595000072], [86.39073244100007, 25.22840928900007], [86.39005002700009, 25.22866725500006], [86.38898524200005, 25.229429152000023], [86.38823032200008, 25.22989078100005], [86.38778505600004, 25.230575688000044], [86.38701856000006, 25.23192646600006], [86.38630729200008, 25.232820993000075], [86.38535182400005, 25.233604611000032], [86.38448664400005, 25.235014818000025], [86.38344554900004, 25.236200729000075], [86.38195096200008, 25.23664997700007], [86.38117593700008, 25.23709369200003], [86.38061230300008, 25.237856149000038], [86.38046480700007, 25.239075873000047], [86.38051801800003, 25.24107473500004], [86.38234454000008, 25.242694510000035], [86.38251852000008, 25.243266333000065], [86.38162975400007, 25.244288571000027], [86.38091099100006, 25.24491690900004], [86.37960376900008, 25.24524728800003], [86.37762002300008, 25.244874319000076], [86.37623456200004, 25.244781110000076], [86.37539960600003, 25.245739729000036], [86.37362366800005, 25.24582096000006], [86.37297584500004, 25.247694250000052], [86.37259949100007, 25.24887500400007], [86.37112061800008, 25.24888629900005], [86.37001876000005, 25.248837080000044], [86.36982471400006, 25.248828411000034], [86.36945450000007, 25.249047819000054], [86.36952220500007, 25.25047795300003], [86.37021924600003, 25.25162359600006], [86.37235942700005, 25.255141009000056], [86.37356332900004, 25.25544775000003], [86.37576772600005, 25.255512242000066]]]]}}, {"type": "Feature", "properties": {"OBJECTID": 2274, "GPCODE": "95012", "GPNAME_1": "BANGALWA", "DIST_CEN_C": "24", "BLK_NAME": "DHARHARA", "ST_NAME": "BIHAR", "ST_CODE_1": "10", "GPCODE2011": "97566", "REMARKS": "FINALIZED", "MAP_STATUS": "COMPLETED", "BLK_C_2001": "240004", "BLK_C_2011": "01359", "DIST_NAME": "MUNGER", "code2011": 0.0, "Shape_Leng": 0.27048965749, "Shape_Area": 0.00139790544, "Area": 15.5944}, "geometry": {"type": "MultiPolygon", "coordinates": [[[[86.45195977500003, 25.23513586400003], [86.45243372900006, 25.234883823000075], [86.45300498500006, 25.234942384000078], [86.45395919600008, 25.234077117000027], [86.45514148300003, 25.23318289100007], [86.45629796000009, 25.233209572000078], [86.45791119100005, 25.233246030000032], [86.45899647000005, 25.233088246000023], [86.46017287300003, 25.232618349000063], [86.46114016700005, 25.232077838000066], [86.46234281500006, 25.231251163000024], [86.46263784500007, 25.23147887400006], [86.46296307300008, 25.232744396000044], [86.46354419200009, 25.233791087000043], [86.46419412800003, 25.233776755000065], [86.46592131200003, 25.233798697000054], [86.46638232000004, 25.234241712000028], [86.46777734900007, 25.234297871000024], [86.46782427900007, 25.23353031000005], [86.46826470600007, 25.23340935500005], [86.46841480100005, 25.23402632500006], [86.46981096200005, 25.233689897000033], [86.46970866200007, 25.23239102100007], [86.46928505000005, 25.231216603000064], [86.46859755100007, 25.23045503900005], [86.46739302000003, 25.229097543000023], [86.46690084000005, 25.22751752100004], [86.46690132000003, 25.224570543000027], [86.46711817300007, 25.22243412100005], [86.46713948600006, 25.221576498000047], [86.46581230100008, 25.22135266300006], [86.46513456700006, 25.22105589800003], [86.46464367700008, 25.220094172000074], [86.46438050100005, 25.21907640300003], [86.46341768200006, 25.21905718000005], [86.46281860400006, 25.219698438000023], [86.46279399300005, 25.22071403600006], [86.46256065900008, 25.22170434800006], [86.46242525900004, 25.222553924000067], [86.46153617800007, 25.22247088900008], [86.46056366600004, 25.222478866000074], [86.45983083400006, 25.22263384200005], [86.45936885500004, 25.222587978000035], [86.45892841100004, 25.222207939000043], [86.45857516200005, 25.221610584000075], [86.45813198000008, 25.221447281000053], [86.45711364300007, 25.22234013800005], [86.45641447800006, 25.222395471000027], [86.45532053900007, 25.22216071200006], [86.45553988500006, 25.22025889100007], [86.45562131200006, 25.21945497100006], [86.45560941900004, 25.218254589000026], [86.45464682700003, 25.216236111000057], [86.45483568900005, 25.215268765000076], [86.45535966200003, 25.214059484000074], [86.45530838800005, 25.212877511000045], [86.45628896700003, 25.212693514000023], [86.45697352300004, 25.21167249800004], [86.45750120700006, 25.210846822000065], [86.45860641800004, 25.208712125000034], [86.45956622000006, 25.20743616900006], [86.46029788300007, 25.205665526000075], [86.46149719300007, 25.204518506000056], [86.46193086600005, 25.203729629000065], [86.46388108000008, 25.20226494600007], [86.46535643700008, 25.201449592000074], [86.46663790600007, 25.201105065000036], [86.46666655500007, 25.200491028000044], [86.46638675200006, 25.19978935200004], [86.46454124600007, 25.19880257600005], [86.46389797400008, 25.198473868000065], [86.46402358200004, 25.19712794700007], [86.46475018000007, 25.196354833000044], [86.46457718600004, 25.195923], [86.46395195500008, 25.195413676000044], [86.46334862200007, 25.195599112000025], [86.46256534000008, 25.196156117000044], [86.46167514400008, 25.196948674000055], [86.46098065600006, 25.197455338000054], [86.46046886200008, 25.197373781000067], [86.46017973100004, 25.196225317000028], [86.45987889400004, 25.195410895000066], [86.45977214200008, 25.19414359900003], [86.45972569700007, 25.19245158700005], [86.45989497900007, 25.19101511100007], [86.46012072800005, 25.18975862600007], [86.45915813000005, 25.189739376000034], [86.45827514500007, 25.18974656100005], [86.45757225900007, 25.190907683000034], [86.45681045300006, 25.191631464000068], [86.45683509100007, 25.192114184000047], [86.45557083900007, 25.192192178000028], [86.45524013800008, 25.19236178600005], [86.45485956800007, 25.19301482700007], [86.45469703500004, 25.193133467000052], [86.45447886100004, 25.193148741000073], [86.45413721400007, 25.192709281000077], [86.45380029900008, 25.192247140000063], [86.45306610300008, 25.19225315600005], [86.45156928900008, 25.192897170000037], [86.45054578500003, 25.193239393000056], [86.44994321700005, 25.193510529000037], [86.44987384900008, 25.192008274000045], [86.44982597200004, 25.190659277000066], [86.44959752600005, 25.190128567000045], [86.44932165300008, 25.189828439000053], [86.44881845300006, 25.190107870000077], [86.44858705300004, 25.190795682000044], [86.44864647600008, 25.19129611900007], [86.44764194700008, 25.191552484000056], [86.44742779100005, 25.191969414000027], [86.44751896600008, 25.19266820000007], [86.44700595300003, 25.192970240000022], [86.44566529200006, 25.192850188000023], [86.44432149300007, 25.19189074700006], [86.44344961300004, 25.190999642000065], [86.44333545100005, 25.19048158000004], [86.44261482500008, 25.190356509000026], [86.44212566700008, 25.19055903900005], [86.44179136100007, 25.190868640000076], [86.44098383500005, 25.190978916000063], [86.43993421100004, 25.190684992000058], [86.43889383300007, 25.19082872000007], [86.43825583100005, 25.19153343200003], [86.43722965500007, 25.191609294000045], [86.43643946800006, 25.191462209000065], [86.43543069300006, 25.191799756000023], [86.43443047100004, 25.192507259000024], [86.43369760500008, 25.192648576000067], [86.43311051000006, 25.192468245000043], [86.43243606300007, 25.193010617000027], [86.43203362800006, 25.19294616700006], [86.43156923100008, 25.192633943000033], [86.43109529500003, 25.192867869000054], [86.43100604900008, 25.193387665000046], [86.43112745700006, 25.194153846000063], [86.43063453700006, 25.194473698000024], [86.43033964900008, 25.19424592300004], [86.42970864300008, 25.19363267800003], [86.42897576300004, 25.192744934000075], [86.42778004800005, 25.192217337000045], [86.42634497600005, 25.19207984800005], [86.42487621500004, 25.192041876000076], [86.42327179400007, 25.19182892300006], [86.42039498200006, 25.191359799000054], [86.41894337100007, 25.19103735500005], [86.41653738200006, 25.190523752000047], [86.41692801300007, 25.19403187100005], [86.41735180300003, 25.197372663000067], [86.41756025500007, 25.201017599000068], [86.41743461800007, 25.202413125000078], [86.41998918600007, 25.202875869000025], [86.42051809000003, 25.20266863200004], [86.42139732400005, 25.202778934000037], [86.42350765600008, 25.202969807000045], [86.42481883100004, 25.202589385000067], [86.42594234500007, 25.20231413600004], [86.42818291300006, 25.201596830000028], [86.43042093300005, 25.201642159000073], [86.43178626400004, 25.201229571000056], [86.43381609200009, 25.20079367900007], [86.43493404500003, 25.200960690000045], [86.43491037300004, 25.205176133000066], [86.43516403200005, 25.206771701000037], [86.43591495300006, 25.207979685000055], [86.43625319900008, 25.20858167500006], [86.43688701400004, 25.20998018800003], [86.43805141900003, 25.21185732300006], [86.43455128900007, 25.214196017000063], [86.43217941400007, 25.215726935000077], [86.43138185700008, 25.215345168000056], [86.43122702200003, 25.216271535000033], [86.43071150000009, 25.216830780000066], [86.43030592100007, 25.21696944000007], [86.42922751800006, 25.21628752500004], [86.42779908100005, 25.215829576000033], [86.42714944700003, 25.216380833000073], [86.42571696900006, 25.217570137000052], [86.42421388000008, 25.218642575000047], [86.42205349700004, 25.21999565400006], [86.42048450300007, 25.22144773100007], [86.42201846200004, 25.221516777000033], [86.42347480500007, 25.221766952000053], [86.42499054100006, 25.222007645000076], [86.42758166000004, 25.222104436000052], [86.42919137800004, 25.222308200000043], [86.42943939500003, 25.222811673000024], [86.43010577100006, 25.223993335000046], [86.43115495800004, 25.225754039000037], [86.43056870500004, 25.22619652700007], [86.43013192700005, 25.226700896000068], [86.42991633100007, 25.227496914000028], [86.43011496900004, 25.228023352000037], [86.42972716600008, 25.228978737000034], [86.42993836900007, 25.230800327000054], [86.43023274300003, 25.232512959000076], [86.43068072600005, 25.234698153000068], [86.43161749400008, 25.23457787600006], [86.43181346200004, 25.233804512000063], [86.43160577500004, 25.23336847300004], [86.43160264700003, 25.233048048000057], [86.43238193400003, 25.233059896000043], [86.43259801600004, 25.23231803500005], [86.43281472500007, 25.23214925900004], [86.43363164700008, 25.23245862300007], [86.43405694800003, 25.23230632900004], [86.43482963500009, 25.23216474900005], [86.43598728400008, 25.23178989300004], [86.43646513100003, 25.231429567000077], [86.43665963700005, 25.230502842000078], [86.43984781800003, 25.23023350300008], [86.44024176300007, 25.23093433500003], [86.44047371000005, 25.23182600100006], [86.44190339000005, 25.23187321000006], [86.44282281100004, 25.232014712000023], [86.44353870800006, 25.232139802000063], [86.44434947200006, 25.23233631000005], [86.44453750900004, 25.232781628000055], [86.44596732000008, 25.232851277000066], [86.44738170200003, 25.232857887000023], [86.44787615500007, 25.23316982700004], [86.44783511300005, 25.234555578000027], [86.44802184400004, 25.23487001500007], [86.44834034700006, 25.235467638000046], [86.44863432400007, 25.236598025000035], [86.45000989400006, 25.236185239000065], [86.45075445300006, 25.235696277000045], [86.45163670300008, 25.235589852000032], [86.45195977500003, 25.23513586400003]]]]}}, {"type": "Feature", "properties": {"OBJECTID": 2277, "GPCODE": "95016", "GPNAME_1": "HEMJAPUR", "DIST_CEN_C": "24", "BLK_NAME": "DHARHARA", "ST_NAME": "BIHAR", "ST_CODE_1": "10", "GPCODE2011": "97570", "REMARKS": "FINALIZED", "MAP_STATUS": "COMPLETED", "BLK_C_2001": "240004", "BLK_C_2011": "01359", "DIST_NAME": "MUNGER", "code2011": 0.0, "Shape_Leng": 0.11478980721, "Shape_Area": 0.00064997593, "Area": 7.24557}, "geometry": {"type": "MultiPolygon", "coordinates": [[[[86.37418668400005, 25.285373725000056], [86.37341673500003, 25.285325439000076], [86.37340870100007, 25.287144252000076], [86.37273451600004, 25.287248744000067], [86.37306471200003, 25.290224772000045], [86.37240923600007, 25.29290155700005], [86.37294115400005, 25.29351125900007], [86.37172322100008, 25.298196045000054], [86.37155813000004, 25.300765202000036], [86.37122236000005, 25.303114633000064], [86.37090535800007, 25.304285898000046], [86.37143949500006, 25.305134786000053], [86.37137015800005, 25.309995895000043], [86.37405655700007, 25.311072068000044], [86.37749688600007, 25.312584741000023], [86.37857599200004, 25.313280518000056], [86.37907482800006, 25.314062008000064], [86.37956135800005, 25.317790553000066], [86.38168335000006, 25.319556986000066], [86.38482088900008, 25.322633332000066], [86.38679756400006, 25.324775328000044], [86.38847388500005, 25.327190333000033], [86.39001317600008, 25.328739935000044], [86.39035146900005, 25.328805032000048], [86.39223524100004, 25.328961984000046], [86.39259495200008, 25.327605300000073], [86.39271049200005, 25.324048109000046], [86.39249842400005, 25.321035033000044], [86.39217150500008, 25.318474190000074], [86.39217987300003, 25.315667052000038], [86.39239705200004, 25.312876261000042], [86.39197881700005, 25.30853350500007], [86.39209551000005, 25.304561069000044], [86.39185713000006, 25.303497898000046], [86.39157634700007, 25.30161812800003], [86.39116945000006, 25.29847116800005], [86.39080812500004, 25.295942119000074], [86.38966380300008, 25.292507520000072], [86.38960116200008, 25.28952941500006], [86.38958428200004, 25.287191790000065], [86.38747186900008, 25.286932773000046], [86.38705315000004, 25.286218389000055], [86.38663453100008, 25.286050183000043], [86.38567584800006, 25.286003383000036], [86.38356412500008, 25.285816520000026], [86.38060308000007, 25.28559100600006], [86.37836831800007, 25.285513347000062], [86.37418668400005, 25.285373725000056]]]]}}, {"type": "Feature", "properties": {"OBJECTID": 2279, "GPCODE": "95019", "GPNAME_1": "ORABAGICHA", "DIST_CEN_C": "24", "BLK_NAME": "DHARHARA", "ST_NAME": "BIHAR", "ST_CODE_1": "10", "GPCODE2011": "97573", "REMARKS": "FINALIZED", "MAP_STATUS": "COMPLETED", "BLK_C_2001": "240004", "BLK_C_2011": "01359", "DIST_NAME": "MUNGER", "code2011": 0.0, "Shape_Leng": 0.1324418312, "Shape_Area": 0.00061182078, "Area": 6.82343}, "geometry": {"type": "MultiPolygon", "coordinates": [[[[86.43365172000006, 25.26268225800004], [86.43340448800006, 25.260734584000033], [86.43297624300004, 25.25546683300007], [86.43175630800005, 25.255580354000074], [86.43154279700008, 25.25544202100008], [86.43133667000006, 25.255308470000045], [86.43060584700004, 25.253639968000073], [86.43183455200005, 25.252384488000075], [86.43269770200004, 25.252337019000038], [86.43518678100008, 25.252592372000038], [86.43569229900004, 25.25046717600003], [86.43562897200007, 25.25008411300007], [86.43586738400006, 25.249594802000047], [86.43491989600005, 25.24913304000006], [86.43450624600007, 25.24844582700007], [86.43460764200006, 25.247637144000066], [86.43503392600007, 25.246054162000064], [86.43452059700007, 25.246342610000056], [86.43388755800004, 25.24606338500007], [86.43360517000008, 25.24509088700006], [86.43381013500004, 25.24370820000007], [86.43386531900006, 25.242741943000055], [86.43481051200007, 25.241953656000078], [86.43499490000005, 25.241514409000047], [86.43469043900006, 25.240826342000048], [86.43470337500008, 25.24012222500005], [86.43397172200008, 25.239897961000054], [86.43328659700006, 25.239871795000056], [86.43245695000007, 25.24029814000005], [86.43168364300004, 25.240390068000067], [86.43097714600003, 25.24021072200003], [86.43054436300008, 25.239591370000028], [86.43040637600006, 25.238667321000037], [86.43044240100005, 25.237768937000055], [86.42980736800007, 25.23676307200003], [86.42967165100004, 25.23607369900003], [86.43021685800005, 25.23548264300007], [86.43067584300007, 25.235226225000076], [86.43068072600005, 25.234698153000068], [86.43023274300003, 25.232512959000076], [86.42993836900007, 25.230800327000054], [86.42972716600008, 25.228978737000034], [86.42805959300006, 25.228955946000042], [86.42558470700004, 25.22909297500007], [86.42502541400006, 25.23027531100007], [86.42487957800006, 25.230596943000023], [86.42427042300005, 25.230719064000027], [86.42373945000008, 25.230208807000054], [86.42341158800008, 25.229137281000078], [86.42178727500004, 25.228965111000036], [86.41874892700008, 25.228822266000066], [86.41529519400007, 25.228831469000056], [86.41326997700008, 25.228770637000025], [86.41274316800008, 25.229736063000075], [86.41227212200005, 25.230813891000025], [86.41178383300007, 25.232180735000043], [86.41130265000004, 25.233240550000062], [86.41081659500009, 25.235356480000064], [86.41041245800005, 25.236690991000046], [86.40951721800008, 25.236485918000028], [86.40970747900008, 25.23718843300003], [86.41045843900008, 25.23839651700007], [86.41080529100003, 25.239905673000067], [86.41138822700003, 25.24171086000007], [86.41227762500006, 25.24390627400004], [86.41284370500006, 25.24602745100003], [86.41331955400005, 25.247522040000035], [86.41395002700006, 25.250119676000054], [86.41405765500008, 25.25226798400007], [86.41396824200007, 25.253604971000073], [86.41711408600008, 25.251955528000053], [86.41712747600008, 25.254906909000056], [86.41811796000007, 25.256234939000024], [86.41942993400005, 25.255881560000034], [86.42123651900005, 25.255867273000035], [86.42240417000005, 25.255997868000065], [86.42230017200006, 25.25705928800005], [86.42155108100008, 25.25709680800003], [86.42113678100003, 25.257375387000025], [86.42080425200004, 25.25789253000005], [86.42070402000007, 25.259346484000048], [86.42086609500006, 25.26019821700004], [86.42007848800006, 25.26089040200003], [86.41930020400008, 25.26202934300005], [86.41949815600003, 25.263002593000067], [86.42160635600004, 25.26285049300003], [86.42178800500005, 25.262126953000063], [86.42250275300006, 25.26212126300004], [86.42532558000005, 25.261963425000033], [86.42747239900007, 25.262221685000043], [86.43111979400004, 25.26212035800006], [86.43185515300007, 25.262200195000048], [86.43232877600008, 25.264457449000076], [86.43375723400004, 25.264342174000035], [86.43365172000006, 25.26268225800004]]]]}}, {"type": "Feature", "properties": {"OBJECTID": 2280, "GPCODE": "95013", "GPNAME_1": "DHARAHRA MAHRANA", "DIST_CEN_C": "24", "BLK_NAME": "DHARHARA", "ST_NAME": "BIHAR", "ST_CODE_1": "10", "GPCODE2011": "97567", "REMARKS": "FINALIZED", "MAP_STATUS": "COMPLETED", "BLK_C_2001": "240004", "BLK_C_2011": "01359", "DIST_NAME": "MUNGER", "code2011": 0.0, "Shape_Leng": 0.05761261898, "Shape_Area": 0.00015178852, "Area": 1.69265}, "geometry": {"type": "MultiPolygon", "coordinates": [[[[86.41506604600005, 25.266174223000064], [86.41513592400008, 25.26518075300004], [86.41550294700005, 25.264627277000045], [86.41757538700006, 25.264371678000032], [86.41805164800007, 25.263307368000028], [86.41949815600003, 25.263002593000067], [86.41930020400008, 25.26202934300005], [86.42007848800006, 25.26089040200003], [86.42086609500006, 25.26019821700004], [86.42070402000007, 25.259346484000048], [86.42080425200004, 25.25789253000005], [86.42113678100003, 25.257375387000025], [86.42155108100008, 25.25709680800003], [86.42230017200006, 25.25705928800005], [86.42240417000005, 25.255997868000065], [86.42123651900005, 25.255867273000035], [86.41942993400005, 25.255881560000034], [86.41811796000007, 25.256234939000024], [86.41712747600008, 25.254906909000056], [86.41711408600008, 25.251955528000053], [86.41396824200007, 25.253604971000073], [86.41190807700008, 25.254614082000046], [86.41166681000004, 25.252734039000075], [86.41072449500007, 25.252809177000074], [86.40952987800006, 25.254019027000027], [86.40728597000003, 25.255544008000072], [86.40578575100005, 25.255930318000026], [86.40579698700003, 25.25711263000005], [86.40670318500008, 25.25741245300003], [86.40629079800004, 25.261558587000025], [86.40599297300008, 25.263659489000077], [86.40615525300007, 25.265061837000076], [86.40813012400008, 25.264992190000044], [86.40918743400005, 25.26498390300003], [86.41001365700004, 25.26522114000005], [86.41129945500006, 25.265757035000036], [86.41280830200003, 25.26574523000005], [86.41367487100007, 25.26604527300003], [86.41506604600005, 25.266174223000064]]]]}}, {"type": "Feature", "properties": {"OBJECTID": 2283, "GPCODE": "95010", "GPNAME_1": "AZIMGANJ", "DIST_CEN_C": "24", "BLK_NAME": "DHARHARA", "ST_NAME": "BIHAR", "ST_CODE_1": "10", "GPCODE2011": "97564", "REMARKS": "FINALIZED", "MAP_STATUS": "COMPLETED", "BLK_C_2001": "240004", "BLK_C_2011": "01359", "DIST_NAME": "MUNGER", "code2011": 0.0, "Shape_Leng": 0.18270881855, "Shape_Area": 0.00118215174, "Area": 13.1886}, "geometry": {"type": "MultiPolygon", "coordinates": [[[[86.38476715000007, 25.21820596300006], [86.38634964400006, 25.21817126700006], [86.38912457500004, 25.218298798000035], [86.38983927100008, 25.218311311000036], [86.39057674600008, 25.21812063400006], [86.39091272600007, 25.217964590000065], [86.39176101000004, 25.217944489000047], [86.39216992400009, 25.218157951000023], [86.39263672600003, 25.218727536000074], [86.39326605900004, 25.218636953000043], [86.39385746600004, 25.21873617600005], [86.39429612200007, 25.21842136500004], [86.39483073400004, 25.218281801000046], [86.39520005900005, 25.218513660000042], [86.39531579700008, 25.21921678600006], [86.39655418400008, 25.21899054900007], [86.39761065200008, 25.218950756000027], [86.39852337000008, 25.218916621000062], [86.40092854200003, 25.218762537000032], [86.40245832500005, 25.218398614000023], [86.40246910900004, 25.217437242000074], [86.40228915900008, 25.216242629000078], [86.40491506300003, 25.21635752000003], [86.40575197400005, 25.21670757000004], [86.40552094700007, 25.217463004000024], [86.40478961100007, 25.218312669000056], [86.40443765300006, 25.21939854200008], [86.40535483100007, 25.219838242000037], [86.40639514700007, 25.220182083000054], [86.40693226100007, 25.220313264000026], [86.40767119800006, 25.22027143500003], [86.40885350000008, 25.21989207200005], [86.40930721100005, 25.219067153000026], [86.41013391700005, 25.218338551000045], [86.41091501600005, 25.216996522000045], [86.41149495800005, 25.216405285000064], [86.41218498200004, 25.215917013000023], [86.41204002300003, 25.213715707000063], [86.41200155300004, 25.211761898000077], [86.41219229300003, 25.211467071000072], [86.41263354200004, 25.211431928000025], [86.41260970300004, 25.211012479000033], [86.41197695400007, 25.210218644000065], [86.41196852100006, 25.20933407600006], [86.41143725800003, 25.209288638000032], [86.41025461800007, 25.21015085600004], [86.40953086100006, 25.211257767000063], [86.40924065700005, 25.211526304000074], [86.40727888900005, 25.21185759800005], [86.40678180500004, 25.209659069000054], [86.40625471600003, 25.20796182400005], [86.40578129000005, 25.20669735100006], [86.40535799200006, 25.20547309400007], [86.40709705600005, 25.20522475200005], [86.40845168800007, 25.204717730000027], [86.41041769800006, 25.204327730000045], [86.41294177200007, 25.203671606000057], [86.41429119200006, 25.203669955000066], [86.41583832400005, 25.202538556000036], [86.41631361300006, 25.202435557000058], [86.41743461800007, 25.202413125000078], [86.41756025500007, 25.201017599000068], [86.41735180300003, 25.197372663000067], [86.41692801300007, 25.19403187100005], [86.41653738200006, 25.190523752000047], [86.41513120300004, 25.19029116200005], [86.41390478000005, 25.190169879000052], [86.41287821500003, 25.190209569000046], [86.41162615000007, 25.190002810000067], [86.41030179000006, 25.18949865600007], [86.40929535200007, 25.188513705000048], [86.40771439500008, 25.18657187900004], [86.40728930500006, 25.186209674000054], [86.40612245100004, 25.186620469000047], [86.40499379800008, 25.18792906500005], [86.40435682400005, 25.18823636700006], [86.40339730300008, 25.188537204000056], [86.40163665100005, 25.189115077000054], [86.39942806900007, 25.189001322000024], [86.39795258800007, 25.189306138000063], [86.39639967700003, 25.189814639000076], [86.39564131100008, 25.18988367000003], [86.39501093500007, 25.189838958000053], [86.39336721400008, 25.189666574000057], [86.39108789900007, 25.189941416000067], [86.38890817100008, 25.19027412300005], [86.38780822100006, 25.190418030000046], [86.38709602800003, 25.19065363800007], [86.38595021000003, 25.191732071000047], [86.38444952700007, 25.193070414000033], [86.38259080400007, 25.19431671600006], [86.38128039600008, 25.19531058800004], [86.38040749200007, 25.19640490200004], [86.38052301000005, 25.197103629000026], [86.37916138600008, 25.197389283000064], [86.37838870200005, 25.197521565000045], [86.37751356000007, 25.19730258800007], [86.37595313600008, 25.197016569000027], [86.37404378400004, 25.196548188000065], [86.37160616500006, 25.19582198200004], [86.37042762800007, 25.195515025000077], [86.36978683200005, 25.19543415100003], [86.36988560400005, 25.194300635000047], [86.36927722800004, 25.193953153000052], [86.36843427100007, 25.193995677000032], [86.36733468200003, 25.194184478000068], [86.36733003300003, 25.193683521000025], [86.36652719800009, 25.193775337000034], [86.36550634700006, 25.193895927000028], [86.36561454300005, 25.19542505100003], [86.36603639400005, 25.198156779000044], [86.36689770100008, 25.199580930000025], [86.36704042700006, 25.200277654000047], [86.36741186600005, 25.202090850000047], [86.36728676400008, 25.205783601000064], [86.36766721800007, 25.20885866800006], [86.36838821400005, 25.21012134700004], [86.37088493900006, 25.211853547000032], [86.37222454100004, 25.212935582000057], [86.37441138100007, 25.213866712000026], [86.37533649300008, 25.214653992000024], [86.37662232600007, 25.21580408400007], [86.37835207400008, 25.217203445000052], [86.38002508100004, 25.21891471400005], [86.38148551500007, 25.220690750000074], [86.38262660900006, 25.221747066000034], [86.38504484000003, 25.22139459500005], [86.38536117800004, 25.221256697000058], [86.38485786000007, 25.219956275000072], [86.38420490100003, 25.21910383200003], [86.38408560900007, 25.218549651000046], [86.38462455500007, 25.218342406000033], [86.38476715000007, 25.21820596300006]]]]}}, {"type": "Feature", "properties": {"OBJECTID": 2296, "GPCODE": "95018", "GPNAME_1": "MATADIH", "DIST_CEN_C": "24", "BLK_NAME": "DHARHARA", "ST_NAME": "BIHAR", "ST_CODE_1": "10", "GPCODE2011": "97572", "REMARKS": "FINALIZED", "MAP_STATUS": "COMPLETED", "BLK_C_2001": "240004", "BLK_C_2011": "01359", "DIST_NAME": "MUNGER", "code2011": 0.0, "Shape_Leng": 0.83298160006, "Shape_Area": 0.01411121122, "Area": 157.428}, "geometry": {"type": "MultiPolygon", "coordinates": [[[[86.52840605400007, 25.30201660000006], [86.52780966600005, 25.300081282000065], [86.52785070800007, 25.29878563500006], [86.52694604000004, 25.298215824000067], [86.52693596700004, 25.29725919300006], [86.52697303900004, 25.296058431000063], [86.52648780400006, 25.294767454000066], [86.52631787600006, 25.293712886000037], [86.52640253400006, 25.291839338000045], [86.52685247500006, 25.289294633000054], [86.52667049500008, 25.28708946300003], [86.52686444200003, 25.285697803000062], [86.52845010800007, 25.283508880000056], [86.52915746800005, 25.280429389000062], [86.52928211700004, 25.27716548500007], [86.52944617400004, 25.272939988000076], [86.52885984600005, 25.270043285000042], [86.52736502700003, 25.268088599000066], [86.52634382200006, 25.266323834000048], [86.52552255700004, 25.263736015000063], [86.52418373300009, 25.261495626000055], [86.52303912400004, 25.260159301000044], [86.52298270800009, 25.260093435000044], [86.52223812100004, 25.259617011000046], [86.52133535900003, 25.259195989000034], [86.52101070600008, 25.25804803500006], [86.52146863900003, 25.256744387000026], [86.52261748400008, 25.255538509000075], [86.52354943300008, 25.25399162100007], [86.52422421400007, 25.25254613900006], [86.52500386200006, 25.25162779900006], [86.52534296000005, 25.251313493000055], [86.52566767100006, 25.25198313100003], [86.52620782800005, 25.253323326000043], [86.52679900600003, 25.254324589000078], [86.52785969500007, 25.25465387400004], [86.52827903900004, 25.254411090000076], [86.52901547300007, 25.254115865000074], [86.52943728100007, 25.254112174000056], [86.52980917700006, 25.254542272000037], [86.53002809500003, 25.255546692000053], [86.52998551400003, 25.256219557000065], [86.53025418300007, 25.256745228000057], [86.53046499500005, 25.25650413900007], [86.53140488800005, 25.255724316000055], [86.53218291000007, 25.254661530000078], [86.53275548100004, 25.25388936300004], [86.53274496300008, 25.25288306300007], [86.53194835300008, 25.250473526000064], [86.53279649500007, 25.248811982000063], [86.53537433500009, 25.246167608000064], [86.53665581100006, 25.24438288400006], [86.53831040900008, 25.24267609700007], [86.53885598500005, 25.241236267000033], [86.53948815800004, 25.23953836800007], [86.54106263500006, 25.239186205000067], [86.54185927600008, 25.235207803000037], [86.54265584400008, 25.23122496800005], [86.54334860900008, 25.226823382000077], [86.54333165300005, 25.225216929000055], [86.54378994100006, 25.22445017700005], [86.54637972400008, 25.222992419000036], [86.54640241800007, 25.220929830000046], [86.54638179700004, 25.21898489600005], [86.54729664500007, 25.217284564000067], [86.54905220700005, 25.21625825600006], [86.55359773200007, 25.215369792000047], [86.55628724200005, 25.21492186100005], [86.55607075900008, 25.21230177600006], [86.55530401800007, 25.210196496000037], [86.55498827000008, 25.206647642000064], [86.55467159400007, 25.203013034000037], [86.55488093200006, 25.20077278100007], [86.55467700100007, 25.199334923000038], [86.55512806600007, 25.197895858000038], [86.55492639100004, 25.19620524000004], [86.55250796000007, 25.195973820000063], [86.54934975100008, 25.19616860800005], [86.54795676800006, 25.196266626000067], [86.54710407600004, 25.19492015800006], [86.54698370300008, 25.192466169000056], [86.54650451800006, 25.190782582000054], [86.54666658000008, 25.188750277000054], [86.54822473600007, 25.186453133000043], [86.54746634600008, 25.185105897000028], [86.54721930900007, 25.18379931100003], [86.54794448500007, 25.18201481400007], [86.54645731700003, 25.18211358600007], [86.54367339100008, 25.18247645300005], [86.53354662600003, 25.18273613100007], [86.52801453900008, 25.17787841100005], [86.52201748100003, 25.173105617000033], [86.51948511400008, 25.170929534000038], [86.51832238900005, 25.170731943000078], [86.51684583900004, 25.171841192000045], [86.51380869900004, 25.174574955000026], [86.50979628500005, 25.173169528000074], [86.50374220100008, 25.171447347000026], [86.50313794700008, 25.17153365400003], [86.50029220100004, 25.17020831600007], [86.49832595200007, 25.169038020000073], [86.48996784300004, 25.168622291000077], [86.47301418300003, 25.168919724000034], [86.46200917600004, 25.168622291000077], [86.46171174300008, 25.16445823500004], [86.46171174300008, 25.154642958000068], [86.46157454700005, 25.142152100000033], [86.46046912900005, 25.141696359000036], [86.45786650900004, 25.13976338300006], [86.45491645900006, 25.13778810100007], [86.45167595600003, 25.13600917100007], [86.44935402800007, 25.13486361400004], [86.44835452400008, 25.134068426000056], [86.44740035200005, 25.13182411200006], [86.44617734700006, 25.129965566000067], [86.44477349200008, 25.128875665000066], [86.44318640000006, 25.127818817000048], [86.44160695100004, 25.12753371900004], [86.43995076000004, 25.127014435000035], [86.43917446400008, 25.126217359000066], [86.43854220900005, 25.124922689000073], [86.43820674000006, 25.124591386000077], [86.43609535500008, 25.12415698600006], [86.43348473400005, 25.123374470000044], [86.43120030300008, 25.12195756500006], [86.42950510900005, 25.120969118000062], [86.42849854900004, 25.11941104600004], [86.42738386400003, 25.117948685000044], [86.42628568600009, 25.11769107200007], [86.42522070600006, 25.117798810000068], [86.42382483300008, 25.117511990000025], [86.42269240800005, 25.117818873000033], [86.42251692000008, 25.118655189000037], [86.42246321000005, 25.12029382000003], [86.42257174900004, 25.12231032400007], [86.42299588600008, 25.124676401000045], [86.42343088400008, 25.12764253100005], [86.42445623000003, 25.129615697000077], [86.42515048800004, 25.13324775500007], [86.42602767100004, 25.136810655000033], [86.42537263700007, 25.137280711000074], [86.42402217800003, 25.137625400000047], [86.42149441200007, 25.137744643000076], [86.41983712800004, 25.138145893000058], [86.41906673400007, 25.13848590200007], [86.41666961200008, 25.138784670000064], [86.41213214700008, 25.139285108000024], [86.40244370200008, 25.14044394000007], [86.39695000700004, 25.141050677000067], [86.38825213300004, 25.14210166600003], [86.38326720100008, 25.142505378000067], [86.37843019600007, 25.142808566000042], [86.37326886700004, 25.143448017000026], [86.37076296800007, 25.143809978000036], [86.37060607200004, 25.14563449700006], [86.36951748400008, 25.15078325500008], [86.36838418600007, 25.155390655000076], [86.36651479600005, 25.160324099000036], [86.36521319000008, 25.164445417000024], [86.36477477100004, 25.16695347500007], [86.36453249800007, 25.169757984000057], [86.36459008500003, 25.174997320000045], [86.36486863200008, 25.17998218400004], [86.36525704000007, 25.18505207800007], [86.36531337300005, 25.18687045100006], [86.36537417900007, 25.188399418000074], [86.36544202400006, 25.19010535600006], [86.36550634700006, 25.193895927000028], [86.36652719800009, 25.193775337000034], [86.36733003300003, 25.193683521000025], [86.36733468200003, 25.194184478000068], [86.36843427100007, 25.193995677000032], [86.36927722800004, 25.193953153000052], [86.36988560400005, 25.194300635000047], [86.36978683200005, 25.19543415100003], [86.37042762800007, 25.195515025000077], [86.37160616500006, 25.19582198200004], [86.37404378400004, 25.196548188000065], [86.37595313600008, 25.197016569000027], [86.37751356000007, 25.19730258800007], [86.37838870200005, 25.197521565000045], [86.37916138600008, 25.197389283000064], [86.38052301000005, 25.197103629000026], [86.38040749200007, 25.19640490200004], [86.38128039600008, 25.19531058800004], [86.38259080400007, 25.19431671600006], [86.38444952700007, 25.193070414000033], [86.38595021000003, 25.191732071000047], [86.38709602800003, 25.19065363800007], [86.38780822100006, 25.190418030000046], [86.38890817100008, 25.19027412300005], [86.39108789900007, 25.189941416000067], [86.39336721400008, 25.189666574000057], [86.39501093500007, 25.189838958000053], [86.39564131100008, 25.18988367000003], [86.39639967700003, 25.189814639000076], [86.39795258800007, 25.189306138000063], [86.39942806900007, 25.189001322000024], [86.40163665100005, 25.189115077000054], [86.40339730300008, 25.188537204000056], [86.40435682400005, 25.18823636700006], [86.40499379800008, 25.18792906500005], [86.40612245100004, 25.186620469000047], [86.40728930500006, 25.186209674000054], [86.40771439500008, 25.18657187900004], [86.40929535200007, 25.188513705000048], [86.41030179000006, 25.18949865600007], [86.41162615000007, 25.190002810000067], [86.41287821500003, 25.190209569000046], [86.41390478000005, 25.190169879000052], [86.41513120300004, 25.19029116200005], [86.41653738200006, 25.190523752000047], [86.41894337100007, 25.19103735500005], [86.42039498200006, 25.191359799000054], [86.42327179400007, 25.19182892300006], [86.42487621500004, 25.192041876000076], [86.42634497600005, 25.19207984800005], [86.42778004800005, 25.192217337000045], [86.42897576300004, 25.192744934000075], [86.42970864300008, 25.19363267800003], [86.43033964900008, 25.19424592300004], [86.43063453700006, 25.194473698000024], [86.43112745700006, 25.194153846000063], [86.43100604900008, 25.193387665000046], [86.43109529500003, 25.192867869000054], [86.43156923100008, 25.192633943000033], [86.43203362800006, 25.19294616700006], [86.43243606300007, 25.193010617000027], [86.43311051000006, 25.192468245000043], [86.43369760500008, 25.192648576000067], [86.43443047100004, 25.192507259000024], [86.43543069300006, 25.191799756000023], [86.43643946800006, 25.191462209000065], [86.43722965500007, 25.191609294000045], [86.43825583100005, 25.19153343200003], [86.43889383300007, 25.19082872000007], [86.43993421100004, 25.190684992000058], [86.44098383500005, 25.190978916000063], [86.44179136100007, 25.190868640000076], [86.44212566700008, 25.19055903900005], [86.44261482500008, 25.190356509000026], [86.44333545100005, 25.19048158000004], [86.44344961300004, 25.190999642000065], [86.44432149300007, 25.19189074700006], [86.44566529200006, 25.192850188000023], [86.44700595300003, 25.192970240000022], [86.44751896600008, 25.19266820000007], [86.44742779100005, 25.191969414000027], [86.44764194700008, 25.191552484000056], [86.44864647600008, 25.19129611900007], [86.44858705300004, 25.190795682000044], [86.44881845300006, 25.190107870000077], [86.44932165300008, 25.189828439000053], [86.44959752600005, 25.190128567000045], [86.44982597200004, 25.190659277000066], [86.44987384900008, 25.192008274000045], [86.44994321700005, 25.193510529000037], [86.45054578500003, 25.193239393000056], [86.45156928900008, 25.192897170000037], [86.45306610300008, 25.19225315600005], [86.45380029900008, 25.192247140000063], [86.45413721400007, 25.192709281000077], [86.45447886100004, 25.193148741000073], [86.45469703500004, 25.193133467000052], [86.45485956800007, 25.19301482700007], [86.45524013800008, 25.19236178600005], [86.45557083900007, 25.192192178000028], [86.45683509100007, 25.192114184000047], [86.45681045300006, 25.191631464000068], [86.45757225900007, 25.190907683000034], [86.45827514500007, 25.18974656100005], [86.45915813000005, 25.189739376000034], [86.46012072800005, 25.18975862600007], [86.45989497900007, 25.19101511100007], [86.45972569700007, 25.19245158700005], [86.45977214200008, 25.19414359900003], [86.45987889400004, 25.195410895000066], [86.46017973100004, 25.196225317000028], [86.46046886200008, 25.197373781000067], [86.46098065600006, 25.197455338000054], [86.46167514400008, 25.196948674000055], [86.46256534000008, 25.196156117000044], [86.46334862200007, 25.195599112000025], [86.46395195500008, 25.195413676000044], [86.46457718600004, 25.195923], [86.46475018000007, 25.196354833000044], [86.46402358200004, 25.19712794700007], [86.46389797400008, 25.198473868000065], [86.46454124600007, 25.19880257600005], [86.46638675200006, 25.19978935200004], [86.46666655500007, 25.200491028000044], [86.46663790600007, 25.201105065000036], [86.46535643700008, 25.201449592000074], [86.46388108000008, 25.20226494600007], [86.46193086600005, 25.203729629000065], [86.46149719300007, 25.204518506000056], [86.46029788300007, 25.205665526000075], [86.45956622000006, 25.20743616900006], [86.45860641800004, 25.208712125000034], [86.45750120700006, 25.210846822000065], [86.45697352300004, 25.21167249800004], [86.45628896700003, 25.212693514000023], [86.45530838800005, 25.212877511000045], [86.45535966200003, 25.214059484000074], [86.45483568900005, 25.215268765000076], [86.45464682700003, 25.216236111000057], [86.45560941900004, 25.218254589000026], [86.45562131200006, 25.21945497100006], [86.45553988500006, 25.22025889100007], [86.45532053900007, 25.22216071200006], [86.45641447800006, 25.222395471000027], [86.45711364300007, 25.22234013800005], [86.45813198000008, 25.221447281000053], [86.45857516200005, 25.221610584000075], [86.45892841100004, 25.222207939000043], [86.45936885500004, 25.222587978000035], [86.45983083400006, 25.22263384200005], [86.46056366600004, 25.222478866000074], [86.46153617800007, 25.22247088900008], [86.46242525900004, 25.222553924000067], [86.46256065900008, 25.22170434800006], [86.46279399300005, 25.22071403600006], [86.46281860400006, 25.219698438000023], [86.46341768200006, 25.21905718000005], [86.46438050100005, 25.21907640300003], [86.46464367700008, 25.220094172000074], [86.46513456700006, 25.22105589800003], [86.46581230100008, 25.22135266300006], [86.46713948600006, 25.221576498000047], [86.46711817300007, 25.22243412100005], [86.46690132000003, 25.224570543000027], [86.46690084000005, 25.22751752100004], [86.46739302000003, 25.229097543000023], [86.46859755100007, 25.23045503900005], [86.46928505000005, 25.231216603000064], [86.46970866200007, 25.23239102100007], [86.46981096200005, 25.233689897000033], [86.46841480100005, 25.23402632500006], [86.46826470600007, 25.23340935500005], [86.46782427900007, 25.23353031000005], [86.46777734900007, 25.234297871000024], [86.46638232000004, 25.234241712000028], [86.46592131200003, 25.233798697000054], [86.46419412800003, 25.233776755000065], [86.46354419200009, 25.233791087000043], [86.46400581400007, 25.234798261000037], [86.46528527000004, 25.23620480200003], [86.46600915500005, 25.23713301600003], [86.46616410300004, 25.23874287800004], [86.46615190200004, 25.239510274000054], [86.46699234300007, 25.241173136000043], [86.46734141100006, 25.242343667000057], [86.46808557300005, 25.243303273000038], [86.46859478500005, 25.24460329300007], [86.46904699100008, 25.24565110800006], [86.46966619700004, 25.245528670000056], [86.47118823700004, 25.245367203000058], [86.47174629000006, 25.245087264000063], [86.47233106000004, 25.245001176000073], [86.47266721200003, 25.245363977000068], [86.47298858000005, 25.24672878000007], [86.47323648200006, 25.247692432000065], [86.47365797200007, 25.248153847000026], [86.47384271800007, 25.248265075000063], [86.47438897100005, 25.247795719000067], [86.47530454300005, 25.24753546100004], [86.47651428000006, 25.24741252800004], [86.47695386700008, 25.24768871200007], [86.47790564800005, 25.24758153500005], [86.47841703400007, 25.248087273000067], [86.47979393100007, 25.248292436000042], [86.48024928200005, 25.24817128500007], [86.48095149300008, 25.248413613000025], [86.48145135900006, 25.248761527000056], [86.48158197000004, 25.24941025800007], [86.48151775300005, 25.25041718700004], [86.48147263900006, 25.253328415000055], [86.48226415600004, 25.253561010000055], [86.48358598100003, 25.25419984900003], [86.48357872300005, 25.253482378000058], [86.48373007100008, 25.253241911000032], [86.48489644900008, 25.253232128000036], [86.48531252200007, 25.253639376000024], [86.48593428700008, 25.255240810000032], [86.48564673100003, 25.25675050700005], [86.48516062300007, 25.25726907300003], [86.48418776300008, 25.25775559400006], [86.48185940200005, 25.258203773000048], [86.48040117800008, 25.25929448000005], [86.48002391300008, 25.25929764700004], [86.47974332000007, 25.257553474000076], [86.47921549400007, 25.25738639900004], [86.47854047400006, 25.257391979000033], [86.47820042800004, 25.257633978000058], [86.47778715000004, 25.257502002000024], [86.47687800700004, 25.256927396000037], [86.47589474100005, 25.25638951600007], [86.47536761300006, 25.256290122000053], [86.47412964100005, 25.256575652000038], [86.47333926800007, 25.256956805000073], [86.47225321500008, 25.257547954000074], [86.47207501500003, 25.25809552800007], [86.47164018700005, 25.259777935000045], [86.47127229500006, 25.26070614100007], [86.47109011000003, 25.261357444000055], [86.47060293500004, 25.261772163000046], [86.46748871200003, 25.262569643000063], [86.46545944200005, 25.26316853000003], [86.46482226900008, 25.26348067500004], [86.46479195300003, 25.263927712000054], [86.46529027900004, 25.265119553000034], [86.46542258800008, 25.266932676000067], [86.46502418800009, 25.268303391000074], [86.46469303600009, 25.269438828000034], [86.46504299400004, 25.270686063000028], [86.46535801300007, 25.271915499000045], [86.46638245600008, 25.27259306600007], [86.46800411100008, 25.272922643000072], [86.47037648000008, 25.27287596000008], [86.47373243600003, 25.273385277000045], [86.47701123200005, 25.273628796000025], [86.47687021000007, 25.27490713900005], [86.47813839500003, 25.27759984200003], [86.48078222200007, 25.277374782000038], [86.48285244300007, 25.277389113000027], [86.48322771300008, 25.277504536000038], [86.48360946600008, 25.27762195200006], [86.48362073000004, 25.278736551000065], [86.48332769400008, 25.27921734800003], [86.48355733700004, 25.27983372800003], [86.48398612700004, 25.280994513000053], [86.48430196100009, 25.28276998700005], [86.48482227300008, 25.28560875100004], [86.48598993300004, 25.289620050000053], [86.48661859100008, 25.291875723000032], [86.48632407000008, 25.292699525000046], [86.48580246800003, 25.293164280000042], [86.48493677600004, 25.293482936000032], [86.48200650200005, 25.29388192700003], [86.48178333500005, 25.294398306000062], [86.48178641200008, 25.29470518200003], [86.48181004600008, 25.296054299000048], [86.48184897500005, 25.296464712000045], [86.48309953300009, 25.296896466000078], [86.48339820500007, 25.296966243000043], [86.48471805000008, 25.296882978000042], [86.48534795500007, 25.296819011000025], [86.48537859100009, 25.29640356500005], [86.48605389500005, 25.295919569000034], [86.48729432700009, 25.295841449000022], [86.48871314600007, 25.298158269000055], [86.48875139700004, 25.298500896000064], [86.48931912200004, 25.298667653000052], [86.49300131600006, 25.297986758000036], [86.49596752400004, 25.29720810200007], [86.49758562500006, 25.29715828600007], [86.49869257100005, 25.297124197000073], [86.49870750300005, 25.298579450000034], [86.49891271100006, 25.299710412000024], [86.49928944000004, 25.300614334000045], [86.49971259600005, 25.301693857000032], [86.50000023600006, 25.30262556300005], [86.50122762200004, 25.30223157000006], [86.50246048800005, 25.301891698000077], [86.50407312000004, 25.301300363000053], [86.50810145100007, 25.30047180300005], [86.51067979400005, 25.300120286000038], [86.51246006800005, 25.299906494000027], [86.51549142200008, 25.299663922000036], [86.51829224200009, 25.29970307900004], [86.52007943400008, 25.300152496000067], [86.52149997000004, 25.30066828500003], [86.52284961800007, 25.301053812000077], [86.52335821300005, 25.300783155000033], [86.52385874600003, 25.30021918700004], [86.52444320100005, 25.30007874900008], [86.52495310100005, 25.30040832000003], [86.52572495800007, 25.30109660900007], [86.52660712300008, 25.30187874300003], [86.52738885200006, 25.30208858800006], [86.52840605400007, 25.30201660000006]]]]}}, {"type": "Feature", "properties": {"OBJECTID": 2304, "GPCODE": "95009", "GPNAME_1": "AMARI", "DIST_CEN_C": "24", "BLK_NAME": "DHARHARA", "ST_NAME": "BIHAR", "ST_CODE_1": "10", "GPCODE2011": "97563", "REMARKS": "FINALIZED", "MAP_STATUS": "COMPLETED", "BLK_C_2001": "240004", "BLK_C_2011": "01359", "DIST_NAME": "MUNGER", "code2011": 0.0, "Shape_Leng": 0.16014748224, "Shape_Area": 0.00095084606, "Area": 10.6042}, "geometry": {"type": "MultiPolygon", "coordinates": [[[[86.47064528000004, 25.24864807700004], [86.47005680100006, 25.247863218000077], [86.46938038500008, 25.247719828000072], [86.46904699100008, 25.24565110800006], [86.46859478500005, 25.24460329300007], [86.46808557300005, 25.243303273000038], [86.46734141100006, 25.242343667000057], [86.46699234300007, 25.241173136000043], [86.46615190200004, 25.239510274000054], [86.46616410300004, 25.23874287800004], [86.46600915500005, 25.23713301600003], [86.46528527000004, 25.23620480200003], [86.46400581400007, 25.234798261000037], [86.46354419200009, 25.233791087000043], [86.46296307300008, 25.232744396000044], [86.46263784500007, 25.23147887400006], [86.46234281500006, 25.231251163000024], [86.46114016700005, 25.232077838000066], [86.46017287300003, 25.232618349000063], [86.45899647000005, 25.233088246000023], [86.45791119100005, 25.233246030000032], [86.45629796000009, 25.233209572000078], [86.45514148300003, 25.23318289100007], [86.45395919600008, 25.234077117000027], [86.45300498500006, 25.234942384000078], [86.45243372900006, 25.234883823000075], [86.45195977500003, 25.23513586400003], [86.45163670300008, 25.235589852000032], [86.45075445300006, 25.235696277000045], [86.45000989400006, 25.236185239000065], [86.44863432400007, 25.236598025000035], [86.44834034700006, 25.235467638000046], [86.44802184400004, 25.23487001500007], [86.44783511300005, 25.234555578000027], [86.44787615500007, 25.23316982700004], [86.44738170200003, 25.232857887000023], [86.44596732000008, 25.232851277000066], [86.44453750900004, 25.232781628000055], [86.44434947200006, 25.23233631000005], [86.44353870800006, 25.232139802000063], [86.44282281100004, 25.232014712000023], [86.44190339000005, 25.23187321000006], [86.44047371000005, 25.23182600100006], [86.44024176300007, 25.23093433500003], [86.43984781800003, 25.23023350300008], [86.43665963700005, 25.230502842000078], [86.43646513100003, 25.231429567000077], [86.43598728400008, 25.23178989300004], [86.43482963500009, 25.23216474900005], [86.43405694800003, 25.23230632900004], [86.43363164700008, 25.23245862300007], [86.43281472500007, 25.23214925900004], [86.43259801600004, 25.23231803500005], [86.43238193400003, 25.233059896000043], [86.43160264700003, 25.233048048000057], [86.43160577500004, 25.23336847300004], [86.43181346200004, 25.233804512000063], [86.43161749400008, 25.23457787600006], [86.43068072600005, 25.234698153000068], [86.43067584300007, 25.235226225000076], [86.43021685800005, 25.23548264300007], [86.42967165100004, 25.23607369900003], [86.42980736800007, 25.23676307200003], [86.43044240100005, 25.237768937000055], [86.43040637600006, 25.238667321000037], [86.43054436300008, 25.239591370000028], [86.43097714600003, 25.24021072200003], [86.43168364300004, 25.240390068000067], [86.43245695000007, 25.24029814000005], [86.43328659700006, 25.239871795000056], [86.43397172200008, 25.239897961000054], [86.43470337500008, 25.24012222500005], [86.43469043900006, 25.240826342000048], [86.43499490000005, 25.241514409000047], [86.43481051200007, 25.241953656000078], [86.43386531900006, 25.242741943000055], [86.43381013500004, 25.24370820000007], [86.43360517000008, 25.24509088700006], [86.43388755800004, 25.24606338500007], [86.43452059700007, 25.246342610000056], [86.43503392600007, 25.246054162000064], [86.43460764200006, 25.247637144000066], [86.43450624600007, 25.24844582700007], [86.43491989600005, 25.24913304000006], [86.43586738400006, 25.249594802000047], [86.43562897200007, 25.25008411300007], [86.43569229900004, 25.25046717600003], [86.43518678100008, 25.252592372000038], [86.43269770200004, 25.252337019000038], [86.43183455200005, 25.252384488000075], [86.43060584700004, 25.253639968000073], [86.43133667000006, 25.255308470000045], [86.43154279700008, 25.25544202100008], [86.43175630800005, 25.255580354000074], [86.43297624300004, 25.25546683300007], [86.43340448800006, 25.260734584000033], [86.43365172000006, 25.26268225800004], [86.43375723400004, 25.264342174000035], [86.43586600500004, 25.26425757800007], [86.43718031300006, 25.26414323800003], [86.43917869900008, 25.26443856000003], [86.44005298400003, 25.265013632000034], [86.44047289600007, 25.265831680000076], [86.44159263800003, 25.26510051100007], [86.44307746900006, 25.264659766000023], [86.44503131800008, 25.26447249200004], [86.44573113700005, 25.26648414500005], [86.44649236200007, 25.267678454000077], [86.44698515100004, 25.267809874000022], [86.44950465000005, 25.267586279000056], [86.44971878700005, 25.26614496800005], [86.45098028100006, 25.266206854000075], [86.45082485000006, 25.264037374000054], [86.45039770900007, 25.262501980000025], [86.45322185900005, 25.262478929000054], [86.45351466900007, 25.261962079000057], [86.45289277800003, 25.25980991700004], [86.45443327800007, 25.259490481000057], [86.45528374500003, 25.258147751000024], [86.45601442500003, 25.257749096000055], [86.45580616400008, 25.255765077000035], [86.45621311400004, 25.255251844000043], [86.45700038600006, 25.25455938500005], [86.45951548100004, 25.253920523000033], [86.46272936200006, 25.253677586000038], [86.46396399600007, 25.25304915600003], [86.46568344600007, 25.251771338000026], [86.46642970700003, 25.251453799000046], [86.46849895300005, 25.251405229000056], [86.46811286200005, 25.250519307000047], [86.46773449700004, 25.24940317100004], [86.46912474900006, 25.248958465000044], [86.47064528000004, 25.24864807700004]]]]}}, {"type": "Feature", "properties": {"OBJECTID": 2305, "GPCODE": "95015", "GPNAME_1": "ETWA", "DIST_CEN_C": "24", "BLK_NAME": "DHARHARA", "ST_NAME": "BIHAR", "ST_CODE_1": "10", "GPCODE2011": "97569", "REMARKS": "FINALIZED", "MAP_STATUS": "COMPLETED", "BLK_C_2001": "240004", "BLK_C_2011": "01359", "DIST_NAME": "MUNGER", "code2011": 0.0, "Shape_Leng": 0.12301725903, "Shape_Area": 0.00043735044, "Area": 4.87698}, "geometry": {"type": "MultiPolygon", "coordinates": [[[[86.47412964100005, 25.256575652000038], [86.47536761300006, 25.256290122000053], [86.47589474100005, 25.25638951600007], [86.47687800700004, 25.256927396000037], [86.47778715000004, 25.257502002000024], [86.47820042800004, 25.257633978000058], [86.47854047400006, 25.257391979000033], [86.47921549400007, 25.25738639900004], [86.47974332000007, 25.257553474000076], [86.48002391300008, 25.25929764700004], [86.48040117800008, 25.25929448000005], [86.48185940200005, 25.258203773000048], [86.48418776300008, 25.25775559400006], [86.48516062300007, 25.25726907300003], [86.48564673100003, 25.25675050700005], [86.48593428700008, 25.255240810000032], [86.48531252200007, 25.253639376000024], [86.48489644900008, 25.253232128000036], [86.48373007100008, 25.253241911000032], [86.48357872300005, 25.253482378000058], [86.48358598100003, 25.25419984900003], [86.48226415600004, 25.253561010000055], [86.48147263900006, 25.253328415000055], [86.48151775300005, 25.25041718700004], [86.48158197000004, 25.24941025800007], [86.48145135900006, 25.248761527000056], [86.48095149300008, 25.248413613000025], [86.48024928200005, 25.24817128500007], [86.47979393100007, 25.248292436000042], [86.47841703400007, 25.248087273000067], [86.47790564800005, 25.24758153500005], [86.47695386700008, 25.24768871200007], [86.47651428000006, 25.24741252800004], [86.47530454300005, 25.24753546100004], [86.47438897100005, 25.247795719000067], [86.47384271800007, 25.248265075000063], [86.47365797200007, 25.248153847000026], [86.47323648200006, 25.247692432000065], [86.47298858000005, 25.24672878000007], [86.47266721200003, 25.245363977000068], [86.47233106000004, 25.245001176000073], [86.47174629000006, 25.245087264000063], [86.47118823700004, 25.245367203000058], [86.46966619700004, 25.245528670000056], [86.46904699100008, 25.24565110800006], [86.46938038500008, 25.247719828000072], [86.47005680100006, 25.247863218000077], [86.47064528000004, 25.24864807700004], [86.46912474900006, 25.248958465000044], [86.46773449700004, 25.24940317100004], [86.46811286200005, 25.250519307000047], [86.46849895300005, 25.251405229000056], [86.46642970700003, 25.251453799000046], [86.46568344600007, 25.251771338000026], [86.46396399600007, 25.25304915600003], [86.46272936200006, 25.253677586000038], [86.45951548100004, 25.253920523000033], [86.45700038600006, 25.25455938500005], [86.45621311400004, 25.255251844000043], [86.45580616400008, 25.255765077000035], [86.45601442500003, 25.257749096000055], [86.45528374500003, 25.258147751000024], [86.45443327800007, 25.259490481000057], [86.45289277800003, 25.25980991700004], [86.45351466900007, 25.261962079000057], [86.45322185900005, 25.262478929000054], [86.45039770900007, 25.262501980000025], [86.45082485000006, 25.264037374000054], [86.45098028100006, 25.266206854000075], [86.45107114300004, 25.26737046900007], [86.45146298600008, 25.26935300400004], [86.45244045600003, 25.27283363600003], [86.45286397700005, 25.273994534000053], [86.45419867300006, 25.27392499700005], [86.45679162200008, 25.273592359000077], [86.46017218000009, 25.273086310000053], [86.46535801300007, 25.271915499000045], [86.46504299400004, 25.270686063000028], [86.46469303600009, 25.269438828000034], [86.46502418800009, 25.268303391000074], [86.46542258800008, 25.266932676000067], [86.46529027900004, 25.265119553000034], [86.46479195300003, 25.263927712000054], [86.46482226900008, 25.26348067500004], [86.46545944200005, 25.26316853000003], [86.46748871200003, 25.262569643000063], [86.47060293500004, 25.261772163000046], [86.47109011000003, 25.261357444000055], [86.47127229500006, 25.26070614100007], [86.47164018700005, 25.259777935000045], [86.47207501500003, 25.25809552800007], [86.47225321500008, 25.257547954000074], [86.47333926800007, 25.256956805000073], [86.47412964100005, 25.256575652000038]]]]}}, {"type": "Feature", "properties": {"OBJECTID": 2306, "GPCODE": "95020", "GPNAME_1": "SAROBAG", "DIST_CEN_C": "24", "BLK_NAME": "DHARHARA", "ST_NAME": "BIHAR", "ST_CODE_1": "10", "GPCODE2011": "97574", "REMARKS": "FINALIZED", "MAP_STATUS": "COMPLETED", "BLK_C_2001": "240004", "BLK_C_2011": "01359", "DIST_NAME": "MUNGER", "code2011": 0.0, "Shape_Leng": 0.11474286302, "Shape_Area": 0.00056630875, "Area": 6.31384}, "geometry": {"type": "MultiPolygon", "coordinates": [[[[86.47438087000006, 25.29493376000005], [86.47587955900008, 25.294858112000043], [86.47863037000008, 25.294871417000024], [86.47930379200005, 25.29469425800005], [86.48178641200008, 25.29470518200003], [86.48178333500005, 25.294398306000062], [86.48200650200005, 25.29388192700003], [86.48493677600004, 25.293482936000032], [86.48580246800003, 25.293164280000042], [86.48632407000008, 25.292699525000046], [86.48661859100008, 25.291875723000032], [86.48598993300004, 25.289620050000053], [86.48482227300008, 25.28560875100004], [86.48430196100009, 25.28276998700005], [86.48398612700004, 25.280994513000053], [86.48355733700004, 25.27983372800003], [86.48332769400008, 25.27921734800003], [86.48362073000004, 25.278736551000065], [86.48360946600008, 25.27762195200006], [86.48322771300008, 25.277504536000038], [86.48285244300007, 25.277389113000027], [86.48078222200007, 25.277374782000038], [86.47813839500003, 25.27759984200003], [86.47687021000007, 25.27490713900005], [86.47701123200005, 25.273628796000025], [86.47373243600003, 25.273385277000045], [86.47037648000008, 25.27287596000008], [86.46800411100008, 25.272922643000072], [86.46638245600008, 25.27259306600007], [86.46535801300007, 25.271915499000045], [86.46017218000009, 25.273086310000053], [86.45679162200008, 25.273592359000077], [86.45419867300006, 25.27392499700005], [86.45286397700005, 25.273994534000053], [86.45028753000008, 25.273997391000023], [86.45088584800004, 25.277792530000056], [86.45112420300006, 25.280818743000054], [86.45103149400006, 25.282493901000066], [86.45077791200004, 25.283967157000063], [86.45069707000005, 25.286847074000036], [86.45067151600006, 25.288282449000064], [86.45091373500009, 25.289684005000026], [86.45167954100003, 25.291825912000036], [86.45258143200004, 25.291647092000062], [86.45497961400008, 25.290156335000063], [86.45634790500003, 25.289445581000052], [86.45781000900007, 25.289194448000046], [86.46067483900003, 25.289202576000037], [86.46277845600008, 25.28904994100003], [86.46661647600007, 25.288576093000074], [86.47087871800005, 25.287326862000043], [86.47084787600005, 25.288216182000042], [86.47227837000008, 25.28827655400005], [86.47393648700006, 25.28826280900006], [86.47473095900006, 25.28876621200004], [86.47482707900008, 25.290922566000063], [86.47438087000006, 25.29493376000005]]]]}}, {"type": "Feature", "properties": {"OBJECTID": 2310, "GPCODE": "95011", "GPNAME_1": "BAHACHOKI", "DIST_CEN_C": "24", "BLK_NAME": "DHARHARA", "ST_NAME": "BIHAR", "ST_CODE_1": "10", "GPCODE2011": "97565", "REMARKS": "FINALIZED", "MAP_STATUS": "COMPLETED", "BLK_C_2001": "240004", "BLK_C_2011": "01359", "DIST_NAME": "MUNGER", "code2011": 0.0, "Shape_Leng": 0.08162207385, "Shape_Area": 0.00034348831, "Area": 3.82936}, "geometry": {"type": "MultiPolygon", "coordinates": [[[[86.36147965400005, 25.30522822200004], [86.36288580100006, 25.302618063000068], [86.36582021500004, 25.304220593000025], [86.36668567600003, 25.304385599000057], [86.36921136000007, 25.30419497400004], [86.37090535800007, 25.304285898000046], [86.37122236000005, 25.303114633000064], [86.37155813000004, 25.300765202000036], [86.37172322100008, 25.298196045000054], [86.37294115400005, 25.29351125900007], [86.37240923600007, 25.29290155700005], [86.37306471200003, 25.290224772000045], [86.37273451600004, 25.287248744000067], [86.37340870100007, 25.287144252000076], [86.37341673500003, 25.285325439000076], [86.37119773900008, 25.285342297000057], [86.36901083700008, 25.285083607000047], [86.36652561900007, 25.28531008300007], [86.36648373300005, 25.284525059000032], [86.36631662600007, 25.28308669000006], [86.36556446800006, 25.28281706100006], [86.36413204400003, 25.28252102600004], [86.36285223000004, 25.28263451500004], [86.36202852000008, 25.283222828000078], [86.36135839100007, 25.28432004800004], [86.36050335600004, 25.285287762000053], [86.36035875900006, 25.28576727600006], [86.36036497900005, 25.28645324400003], [86.35864666100008, 25.285843292000038], [86.35536691800007, 25.286057521000032], [86.35329498700008, 25.28697110300004], [86.35288818900005, 25.288653039000053], [86.35361316200004, 25.294139966000046], [86.35348666800007, 25.297169198000063], [86.35279243900004, 25.299458010000023], [86.35933271100004, 25.301205157000027], [86.35860475900006, 25.30360713700003], [86.35875559500005, 25.30381359100005], [86.36147965400005, 25.30522822200004]]]]}}, {"type": "Feature", "properties": {"OBJECTID": 2311, "GPCODE": "95021", "GPNAME_1": "SHIVKUND", "DIST_CEN_C": "24", "BLK_NAME": "DHARHARA", "ST_NAME": "BIHAR", "ST_CODE_1": "10", "GPCODE2011": "97575", "REMARKS": "FINALIZED", "MAP_STATUS": "COMPLETED", "BLK_C_2001": "240004", "BLK_C_2011": "01359", "DIST_NAME": "MUNGER", "code2011": 0.0, "Shape_Leng": 0.36988211142, "Shape_Area": 0.00299951114, "Area": 33.4426}, "geometry": {"type": "MultiPolygon", "coordinates": [[[[86.40408108700007, 25.285589825000045], [86.40441440600006, 25.28514042000006], [86.40655773100008, 25.28498819500004], [86.40746386400008, 25.285256418000074], [86.40752014600008, 25.286998053000048], [86.40763658000003, 25.287240807000046], [86.41181190800006, 25.287239559000056], [86.41666550800005, 25.287029785000072], [86.42526031100005, 25.286090581000053], [86.42534704500008, 25.28735801600004], [86.42771174300003, 25.28699619300005], [86.42817804100008, 25.28849986800003], [86.42892559400008, 25.289816160000044], [86.42969174100006, 25.291006001000028], [86.43045210500009, 25.29209657100006], [86.43151627800006, 25.296880916000077], [86.43940179800006, 25.296460945000035], [86.43937939200003, 25.294168581000065], [86.44343912900007, 25.293995867000035], [86.44631414800006, 25.293512287000055], [86.44739763100006, 25.292614453000056], [86.44815225700006, 25.29260828200006], [86.44966254800005, 25.293209799000067], [86.44984478200007, 25.292558445000054], [86.45029088300004, 25.29197266600005], [86.45066679200005, 25.29183419000003], [86.45167954100003, 25.291825912000036], [86.45091373500009, 25.289684005000026], [86.45067151600006, 25.288282449000064], [86.45069707000005, 25.286847074000036], [86.45077791200004, 25.283967157000063], [86.45103149400006, 25.282493901000066], [86.45112420300006, 25.280818743000054], [86.45088584800004, 25.277792530000056], [86.45028753000008, 25.273997391000023], [86.45286397700005, 25.273994534000053], [86.45244045600003, 25.27283363600003], [86.45146298600008, 25.26935300400004], [86.45107114300004, 25.26737046900007], [86.45098028100006, 25.266206854000075], [86.44971878700005, 25.26614496800005], [86.44950465000005, 25.267586279000056], [86.44698515100004, 25.267809874000022], [86.44649236200007, 25.267678454000077], [86.44573113700005, 25.26648414500005], [86.44503131800008, 25.26447249200004], [86.44307746900006, 25.264659766000023], [86.44159263800003, 25.26510051100007], [86.44047289600007, 25.265831680000076], [86.44005298400003, 25.265013632000034], [86.43917869900008, 25.26443856000003], [86.43718031300006, 25.26414323800003], [86.43586600500004, 25.26425757800007], [86.43375723400004, 25.264342174000035], [86.43232877600008, 25.264457449000076], [86.43185515300007, 25.262200195000048], [86.43111979400004, 25.26212035800006], [86.42747239900007, 25.262221685000043], [86.42532558000005, 25.261963425000033], [86.42250275300006, 25.26212126300004], [86.42178800500005, 25.262126953000063], [86.42160635600004, 25.26285049300003], [86.41949815600003, 25.263002593000067], [86.41805164800007, 25.263307368000028], [86.41757538700006, 25.264371678000032], [86.41550294700005, 25.264627277000045], [86.41513592400008, 25.26518075300004], [86.41506604600005, 25.266174223000064], [86.41367487100007, 25.26604527300003], [86.41280830200003, 25.26574523000005], [86.41129945500006, 25.265757035000036], [86.41001365700004, 25.26522114000005], [86.40918743400005, 25.26498390300003], [86.40813012400008, 25.264992190000044], [86.40615525300007, 25.265061837000076], [86.40599297300008, 25.263659489000077], [86.40504963700005, 25.263630792000072], [86.40478558700005, 25.26353354500003], [86.40468879200006, 25.261169515000063], [86.40438343500006, 25.260896611000078], [86.40347945600007, 25.260835964000023], [86.40318278300003, 25.261488130000032], [86.40265254200006, 25.261050013000045], [86.40246489000003, 25.261155254000073], [86.40258545400008, 25.26183577300003], [86.40224930400007, 25.26197829700004], [86.40201942900006, 25.26180859400006], [86.40152485100003, 25.260955024000054], [86.40034041800004, 25.259046153000043], [86.39887581000005, 25.259535957000026], [86.39748671200005, 25.259618973000045], [86.39481381400003, 25.259878927000045], [86.38979433200006, 25.26027881300007], [86.39010621500006, 25.257536921000053], [86.39002504100006, 25.256820031000075], [86.38952348400005, 25.255727155000045], [86.38807850000006, 25.254063990000077], [86.38774104700008, 25.25406657900004], [86.38610304400004, 25.25406569100005], [86.38403914300005, 25.25469524600004], [86.38212579000003, 25.25549980100004], [86.38043204400003, 25.255372803000057], [86.37794966000007, 25.25529255600003], [86.37576772600005, 25.255512242000066], [86.37356332900004, 25.25544775000003], [86.37235942700005, 25.255141009000056], [86.36781178700005, 25.25881761100004], [86.36705646600007, 25.26142730500004], [86.36478281600006, 25.26357469000004], [86.36461117700009, 25.267601658000046], [86.36122378900006, 25.27772747100005], [86.36139560800007, 25.279147780000073], [86.35995509500003, 25.281239181000046], [86.35945717900006, 25.283801830000073], [86.35864666100008, 25.285843292000038], [86.36036497900005, 25.28645324400003], [86.36035875900006, 25.28576727600006], [86.36050335600004, 25.285287762000053], [86.36135839100007, 25.28432004800004], [86.36202852000008, 25.283222828000078], [86.36285223000004, 25.28263451500004], [86.36413204400003, 25.28252102600004], [86.36556446800006, 25.28281706100006], [86.36631662600007, 25.28308669000006], [86.36648373300005, 25.284525059000032], [86.36652561900007, 25.28531008300007], [86.36901083700008, 25.285083607000047], [86.37119773900008, 25.285342297000057], [86.37341673500003, 25.285325439000076], [86.37418668400005, 25.285373725000056], [86.37836831800007, 25.285513347000062], [86.38060308000007, 25.28559100600006], [86.38356412500008, 25.285816520000026], [86.38567584800006, 25.286003383000036], [86.38663453100008, 25.286050183000043], [86.38705315000004, 25.286218389000055], [86.38747186900008, 25.286932773000046], [86.38958428200004, 25.287191790000065], [86.38960116200008, 25.28952941500006], [86.38966380300008, 25.292507520000072], [86.39080812500004, 25.295942119000074], [86.39116945000006, 25.29847116800005], [86.39157634700007, 25.30161812800003], [86.39185713000006, 25.303497898000046], [86.39209551000005, 25.304561069000044], [86.39197881700005, 25.30853350500007], [86.39239705200004, 25.312876261000042], [86.39217987300003, 25.315667052000038], [86.39217150500008, 25.318474190000074], [86.39249842400005, 25.321035033000044], [86.39271049200005, 25.324048109000046], [86.39259495200008, 25.327605300000073], [86.39223524100004, 25.328961984000046], [86.39384995700004, 25.33008222500007], [86.39552023100003, 25.331301319000033], [86.39767503400003, 25.33227742400004], [86.40103948900008, 25.333550873000036], [86.40331017200003, 25.334697537000068], [86.40476998900004, 25.33569701600004], [86.40511722200006, 25.335130133000064], [86.40651490800008, 25.331693777000055], [86.40664861400006, 25.33008612200007], [86.40630484400003, 25.327362927000024], [86.40661523200004, 25.324485715000037], [86.40553412800006, 25.321515675000057], [86.40550078200005, 25.320094306000044], [86.40555972700008, 25.31845112800005], [86.40578270100008, 25.31213110500005], [86.40568352500009, 25.309532380000064], [86.40605344700003, 25.305607675000033], [86.40478787500007, 25.304624774000047], [86.40390993100004, 25.303160367000032], [86.40324905700004, 25.301008309000053], [86.40372344000008, 25.29762886700007], [86.40404036900009, 25.295437573000072], [86.40262201200005, 25.29247], [86.40342534100006, 25.288162858000078], [86.40408108700007, 25.285589825000045]]]]}}, {"type": "Feature", "properties": {"OBJECTID": 2339, "GPCODE": "95014", "GPNAME_1": "DHARAHRA(SOUTH)", "DIST_CEN_C": "24", "BLK_NAME": "DHARHARA", "ST_NAME": "BIHAR", "ST_CODE_1": "10", "GPCODE2011": "97568", "REMARKS": "FINALIZED", "MAP_STATUS": "COMPLETED", "BLK_C_2001": "240004", "BLK_C_2011": "01359", "DIST_NAME": "MUNGER", "code2011": 0.0, "Shape_Leng": 0.10250937742, "Shape_Area": 0.00035492041, "Area": 3.95814}, "geometry": {"type": "MultiPolygon", "coordinates": [[[[86.41396824200007, 25.253604971000073], [86.41405765500008, 25.25226798400007], [86.41395002700006, 25.250119676000054], [86.41331955400005, 25.247522040000035], [86.41284370500006, 25.24602745100003], [86.41227762500006, 25.24390627400004], [86.41138822700003, 25.24171086000007], [86.41080529100003, 25.239905673000067], [86.41045843900008, 25.23839651700007], [86.40970747900008, 25.23718843300003], [86.40951721800008, 25.236485918000028], [86.40775791300007, 25.236228892000042], [86.40653537300005, 25.23603992900007], [86.40532822300008, 25.23590947400004], [86.40529257300005, 25.236342989000036], [86.40459087300007, 25.238234887000033], [86.40425410600005, 25.239884837000034], [86.40320717300006, 25.24358466800004], [86.40278755500003, 25.245397712000056], [86.40135017000006, 25.245593885000062], [86.39913066500003, 25.245493900000042], [86.39880812000007, 25.246552450000024], [86.39875961800004, 25.24773069200006], [86.39872725500004, 25.24903523300003], [86.39759353900007, 25.248809356000038], [86.39630155500004, 25.24864787200005], [86.39480257700006, 25.248627975000034], [86.39320744600008, 25.24841918900006], [86.39215625900005, 25.248531052000033], [86.39005676400006, 25.248520238000026], [86.38991538500005, 25.249329148000072], [86.38956841600003, 25.250442028000066], [86.38871555600008, 25.25190042500003], [86.38851322100004, 25.252246419000073], [86.38774104700008, 25.25406657900004], [86.38807850000006, 25.254063990000077], [86.38952348400005, 25.255727155000045], [86.39002504100006, 25.256820031000075], [86.39010621500006, 25.257536921000053], [86.38979433200006, 25.26027881300007], [86.39481381400003, 25.259878927000045], [86.39748671200005, 25.259618973000045], [86.39887581000005, 25.259535957000026], [86.40034041800004, 25.259046153000043], [86.40152485100003, 25.260955024000054], [86.40201942900006, 25.26180859400006], [86.40224930400007, 25.26197829700004], [86.40258545400008, 25.26183577300003], [86.40246489000003, 25.261155254000073], [86.40265254200006, 25.261050013000045], [86.40318278300003, 25.261488130000032], [86.40347945600007, 25.260835964000023], [86.40438343500006, 25.260896611000078], [86.40468879200006, 25.261169515000063], [86.40478558700005, 25.26353354500003], [86.40504963700005, 25.263630792000072], [86.40599297300008, 25.263659489000077], [86.40629079800004, 25.261558587000025], [86.40670318500008, 25.25741245300003], [86.40579698700003, 25.25711263000005], [86.40578575100005, 25.255930318000026], [86.40728597000003, 25.255544008000072], [86.40952987800006, 25.254019027000027], [86.41072449500007, 25.252809177000074], [86.41166681000004, 25.252734039000075], [86.41190807700008, 25.254614082000046], [86.41396824200007, 25.253604971000073]]]]}}]}