{"type": "FeatureCollection", "features": [{"type": "Feature", "properties": {"OBJECTID": 5393, "GPCODE": "95714", "GPNAME_1": "MAHURI", "DIST_CEN_C": "27", "BLK_NAME": "SILAO", "ST_NAME": "BIHAR", "ST_CODE_1": "10", "GPCODE2011": "98268", "REMARKS": "FINALIZED", "MAP_STATUS": "COMPLETED", "BLK_C_2001": "270018", "BLK_C_2011": "01395", "DIST_NAME": "NALANDA", "code2011": 0.0, "Shape_Leng": 0.11607804582, "Shape_Area": 0.00059273354, "Area": 6.62204}, "geometry": {"type": "MultiPolygon", "coordinates": [[[[85.45544262900006, 25.102208965000045], [85.45685541500006, 25.102175431000035], [85.45795670700005, 25.102643319000038], [85.45877063500006, 25.10323345000006], [85.45896376300004, 25.103138384000033], [85.45877674200005, 25.101012705000073], [85.46117066200009, 25.100797202000024], [85.46213720100008, 25.100768690000052], [85.46271671900007, 25.100506041000074], [85.46489775200007, 25.100489423000056], [85.46530627300007, 25.101621780000073], [85.46567012800006, 25.10278123100005], [85.46642365900004, 25.102789146000077], [85.46699733700007, 25.102052642000046], [85.46785909700003, 25.10159999600006], [85.46816984300006, 25.100723826000035], [85.46874895000008, 25.100271587000066], [85.46905951100007, 25.099291694000044], [85.46911799200006, 25.098727421000035], [85.47167524600007, 25.09845282400005], [85.47349425400006, 25.098314672000072], [85.47393762100006, 25.096797339000034], [85.47385205100005, 25.096129460000043], [85.47381512600003, 25.09489728400007], [85.47377816900007, 25.093633511000064], [85.47374521600005, 25.091913788000056], [85.47356135600006, 25.091661346000024], [85.47278283100007, 25.09145030800005], [85.47055179200004, 25.091182872000047], [85.46914897700003, 25.091108218000045], [85.46846465000004, 25.090937676000067], [85.46805479300008, 25.086239501000023], [85.46542865800006, 25.086667651000027], [85.46525835800009, 25.08563870300003], [85.46522722300006, 25.084848862000058], [85.46502183500007, 25.083634978000077], [85.46183079900004, 25.084127065000075], [85.46102538300005, 25.082670260000043], [85.45959615000004, 25.081611602000066], [85.45821277700009, 25.08126146400008], [85.45731628700008, 25.081596731000047], [85.45624921100006, 25.080749574000038], [85.45461815500005, 25.080444900000032], [85.45045500200007, 25.080482161000077], [85.44599460400008, 25.08064161200008], [85.44616546500004, 25.08209486100003], [85.44603418400004, 25.083643223000024], [85.44566811200008, 25.084126661000028], [85.44498961400006, 25.08442995100006], [85.44360265300008, 25.084959918000038], [85.44165057500004, 25.08540023000006], [85.44062049700005, 25.085947734000058], [85.43862450900008, 25.086929738000038], [85.43822852500006, 25.087259724000035], [85.43881017700005, 25.08841903900003], [85.43914897000008, 25.089537978000067], [85.43962860600004, 25.09199284600004], [85.43993869400003, 25.093743806000077], [85.44014008600004, 25.09577476000004], [85.43974511800008, 25.09676824400003], [85.44036065700004, 25.097358722000024], [85.44066383700005, 25.09790454700004], [85.44086436200007, 25.09933058400003], [85.44139678700003, 25.100634401000036], [85.44123764700004, 25.103482779000046], [85.44261048100003, 25.10328238900007], [85.44472651300003, 25.102837228000055], [85.44514361100005, 25.103306168000074], [85.44770593500004, 25.10300028900008], [85.44997568000008, 25.102613665000035], [85.45152800200003, 25.103049399000042], [85.45187488500005, 25.103003733000037], [85.45300360500005, 25.102094985000065], [85.45434311700006, 25.10273855300005], [85.45487901700005, 25.10307182400004], [85.45487973200005, 25.103514245000042], [85.45473167500006, 25.103893562000053], [85.45473311600006, 25.10476919300004], [85.45494639700007, 25.104845683000065], [85.45531249000004, 25.104362136000077], [85.45544262900006, 25.102208965000045]]]]}}, {"type": "Feature", "properties": {"OBJECTID": 5397, "GPCODE": "95712", "GPNAME_1": "KARIYANNA", "DIST_CEN_C": "27", "BLK_NAME": "SILAO", "ST_NAME": "BIHAR", "ST_CODE_1": "10", "GPCODE2011": "98266", "REMARKS": "FINALIZED", "MAP_STATUS": "COMPLETED", "BLK_C_2001": "270018", "BLK_C_2011": "01395", "DIST_NAME": "NALANDA", "code2011": 0.0, "Shape_Leng": 0.10812368587, "Shape_Area": 0.00050486597, "Area": 5.64078}, "geometry": {"type": "MultiPolygon", "coordinates": [[[[85.48632641600005, 25.095067481000058], [85.48676127700008, 25.09437165500003], [85.48705590100008, 25.09294485500004], [85.48713197300003, 25.091297258000054], [85.48710327200007, 25.089239020000036], [85.48736363800003, 25.088037929000052], [85.48773270700008, 25.08665168700003], [85.48883120500005, 25.08573359600007], [85.48962361800005, 25.08542090800006], [85.49016295600006, 25.084955069000046], [85.49049841600004, 25.084169162000023], [85.49148471400008, 25.084108900000047], [85.49243971300007, 25.083358101000044], [85.49258796900006, 25.083114059000025], [85.49328104100005, 25.082693137000035], [85.49540205400007, 25.082540765000033], [85.49577292100008, 25.082142888000078], [85.49585023900005, 25.081140722000043], [85.49527499600003, 25.08100630900003], [85.49482863700007, 25.080858103000025], [85.49451605300004, 25.080678059000036], [85.49415382300003, 25.080439440000077], [85.49398958000006, 25.080123681000032], [85.49388940800003, 25.07958225300007], [85.49427426500006, 25.078705959000047], [85.49488203800007, 25.07777512900003], [85.49509380800004, 25.07711575600007], [85.49506183300008, 25.075991910000027], [85.49460659500005, 25.073889209000072], [85.49437121200003, 25.072675401000026], [85.49423022800005, 25.071547228000043], [85.49402906700004, 25.070062564000068], [85.49161100700007, 25.070274115000075], [85.48899015900008, 25.070639484000026], [85.48611642300006, 25.070969010000056], [85.48590238400004, 25.07049094200005], [85.48458350300007, 25.070131935000063], [85.48417182000009, 25.069965611000043], [85.48341236600004, 25.069339315000036], [85.48307408600004, 25.06864474200006], [85.48303804300008, 25.06792710800005], [85.48361624400007, 25.06708221100007], [85.48389067000005, 25.06547933400003], [85.48405611000004, 25.063858673000027], [85.48372256900007, 25.06307835100006], [85.48279892500005, 25.062059634000036], [85.48194080300004, 25.06164124700007], [85.48043172200005, 25.06287583200003], [85.47947508500005, 25.062755434000053], [85.47960966800008, 25.06315240500004], [85.47941306600006, 25.06402844400003], [85.47910333900006, 25.06536495100005], [85.47907993100006, 25.06606461100006], [85.47893316600005, 25.067089408000072], [85.47873791700005, 25.068714708000073], [85.47839201200009, 25.06925684400005], [85.47808533400007, 25.069564246000027], [85.47633752600007, 25.070424570000057], [85.47558021900005, 25.070904163000023], [85.47511514800004, 25.071356270000024], [85.47468169000007, 25.07277876200004], [85.47454993500008, 25.073907391000034], [85.47462792700009, 25.07589775100007], [85.47474602000005, 25.078154484000038], [85.47466737400003, 25.078515709000044], [85.47356799500005, 25.07897322200006], [85.47340594900004, 25.07978593200005], [85.47315212300003, 25.081943898000077], [85.47257828600004, 25.082531576000065], [85.47201424800005, 25.08307404100003], [85.47158150800004, 25.084974960000068], [85.47099133600005, 25.087548670000047], [85.47055179200004, 25.091182872000047], [85.47278283100007, 25.09145030800005], [85.47356135600006, 25.091661346000024], [85.47374521600005, 25.091913788000056], [85.47377816900007, 25.093633511000064], [85.47381512600003, 25.09489728400007], [85.47385205100005, 25.096129460000043], [85.47393762100006, 25.096797339000034], [85.47650011100006, 25.09670321300007], [85.48005871600003, 25.096494622000023], [85.48199642900005, 25.096265939000034], [85.48349274600008, 25.095911477000072], [85.48494489400008, 25.09583243900005], [85.48632641600005, 25.095067481000058]]]]}}, {"type": "Feature", "properties": {"OBJECTID": 5401, "GPCODE": "95710", "GPNAME_1": "GORAWAN", "DIST_CEN_C": "27", "BLK_NAME": "SILAO", "ST_NAME": "BIHAR", "ST_CODE_1": "10", "GPCODE2011": "98264", "REMARKS": "FINALIZED", "MAP_STATUS": "COMPLETED", "BLK_C_2001": "270018", "BLK_C_2011": "01395", "DIST_NAME": "NALANDA", "code2011": 0.0, "Shape_Leng": 0.15280783453, "Shape_Area": 0.00083958456, "Area": 9.37962}, "geometry": {"type": "MultiPolygon", "coordinates": [[[[85.42580092800006, 25.120577154000046], [85.42787273500005, 25.120154978000073], [85.42991465500006, 25.11970112100005], [85.43174321500004, 25.119112130000076], [85.43233418300008, 25.116470906000075], [85.43276043800006, 25.116380031000062], [85.43295664800007, 25.11500316400003], [85.43302388900008, 25.113531615000056], [85.43463445800006, 25.11313687300003], [85.43622044400007, 25.112864112000068], [85.43755853100004, 25.112559978000036], [85.43752266200005, 25.11182880800004], [85.43728886600007, 25.111282937000055], [85.43722361700009, 25.11073685100007], [85.43806959400007, 25.109598377000054], [85.43866711700008, 25.10811259700006], [85.43892752000005, 25.106595648000052], [85.43922717500004, 25.104866550000054], [85.43962289100006, 25.104288224000072], [85.43995389100007, 25.10352950200007], [85.43883757600008, 25.102939683000045], [85.43620386000003, 25.101972544000034], [85.43530613900003, 25.101608077000037], [85.43407546700007, 25.10076099500003], [85.43144294100006, 25.100493374000052], [85.42974742800004, 25.100405241000033], [85.42839811100004, 25.099693641000044], [85.42773440700006, 25.100060075000044], [85.42700065400004, 25.09999775800003], [85.42659720000006, 25.098635114000047], [85.42619856200008, 25.09720919800003], [85.42599432500003, 25.096482732000027], [85.42599296900005, 25.095570991000045], [85.42610564800003, 25.09464557600006], [85.42598646600004, 25.094492235000075], [85.42585680400003, 25.09391910900007], [85.42563718100007, 25.09283603800003], [85.42532304700006, 25.091527459000076], [85.42378602300005, 25.091213357000072], [85.42305688200008, 25.090866583000036], [85.42226284700007, 25.090145316000076], [85.42148860000003, 25.08944205100005], [85.42029837400008, 25.088960445000055], [85.41961861600004, 25.088496316000032], [85.41855223100004, 25.087928832000046], [85.41722774000004, 25.08715851000005], [85.41655272800006, 25.08646860300007], [85.41595580000006, 25.08484436200007], [85.41594506500007, 25.08426208700007], [85.41543321600005, 25.08322451600003], [85.41472663800005, 25.081185060000053], [85.41459213600007, 25.080670680000026], [85.41393113800007, 25.079317291000052], [85.41362229100008, 25.078135071000077], [85.41217917900008, 25.077446055000053], [85.41072654900006, 25.077113583000028], [85.40957155100006, 25.07694783000005], [85.40822366700007, 25.07701699300003], [85.40873622700008, 25.078672957000038], [85.40866374500007, 25.080076802000065], [85.40689496200008, 25.080530069000076], [85.40448177600007, 25.080907178000075], [85.40218717900007, 25.080999881000025], [85.40262527900006, 25.08260180900004], [85.40285561900004, 25.08451083800003], [85.40252012200006, 25.08567578800006], [85.40247146700005, 25.08642963400007], [85.40276955600007, 25.087029596000036], [85.40295364700006, 25.08755754200007], [85.40248436000007, 25.088857973000074], [85.40180727000006, 25.090393283000026], [85.40117851200006, 25.090994297000066], [85.39995967600004, 25.09138819700007], [85.39956359400009, 25.091749680000078], [85.39920724700005, 25.09219240300007], [85.39917403700008, 25.093397636000077], [85.39949887500006, 25.095586439000044], [85.39960049400008, 25.097617496000055], [85.39792630500006, 25.098634789000073], [85.39751052100007, 25.099163316000045], [85.39734888700008, 25.100788384000055], [85.39737490700008, 25.101745314000027], [85.39750979500008, 25.102656899000067], [85.39990886500004, 25.102532628000063], [85.40087143500006, 25.103199758000073], [85.40178967400004, 25.104214330000048], [85.40913132700007, 25.104292417000067], [85.41256223700003, 25.104685950000032], [85.41506065800007, 25.104683157000068], [85.41582757400005, 25.10722804900007], [85.41674660900009, 25.10869849100004], [85.41834518300004, 25.11033516400005], [85.41947679300006, 25.111304392000022], [85.42074652800005, 25.11179040500008], [85.42298728800006, 25.111756170000035], [85.42298780200008, 25.112112740000043], [85.42272557200005, 25.112474191000047], [85.42203726100007, 25.113016666000078], [85.42159160100005, 25.11341890500006], [85.42113202000007, 25.114439462000064], [85.42073670900004, 25.11536979300007], [85.42054483800007, 25.116421682000066], [85.42090798900006, 25.117319536000025], [85.42117238400004, 25.118461185000058], [85.42107458600003, 25.119481404000055], [85.42092695100007, 25.120244334000063], [85.42184407500008, 25.12021624600004], [85.42300015600006, 25.120873878000054], [85.42580092800006, 25.120577154000046]]]]}}, {"type": "Feature", "properties": {"OBJECTID": 5402, "GPCODE": "95718", "GPNAME_1": "SABBAIT", "DIST_CEN_C": "27", "BLK_NAME": "SILAO", "ST_NAME": "BIHAR", "ST_CODE_1": "10", "GPCODE2011": "98272", "REMARKS": "FINALIZED", "MAP_STATUS": "COMPLETED", "BLK_C_2001": "270018", "BLK_C_2011": "01395", "DIST_NAME": "NALANDA", "code2011": 0.0, "Shape_Leng": 0.15984683779, "Shape_Area": 0.00072774377, "Area": 8.12862}, "geometry": {"type": "MultiPolygon", "coordinates": [[[[85.47246910800004, 25.142478233000077], [85.47519601200008, 25.142252976000066], [85.47646097800003, 25.142557977000024], [85.47807756900005, 25.142537410000045], [85.47937624300005, 25.14230976600004], [85.48063057500008, 25.142185933000064], [85.48109626100006, 25.141941444000054], [85.48271722000004, 25.141663572000027], [85.48179727100006, 25.140301873000055], [85.48075009300004, 25.13979345100006], [85.47971749300007, 25.13919026800005], [85.47934868700008, 25.138157147000072], [85.47974735500009, 25.136612855000067], [85.47974294300008, 25.134216098000024], [85.48085373500004, 25.134327271000075], [85.48139651100007, 25.132904619000044], [85.48191774000009, 25.130592773000046], [85.48214386600006, 25.12957228700003], [85.48573813600007, 25.12938610300006], [85.48926339000008, 25.129348845000038], [85.48955476800006, 25.128757053000072], [85.48971132000008, 25.127687067000068], [85.49003450000004, 25.12561480900007], [85.49023462400004, 25.12400308900004], [85.49008788300006, 25.12250473200004], [85.48974265800007, 25.12089845400004], [85.48930780400008, 25.119089192000047], [85.48879861700004, 25.117320610000036], [85.48829943500004, 25.115565581000055], [85.48804314500006, 25.11377402000005], [85.48833415400009, 25.113001776000033], [85.48839780800006, 25.112640529000032], [85.48852633200005, 25.112419119000037], [85.48875829400004, 25.111877149000065], [85.48875611900007, 25.110798416000023], [85.48806080800006, 25.110140483000066], [85.48837169100005, 25.10939074600003], [85.48797114800004, 25.10735115400007], [85.48764777000008, 25.106778406000046], [85.48768129400008, 25.106160015000057], [85.48710421700008, 25.10508214600003], [85.48705361400005, 25.104545134000034], [85.48747817200007, 25.103655211000046], [85.48760089400008, 25.103050237000048], [85.48712327100003, 25.102121112000077], [85.48731506400009, 25.101326408000034], [85.48807178500005, 25.100454082000056], [85.48910266200005, 25.100371163000034], [85.48901134500005, 25.099301576000073], [85.48834995800007, 25.098205790000065], [85.48782753600005, 25.097227129000032], [85.48776238500005, 25.09687966200005], [85.48682442200004, 25.09625382200005], [85.48632641600005, 25.095067481000058], [85.48494489400008, 25.09583243900005], [85.48349274600008, 25.095911477000072], [85.48199642900005, 25.096265939000034], [85.48005871600003, 25.096494622000023], [85.47650011100006, 25.09670321300007], [85.47393762100006, 25.096797339000034], [85.47349425400006, 25.098314672000072], [85.47167524600007, 25.09845282400005], [85.46911799200006, 25.098727421000035], [85.46905951100007, 25.099291694000044], [85.46874895000008, 25.100271587000066], [85.46816984300006, 25.100723826000035], [85.46785909700003, 25.10159999600006], [85.46699733700007, 25.102052642000046], [85.46642365900004, 25.102789146000077], [85.46567012800006, 25.10278123100005], [85.46463251900008, 25.104710113000067], [85.46427269300005, 25.105897712000058], [85.46451168400006, 25.106475146000037], [85.46676139100003, 25.108778398000027], [85.46820105800003, 25.109904696000058], [85.46946144600008, 25.11057985800005], [85.47028479600004, 25.110790804000032], [85.47168268700005, 25.110761626000055], [85.47401699100004, 25.110397057000057], [85.47722844300006, 25.109913696000035], [85.47749469400009, 25.111800079000034], [85.47576215500004, 25.11320193800003], [85.47562954200004, 25.11386113800006], [85.47523483100008, 25.114886391000027], [85.47467586700003, 25.11555073100004], [85.47395028400007, 25.11729857100005], [85.47358843300003, 25.11732620600003], [85.47349257300004, 25.11910481800004], [85.47309721400006, 25.11980048500004], [85.47269006900007, 25.122220473000027], [85.47252603500004, 25.124689708000062], [85.47231492700007, 25.125845523000066], [85.47290308700008, 25.129310791000023], [85.47356796200006, 25.133228039000073], [85.47202322900006, 25.134521303000042], [85.47034377000006, 25.13530465100007], [85.46902544000005, 25.135663171000033], [85.46875308000006, 25.135734253000066], [85.46810360900008, 25.13590375700005], [85.46725135300005, 25.136207375000026], [85.46629494800004, 25.136569938000036], [85.46595846500009, 25.136954074000073], [85.46597216800006, 25.139057464000075], [85.46610495700008, 25.14125990900004], [85.46576053000007, 25.142767973000048], [85.47246910800004, 25.142478233000077]]]]}}, {"type": "Feature", "properties": {"OBJECTID": 5404, "GPCODE": "95715", "GPNAME_1": "NANAND", "DIST_CEN_C": "27", "BLK_NAME": "SILAO", "ST_NAME": "BIHAR", "ST_CODE_1": "10", "GPCODE2011": "98269", "REMARKS": "FINALIZED", "MAP_STATUS": "COMPLETED", "BLK_C_2001": "270018", "BLK_C_2011": "01395", "DIST_NAME": "NALANDA", "code2011": 0.0, "Shape_Leng": 0.11789517666, "Shape_Area": 0.00068392194, "Area": 7.64044}, "geometry": {"type": "MultiPolygon", "coordinates": [[[[85.52038040200006, 25.106681829000024], [85.52156493100006, 25.104323454000053], [85.52186204200007, 25.101908131000073], [85.52114103200006, 25.098659533000045], [85.52060045400003, 25.096308930000077], [85.52021666500008, 25.09533914700006], [85.51978779200005, 25.094184427000073], [85.51960811500004, 25.093423252000036], [85.51826588700004, 25.093484454000077], [85.51666787400006, 25.093645861000027], [85.51529878700006, 25.093799084000068], [85.51526740100007, 25.093069444000037], [85.51522704800004, 25.092131333000054], [85.51518221300006, 25.091088988000024], [85.51501843300008, 25.089946490000045], [85.51486362400004, 25.08901245900006], [85.51447093200005, 25.087878124000042], [85.51430267900008, 25.086631387000068], [85.51399756300003, 25.08486755800004], [85.51345906100005, 25.08300765100006], [85.51272304000008, 25.08188554800006], [85.51163178500008, 25.080330403000062], [85.50795421800007, 25.08021234100005], [85.50776155900007, 25.079365331000076], [85.50771119900008, 25.078192855000054], [85.50572780000005, 25.078405813000074], [85.50479920400005, 25.07861685100005], [85.50372533800004, 25.07908205700005], [85.50277746200004, 25.079756217000067], [85.50150997700007, 25.080263855000055], [85.50077800900004, 25.080503431000068], [85.49976216900006, 25.08050391200004], [85.49808328900008, 25.08052805500006], [85.49777404200006, 25.080645357000037], [85.49690513000007, 25.080746259000023], [85.49585023900005, 25.081140722000043], [85.49577292100008, 25.082142888000078], [85.49540205400007, 25.082540765000033], [85.49328104100005, 25.082693137000035], [85.49258796900006, 25.083114059000025], [85.49243971300007, 25.083358101000044], [85.49148471400008, 25.084108900000047], [85.49049841600004, 25.084169162000023], [85.49016295600006, 25.084955069000046], [85.48962361800005, 25.08542090800006], [85.48883120500005, 25.08573359600007], [85.48773270700008, 25.08665168700003], [85.48736363800003, 25.088037929000052], [85.48710327200007, 25.089239020000036], [85.48713197300003, 25.091297258000054], [85.48705590100008, 25.09294485500004], [85.48676127700008, 25.09437165500003], [85.48632641600005, 25.095067481000058], [85.48682442200004, 25.09625382200005], [85.48776238500005, 25.09687966200005], [85.48782753600005, 25.097227129000032], [85.48834995800007, 25.098205790000065], [85.48901134500005, 25.099301576000073], [85.48910266200005, 25.100371163000034], [85.49106074100007, 25.100399581000033], [85.49391098200005, 25.100408445000028], [85.49706341100006, 25.100249820000045], [85.49777384500004, 25.100189470000032], [85.49895048100007, 25.100165143000027], [85.50128416900003, 25.10025893100004], [85.50293441100007, 25.10025918100007], [85.50513132900005, 25.10018099800004], [85.50521407800005, 25.10135654800007], [85.50533052300005, 25.102560467000046], [85.50543685700006, 25.10352891900004], [85.50552476900003, 25.104822196000043], [85.50578557600005, 25.106374439000035], [85.50612684500004, 25.10754087500004], [85.50666533600008, 25.10802256000005], [85.50718730100004, 25.10812179800007], [85.50838022400006, 25.108020362000047], [85.51163836100005, 25.107786473000033], [85.51196081300003, 25.108511575000023], [85.51274087200005, 25.111123476000046], [85.51596952000006, 25.109447672000044], [85.51892558300005, 25.107862497000042], [85.52038040200006, 25.106681829000024]]]]}}, {"type": "Feature", "properties": {"OBJECTID": 5351, "GPCODE": "95706", "GPNAME_1": "BARAKAR", "DIST_CEN_C": "27", "BLK_NAME": "SILAO", "ST_NAME": "BIHAR", "ST_CODE_1": "10", "GPCODE2011": "98260", "REMARKS": "FINALIZED", "MAP_STATUS": "COMPLETED", "BLK_C_2001": "270018", "BLK_C_2011": "01395", "DIST_NAME": "NALANDA", "code2011": 0.0, "Shape_Leng": 0.20135524368, "Shape_Area": 0.00135461219, "Area": 15.1401}, "geometry": {"type": "MultiPolygon", "coordinates": [[[[85.46610315800007, 25.058776263000027], [85.46881631900004, 25.05749941700003], [85.47072291500007, 25.05680600200003], [85.47151014200006, 25.056443744000035], [85.47332259700005, 25.055782092000072], [85.47437286200005, 25.05569018700004], [85.47467053700007, 25.055897422000044], [85.47555901200008, 25.05670850100006], [85.47604967900008, 25.056752936000066], [85.47636165700004, 25.056603427000027], [85.47641073400007, 25.056350658000042], [85.47588386600006, 25.055493798000043], [85.47703293200004, 25.055207684000038], [85.47772648900008, 25.055134380000027], [85.47953439300005, 25.054738954000072], [85.48325592700007, 25.054836946000023], [85.48416691100005, 25.054411275000064], [85.48474558900006, 25.053841609000074], [85.48466003700008, 25.053151151000066], [85.48429686300005, 25.052384408000023], [85.48990602500004, 25.052402553000036], [85.49323230400006, 25.053119303000074], [85.49425365800005, 25.053415570000027], [85.49441619500004, 25.05293683900004], [85.49421596300004, 25.051917071000048], [85.49421401800004, 25.050955661000046], [85.49399827900004, 25.049597341000037], [85.49379625300008, 25.047647753000035], [85.49352933200004, 25.045486100000062], [85.49342676100008, 25.043716851000056], [85.49339451800006, 25.04248466100006], [85.49437525600007, 25.042311532000042], [85.49480059700005, 25.041922673000045], [85.49525996900007, 25.04124481200006], [85.49537272900005, 25.04061722600005], [85.49524193400003, 25.03966960400004], [85.49421786500005, 25.037933473000066], [85.49419149700003, 25.037103004000073], [85.49689151100006, 25.037053353000033], [85.49777449200008, 25.036983261000046], [85.49837023600008, 25.03693526400008], [85.49829280100005, 25.033651904000067], [85.49777261700007, 25.030958674000033], [85.49777455100008, 25.030916726000044], [85.49764890900008, 25.02936971300005], [85.49767996800006, 25.027541622000058], [85.49501170600007, 25.026042957000072], [85.49350872000008, 25.02508394800003], [85.49228871600008, 25.024440526000035], [85.49029501200005, 25.023292751000042], [85.48894573700005, 25.022347033000074], [85.48774523400004, 25.021482340000034], [85.48719945100004, 25.021063395000056], [85.48585028600007, 25.02013570300005], [85.48532410300004, 25.019581371000072], [85.48414380100007, 25.018897141000025], [85.48295923900008, 25.018569477000028], [85.48217141700007, 25.018466884000077], [85.48129998800005, 25.018707463000055], [85.48004729700006, 25.01901185500003], [85.47865120800003, 25.019478942000035], [85.47825502000006, 25.01952467500007], [85.47816523600005, 25.01924043400004], [85.47618962500007, 25.019721865000065], [85.47358982400004, 25.02020879400004], [85.47082615000005, 25.020542383000077], [85.46742803700005, 25.020664743000054], [85.46538640400007, 25.02024796200004], [85.46481637500005, 25.020086268000057], [85.46476686800008, 25.020072818000074], [85.46350791800006, 25.01970903700004], [85.46054930000008, 25.018963945000053], [85.46089784500003, 25.020019700000034], [85.46147042400008, 25.021666426000024], [85.46172000800004, 25.02281254600007], [85.46155816300006, 25.02376067700004], [85.46132733400003, 25.024902952000048], [85.46117918400006, 25.025192015000073], [85.46037234500005, 25.025536223000074], [85.45980289500005, 25.02569498300005], [85.46015305100008, 25.02766250600007], [85.45992098400006, 25.028132327000037], [85.45989761500005, 25.028949263000072], [85.45950183900004, 25.029292948000034], [85.45905623500005, 25.02944705300007], [85.45827884300007, 25.029718906000028], [85.45826555800005, 25.030590113000073], [85.45777097400008, 25.031118853000066], [85.45761413300005, 25.03211663700006], [85.45269450200004, 25.032091824000076], [85.45242950700003, 25.03363140700003], [85.45195413500005, 25.033749415000045], [85.45153852400006, 25.03408401200005], [85.45125235100005, 25.03480205900007], [85.45060938500006, 25.035511591000045], [85.44983204300007, 25.03578348900004], [85.44834580500003, 25.035889218000023], [85.44621550900007, 25.035950745000036], [85.44625746100007, 25.03737705800006], [85.44741625400007, 25.037041531000057], [85.44809017300008, 25.03711736400004], [85.44901718900007, 25.037445622000064], [85.45025697600005, 25.03815261400007], [85.45221168000006, 25.039761401000078], [85.45319456800007, 25.040870421000022], [85.45413757400007, 25.041830591000064], [85.45483209900004, 25.042371251000077], [85.45668690300005, 25.043451968000056], [85.45694488300006, 25.043614115000025], [85.45786708400004, 25.04400098900004], [85.45829914200004, 25.044587196000066], [85.45866250100005, 25.045552604000022], [85.45879736700005, 25.046193428000038], [85.45894774700008, 25.047217759000034], [85.45879052400005, 25.04802145000008], [85.45684059900003, 25.04939187000008], [85.45575168400006, 25.050088507000055], [85.45439907200006, 25.050103899000078], [85.45270501000005, 25.050458261000074], [85.45158559500004, 25.050685481000073], [85.450595, 25.050957620000077], [85.45014947400006, 25.051215513000045], [85.44981804500009, 25.051545474000022], [85.44981855400005, 25.051893028000052], [85.44955652200008, 25.05225453500003], [85.44933963000005, 25.052900210000075], [85.44948904900008, 25.05339654100004], [85.44984615000004, 25.05359924000004], [85.45047051000006, 25.053584784000066], [85.45194140700005, 25.053158542000062], [85.45402184800008, 25.052690794000057], [85.45522024800005, 25.052287398000033], [85.45737053300007, 25.052135510000028], [85.45887171000004, 25.05202954300006], [85.45974934300006, 25.052344282000035], [85.46049279200008, 25.05247868500004], [85.46154844200004, 25.052594502000034], [85.46166430200003, 25.053695679000043], [85.46193269100007, 25.054146712000033], [85.46278973600005, 25.054086768000047], [85.46348819900004, 25.053945830000032], [85.46424652200005, 25.054035011000053], [85.46431741100008, 25.054906091000078], [85.46507050600007, 25.054846309000027], [85.46459558500004, 25.055280313000026], [85.46370996700006, 25.056094089000055], [85.46377642000004, 25.05723146300005], [85.46328169900005, 25.05774225300007], [85.46285586100004, 25.057923394000056], [85.46167143000008, 25.057807713000045], [85.46137442700007, 25.057988720000026], [85.46012867500008, 25.05978688600004], [85.45969895500008, 25.060568414000045], [85.45943757500004, 25.061318018000065], [85.46034480200007, 25.061542446000033], [85.46097378400003, 25.06133396300004], [85.46152748300005, 25.060552290000032], [85.46350343400007, 25.059858820000045], [85.46610315800007, 25.058776263000027]]]]}}, {"type": "Feature", "properties": {"OBJECTID": 5352, "GPCODE": "95717", "GPNAME_1": "PAWADIH", "DIST_CEN_C": "27", "BLK_NAME": "SILAO", "ST_NAME": "BIHAR", "ST_CODE_1": "10", "GPCODE2011": "98271", "REMARKS": "FINALIZED", "MAP_STATUS": "COMPLETED", "BLK_C_2001": "270018", "BLK_C_2011": "01395", "DIST_NAME": "NALANDA", "code2011": 0.0, "Shape_Leng": 0.20148171857, "Shape_Area": 0.00090717408, "Area": 10.1381}, "geometry": {"type": "MultiPolygon", "coordinates": [[[[85.49169257100004, 25.066392174000043], [85.49146253100008, 25.06530925800007], [85.49193247100004, 25.064911276000032], [85.49407305100004, 25.06479045800006], [85.49463136800006, 25.063931944000046], [85.49615734200006, 25.063766885000064], [85.49652723100007, 25.065341544000034], [85.49693204300007, 25.067060604000062], [85.49778924100008, 25.066959931000042], [85.49928682100006, 25.066631968000024], [85.50095037100004, 25.066252301000077], [85.50198209700005, 25.065717121000034], [85.50252212400005, 25.065555484000072], [85.50283874700006, 25.06565107700004], [85.50327383400008, 25.065778012000067], [85.50428497700005, 25.06567080900004], [85.50603409400009, 25.065466112000024], [85.50942981500003, 25.064490628000044], [85.51108567200004, 25.063933145000078], [85.51276205400006, 25.062947649000023], [85.51496322000008, 25.061444942000037], [85.51480547400007, 25.05940167800003], [85.51257129000004, 25.057406023000055], [85.51102230700008, 25.056004975000064], [85.50964628400004, 25.054382459000067], [85.50817001800004, 25.052200449000054], [85.50761685000003, 25.05070280800004], [85.50745983100006, 25.049069082000074], [85.50777018300005, 25.04819290300003], [85.50852099700006, 25.047099280000054], [85.50982168500008, 25.045941468000024], [85.51266705500007, 25.044248332000052], [85.51413493000007, 25.04253058300003], [85.51543454900008, 25.040903297000057], [85.51491635600007, 25.039559100000076], [85.51543078300006, 25.039183585000046], [85.51810102200005, 25.03680455400007], [85.52008446300005, 25.03527081900006], [85.52086958200005, 25.03411380700004], [85.52127917600006, 25.03336384800008], [85.52165355200003, 25.032397180000032], [85.52164590800004, 25.028926142000046], [85.52153854700003, 25.027427807000038], [85.52184869300004, 25.026524417000076], [85.52181250300004, 25.025833952000028], [85.52034828000006, 25.02744655400005], [85.51858412400009, 25.02906616300004], [85.51549899800006, 25.03084813600003], [85.51339439700007, 25.031903319000037], [85.51226533100004, 25.03211659400006], [85.51158062800005, 25.03237159500003], [85.50974716600007, 25.032379289000062], [85.50763639000007, 25.031820335000077], [85.50524586100005, 25.030637140000067], [85.50318835600007, 25.02984564600007], [85.50132530900004, 25.029162541000062], [85.49842240300006, 25.027824472000077], [85.49777459000006, 25.027593162000073], [85.49767996800006, 25.027541622000058], [85.49764890900008, 25.02936971300005], [85.49777455100008, 25.030916726000044], [85.49777261700007, 25.030958674000033], [85.49829280100005, 25.033651904000067], [85.49837023600008, 25.03693526400008], [85.49777449200008, 25.036983261000046], [85.49689151100006, 25.037053353000033], [85.49419149700003, 25.037103004000073], [85.49421786500005, 25.037933473000066], [85.49524193400003, 25.03966960400004], [85.49537272900005, 25.04061722600005], [85.49525996900007, 25.04124481200006], [85.49480059700005, 25.041922673000045], [85.49437525600007, 25.042311532000042], [85.49339451800006, 25.04248466100006], [85.49342676100008, 25.043716851000056], [85.49352933200004, 25.045486100000062], [85.49379625300008, 25.047647753000035], [85.49399827900004, 25.049597341000037], [85.49421401800004, 25.050955661000046], [85.49421596300004, 25.051917071000048], [85.49441619500004, 25.05293683900004], [85.49425365800005, 25.053415570000027], [85.49323230400006, 25.053119303000074], [85.48990602500004, 25.052402553000036], [85.48429686300005, 25.052384408000023], [85.48466003700008, 25.053151151000066], [85.48474558900006, 25.053841609000074], [85.48416691100005, 25.054411275000064], [85.48325592700007, 25.054836946000023], [85.47953439300005, 25.054738954000072], [85.47772648900008, 25.055134380000027], [85.47703293200004, 25.055207684000038], [85.47588386600006, 25.055493798000043], [85.47641073400007, 25.056350658000042], [85.47636165700004, 25.056603427000027], [85.47604967900008, 25.056752936000066], [85.47555901200008, 25.05670850100006], [85.47467053700007, 25.055897422000044], [85.47437286200005, 25.05569018700004], [85.47332259700005, 25.055782092000072], [85.47151014200006, 25.056443744000035], [85.47072291500007, 25.05680600200003], [85.46881631900004, 25.05749941700003], [85.46950872600007, 25.059507025000073], [85.47003554900004, 25.060372934000043], [85.47073066100006, 25.061094060000073], [85.47146914000007, 25.061169723000035], [85.47180332800008, 25.062365327000066], [85.47242869900003, 25.062937652000073], [85.47315283500006, 25.06329312500003], [85.47466971900008, 25.06356166200004], [85.47726574800004, 25.06316958900004], [85.47947508500005, 25.062755434000053], [85.48043172200005, 25.06287583200003], [85.48194080300004, 25.06164124700007], [85.48279892500005, 25.062059634000036], [85.48372256900007, 25.06307835100006], [85.48405611000004, 25.063858673000027], [85.48389067000005, 25.06547933400003], [85.48361624400007, 25.06708221100007], [85.48410615600005, 25.066724816000033], [85.48509470100004, 25.065400699000065], [85.48539710600005, 25.065440914000078], [85.48551690600004, 25.065905561000022], [85.48599441900006, 25.066816648000042], [85.48713120600007, 25.067834876000063], [85.48753355000008, 25.068317223000065], [85.48781374200007, 25.069693518000065], [85.48857289000006, 25.070130127000027], [85.48960853500006, 25.07006977900005], [85.48959275300007, 25.06961839300004], [85.48956110800003, 25.06865703400007], [85.48990241800004, 25.068313463000038], [85.49061079000006, 25.068145247000075], [85.49061002300004, 25.067770616000075], [85.49118463400004, 25.06763432200006], [85.49115430800003, 25.067322924000052], [85.49174371600003, 25.067168507000076], [85.49169257100004, 25.066392174000043]]]]}}, {"type": "Feature", "properties": {"OBJECTID": 5357, "GPCODE": "95709", "GPNAME_1": "GHOSTAWAN", "DIST_CEN_C": "27", "BLK_NAME": "SILAO", "ST_NAME": "BIHAR", "ST_CODE_1": "10", "GPCODE2011": "98263", "REMARKS": "FINALIZED", "MAP_STATUS": "COMPLETED", "BLK_C_2001": "270018", "BLK_C_2011": "01395", "DIST_NAME": "NALANDA", "code2011": 0.0, "Shape_Leng": 0.1784716188, "Shape_Area": 0.00098424675, "Area": 10.9983}, "geometry": {"type": "MultiPolygon", "coordinates": [[[[85.47099133600005, 25.087548670000047], [85.47158150800004, 25.084974960000068], [85.47201424800005, 25.08307404100003], [85.47257828600004, 25.082531576000065], [85.47315212300003, 25.081943898000077], [85.47340594900004, 25.07978593200005], [85.47356799500005, 25.07897322200006], [85.47466737400003, 25.078515709000044], [85.47474602000005, 25.078154484000038], [85.47462792700009, 25.07589775100007], [85.47454993500008, 25.073907391000034], [85.47468169000007, 25.07277876200004], [85.47511514800004, 25.071356270000024], [85.47558021900005, 25.070904163000023], [85.47633752600007, 25.070424570000057], [85.47808533400007, 25.069564246000027], [85.47839201200009, 25.06925684400005], [85.47873791700005, 25.068714708000073], [85.47893316600005, 25.067089408000072], [85.47907993100006, 25.06606461100006], [85.47910333900006, 25.06536495100005], [85.47941306600006, 25.06402844400003], [85.47960966800008, 25.06315240500004], [85.47947508500005, 25.062755434000053], [85.47726574800004, 25.06316958900004], [85.47466971900008, 25.06356166200004], [85.47315283500006, 25.06329312500003], [85.47242869900003, 25.062937652000073], [85.47180332800008, 25.062365327000066], [85.47146914000007, 25.061169723000035], [85.47073066100006, 25.061094060000073], [85.47003554900004, 25.060372934000043], [85.46950872600007, 25.059507025000073], [85.46881631900004, 25.05749941700003], [85.46610315800007, 25.058776263000027], [85.46350343400007, 25.059858820000045], [85.46152748300005, 25.060552290000032], [85.46097378400003, 25.06133396300004], [85.46034480200007, 25.061542446000033], [85.45943757500004, 25.061318018000065], [85.45969895500008, 25.060568414000045], [85.46012867500008, 25.05978688600004], [85.46137442700007, 25.057988720000026], [85.46167143000008, 25.057807713000045], [85.46285586100004, 25.057923394000056], [85.46328169900005, 25.05774225300007], [85.46377642000004, 25.05723146300005], [85.46370996700006, 25.056094089000055], [85.46459558500004, 25.055280313000026], [85.46507050600007, 25.054846309000027], [85.46431741100008, 25.054906091000078], [85.46424652200005, 25.054035011000053], [85.46348819900004, 25.053945830000032], [85.46278973600005, 25.054086768000047], [85.46193269100007, 25.054146712000033], [85.46166430200003, 25.053695679000043], [85.46154844200004, 25.052594502000034], [85.46049279200008, 25.05247868500004], [85.45974934300006, 25.052344282000035], [85.45887171000004, 25.05202954300006], [85.45737053300007, 25.052135510000028], [85.45522024800005, 25.052287398000033], [85.45402184800008, 25.052690794000057], [85.45194140700005, 25.053158542000062], [85.45047051000006, 25.053584784000066], [85.44984615000004, 25.05359924000004], [85.44948904900008, 25.05339654100004], [85.44933963000005, 25.052900210000075], [85.44955652200008, 25.05225453500003], [85.44981855400005, 25.051893028000052], [85.44981804500009, 25.051545474000022], [85.45014947400006, 25.051215513000045], [85.450595, 25.050957620000077], [85.45045977800004, 25.050050573000078], [85.45008204500004, 25.049373995000053], [85.44984817300008, 25.04875590900008], [85.44957401000005, 25.04776781000004], [85.44919182300004, 25.04731699100006], [85.44800258100008, 25.047273416000053], [85.44650150000007, 25.047442379000074], [85.44587274900005, 25.047745682000027], [85.44451044700008, 25.047977631000037], [85.44342058400008, 25.048069347000023], [85.44236068400005, 25.048359626000035], [85.44135519400004, 25.04860008000003], [85.44013195800005, 25.049025983000035], [85.43869106100004, 25.04963714300004], [85.43827555400009, 25.050102598000024], [85.43804889800003, 25.050960476000057], [85.43754569800006, 25.052396557000066], [85.43685355700006, 25.053467112000078], [85.43583492500005, 25.054854153000065], [85.43552886900005, 25.055626381000025], [85.43556236400008, 25.058113374000072], [85.43513771600004, 25.059120531000076], [85.43497979700004, 25.059517869000047], [85.43476424700003, 25.06115661900003], [85.43476618300008, 25.06243858700003], [85.43523732800008, 25.06273587800007], [85.43550095600006, 25.063367491000065], [85.43623634800008, 25.064671022000027], [85.43873316100007, 25.06417134700007], [85.44012126300004, 25.06451715700007], [85.44165714900004, 25.064257867000038], [85.44357902400003, 25.063709257000028], [85.44442091600007, 25.063374143000033], [85.44485209400005, 25.06339166300006], [85.44553149100005, 25.063733823000064], [85.44576019900006, 25.06418489500004], [85.44588199800006, 25.06597667500006], [85.44587005400007, 25.067831844000068], [85.44601002500008, 25.06856286200008], [85.44603164500006, 25.06969121700007], [85.44586448400008, 25.070503984000027], [85.44566710800007, 25.071045876000028], [85.44554975700004, 25.07204803700006], [85.44542996600006, 25.074602964000064], [85.44542471800008, 25.077563972000064], [85.44585813900005, 25.07897168200003], [85.44599460400008, 25.08064161200008], [85.45045500200007, 25.080482161000077], [85.45461815500005, 25.080444900000032], [85.45624921100006, 25.080749574000038], [85.45731628700008, 25.081596731000047], [85.45821277700009, 25.08126146400008], [85.45959615000004, 25.081611602000066], [85.46102538300005, 25.082670260000043], [85.46183079900004, 25.084127065000075], [85.46502183500007, 25.083634978000077], [85.46522722300006, 25.084848862000058], [85.46525835800009, 25.08563870300003], [85.46542865800006, 25.086667651000027], [85.46805479300008, 25.086239501000023], [85.46846465000004, 25.090937676000067], [85.46914897700003, 25.091108218000045], [85.47055179200004, 25.091182872000047], [85.47099133600005, 25.087548670000047]]]]}}, {"type": "Feature", "properties": {"OBJECTID": 5384, "GPCODE": "95711", "GPNAME_1": "GORMA", "DIST_CEN_C": "27", "BLK_NAME": "SILAO", "ST_NAME": "BIHAR", "ST_CODE_1": "10", "GPCODE2011": "98265", "REMARKS": "FINALIZED", "MAP_STATUS": "COMPLETED", "BLK_C_2001": "270018", "BLK_C_2011": "01395", "DIST_NAME": "NALANDA", "code2011": 0.0, "Shape_Leng": 0.18768731388, "Shape_Area": 0.00065757629, "Area": 7.34743}, "geometry": {"type": "MultiPolygon", "coordinates": [[[[85.52252445800008, 25.07880573400007], [85.52286899500007, 25.07773992500006], [85.52389376900004, 25.07720991700006], [85.52451222700006, 25.07675282400004], [85.52505988600007, 25.075655063000056], [85.52557206400007, 25.07418713100003], [85.52549791000007, 25.072092901000076], [85.52529063100008, 25.070251694000035], [85.52463062200007, 25.06763045100007], [85.52476759700005, 25.06684933500003], [85.52489706300008, 25.064912629000048], [85.52475643100007, 25.064073353000026], [85.52345387700007, 25.064418827000054], [85.52160011900008, 25.064264222000077], [85.51998903900005, 25.064018942000075], [85.51861493800004, 25.06336243000004], [85.51806842900004, 25.06274048800003], [85.51860976300009, 25.060988163000047], [85.51936584200007, 25.060052479000035], [85.52090399600007, 25.058673026000065], [85.52210257800004, 25.058422577000044], [85.52385195100004, 25.058482516000026], [85.52440111400006, 25.058106933000033], [85.52522020700007, 25.05654363700006], [85.52583926300008, 25.056384526000045], [85.52566424200006, 25.055667158000062], [85.52507670800009, 25.054386369000042], [85.52449307800003, 25.05266767100005], [85.52377087000008, 25.050985427000057], [85.52306293500004, 25.049072915000067], [85.52069986100008, 25.04926224700006], [85.51836735300003, 25.049830734000068], [85.51682676700005, 25.050018559000023], [85.51674054800003, 25.051404397000056], [85.51633176100006, 25.05256065900005], [85.51574884400009, 25.053374172000076], [85.51544647000009, 25.055622523000068], [85.51593233500006, 25.057995858000027], [85.51566170200005, 25.05890361400003], [85.51480547400007, 25.05940167800003], [85.51496322000008, 25.061444942000037], [85.51276205400006, 25.062947649000023], [85.51108567200004, 25.063933145000078], [85.50942981500003, 25.064490628000044], [85.50603409400009, 25.065466112000024], [85.50428497700005, 25.06567080900004], [85.50327383400008, 25.065778012000067], [85.50283874700006, 25.06565107700004], [85.50252212400005, 25.065555484000072], [85.50198209700005, 25.065717121000034], [85.50095037100004, 25.066252301000077], [85.49928682100006, 25.066631968000024], [85.49778924100008, 25.066959931000042], [85.49693204300007, 25.067060604000062], [85.49652723100007, 25.065341544000034], [85.49615734200006, 25.063766885000064], [85.49463136800006, 25.063931944000046], [85.49407305100004, 25.06479045800006], [85.49193247100004, 25.064911276000032], [85.49146253100008, 25.06530925800007], [85.49169257100004, 25.066392174000043], [85.49174371600003, 25.067168507000076], [85.49115430800003, 25.067322924000052], [85.49118463400004, 25.06763432200006], [85.49061002300004, 25.067770616000075], [85.49061079000006, 25.068145247000075], [85.48990241800004, 25.068313463000038], [85.48956110800003, 25.06865703400007], [85.48959275300007, 25.06961839300004], [85.48960853500006, 25.07006977900005], [85.48857289000006, 25.070130127000027], [85.48781374200007, 25.069693518000065], [85.48753355000008, 25.068317223000065], [85.48713120600007, 25.067834876000063], [85.48599441900006, 25.066816648000042], [85.48551690600004, 25.065905561000022], [85.48539710600005, 25.065440914000078], [85.48509470100004, 25.065400699000065], [85.48410615600005, 25.066724816000033], [85.48361624400007, 25.06708221100007], [85.48303804300008, 25.06792710800005], [85.48307408600004, 25.06864474200006], [85.48341236600004, 25.069339315000036], [85.48417182000009, 25.069965611000043], [85.48458350300007, 25.070131935000063], [85.48590238400004, 25.07049094200005], [85.48611642300006, 25.070969010000056], [85.48899015900008, 25.070639484000026], [85.49161100700007, 25.070274115000075], [85.49402906700004, 25.070062564000068], [85.49423022800005, 25.071547228000043], [85.49437121200003, 25.072675401000026], [85.49460659500005, 25.073889209000072], [85.49506183300008, 25.075991910000027], [85.49509380800004, 25.07711575600007], [85.49488203800007, 25.07777512900003], [85.49427426500006, 25.078705959000047], [85.49388940800003, 25.07958225300007], [85.49398958000006, 25.080123681000032], [85.49415382300003, 25.080439440000077], [85.49451605300004, 25.080678059000036], [85.49482863700007, 25.080858103000025], [85.49527499600003, 25.08100630900003], [85.49585023900005, 25.081140722000043], [85.49690513000007, 25.080746259000023], [85.49777404200006, 25.080645357000037], [85.49808328900008, 25.08052805500006], [85.49976216900006, 25.08050391200004], [85.50077800900004, 25.080503431000068], [85.50150997700007, 25.080263855000055], [85.50277746200004, 25.079756217000067], [85.50372533800004, 25.07908205700005], [85.50479920400005, 25.07861685100005], [85.50572780000005, 25.078405813000074], [85.50771119900008, 25.078192855000054], [85.50776155900007, 25.079365331000076], [85.50795421800007, 25.08021234100005], [85.51163178500008, 25.080330403000062], [85.51272304000008, 25.08188554800006], [85.51345906100005, 25.08300765100006], [85.51399756300003, 25.08486755800004], [85.51430267900008, 25.086631387000068], [85.51447093200005, 25.087878124000042], [85.51486362400004, 25.08901245900006], [85.51501843300008, 25.089946490000045], [85.51518221300006, 25.091088988000024], [85.51522704800004, 25.092131333000054], [85.51526740100007, 25.093069444000037], [85.51529878700006, 25.093799084000068], [85.51666787400006, 25.093645861000027], [85.51826588700004, 25.093484454000077], [85.51960811500004, 25.093423252000036], [85.51940758400008, 25.092573720000075], [85.51894893100007, 25.089121547000047], [85.51903371600008, 25.087121887000023], [85.51889041800007, 25.085059340000043], [85.51788496300009, 25.083111294000048], [85.51706002000003, 25.082097177000037], [85.51681506900007, 25.08112712600007], [85.51714030100004, 25.080250871000032], [85.51830907600004, 25.079874121000046], [85.51991981500004, 25.079853204000074], [85.52113909400003, 25.07985094600008], [85.52211440100007, 25.079397796000023], [85.52252445800008, 25.07880573400007]]]]}}, {"type": "Feature", "properties": {"OBJECTID": 5407, "GPCODE": "95713", "GPNAME_1": "KUL PHTEHPUR", "DIST_CEN_C": "27", "BLK_NAME": "SILAO", "ST_NAME": "BIHAR", "ST_CODE_1": "10", "GPCODE2011": "98267", "REMARKS": "FINALIZED", "MAP_STATUS": "COMPLETED", "BLK_C_2001": "270018", "BLK_C_2011": "01395", "DIST_NAME": "NALANDA", "code2011": 0.0, "Shape_Leng": 0.1391710905, "Shape_Area": 0.00080729255, "Area": 9.01729}, "geometry": {"type": "MultiPolygon", "coordinates": [[[[85.47034377000006, 25.13530465100007], [85.47202322900006, 25.134521303000042], [85.47356796200006, 25.133228039000073], [85.47290308700008, 25.129310791000023], [85.47231492700007, 25.125845523000066], [85.47252603500004, 25.124689708000062], [85.47269006900007, 25.122220473000027], [85.47309721400006, 25.11980048500004], [85.47349257300004, 25.11910481800004], [85.47358843300003, 25.11732620600003], [85.47395028400007, 25.11729857100005], [85.47467586700003, 25.11555073100004], [85.47523483100008, 25.114886391000027], [85.47562954200004, 25.11386113800006], [85.47576215500004, 25.11320193800003], [85.47749469400009, 25.111800079000034], [85.47722844300006, 25.109913696000035], [85.47401699100004, 25.110397057000057], [85.47168268700005, 25.110761626000055], [85.47028479600004, 25.110790804000032], [85.46946144600008, 25.11057985800005], [85.46820105800003, 25.109904696000058], [85.46676139100003, 25.108778398000027], [85.46451168400006, 25.106475146000037], [85.46427269300005, 25.105897712000058], [85.46463251900008, 25.104710113000067], [85.46567012800006, 25.10278123100005], [85.46530627300007, 25.101621780000073], [85.46489775200007, 25.100489423000056], [85.46271671900007, 25.100506041000074], [85.46213720100008, 25.100768690000052], [85.46117066200009, 25.100797202000024], [85.45877674200005, 25.101012705000073], [85.45896376300004, 25.103138384000033], [85.45877063500006, 25.10323345000006], [85.45795670700005, 25.102643319000038], [85.45685541500006, 25.102175431000035], [85.45544262900006, 25.102208965000045], [85.45531249000004, 25.104362136000077], [85.45494639700007, 25.104845683000065], [85.45473311600006, 25.10476919300004], [85.45473167500006, 25.103893562000053], [85.45487973200005, 25.103514245000042], [85.45487901700005, 25.10307182400004], [85.45434311700006, 25.10273855300005], [85.45300360500005, 25.102094985000065], [85.45187488500005, 25.103003733000037], [85.45152800200003, 25.103049399000042], [85.44997568000008, 25.102613665000035], [85.44770593500004, 25.10300028900008], [85.44514361100005, 25.103306168000074], [85.44472651300003, 25.102837228000055], [85.44261048100003, 25.10328238900007], [85.44123764700004, 25.103482779000046], [85.43995389100007, 25.10352950200007], [85.43962289100006, 25.104288224000072], [85.43922717500004, 25.104866550000054], [85.43892752000005, 25.106595648000052], [85.43866711700008, 25.10811259700006], [85.43806959400007, 25.109598377000054], [85.43722361700009, 25.11073685100007], [85.43728886600007, 25.111282937000055], [85.43752266200005, 25.11182880800004], [85.43755853100004, 25.112559978000036], [85.43886713900008, 25.11248163700003], [85.44190646100003, 25.112689875000058], [85.44385960600005, 25.112655692000033], [85.44523812800008, 25.112829912000052], [85.44601203600007, 25.113190023000072], [85.44623073000008, 25.113505658000065], [85.44640061300004, 25.114317963000076], [85.44671403500007, 25.115053268000054], [85.44701189600005, 25.115305593000073], [85.44835145500008, 25.11589062300004], [85.44879976900006, 25.117185489000065], [85.44941310200005, 25.119396365000057], [85.44984756100007, 25.121264412000073], [85.45028639100008, 25.122825642000066], [85.45053576500004, 25.123755076000066], [85.45188503600008, 25.127197230000036], [85.45367449200006, 25.129903031000026], [85.45698660500005, 25.132850345000065], [85.45930563200005, 25.134891840000023], [85.46300738700006, 25.136511497000072], [85.46595846500009, 25.136954074000073], [85.46629494800004, 25.136569938000036], [85.46725135300005, 25.136207375000026], [85.46810360900008, 25.13590375700005], [85.46875308000006, 25.135734253000066], [85.46902544000005, 25.135663171000033], [85.47034377000006, 25.13530465100007]]]]}}, {"type": "Feature", "properties": {"OBJECTID": 5409, "GPCODE": "95708", "GPNAME_1": "DHARHARA", "DIST_CEN_C": "27", "BLK_NAME": "SILAO", "ST_NAME": "BIHAR", "ST_CODE_1": "10", "GPCODE2011": "98262", "REMARKS": "FINALIZED", "MAP_STATUS": "COMPLETED", "BLK_C_2001": "270018", "BLK_C_2011": "01395", "DIST_NAME": "NALANDA", "code2011": 0.0, "Shape_Leng": 0.11050330558, "Shape_Area": 0.00063198381, "Area": 7.05897}, "geometry": {"type": "MultiPolygon", "coordinates": [[[[85.49966263200008, 25.135185998000054], [85.50040999500004, 25.134503175000077], [85.50084821000007, 25.132985783000038], [85.50118947000004, 25.13258352500003], [85.50295959800007, 25.13258054000005], [85.50377235900004, 25.132394012000077], [85.50547135600004, 25.13158315800007], [85.50564370800004, 25.13102771900003], [85.50570662900003, 25.130282817000023], [85.50485093800006, 25.12888505500007], [85.50505776600005, 25.12823470400008], [85.50607238400005, 25.127334794000035], [85.50644704900003, 25.126314043000036], [85.50735887800005, 25.123771241000043], [85.50797067900004, 25.122316726000065], [85.50840717000005, 25.120081750000054], [85.50898009600007, 25.11906065200003], [85.50887502900008, 25.11859587400005], [85.50917905700004, 25.117015604000073], [85.50948156300007, 25.114722103000076], [85.51009278700008, 25.113050926000028], [85.51274087200005, 25.111123476000046], [85.51196081300003, 25.108511575000023], [85.51163836100005, 25.107786473000033], [85.50838022400006, 25.108020362000047], [85.50718730100004, 25.10812179800007], [85.50666533600008, 25.10802256000005], [85.50612684500004, 25.10754087500004], [85.50578557600005, 25.106374439000035], [85.50552476900003, 25.104822196000043], [85.50543685700006, 25.10352891900004], [85.50533052300005, 25.102560467000046], [85.50521407800005, 25.10135654800007], [85.50513132900005, 25.10018099800004], [85.50293441100007, 25.10025918100007], [85.50128416900003, 25.10025893100004], [85.49895048100007, 25.100165143000027], [85.49777384500004, 25.100189470000032], [85.49706341100006, 25.100249820000045], [85.49391098200005, 25.100408445000028], [85.49106074100007, 25.100399581000033], [85.48910266200005, 25.100371163000034], [85.48807178500005, 25.100454082000056], [85.48731506400009, 25.101326408000034], [85.48712327100003, 25.102121112000077], [85.48760089400008, 25.103050237000048], [85.48747817200007, 25.103655211000046], [85.48705361400005, 25.104545134000034], [85.48710421700008, 25.10508214600003], [85.48768129400008, 25.106160015000057], [85.48764777000008, 25.106778406000046], [85.48797114800004, 25.10735115400007], [85.48837169100005, 25.10939074600003], [85.48806080800006, 25.110140483000066], [85.48875611900007, 25.110798416000023], [85.48875829400004, 25.111877149000065], [85.48852633200005, 25.112419119000037], [85.48839780800006, 25.112640529000032], [85.48833415400009, 25.113001776000033], [85.48804314500006, 25.11377402000005], [85.48829943500004, 25.115565581000055], [85.48879861700004, 25.117320610000036], [85.48930780400008, 25.119089192000047], [85.48974265800007, 25.12089845400004], [85.49008788300006, 25.12250473200004], [85.49023462400004, 25.12400308900004], [85.49003450000004, 25.12561480900007], [85.48971132000008, 25.127687067000068], [85.48955476800006, 25.128757053000072], [85.48926339000008, 25.129348845000038], [85.48935475000008, 25.13045904100005], [85.48963992400007, 25.13174954300007], [85.49027458600006, 25.13173043000006], [85.49058899300007, 25.132777068000053], [85.49108588100006, 25.133299892000025], [85.49181041900005, 25.133628185000077], [85.49368951700006, 25.13358449800006], [85.49381995700008, 25.134347121000076], [85.49397049500004, 25.135231548000036], [85.49418408200006, 25.13539364500008], [85.49461572100006, 25.135559973000056], [85.49522069500006, 25.13557257000008], [85.49592927000003, 25.135332118000065], [85.49680157800003, 25.135136604000024], [85.49724781100008, 25.135135856000034], [85.49768860400007, 25.135306976000038], [85.49794018100005, 25.135450388000038], [85.49833480300003, 25.135684668000067], [85.49966263200008, 25.135185998000054]]]]}}, {"type": "Feature", "properties": {"OBJECTID": 5416, "GPCODE": "95719", "GPNAME_1": "SURAJPUR", "DIST_CEN_C": "27", "BLK_NAME": "SILAO", "ST_NAME": "BIHAR", "ST_CODE_1": "10", "GPCODE2011": "98273", "REMARKS": "FINALIZED", "MAP_STATUS": "COMPLETED", "BLK_C_2001": "270018", "BLK_C_2011": "01395", "DIST_NAME": "NALANDA", "code2011": 0.0, "Shape_Leng": 0.12085670322, "Shape_Area": 0.00045707197, "Area": 5.1048}, "geometry": {"type": "MultiPolygon", "coordinates": [[[[85.46315861600004, 25.14644590200004], [85.46401527600005, 25.145740525000065], [85.46506452200003, 25.144610587000045], [85.46576053000007, 25.142767973000048], [85.46610495700008, 25.14125990900004], [85.46597216800006, 25.139057464000075], [85.46595846500009, 25.136954074000073], [85.46300738700006, 25.136511497000072], [85.45930563200005, 25.134891840000023], [85.45698660500005, 25.132850345000065], [85.45367449200006, 25.129903031000026], [85.45188503600008, 25.127197230000036], [85.45053576500004, 25.123755076000066], [85.45028639100008, 25.122825642000066], [85.44984756100007, 25.121264412000073], [85.44941310200005, 25.119396365000057], [85.44879976900006, 25.117185489000065], [85.44835145500008, 25.11589062300004], [85.44701189600005, 25.115305593000073], [85.44671403500007, 25.115053268000054], [85.44640061300004, 25.114317963000076], [85.44623073000008, 25.113505658000065], [85.44601203600007, 25.113190023000072], [85.44523812800008, 25.112829912000052], [85.44385960600005, 25.112655692000033], [85.44190646100003, 25.112689875000058], [85.43886713900008, 25.11248163700003], [85.43755853100004, 25.112559978000036], [85.43622044400007, 25.112864112000068], [85.43463445800006, 25.11313687300003], [85.43302388900008, 25.113531615000056], [85.43295664800007, 25.11500316400003], [85.43276043800006, 25.116380031000062], [85.43373244500003, 25.116609071000028], [85.43429634700004, 25.11906833300003], [85.43719671000008, 25.119064705000028], [85.44029062800007, 25.11926838900007], [85.44361683800008, 25.118966216000047], [85.44498523900006, 25.119041124000034], [85.44488775700006, 25.12009295000007], [85.44520359100005, 25.131579957000042], [85.44493996300008, 25.134130477000042], [85.44504361000008, 25.13695141900007], [85.44519386800005, 25.137899082000047], [85.44470025000004, 25.139280985000028], [85.44496648000006, 25.14146971100007], [85.44533167200007, 25.14345072900005], [85.44558269800007, 25.14535976700006], [85.44545002500007, 25.146136283000033], [85.44557595900005, 25.147363820000066], [85.44670166500003, 25.147407470000076], [85.44866019700004, 25.147242342000027], [85.45294655600009, 25.148392028000046], [85.45493849200005, 25.14742791200007], [85.45628189300004, 25.14719584900007], [85.46084362500005, 25.146918663000065], [85.46315861600004, 25.14644590200004]]]]}}, {"type": "Feature", "properties": {"OBJECTID": 5417, "GPCODE": "95707", "GPNAME_1": "BARGAON", "DIST_CEN_C": "27", "BLK_NAME": "SILAO", "ST_NAME": "BIHAR", "ST_CODE_1": "10", "GPCODE2011": "98261", "REMARKS": "FINALIZED", "MAP_STATUS": "COMPLETED", "BLK_C_2001": "270018", "BLK_C_2011": "01395", "DIST_NAME": "NALANDA", "code2011": 0.0, "Shape_Leng": 0.13739244597, "Shape_Area": 0.00057826504, "Area": 6.45839}, "geometry": {"type": "MultiPolygon", "coordinates": [[[[85.44557595900005, 25.147363820000066], [85.44545002500007, 25.146136283000033], [85.44558269800007, 25.14535976700006], [85.44533167200007, 25.14345072900005], [85.44496648000006, 25.14146971100007], [85.44470025000004, 25.139280985000028], [85.44519386800005, 25.137899082000047], [85.44504361000008, 25.13695141900007], [85.44493996300008, 25.134130477000042], [85.44520359100005, 25.131579957000042], [85.44488775700006, 25.12009295000007], [85.44498523900006, 25.119041124000034], [85.44361683800008, 25.118966216000047], [85.44029062800007, 25.11926838900007], [85.43719671000008, 25.119064705000028], [85.43429634700004, 25.11906833300003], [85.43373244500003, 25.116609071000028], [85.43276043800006, 25.116380031000062], [85.43233418300008, 25.116470906000075], [85.43174321500004, 25.119112130000076], [85.42991465500006, 25.11970112100005], [85.42787273500005, 25.120154978000073], [85.42580092800006, 25.120577154000046], [85.42300015600006, 25.120873878000054], [85.42337840700003, 25.121852905000026], [85.42318785500004, 25.123830157000043], [85.42328476100005, 25.125721241000065], [85.42345584100008, 25.12749043100007], [85.42361130400008, 25.128754077000053], [85.42558640200008, 25.129952443000036], [85.42592195700007, 25.132321712000078], [85.42511501200005, 25.133207343000038], [85.42511755100008, 25.134976725000058], [85.42501907600007, 25.135428234000074], [85.42406267600006, 25.135822036000036], [85.42383488400003, 25.13602991500005], [85.42495824900004, 25.138010094000037], [85.42522217000004, 25.138727455000037], [85.42426659700004, 25.13974872600005], [85.42425268200003, 25.14045289200004], [85.42343379700003, 25.143396714000062], [85.42313970900005, 25.145848011000055], [85.42372026000004, 25.146131737000076], [85.42515147300008, 25.144798473000037], [85.42623721300004, 25.14458501000007], [85.42693094000003, 25.144286356000066], [85.42771947900007, 25.14431249200004], [85.42785517100003, 25.14557617400004], [85.42854514200008, 25.14605372500006], [85.42831885300006, 25.147281745000043], [85.42766127600004, 25.14866371200003], [85.42713723900005, 25.149774775000026], [85.42667759400007, 25.150826927000026], [85.42876234100004, 25.148770719000026], [85.42945569500006, 25.148137963000067], [85.42971686700008, 25.14700018900004], [85.43063806300006, 25.146218216000022], [85.43075011000008, 25.144854922000036], [85.42929934100005, 25.14299709200003], [85.42909987000007, 25.14218941300004], [85.42893268700004, 25.139788274000068], [85.42967107300007, 25.139503054000045], [85.43076197100004, 25.139474622000023], [85.43135405300006, 25.140823521000073], [85.43313456200008, 25.141092165000032], [85.43343496000006, 25.143010077000042], [85.43452318000004, 25.144507257000043], [85.43439820600008, 25.147120846000064], [85.43467726500006, 25.148009732000048], [85.43510973100007, 25.148695271000065], [85.43550076000008, 25.151484266000068], [85.43612602000007, 25.151754217000075], [85.43652237000003, 25.151482918000056], [85.43737366300007, 25.15043465900004], [85.43829529700008, 25.149923448000038], [85.43875654700008, 25.150013170000022], [85.43984794200009, 25.150278050000054], [85.44149316200009, 25.14949957300007], [85.44353620400005, 25.149433789000057], [85.44399657100007, 25.14895470600004], [85.44419384700007, 25.14829548700004], [85.44422234200005, 25.147455855000032], [85.44557595900005, 25.147363820000066]]]]}}, {"type": "Feature", "properties": {"OBJECTID": 5418, "GPCODE": "95716", "GPNAME_1": "NIRPUR", "DIST_CEN_C": "27", "BLK_NAME": "SILAO", "ST_NAME": "BIHAR", "ST_CODE_1": "10", "GPCODE2011": "98270", "REMARKS": "FINALIZED", "MAP_STATUS": "COMPLETED", "BLK_C_2001": "270018", "BLK_C_2011": "01395", "DIST_NAME": "NALANDA", "code2011": 0.0, "Shape_Leng": 0.17854043117, "Shape_Area": 0.0006859101, "Area": 7.66}, "geometry": {"type": "MultiPolygon", "coordinates": [[[[85.42095208200004, 25.162989026000048], [85.42144796200006, 25.162925228000063], [85.42269788900006, 25.163045674000045], [85.42359114000004, 25.163374172000033], [85.42444537900008, 25.164244290000056], [85.42708348500008, 25.163970325000037], [85.42701676500008, 25.162440324000045], [85.42780535900005, 25.16240778300005], [85.42731183700005, 25.160675080000033], [85.42665013500005, 25.159263125000052], [85.42638009700005, 25.157733249000046], [85.42731572800005, 25.156517945000076], [85.42902914800004, 25.15486837800006], [85.43017917300006, 25.15447429900007], [85.43304503900004, 25.154172886000026], [85.43324323100006, 25.153992104000054], [85.43317825600008, 25.153662675000078], [85.43199174300008, 25.152851706000035], [85.43248226100008, 25.152521567000065], [85.43449454100005, 25.151769798000032], [85.43503943000007, 25.15142613300003], [85.43550076000008, 25.151484266000068], [85.43510973100007, 25.148695271000065], [85.43467726500006, 25.148009732000048], [85.43439820600008, 25.147120846000064], [85.43452318000004, 25.144507257000043], [85.43343496000006, 25.143010077000042], [85.43313456200008, 25.141092165000032], [85.43135405300006, 25.140823521000073], [85.43076197100004, 25.139474622000023], [85.42967107300007, 25.139503054000045], [85.42893268700004, 25.139788274000068], [85.42909987000007, 25.14218941300004], [85.42929934100005, 25.14299709200003], [85.43075011000008, 25.144854922000036], [85.43063806300006, 25.146218216000022], [85.42971686700008, 25.14700018900004], [85.42945569500006, 25.148137963000067], [85.42876234100004, 25.148770719000026], [85.42667759400007, 25.150826927000026], [85.42713723900005, 25.149774775000026], [85.42766127600004, 25.14866371200003], [85.42831885300006, 25.147281745000043], [85.42854514200008, 25.14605372500006], [85.42785517100003, 25.14557617400004], [85.42771947900007, 25.14431249200004], [85.42693094000003, 25.144286356000066], [85.42623721300004, 25.14458501000007], [85.42515147300008, 25.144798473000037], [85.42372026000004, 25.146131737000076], [85.42313970900005, 25.145848011000055], [85.42343379700003, 25.143396714000062], [85.42425268200003, 25.14045289200004], [85.42426659700004, 25.13974872600005], [85.42522217000004, 25.138727455000037], [85.42495824900004, 25.138010094000037], [85.42383488400003, 25.13602991500005], [85.42406267600006, 25.135822036000036], [85.42501907600007, 25.135428234000074], [85.42511755100008, 25.134976725000058], [85.42511501200005, 25.133207343000038], [85.42592195700007, 25.132321712000078], [85.42558640200008, 25.129952443000036], [85.42361130400008, 25.128754077000053], [85.42275368300005, 25.12887699500004], [85.42183120300007, 25.128638781000063], [85.42133372800004, 25.127470301000074], [85.42001432000006, 25.12707916200003], [85.41986502200007, 25.12670468700003], [85.41858024500004, 25.126227666000034], [85.41703403800005, 25.126771142000052], [85.41627572700008, 25.126952450000033], [85.41406934800006, 25.126891784000065], [85.41311336400008, 25.12764209000005], [85.41258928300005, 25.128753024000048], [85.41229316000005, 25.12974636100006], [85.41157060500007, 25.13079431600005], [85.41064959000005, 25.131698045000064], [85.41011957800004, 25.132086797000056], [85.40939550800005, 25.131970257000035], [85.40792766700008, 25.131840933000035], [85.40770094200008, 25.132861218000073], [85.40690986500005, 25.134658514000023], [85.40678325700009, 25.136459667000054], [85.40701521100004, 25.139460995000036], [85.40666844100008, 25.13968709900007], [85.40644236400004, 25.141217493000056], [85.40627943800007, 25.141790897000078], [85.40562095000007, 25.14259946900006], [85.40462887000007, 25.14232968400006], [85.40133514500008, 25.14143493100005], [85.40067541100007, 25.141196352000065], [85.40024903200003, 25.141255450000074], [85.39988958200007, 25.143354695000028], [85.39965911400003, 25.14542668200005], [85.39992814900006, 25.146451014000036], [85.39933867300005, 25.147015897000074], [85.40048921800008, 25.147073386000045], [85.40110135600008, 25.14879696400004], [85.40136514000005, 25.149636231000045], [85.40213901800007, 25.149856637000028], [85.40368592900006, 25.14955713300003], [85.40665070700004, 25.14907110000007], [85.40968044200008, 25.14888727300007], [85.41133221300004, 25.14918793700008], [85.41214132700009, 25.14983254300006], [85.41339339100006, 25.151604989000077], [85.41438759000005, 25.153355221000027], [85.41511330200007, 25.15464532900006], [85.41570426900006, 25.155213357000036], [85.41666157100008, 25.15536131700003], [85.41729063600008, 25.158393755000077], [85.41737756100008, 25.16032550500006], [85.41734837400008, 25.164315673000033], [85.41708234300006, 25.169249367000077], [85.41895738800008, 25.16942331200005], [85.41924850600003, 25.168344215000047], [85.41965954600005, 25.16794201500005], [85.42035377100007, 25.16781932200007], [85.42083969900006, 25.167737544000033], [85.42060853900006, 25.16554869400005], [85.42073998200004, 25.163810756000032], [85.42095208200004, 25.162989026000048]]]]}}, {"type": "Feature", "properties": {"OBJECTID": 5580, "GPCODE": "271821", "GPNAME_1": "SILAO NAGAR PANCHAYAT", "DIST_CEN_C": "27", "BLK_NAME": "SILAO", "ST_NAME": "BIHAR", "ST_CODE_1": "10", "GPCODE2011": "801368", "REMARKS": "FINALIZED", "MAP_STATUS": "COMPLETED", "BLK_C_2001": "270018", "BLK_C_2011": "01395", "DIST_NAME": "NALANDA", "code2011": 0.0, "Shape_Leng": 0.15970586689, "Shape_Area": 0.00081467521, "Area": 9.10257}, "geometry": {"type": "MultiPolygon", "coordinates": [[[[85.44139678700003, 25.100634401000036], [85.44086436200007, 25.09933058400003], [85.44066383700005, 25.09790454700004], [85.44036065700004, 25.097358722000024], [85.43974511800008, 25.09676824400003], [85.44014008600004, 25.09577476000004], [85.43993869400003, 25.093743806000077], [85.43962860600004, 25.09199284600004], [85.43914897000008, 25.089537978000067], [85.43881017700005, 25.08841903900003], [85.43822852500006, 25.087259724000035], [85.43862450900008, 25.086929738000038], [85.44062049700005, 25.085947734000058], [85.44165057500004, 25.08540023000006], [85.44360265300008, 25.084959918000038], [85.44498961400006, 25.08442995100006], [85.44566811200008, 25.084126661000028], [85.44603418400004, 25.083643223000024], [85.44616546500004, 25.08209486100003], [85.44599460400008, 25.08064161200008], [85.44585813900005, 25.07897168200003], [85.44542471800008, 25.077563972000064], [85.44542996600006, 25.074602964000064], [85.44554975700004, 25.07204803700006], [85.44566710800007, 25.071045876000028], [85.44586448400008, 25.070503984000027], [85.44603164500006, 25.06969121700007], [85.44601002500008, 25.06856286200008], [85.44587005400007, 25.067831844000068], [85.44588199800006, 25.06597667500006], [85.44576019900006, 25.06418489500004], [85.44553149100005, 25.063733823000064], [85.44485209400005, 25.06339166300006], [85.44442091600007, 25.063374143000033], [85.44357902400003, 25.063709257000028], [85.44165714900004, 25.064257867000038], [85.44012126300004, 25.06451715700007], [85.43873316100007, 25.06417134700007], [85.43623634800008, 25.064671022000027], [85.43524538700007, 25.064744458000064], [85.43438800500007, 25.064700438000045], [85.43292710900005, 25.06538381200005], [85.43170844100007, 25.065642556000057], [85.43035127800005, 25.066122637000035], [85.42855356000007, 25.066892137000025], [85.42693339500005, 25.067182994000063], [85.42690964500008, 25.067864592000035], [85.42708973600008, 25.069010873000025], [85.42740076100006, 25.071633011000074], [85.42774950300003, 25.072882899000035], [85.42782633400003, 25.074602560000073], [85.42801241000006, 25.07643942900006], [85.42706136600003, 25.07685123600004], [85.42313652600006, 25.077081604000057], [85.42278344200008, 25.07620181200008], [85.42101935100004, 25.07640248900003], [85.42086079200004, 25.07642969500006], [85.42001115000005, 25.074868948000073], [85.41809349200008, 25.075128404000054], [85.41707363800003, 25.072245246000023], [85.41679982600004, 25.071356399000024], [85.41629902400007, 25.071189979000053], [85.41462417600007, 25.071318186000042], [85.41252840600004, 25.07171314800007], [85.41120504000008, 25.07163335300004], [85.40975305400008, 25.07169816000004], [85.40894078100007, 25.07206013800004], [85.40805915700008, 25.072485337000046], [85.40724149400006, 25.072549397000046], [85.40634404300005, 25.072153161000074], [85.40554110200009, 25.07208174400006], [85.40451176800008, 25.07327897500005], [85.40434391800005, 25.07379370600006], [85.40404888500007, 25.075613046000058], [85.40409939900007, 25.076389316000075], [85.40449102900004, 25.07646120800007], [85.40600720600008, 25.076202325000054], [85.40672087300004, 25.07615646200003], [85.40740484700007, 25.07624594400005], [85.40822366700007, 25.07701699300003], [85.40957155100006, 25.07694783000005], [85.41072654900006, 25.077113583000028], [85.41217917900008, 25.077446055000053], [85.41362229100008, 25.078135071000077], [85.41393113800007, 25.079317291000052], [85.41459213600007, 25.080670680000026], [85.41472663800005, 25.081185060000053], [85.41543321600005, 25.08322451600003], [85.41594506500007, 25.08426208700007], [85.41595580000006, 25.08484436200007], [85.41655272800006, 25.08646860300007], [85.41722774000004, 25.08715851000005], [85.41855223100004, 25.087928832000046], [85.41961861600004, 25.088496316000032], [85.42029837400008, 25.088960445000055], [85.42148860000003, 25.08944205100005], [85.42226284700007, 25.090145316000076], [85.42305688200008, 25.090866583000036], [85.42378602300005, 25.091213357000072], [85.42532304700006, 25.091527459000076], [85.42563718100007, 25.09283603800003], [85.42585680400003, 25.09391910900007], [85.42598646600004, 25.094492235000075], [85.42610564800003, 25.09464557600006], [85.42599296900005, 25.095570991000045], [85.42599432500003, 25.096482732000027], [85.42619856200008, 25.09720919800003], [85.42659720000006, 25.098635114000047], [85.42700065400004, 25.09999775800003], [85.42773440700006, 25.100060075000044], [85.42839811100004, 25.099693641000044], [85.42974742800004, 25.100405241000033], [85.43144294100006, 25.100493374000052], [85.43407546700007, 25.10076099500003], [85.43530613900003, 25.101608077000037], [85.43620386000003, 25.101972544000034], [85.43883757600008, 25.102939683000045], [85.43995389100007, 25.10352950200007], [85.44123764700004, 25.103482779000046], [85.44139678700003, 25.100634401000036]]]]}}]}