{"type": "FeatureCollection", "features": [{"type": "Feature", "properties": {"OBJECTID": 9066, "GPCODE": "95704", "GPNAME_1": "SARMERA", "DIST_CEN_C": "27", "BLK_NAME": "SARMERA", "ST_NAME": "BIHAR", "ST_CODE_1": "10", "GPCODE2011": "98258", "REMARKS": "FINALIZED", "MAP_STATUS": "COMPLETED", "BLK_C_2001": "270007", "BLK_C_2011": "01384", "DIST_NAME": "NALANDA", "code2011": 0.0, "Shape_Leng": 0.20329535266, "Shape_Area": 0.00109575151, "Area": 12.2233}, "geometry": {"type": "MultiPolygon", "coordinates": [[[[85.80475835600004, 25.236663012000065], [85.80471961000006, 25.234970340000075], [85.80519236200007, 25.232646061000025], [85.80546578700006, 25.231671289000076], [85.80535240100005, 25.230448012000068], [85.80552129900008, 25.23014117500003], [85.80555158500005, 25.229044336000072], [85.80534395800004, 25.22769469900004], [85.80489756600008, 25.22734239500005], [85.80409934800008, 25.22610075600005], [85.80346504000005, 25.22468318400007], [85.80216526700008, 25.224687135000067], [85.80121763400007, 25.224483486000054], [85.80065233000005, 25.223774610000078], [85.80026574900006, 25.223011581000037], [85.80017226200005, 25.22177023200004], [85.79992479400005, 25.22065072500004], [85.79968760200006, 25.219138575000045], [85.79950962000004, 25.21803709900007], [85.79962459700005, 25.21663796100006], [85.79985396300003, 25.216030871000044], [85.79985817400006, 25.216019725000024], [85.79985796800008, 25.21601964100006], [85.80029043900004, 25.214688291000073], [85.80031782600008, 25.21436483000008], [85.80041539800004, 25.213212405000036], [85.79980074800005, 25.213128032000043], [85.79955711300005, 25.213094588000047], [85.79951999600007, 25.21309608100006], [85.79789515700008, 25.213161451000076], [85.79789515600004, 25.21316154300007], [85.79788970900006, 25.213159847000043], [85.79785967000004, 25.213150492000068], [85.79784773400007, 25.21314677600003], [85.79687821400006, 25.212845048000077], [85.79687810700005, 25.212844994000022], [85.79603004600006, 25.21241582500005], [85.79603000500003, 25.21241582500005], [85.79405535500007, 25.212410249000072], [85.79294398000008, 25.212477266000064], [85.79139567600004, 25.212923317000048], [85.79020978300008, 25.213039996000077], [85.78912291800003, 25.213445544000024], [85.78873567500005, 25.213761267000052], [85.78912698900007, 25.214736491000053], [85.78943364600008, 25.21601851500003], [85.78929864300005, 25.21752147600006], [85.78925855200004, 25.218171425000037], [85.78930229800005, 25.219390135000026], [85.78914242600007, 25.221037549000073], [85.78955810100007, 25.222716870000056], [85.78972100900006, 25.223809243000062], [85.78952178200007, 25.22497365600003], [85.78912389900006, 25.22630044500005], [85.78932183200004, 25.227027256000042], [85.78978285900007, 25.227663990000053], [85.78994614500004, 25.22834115200004], [85.79042676100005, 25.229384053000047], [85.79054997300005, 25.230738243000076], [85.79090664500006, 25.231519270000035], [85.79126832300005, 25.232399692000058], [85.79159351400006, 25.23286063100005], [85.79188310200004, 25.23327110500003], [85.79237368100007, 25.23431408700003], [85.79278948100006, 25.23582185500004], [85.79279418000004, 25.236214544000063], [85.79279418100003, 25.236214578000045], [85.79267893800005, 25.23797027200004], [85.79267882700003, 25.237970265000058], [85.79267873000003, 25.237970259000065], [85.79266808300008, 25.239071566000064], [85.79275640400004, 25.240488867000067], [85.79290993400008, 25.240989976000037], [85.79341066000006, 25.241703422000057], [85.79376781700006, 25.242010548000053], [85.79376796200006, 25.242010579000066], [85.79512247200006, 25.242304663000027], [85.79512255000003, 25.24230472000005], [85.79547465300004, 25.242562134000025], [85.79570746900004, 25.243225814000027], [85.79574142800004, 25.244363256000042], [85.79593451200003, 25.24521644200007], [85.79602306100008, 25.246335810000062], [85.79573004000008, 25.246651607000047], [85.79419171300003, 25.246402600000067], [85.79335338100003, 25.24613583300004], [85.79335321200006, 25.246135779000042], [85.79208335400006, 25.245128497000053], [85.79158734700007, 25.244722055000068], [85.79158728800007, 25.244722006000075], [85.79099445400004, 25.244647153000074], [85.79051057700008, 25.24458605800004], [85.79051051400006, 25.244586050000066], [85.78959741100005, 25.244689277000077], [85.78959730200006, 25.244689289000064], [85.78833753800006, 25.243429281000033], [85.78806444300005, 25.24369991700007], [85.78806037400005, 25.243843301000027], [85.78805361800005, 25.244081351000034], [85.78803803900007, 25.24463028300005], [85.78803614400005, 25.244697062000057], [85.78801704800009, 25.245369950000054], [85.78800334300007, 25.24585286100006], [85.78799252900006, 25.24718892900006], [85.78788725200008, 25.248678315000063], [85.78799573200007, 25.24960818200003], [85.78796374000007, 25.250465871000074], [85.78780699800006, 25.251339832000042], [85.78823624300009, 25.253008308000062], [85.78796505600008, 25.25567225800006], [85.78885891300007, 25.25800699000007], [85.78912883400005, 25.25956313200004], [85.78920728400004, 25.26158040000007], [85.78857928900004, 25.262128870000026], [85.78810868200009, 25.26240109400004], [85.78802970900006, 25.262446776000047], [85.78779045400006, 25.263345876000074], [85.78839005500004, 25.26424181300007], [85.790407, 25.26574194400007], [85.79125964800005, 25.26660547000006], [85.79161433700006, 25.267114159000073], [85.79186909100008, 25.268589148000046], [85.79152153500007, 25.269682714000055], [85.79140195400004, 25.270694150000054], [85.79141381500006, 25.27335707800006], [85.79269556800006, 25.275821251000025], [85.79322743500006, 25.27710116800006], [85.79480298100003, 25.27862088300003], [85.79671466300005, 25.279832483000064], [85.79837707900003, 25.280787718000056], [85.79932581100007, 25.280910552000023], [85.80063516800004, 25.28174061900006], [85.80167165200004, 25.28260788800003], [85.80357591200004, 25.28324172400005], [85.80523481400007, 25.283393458000035], [85.80657368400006, 25.28306792500007], [85.80858435200008, 25.283091932000048], [85.80872488100005, 25.281245368000043], [85.80858800900006, 25.278470135000077], [85.80819271000007, 25.27670685700008], [85.80776312700004, 25.275042970000072], [85.80843047900004, 25.274431138000068], [85.80766429900007, 25.272976181000047], [85.80755351000005, 25.271532295000043], [85.80783099500007, 25.27034413000007], [85.80846290800008, 25.269601523000063], [85.80969208700003, 25.269181684000046], [85.81191424600007, 25.268821208000077], [85.81247664000006, 25.268078796000054], [85.81313903600005, 25.268641805000073], [85.81406702600003, 25.269474616000025], [85.81487604300008, 25.270236044000058], [85.81530434600006, 25.271045060000063], [85.81573264800005, 25.271735104000072], [85.81613715700007, 25.27235376400006], [85.81641992600004, 25.27280933700007], [85.81670741900007, 25.27267089000003], [85.81696890200004, 25.271261665000054], [85.81648357500006, 25.270451175000062], [85.81564806200004, 25.269037086000026], [85.81501703200007, 25.266769277000037], [85.81445174300006, 25.26582360200007], [85.81357367000004, 25.264856503000033], [85.81218511600008, 25.264067467000075], [85.81156139500007, 25.262277936000032], [85.81062526100004, 25.260548303000064], [85.81002336100005, 25.259178477000034], [85.80963772700005, 25.25853601800003], [85.80905299200003, 25.257561860000067], [85.80850209200008, 25.255401925000058], [85.80828292500007, 25.254138966000028], [85.80746239200005, 25.253785503000074], [85.80729378400008, 25.252748093000037], [85.80756039800008, 25.252422117000037], [85.80837629000007, 25.251773565000065], [85.80835812400005, 25.251060490000043], [85.80815419700008, 25.250466034000056], [85.80798701500004, 25.249402038000028], [85.80750639300004, 25.247952938000026], [85.80684655900006, 25.247514773000034], [85.80624131400003, 25.247045080000078], [85.80582000100009, 25.246092497000063], [85.80573543400004, 25.24561430500006], [85.80556773800004, 25.244666056000028], [85.80507752200003, 25.242729522000047], [85.80481006900004, 25.24173182900006], [85.80463219500007, 25.24035510500005], [85.80462780400006, 25.239375646000042], [85.80453445000006, 25.23764237200004], [85.80475835600004, 25.236663012000065]]]]}}, {"type": "Feature", "properties": {"OBJECTID": 9051, "GPCODE": "95700", "GPNAME_1": "ISUA", "DIST_CEN_C": "27", "BLK_NAME": "SARMERA", "ST_NAME": "BIHAR", "ST_CODE_1": "10", "GPCODE2011": "98254", "REMARKS": "FINALIZED", "MAP_STATUS": "COMPLETED", "BLK_C_2001": "270007", "BLK_C_2011": "01384", "DIST_NAME": "NALANDA", "code2011": 0.0, "Shape_Leng": 0.25561164072, "Shape_Area": 0.00170630489, "Area": 19.0325}, "geometry": {"type": "MultiPolygon", "coordinates": [[[[85.90197550100004, 25.291401807000057], [85.90397530000007, 25.29119892700004], [85.90689489100004, 25.291253620000077], [85.90595088600008, 25.289285499000073], [85.90560780900006, 25.28826248100006], [85.90470588600004, 25.285802103000037], [85.90422683800006, 25.283506895000073], [85.90471778700004, 25.281559410000057], [85.90526506200007, 25.28085739100004], [85.90640246900006, 25.280040005000046], [85.90600335900007, 25.278746346000048], [85.90596087100005, 25.277320339000028], [85.90517242800007, 25.276547553000057], [85.90502494500004, 25.275898183000038], [85.90523599700003, 25.27544592000004], [85.90471613600005, 25.274780254000063], [85.90385564300004, 25.27355189700006], [85.90399248800009, 25.272224347000076], [85.90452615100008, 25.271766141000057], [85.90516323700007, 25.271149499000046], [85.90465763700007, 25.270370899000056], [85.90465421100004, 25.269725523000034], [85.90550956000004, 25.269103320000056], [85.90508947300003, 25.267597740000042], [85.90405230800008, 25.266726738000045], [85.90386968300004, 25.265982804000032], [85.90308383300004, 25.26569290900005], [85.90336211900006, 25.264816065000048], [85.90314294600006, 25.263747314000057], [85.90367553500005, 25.263099559000068], [85.90233083800007, 25.261331748000032], [85.90104143400004, 25.260624278000023], [85.90086602800005, 25.260300147000066], [85.90100355800007, 25.26003769700003], [85.90182278800006, 25.26007022600004], [85.90239114500008, 25.259611806000066], [85.90299020100008, 25.258413106000035], [85.90270417500005, 25.25782760100003], [85.90209662300003, 25.257442190000063], [85.90208176100003, 25.257438447000027], [85.90008870400004, 25.256936487000075], [85.89641495700005, 25.255851361000055], [85.89288763100006, 25.25522128800003], [85.89038617200004, 25.25428882600005], [85.88892048400004, 25.253035960000034], [85.88780932600008, 25.251257946000067], [85.88764017700004, 25.250482893000026], [85.88662126200006, 25.249146043000053], [85.88500323800008, 25.247322698000062], [85.88447703000008, 25.24610851600005], [85.88402034000006, 25.24529160000003], [85.88246694100008, 25.244253522000065], [85.88087876700007, 25.24277308300003], [85.88003495600003, 25.241441606000024], [85.87988105800008, 25.24013265900004], [85.87931204400007, 25.238679151000042], [85.87910182300004, 25.238142157000027], [85.87874948800004, 25.236603063000075], [85.87869792100008, 25.236558795000064], [85.87869732200005, 25.236558281000043], [85.87812938500008, 25.236070547000054], [85.87812918400004, 25.236070557000062], [85.87709714300007, 25.23612465800005], [85.87663571300004, 25.23604793000004], [85.87663567300007, 25.236047894000023], [85.87596076200003, 25.235452172000066], [85.87522130200006, 25.234558442000036], [85.87522116900004, 25.23455844600005], [85.87440751600008, 25.234585544000026], [85.87366253800008, 25.234506787000043], [85.87365809300007, 25.23450631700007], [85.87321153500005, 25.234459108000067], [85.87321133300009, 25.234459112000025], [85.87184684700009, 25.23446361200007], [85.87196102400009, 25.235637177000058], [85.87211976000003, 25.237009329000045], [85.87213469000005, 25.237465237000038], [85.87157391500006, 25.23793008000007], [85.86985680400005, 25.23813319100003], [85.86857652500004, 25.238110604000042], [85.86699834900008, 25.238187182000047], [85.86458661100005, 25.237956858000075], [85.86300355800006, 25.237789729000042], [85.86121703700007, 25.23752323900004], [85.86049251000009, 25.237374249000027], [85.85900381500005, 25.237261269000044], [85.85785237700009, 25.23782082100007], [85.85703855100007, 25.237947141000063], [85.85524207300006, 25.237630937000063], [85.85524186800006, 25.237630850000073], [85.85404129300008, 25.237102691000075], [85.85314316300008, 25.236457054000027], [85.85152557100008, 25.235499959000038], [85.85118811700005, 25.235283234000065], [85.85118802700003, 25.235283225000046], [85.85006660500005, 25.23516568900004], [85.84938738800008, 25.23510668600005], [85.84938662300004, 25.235106620000067], [85.84938224900003, 25.23510624000005], [85.84912874800006, 25.235084218000054], [85.84912854600003, 25.235084223000058], [85.84633980600006, 25.235101764000035], [85.84423588000004, 25.23475835100004], [85.84423586800006, 25.234758319000036], [85.84411186000006, 25.234428810000054], [85.84470282400008, 25.232537690000072], [85.84478235800003, 25.231905854000047], [85.84440547000008, 25.23108424700007], [85.84384984700006, 25.230416138000066], [85.84364661400008, 25.229391475000057], [85.84256513200006, 25.22855168500007], [85.84065494900005, 25.227630488000045], [85.84013896000005, 25.227242215000047], [85.84013879200006, 25.22724215900007], [85.84013875000005, 25.227242139000055], [85.83985565400008, 25.227905504000034], [85.83961222000005, 25.229079033000062], [85.83952765800007, 25.229932060000067], [85.83905059100005, 25.23227008400005], [85.83831113000008, 25.232409808000057], [85.83568608600007, 25.23238201500004], [85.83486227800006, 25.232553368000026], [85.83369104800005, 25.23299538400005], [85.83325421200004, 25.23329309500008], [85.83328841800005, 25.23505347200006], [85.83362545900007, 25.236204560000033], [85.83397226100004, 25.237852098000076], [85.83424951600006, 25.239833711000074], [85.83480014600008, 25.240470257000027], [85.83533065200004, 25.242027587000052], [85.83586133100005, 25.243372842000042], [85.83674927600003, 25.24457372100005], [85.83766215600008, 25.245350261000056], [85.83975121000003, 25.246614631000057], [85.84059965600005, 25.247327993000056], [85.84261442500008, 25.24819504000004], [85.84336866400008, 25.248736817000065], [85.84523952500007, 25.24932405000004], [85.84665886800008, 25.249838860000068], [85.84768101400005, 25.25047054500004], [85.84566511400004, 25.250856101000068], [85.84573590300005, 25.25111312200005], [85.84598511800004, 25.251337797000076], [85.84641286000004, 25.25153012000004], [85.84730802500007, 25.25188304900007], [85.84850495000006, 25.253060771000037], [85.84901511200007, 25.25487307900005], [85.84948630500008, 25.25681656300003], [85.84980668700007, 25.26039436900004], [85.85333129100007, 25.26051092800003], [85.85714323300004, 25.260495306000053], [85.86041907700007, 25.260481824000067], [85.86371412900007, 25.260319227000025], [85.86795237600006, 25.26020225900004], [85.87254882000008, 25.260250678000034], [85.87383072100005, 25.26050247200004], [85.87570183200006, 25.260476535000066], [85.87645261100005, 25.260730679000062], [85.87677312400007, 25.261279912000077], [85.87728207300006, 25.262767172000054], [85.87774918300005, 25.263834926000072], [85.87889822900007, 25.265256244000057], [85.87988329900008, 25.266660288000026], [85.88109948200008, 25.26762994300003], [85.88224582900006, 25.268532320000077], [85.88313919400008, 25.26946723800006], [85.88371325800006, 25.270078587000057], [85.88421964600008, 25.27105132300005], [85.88471839000005, 25.271500540000034], [85.88686816100005, 25.273468195000078], [85.88872997600004, 25.27540540800004], [85.89052263200006, 25.27740612100007], [85.89113081700003, 25.278838798000038], [85.89185593700006, 25.27984215600003], [85.89253570000005, 25.281662609000023], [85.89250921300004, 25.28322886500007], [85.89236625600006, 25.286248998000076], [85.89202066700005, 25.28755940600007], [85.89101427200006, 25.289707645000078], [85.89003733500005, 25.29086287900003], [85.89056557800006, 25.291244165000023], [85.89126342700007, 25.290821409000046], [85.89235652700006, 25.290979182000058], [85.89344674900008, 25.291547551000065], [85.89611129400004, 25.293120185000078], [85.89695568800005, 25.29318412400005], [85.89892328500008, 25.29253464100003], [85.90015072200003, 25.291825166000024], [85.90197550100004, 25.291401807000057]]]]}}, {"type": "Feature", "properties": {"OBJECTID": 5471, "GPCODE": "95705", "GPNAME_1": "SASAURA", "DIST_CEN_C": "27", "BLK_NAME": "SARMERA", "ST_NAME": "BIHAR", "ST_CODE_1": "10", "GPCODE2011": "98259", "REMARKS": "FINALIZED", "MAP_STATUS": "COMPLETED", "BLK_C_2001": "270007", "BLK_C_2011": "01384", "DIST_NAME": "NALANDA", "code2011": 0.0, "Shape_Leng": 0.20146251406, "Shape_Area": 0.00080845339, "Area": 9.01948}, "geometry": {"type": "MultiPolygon", "coordinates": [[[[85.83462452700007, 25.21590236800006], [85.83206911400003, 25.216059650000034], [85.83205477400008, 25.216057703000047], [85.83123559400008, 25.215946509000048], [85.83038727100006, 25.215797347000034], [85.82930574400007, 25.21535921900005], [85.82803600500006, 25.214979365000033], [85.82761412900004, 25.21485315700005], [85.82761404000007, 25.21485313000005], [85.82604163800005, 25.21408080300006], [85.82604147700005, 25.21408072400004], [85.82492523100007, 25.213953961000072], [85.82490882200005, 25.213957562000076], [85.82359040100005, 25.21424693000006], [85.82232475100005, 25.215271048000034], [85.82160496300008, 25.216011062000064], [85.82221991700004, 25.216783144000033], [85.82211018800007, 25.21807847100007], [85.82206030400005, 25.218841286000043], [85.82290350200003, 25.21937870900007], [85.82329018300004, 25.220439611000074], [85.82318075600006, 25.22103534300004], [85.82286291300005, 25.221640019000063], [85.81998978600006, 25.221991082000045], [85.81922061600005, 25.22217586900007], [85.81825295900006, 25.222383128000047], [85.81719129600003, 25.222436842000036], [85.81719113000008, 25.222436850000065], [85.81719017000006, 25.222434586000077], [85.81677977700008, 25.221466332000034], [85.81677973100005, 25.22146622400004], [85.81673518300005, 25.221472994000067], [85.81574257800008, 25.221623845000067], [85.81548944500008, 25.221722990000046], [85.81394134400006, 25.221848757000032], [85.81288925700005, 25.22213266700004], [85.81189664100003, 25.22246629500006], [85.80915780400005, 25.22271335000005], [85.80844314400008, 25.222983929000065], [85.80629934700005, 25.223380146000068], [85.80500403900004, 25.223826323000026], [85.80346504000005, 25.22468318400007], [85.80409934800008, 25.22610075600005], [85.80489756600008, 25.22734239500005], [85.80534395800004, 25.22769469900004], [85.80555158500005, 25.229044336000072], [85.80552129900008, 25.23014117500003], [85.80535240100005, 25.230448012000068], [85.80546578700006, 25.231671289000076], [85.80519236200007, 25.232646061000025], [85.80471961000006, 25.234970340000075], [85.80475835600004, 25.236663012000065], [85.80691189100008, 25.236898696000026], [85.80922953500004, 25.236746347000064], [85.81180497500003, 25.236864799000045], [85.81365084200007, 25.237334967000038], [85.81563591000008, 25.237277090000077], [85.81631564000008, 25.23745800300003], [85.81681639700008, 25.238577545000055], [85.81733206600006, 25.239530153000032], [85.81830463600005, 25.239548513000045], [85.81904928400007, 25.23915167100006], [85.81940190100005, 25.238497339000048], [85.82107979100005, 25.237229580000076], [85.82095105500008, 25.236520932000076], [85.82216707300006, 25.23616024300003], [85.82287677800008, 25.23598901300005], [85.82494149000007, 25.235032774000047], [85.82584963100004, 25.235245216000067], [85.82622144600003, 25.23606235500006], [85.82656302700008, 25.238260627000045], [85.82701921100005, 25.239217654000072], [85.82734111600007, 25.24101869200007], [85.82805497400005, 25.243063564000067], [85.82838177300005, 25.245027193000055], [85.82870915600006, 25.24536124900004], [85.82960746400005, 25.245438254000078], [85.83113626200003, 25.244811371000026], [85.83242159600007, 25.244879403000027], [85.83302154900008, 25.246391653000046], [85.83363106600007, 25.249140649000026], [85.83438077600005, 25.250461899000072], [85.83565718700004, 25.251419682000062], [85.83750624800007, 25.25405275600008], [85.83826237600005, 25.25543988900006], [85.83816197800007, 25.257254700000033], [85.83633369600005, 25.257929963000038], [85.83555075900006, 25.258194841000034], [85.83552063900004, 25.25916537300003], [85.83502010800004, 25.259329879000063], [85.83181446400005, 25.25947339000004], [85.83196673900005, 25.261224045000063], [85.83230574600003, 25.261534164000068], [85.83387732000006, 25.26217334100005], [85.83398885700007, 25.26369844800007], [85.83459482200004, 25.263790863000054], [85.83527297800003, 25.26340004900004], [85.83662432600005, 25.263656441000023], [85.83666178700008, 25.263200409000035], [85.83608807900004, 25.262588880000067], [85.83654607700004, 25.26183777800003], [85.83700549700006, 25.261384634000024], [85.83935647600003, 25.261018715000034], [85.83981730700003, 25.260854403000053], [85.83978030900005, 25.260394176000034], [85.84444622900008, 25.260438690000058], [85.84692375700007, 25.260573075000025], [85.84980668700007, 25.26039436900004], [85.84948630500008, 25.25681656300003], [85.84901511200007, 25.25487307900005], [85.84850495000006, 25.253060771000037], [85.84730802500007, 25.25188304900007], [85.84641286000004, 25.25153012000004], [85.84598511800004, 25.251337797000076], [85.84573590300005, 25.25111312200005], [85.84566511400004, 25.250856101000068], [85.84768101400005, 25.25047054500004], [85.84665886800008, 25.249838860000068], [85.84523952500007, 25.24932405000004], [85.84336866400008, 25.248736817000065], [85.84261442500008, 25.24819504000004], [85.84059965600005, 25.247327993000056], [85.83975121000003, 25.246614631000057], [85.83766215600008, 25.245350261000056], [85.83674927600003, 25.24457372100005], [85.83586133100005, 25.243372842000042], [85.83533065200004, 25.242027587000052], [85.83480014600008, 25.240470257000027], [85.83424951600006, 25.239833711000074], [85.83397226100004, 25.237852098000076], [85.83362545900007, 25.236204560000033], [85.83328841800005, 25.23505347200006], [85.83325421200004, 25.23329309500008], [85.83369104800005, 25.23299538400005], [85.83486227800006, 25.232553368000026], [85.83568608600007, 25.23238201500004], [85.83831113000008, 25.232409808000057], [85.83905059100005, 25.23227008400005], [85.83952765800007, 25.229932060000067], [85.83961222000005, 25.229079033000062], [85.83985565400008, 25.227905504000034], [85.84013875000005, 25.227242139000055], [85.83915643400007, 25.226916903000074], [85.83915632600008, 25.226916867000057], [85.83830296400004, 25.226492396000026], [85.83790119800005, 25.226063512000053], [85.83740035300008, 25.22487622600005], [85.83748478800004, 25.224542319000022], [85.83700378800006, 25.22362134900004], [85.83667140100005, 25.223178976000042], [85.83629458200005, 25.222199354000054], [85.83611621200004, 25.22142754200007], [85.83579559700007, 25.220884487000035], [85.83547653000005, 25.220344055000055], [85.83510973800009, 25.21913442300007], [85.83510970500004, 25.21913429600005], [85.83480747900006, 25.217762083000025], [85.83462452700007, 25.21590236800006]]]]}}, {"type": "Feature", "properties": {"OBJECTID": 5495, "GPCODE": "95698", "GPNAME_1": "DHANUKI", "DIST_CEN_C": "27", "BLK_NAME": "SARMERA", "ST_NAME": "BIHAR", "ST_CODE_1": "10", "GPCODE2011": "98252", "REMARKS": "FINALIZED", "MAP_STATUS": "COMPLETED", "BLK_C_2001": "270007", "BLK_C_2011": "01384", "DIST_NAME": "NALANDA", "code2011": 0.0, "Shape_Leng": 0.15106935895, "Shape_Area": 0.00090473642, "Area": 10.0908}, "geometry": {"type": "MultiPolygon", "coordinates": [[[[85.77509773200006, 25.294250374000057], [85.77468639800009, 25.293272396000077], [85.77355633400003, 25.29257232200007], [85.77256612400004, 25.292061213000068], [85.77175102500007, 25.290687517000038], [85.77177729100003, 25.28872855900005], [85.77183670500006, 25.28635428900003], [85.77167266500004, 25.285154291000026], [85.77142372500003, 25.284992595000062], [85.77093198300008, 25.28493114200006], [85.77036948700004, 25.285732068000073], [85.76910104700005, 25.286314250000032], [85.76797444600004, 25.286417466000046], [85.76758620300006, 25.286161555000035], [85.76694483100005, 25.28478274500003], [85.76591618300006, 25.283378094000057], [85.76552396800008, 25.282192387000066], [85.76520346200004, 25.281548155000053], [85.76516049900005, 25.280771903000073], [85.76674269000006, 25.279258906000052], [85.76843234500006, 25.278512740000053], [85.77117806600006, 25.277478485000074], [85.77181202600008, 25.277124246000028], [85.77214150600008, 25.276396385000055], [85.77192709700006, 25.275016046000076], [85.77125140900006, 25.273736541000062], [85.77014412400007, 25.27133479300005], [85.76951124000004, 25.270759227000042], [85.76686399600004, 25.270416479000062], [85.76643557800008, 25.270065980000027], [85.76641120800008, 25.268991854000035], [85.76638379200006, 25.26721358700007], [85.76588110300008, 25.264552362000074], [85.76530357200005, 25.261796639000067], [85.76468039900004, 25.259828327000037], [85.76467978500006, 25.259826389000068], [85.76444667900006, 25.258689833000062], [85.76394829700007, 25.258208542000034], [85.76303367400004, 25.257891329000074], [85.76298655900007, 25.257891493000045], [85.76232894900005, 25.257893787000057], [85.76166104300006, 25.258410559000026], [85.76163470000006, 25.258394121000038], [85.76074042100004, 25.25783608200004], [85.76020659500006, 25.25719700700006], [85.76018826300003, 25.257232033000037], [85.75971911100004, 25.258128414000055], [85.75876696700004, 25.258321258000024], [85.75872868800008, 25.258319372000074], [85.75636918000004, 25.258203138000056], [85.75428779000003, 25.257795024000075], [85.75425819200007, 25.257798552000054], [85.75319637200005, 25.257925116000024], [85.75117203900004, 25.258108090000064], [85.75114681900004, 25.258106068000075], [85.74773875500006, 25.257832851000046], [85.74452959600006, 25.257755770000074], [85.74057845800007, 25.257701286000042], [85.74057557800006, 25.257701902000065], [85.73903620600004, 25.25803139900006], [85.73874975100006, 25.258393357000045], [85.73848693600007, 25.25968511900004], [85.73862938700006, 25.260564828000042], [85.73885553200006, 25.262491316000023], [85.73918750800004, 25.264810176000026], [85.73881808400006, 25.266756703000055], [85.73854275400004, 25.268653313000073], [85.73811711900004, 25.27022091400005], [85.73826842600005, 25.272048376000043], [85.73849022200005, 25.274141933000067], [85.74188009100004, 25.273977237000054], [85.74220512800008, 25.274562943000035], [85.74220703300006, 25.27503230900004], [85.74162930800009, 25.275801544000046], [85.74169664000004, 25.276505412000063], [85.74234411600008, 25.277031355000076], [85.74389457500007, 25.277436942000065], [85.74576848700008, 25.27801742300005], [85.74654929400003, 25.27836678600005], [85.74774078200005, 25.279604034000045], [85.74844411700008, 25.28041409000008], [85.74910056800007, 25.28190129500007], [85.74947865600006, 25.283326333000048], [85.74966297900005, 25.285893919000046], [85.74987734400008, 25.28611883600007], [85.75047798200006, 25.286080694000077], [85.75125521700005, 25.28675506700006], [85.75136283200004, 25.28758520100007], [85.75094476800007, 25.288520891000076], [85.75121348100004, 25.28988310400007], [85.75157257200004, 25.291484138000044], [85.75158064700008, 25.29344300200006], [85.75116256600006, 25.29440577200006], [85.75155151600006, 25.294819678000067], [85.75259473300008, 25.294960570000057], [85.75340155300006, 25.294348513000045], [85.75388932000004, 25.293448644000023], [85.75445452200006, 25.293252624000047], [85.75668210300006, 25.294048385000053], [85.75844420700008, 25.293947608000053], [85.76119814000003, 25.29476850700007], [85.76384984600008, 25.29604564500005], [85.76510242800003, 25.29637984900006], [85.76631411800008, 25.29760330700003], [85.76726327800003, 25.296634079000057], [85.76944578800004, 25.296147948000055], [85.77106551500003, 25.295244086000025], [85.77384802300008, 25.294593305000035], [85.77509773200006, 25.294250374000057]]]]}}, {"type": "Feature", "properties": {"OBJECTID": 5497, "GPCODE": "95702", "GPNAME_1": "MALAWAN", "DIST_CEN_C": "27", "BLK_NAME": "SARMERA", "ST_NAME": "BIHAR", "ST_CODE_1": "10", "GPCODE2011": "98256", "REMARKS": "FINALIZED", "MAP_STATUS": "COMPLETED", "BLK_C_2001": "270007", "BLK_C_2011": "01384", "DIST_NAME": "NALANDA", "code2011": 0.0, "Shape_Leng": 0.16706265823, "Shape_Area": 0.00101733347, "Area": 11.3446}, "geometry": {"type": "MultiPolygon", "coordinates": [[[[85.73388496100006, 25.333117042000026], [85.73462983100006, 25.333092057000044], [85.73575269400004, 25.33321925300004], [85.73724262900004, 25.33321429700004], [85.73847841500003, 25.33299812300004], [85.73916009900006, 25.332084146000057], [85.73934480300005, 25.331077021000056], [85.73964235100004, 25.327266593000047], [85.73993675200006, 25.325162353000053], [85.74015756400007, 25.323256952000065], [85.74060547100004, 25.321039334000034], [85.74092094800005, 25.320465092000063], [85.74133682800004, 25.32015223800005], [85.74085941800007, 25.318745627000055], [85.74037941500006, 25.316711612000063], [85.73961052900006, 25.313211761000048], [85.73830816300006, 25.31039960000004], [85.73743441900007, 25.307978709000054], [85.73584491200006, 25.30287018200005], [85.73505914600008, 25.300056358000063], [85.73358398200008, 25.29618861700004], [85.73265483300008, 25.293515126000045], [85.73271533200005, 25.292472329000077], [85.73245841200008, 25.291543345000036], [85.73238836200005, 25.29015339800003], [85.73187056700004, 25.28853028800006], [85.73154499800006, 25.28655886000007], [85.73089713900004, 25.28342862900007], [85.73043852600006, 25.28041510500003], [85.72743914500006, 25.280194606000066], [85.72329624900004, 25.28078567500006], [85.72322340800008, 25.27864202300003], [85.72340799800008, 25.276321478000057], [85.72346459200008, 25.27429021200004], [85.72394737900004, 25.271671239000057], [85.72395078300008, 25.271652774000074], [85.72287178500005, 25.27120036900004], [85.72172205600003, 25.270418668000048], [85.72094517600004, 25.269748651000043], [85.72007997900005, 25.26888419000005], [85.71779811000005, 25.268476744000054], [85.71665168100003, 25.268539055000076], [85.71327242200005, 25.268838594000044], [85.70957596600005, 25.269256333000044], [85.70817321900006, 25.269779776000064], [85.70817818200004, 25.27111576200008], [85.70892450200006, 25.274214266000058], [85.70879658000007, 25.27450353300003], [85.71021669900006, 25.278561283000045], [85.71170649200008, 25.28522760000004], [85.71210062600005, 25.288358773000027], [85.71194848300007, 25.29012851600004], [85.71186058600006, 25.291834906000076], [85.71372467200007, 25.295020185000055], [85.71532412200008, 25.29652265200008], [85.71870767100006, 25.298425638000026], [85.71931057900008, 25.29898343800005], [85.71944253500004, 25.299727752000024], [85.71944589100008, 25.30059426100007], [85.71908369600004, 25.301940468000055], [85.71926215900004, 25.30315405500005], [85.72008776500007, 25.304798895000033], [85.72052777300007, 25.306878204000043], [85.72092157000003, 25.308564959000023], [85.72187430000008, 25.30965875100003], [85.72317561500006, 25.312313005000078], [85.72374164500008, 25.31610708200003], [85.72575971100008, 25.31916068000004], [85.72693191200005, 25.32174763200004], [85.72784264000006, 25.323495947000026], [85.72791264500006, 25.32362665000005], [85.72824262900008, 25.325449027000047], [85.72766898400005, 25.327332994000074], [85.72748225400005, 25.329102895000062], [85.72963002200004, 25.332214737000072], [85.73084726900004, 25.333573837000074], [85.73279843700004, 25.333409456000027], [85.73388496100006, 25.333117042000026]]]]}}, {"type": "Feature", "properties": {"OBJECTID": 5504, "GPCODE": "95701", "GPNAME_1": "KENAR", "DIST_CEN_C": "27", "BLK_NAME": "SARMERA", "ST_NAME": "BIHAR", "ST_CODE_1": "10", "GPCODE2011": "98255", "REMARKS": "FINALIZED", "MAP_STATUS": "COMPLETED", "BLK_C_2001": "270007", "BLK_C_2011": "01384", "DIST_NAME": "NALANDA", "code2011": 0.0, "Shape_Leng": 0.17308649917, "Shape_Area": 0.00110418931, "Area": 12.3132}, "geometry": {"type": "MultiPolygon", "coordinates": [[[[85.74761839200005, 25.317644249000068], [85.74988798600003, 25.317699778000076], [85.75036362200007, 25.317427331000033], [85.75124678700007, 25.317217280000023], [85.75213465100006, 25.317006110000023], [85.75216705200006, 25.316414716000054], [85.75228800900004, 25.315660579000053], [85.75265388800005, 25.315262130000065], [85.75366604200008, 25.315055511000025], [85.75505574600004, 25.31489280200003], [85.75630053200007, 25.314504896000074], [85.75691516500007, 25.314245502000063], [85.75833691800005, 25.313423673000045], [85.75933922400003, 25.31323064600008], [85.76013983600006, 25.313521265000077], [85.76055278600006, 25.314896418000046], [85.76071686700004, 25.316110039000023], [85.76057558300005, 25.31676499300005], [85.76187863000007, 25.317238841000062], [85.76265361200007, 25.317317427000035], [85.76449071100006, 25.31725231000007], [85.76540748000008, 25.316815830000053], [85.76644043200008, 25.316812208000044], [85.76834979500006, 25.315063310000028], [85.77007953300006, 25.31431253200003], [85.77095600800004, 25.31373621000006], [85.77001391800007, 25.31173559800004], [85.76957562600006, 25.30910575400003], [85.76886259900004, 25.307248686000037], [85.76752334200006, 25.30290693300003], [85.76712251000004, 25.300886235000064], [85.76631411800008, 25.29760330700003], [85.76510242800003, 25.29637984900006], [85.76384984600008, 25.29604564500005], [85.76119814000003, 25.29476850700007], [85.75844420700008, 25.293947608000053], [85.75668210300006, 25.294048385000053], [85.75445452200006, 25.293252624000047], [85.75388932000004, 25.293448644000023], [85.75340155300006, 25.294348513000045], [85.75259473300008, 25.294960570000057], [85.75155151600006, 25.294819678000067], [85.75116256600006, 25.29440577200006], [85.75158064700008, 25.29344300200006], [85.75157257200004, 25.291484138000044], [85.75121348100004, 25.28988310400007], [85.75094476800007, 25.288520891000076], [85.75136283200004, 25.28758520100007], [85.75125521700005, 25.28675506700006], [85.75047798200006, 25.286080694000077], [85.74987734400008, 25.28611883600007], [85.74966297900005, 25.285893919000046], [85.74947865600006, 25.283326333000048], [85.74910056800007, 25.28190129500007], [85.74844411700008, 25.28041409000008], [85.74774078200005, 25.279604034000045], [85.74654929400003, 25.27836678600005], [85.74576848700008, 25.27801742300005], [85.74389457500007, 25.277436942000065], [85.74234411600008, 25.277031355000076], [85.74169664000004, 25.276505412000063], [85.74162930800009, 25.275801544000046], [85.74220703300006, 25.27503230900004], [85.74220512800008, 25.274562943000035], [85.74188009100004, 25.273977237000054], [85.73849022200005, 25.274141933000067], [85.73844199300004, 25.27413589300005], [85.73694568200006, 25.273948499000028], [85.73511315800005, 25.273760371000037], [85.73243586900008, 25.273326859000065], [85.73124930000006, 25.273299105000035], [85.73124731700005, 25.273300172000063], [85.73027842000005, 25.27382132200006], [85.72920134200007, 25.273860984000066], [85.72919036700006, 25.273859636000054], [85.72816338600006, 25.27373347200006], [85.72729768900007, 25.273244282000064], [85.72636221900007, 25.272660484000028], [85.72395078300008, 25.271652774000074], [85.72394737900004, 25.271671239000057], [85.72346459200008, 25.27429021200004], [85.72340799800008, 25.276321478000057], [85.72322340800008, 25.27864202300003], [85.72329624900004, 25.28078567500006], [85.72743914500006, 25.280194606000066], [85.73043852600006, 25.28041510500003], [85.73089713900004, 25.28342862900007], [85.73154499800006, 25.28655886000007], [85.73187056700004, 25.28853028800006], [85.73238836200005, 25.29015339800003], [85.73245841200008, 25.291543345000036], [85.73271533200005, 25.292472329000077], [85.73265483300008, 25.293515126000045], [85.73358398200008, 25.29618861700004], [85.73505914600008, 25.300056358000063], [85.73584491200006, 25.30287018200005], [85.73743441900007, 25.307978709000054], [85.73830816300006, 25.31039960000004], [85.73961052900006, 25.313211761000048], [85.74037941500006, 25.316711612000063], [85.74085941800007, 25.318745627000055], [85.74133682800004, 25.32015223800005], [85.74275609400007, 25.31990831400003], [85.74513599000005, 25.31898864200008], [85.74694069800006, 25.318278462000023], [85.74761839200005, 25.317644249000068]]]]}}, {"type": "Feature", "properties": {"OBJECTID": 5535, "GPCODE": "95697", "GPNAME_1": "CHERO", "DIST_CEN_C": "27", "BLK_NAME": "SARMERA", "ST_NAME": "BIHAR", "ST_CODE_1": "10", "GPCODE2011": "98251", "REMARKS": "FINALIZED", "MAP_STATUS": "COMPLETED", "BLK_C_2001": "270007", "BLK_C_2011": "01384", "DIST_NAME": "NALANDA", "code2011": 0.0, "Shape_Leng": 0.28040373315, "Shape_Area": 0.00221723885, "Area": 24.7299}, "geometry": {"type": "MultiPolygon", "coordinates": [[[[85.86573353000006, 25.29258208500005], [85.86498992000008, 25.291817910000077], [85.86452519400007, 25.290253604000043], [85.86456542300004, 25.28739190500005], [85.86423327600005, 25.284549828000024], [85.86433058400007, 25.283172798000066], [85.86411330900006, 25.281418005000035], [85.86392200600005, 25.278922859000033], [85.86554124600008, 25.27911018100008], [85.86661536000008, 25.27947133300006], [85.86711182600004, 25.27946920100004], [85.86756660400005, 25.279083671000024], [85.86830060000005, 25.278954252000062], [85.87009480200004, 25.279361976000075], [85.87108004700008, 25.27884329500006], [85.87332951900004, 25.27896472900005], [85.87558102200006, 25.27949673200004], [85.87759827200006, 25.278865341000028], [85.88174267500005, 25.278716759000076], [85.88582356900008, 25.278766976000043], [85.88789282200008, 25.278595558000063], [85.89113081700003, 25.278838798000038], [85.89052263200006, 25.27740612100007], [85.88872997600004, 25.27540540800004], [85.88686816100005, 25.273468195000078], [85.88471839000005, 25.271500540000034], [85.88421964600008, 25.27105132300005], [85.88371325800006, 25.270078587000057], [85.88313919400008, 25.26946723800006], [85.88224582900006, 25.268532320000077], [85.88109948200008, 25.26762994300003], [85.87988329900008, 25.266660288000026], [85.87889822900007, 25.265256244000057], [85.87774918300005, 25.263834926000072], [85.87728207300006, 25.262767172000054], [85.87677312400007, 25.261279912000077], [85.87645261100005, 25.260730679000062], [85.87570183200006, 25.260476535000066], [85.87383072100005, 25.26050247200004], [85.87254882000008, 25.260250678000034], [85.86795237600006, 25.26020225900004], [85.86371412900007, 25.260319227000025], [85.86041907700007, 25.260481824000067], [85.85714323300004, 25.260495306000053], [85.85333129100007, 25.26051092800003], [85.84980668700007, 25.26039436900004], [85.84692375700007, 25.260573075000025], [85.84444622900008, 25.260438690000058], [85.83978030900005, 25.260394176000034], [85.83981730700003, 25.260854403000053], [85.83935647600003, 25.261018715000034], [85.83700549700006, 25.261384634000024], [85.83654607700004, 25.26183777800003], [85.83608807900004, 25.262588880000067], [85.83666178700008, 25.263200409000035], [85.83662432600005, 25.263656441000023], [85.83527297800003, 25.26340004900004], [85.83459482200004, 25.263790863000054], [85.83398885700007, 25.26369844800007], [85.83387732000006, 25.26217334100005], [85.83230574600003, 25.261534164000068], [85.83196673900005, 25.261224045000063], [85.83181446400005, 25.25947339000004], [85.83502010800004, 25.259329879000063], [85.83552063900004, 25.25916537300003], [85.83555075900006, 25.258194841000034], [85.83633369600005, 25.257929963000038], [85.83816197800007, 25.257254700000033], [85.83826237600005, 25.25543988900006], [85.83750624800007, 25.25405275600008], [85.83565718700004, 25.251419682000062], [85.83438077600005, 25.250461899000072], [85.83363106600007, 25.249140649000026], [85.83302154900008, 25.246391653000046], [85.83242159600007, 25.244879403000027], [85.83113626200003, 25.244811371000026], [85.82960746400005, 25.245438254000078], [85.82870915600006, 25.24536124900004], [85.82838177300005, 25.245027193000055], [85.82805497400005, 25.243063564000067], [85.82734111600007, 25.24101869200007], [85.82701921100005, 25.239217654000072], [85.82656302700008, 25.238260627000045], [85.82622144600003, 25.23606235500006], [85.82584963100004, 25.235245216000067], [85.82494149000007, 25.235032774000047], [85.82287677800008, 25.23598901300005], [85.82216707300006, 25.23616024300003], [85.82095105500008, 25.236520932000076], [85.82107979100005, 25.237229580000076], [85.81940190100005, 25.238497339000048], [85.81904928400007, 25.23915167100006], [85.81830463600005, 25.239548513000045], [85.81733206600006, 25.239530153000032], [85.81681639700008, 25.238577545000055], [85.81631564000008, 25.23745800300003], [85.81563591000008, 25.237277090000077], [85.81365084200007, 25.237334967000038], [85.81180497500003, 25.236864799000045], [85.80922953500004, 25.236746347000064], [85.80691189100008, 25.236898696000026], [85.80475835600004, 25.236663012000065], [85.80453445000006, 25.23764237200004], [85.80462780400006, 25.239375646000042], [85.80463219500007, 25.24035510500005], [85.80481006900004, 25.24173182900006], [85.80507752200003, 25.242729522000047], [85.80556773800004, 25.244666056000028], [85.80573543400004, 25.24561430500006], [85.80582000100009, 25.246092497000063], [85.80624131400003, 25.247045080000078], [85.80684655900006, 25.247514773000034], [85.80750639300004, 25.247952938000026], [85.80798701500004, 25.249402038000028], [85.80815419700008, 25.250466034000056], [85.80835812400005, 25.251060490000043], [85.80837629000007, 25.251773565000065], [85.80756039800008, 25.252422117000037], [85.80729378400008, 25.252748093000037], [85.80746239200005, 25.253785503000074], [85.80828292500007, 25.254138966000028], [85.80850209200008, 25.255401925000058], [85.80905299200003, 25.257561860000067], [85.80963772700005, 25.25853601800003], [85.81002336100005, 25.259178477000034], [85.81062526100004, 25.260548303000064], [85.81156139500007, 25.262277936000032], [85.81218511600008, 25.264067467000075], [85.81357367000004, 25.264856503000033], [85.81445174300006, 25.26582360200007], [85.81501703200007, 25.266769277000037], [85.81564806200004, 25.269037086000026], [85.81648357500006, 25.270451175000062], [85.81696890200004, 25.271261665000054], [85.81670741900007, 25.27267089000003], [85.81823669700003, 25.273825017000036], [85.81964652100004, 25.27488928500003], [85.82113220200006, 25.276242068000045], [85.82353504200006, 25.278394689000038], [85.82521567800006, 25.280026597000074], [85.82629931100007, 25.28137639600004], [85.82671052000006, 25.282232386000032], [85.82752965400005, 25.282247168000026], [85.82842499500003, 25.282613834000074], [85.82929376100003, 25.28261043400005], [85.83064592300008, 25.281959649000044], [85.83184453900003, 25.281368155000052], [85.83335656900005, 25.28092440100005], [85.83452965100008, 25.28020662800003], [85.83484863300004, 25.28048073900004], [85.83535609300003, 25.281724411000027], [85.83566787900008, 25.283600768000042], [85.83567131200004, 25.284313928000074], [85.83531816000004, 25.285190863000025], [85.83522162300005, 25.285782597000036], [85.83547606900004, 25.287063342000067], [85.83565358900006, 25.28784345400004], [85.83790746800008, 25.288859084000023], [85.84057177200003, 25.290559046000055], [85.84261628500008, 25.291381312000055], [85.84471994700004, 25.29108399200004], [85.84630214000003, 25.290757133000056], [85.84789037800005, 25.291680566000025], [85.84915172600006, 25.291738603000056], [85.85080801500004, 25.292341161000024], [85.85223281800006, 25.292317276000063], [85.85567800300004, 25.29224004300005], [85.85908928000003, 25.292320806000077], [85.86028894600008, 25.29295674800005], [85.86127280500006, 25.293110581000064], [85.86541917800008, 25.293255878000025], [85.86573353000006, 25.29258208500005]]]]}}, {"type": "Feature", "properties": {"OBJECTID": 5594, "GPCODE": "95699", "GPNAME_1": "HUSAINA", "DIST_CEN_C": "27", "BLK_NAME": "SARMERA", "ST_NAME": "BIHAR", "ST_CODE_1": "10", "GPCODE2011": "98253", "REMARKS": "FINALIZED", "MAP_STATUS": "COMPLETED", "BLK_C_2001": "270007", "BLK_C_2011": "01384", "DIST_NAME": "NALANDA", "code2011": 0.0, "Shape_Leng": 0.21079872536, "Shape_Area": 0.00099036862, "Area": 11.0446}, "geometry": {"type": "MultiPolygon", "coordinates": [[[[85.81670741900007, 25.27267089000003], [85.81641992600004, 25.27280933700007], [85.81613715700007, 25.27235376400006], [85.81573264800005, 25.271735104000072], [85.81530434600006, 25.271045060000063], [85.81487604300008, 25.270236044000058], [85.81406702600003, 25.269474616000025], [85.81313903600005, 25.268641805000073], [85.81247664000006, 25.268078796000054], [85.81191424600007, 25.268821208000077], [85.80969208700003, 25.269181684000046], [85.80846290800008, 25.269601523000063], [85.80783099500007, 25.27034413000007], [85.80755351000005, 25.271532295000043], [85.80766429900007, 25.272976181000047], [85.80843047900004, 25.274431138000068], [85.80776312700004, 25.275042970000072], [85.80819271000007, 25.27670685700008], [85.80858800900006, 25.278470135000077], [85.80872488100005, 25.281245368000043], [85.80858435200008, 25.283091932000048], [85.80657368400006, 25.28306792500007], [85.80523481400007, 25.283393458000035], [85.80357591200004, 25.28324172400005], [85.80167165200004, 25.28260788800003], [85.80063516800004, 25.28174061900006], [85.79932581100007, 25.280910552000023], [85.79837707900003, 25.280787718000056], [85.79671466300005, 25.279832483000064], [85.79480298100003, 25.27862088300003], [85.79322743500006, 25.27710116800006], [85.79269556800006, 25.275821251000025], [85.79141381500006, 25.27335707800006], [85.79140195400004, 25.270694150000054], [85.79152153500007, 25.269682714000055], [85.79186909100008, 25.268589148000046], [85.79161433700006, 25.267114159000073], [85.79125964800005, 25.26660547000006], [85.790407, 25.26574194400007], [85.78839005500004, 25.26424181300007], [85.78779045400006, 25.263345876000074], [85.78802970900006, 25.262446776000047], [85.78633678000006, 25.262358135000056], [85.78466523200007, 25.26263503800004], [85.78343073900004, 25.262959902000034], [85.78301581300008, 25.264563732000056], [85.78306494500004, 25.267835842000068], [85.78322929200004, 25.26910353900007], [85.78367429700006, 25.272677729000065], [85.78377976300004, 25.27352481300005], [85.78466618700008, 25.27867149800005], [85.78489309800005, 25.28175344400006], [85.78478485400007, 25.285360085000036], [85.78500397800008, 25.28776496000006], [85.78585901700006, 25.289142997000056], [85.78621799500007, 25.290617584000074], [85.78680795100007, 25.292682682000077], [85.78724266500006, 25.295569656000055], [85.78762311700007, 25.29852009600006], [85.78841709100004, 25.298417932000064], [85.78940587600005, 25.298576826000044], [85.79148935600006, 25.299273294000045], [85.79292131300008, 25.299732945000073], [85.79415767300009, 25.300847677000036], [85.79441020900003, 25.30181266200003], [85.79480164300008, 25.302741037000033], [85.79477340300008, 25.304180893000023], [85.79350445200004, 25.304668496000033], [85.79160509300004, 25.30519006700007], [85.79104088200006, 25.305607360000067], [85.79136664200007, 25.307402542000034], [85.79208222300008, 25.30753082500007], [85.79418130600004, 25.307243222000068], [85.79527221000006, 25.306905151000024], [85.79665670000009, 25.306724019000058], [85.79899506100008, 25.30663411100005], [85.80118394300007, 25.308643433000043], [85.80142303500008, 25.30880508300004], [85.80205874600006, 25.308834244000025], [85.80372432000007, 25.308205143000066], [85.80593195500006, 25.30669394000006], [85.80701909800007, 25.30662657000005], [85.80754896100007, 25.30630419000005], [85.80802203200005, 25.30227182400006], [85.80838601200008, 25.301521226000034], [85.80845019900005, 25.30037000300007], [85.80872501700009, 25.298577102000024], [85.80934915800003, 25.297198163000076], [85.80955683500008, 25.295920050000063], [85.80977884100008, 25.294529105000038], [85.80984052000008, 25.29283630900005], [85.80912947800005, 25.29044235300006], [85.80891172200006, 25.289513388000046], [85.80876570800007, 25.287979361000055], [85.81319332100009, 25.287804503000075], [85.81551262700003, 25.28798523300003], [85.81693761000008, 25.287997775000065], [85.81897676500006, 25.287732705000053], [85.82146911700005, 25.287754664000033], [85.82406997500004, 25.287618201000043], [85.82635383900003, 25.28764091900007], [85.82901234500008, 25.288158561000046], [85.83006907200007, 25.28799645400005], [85.83365195600004, 25.287661838000076], [85.83565358900006, 25.28784345400004], [85.83547606900004, 25.287063342000067], [85.83522162300005, 25.285782597000036], [85.83531816000004, 25.285190863000025], [85.83567131200004, 25.284313928000074], [85.83566787900008, 25.283600768000042], [85.83535609300003, 25.281724411000027], [85.83484863300004, 25.28048073900004], [85.83452965100008, 25.28020662800003], [85.83335656900005, 25.28092440100005], [85.83184453900003, 25.281368155000052], [85.83064592300008, 25.281959649000044], [85.82929376100003, 25.28261043400005], [85.82842499500003, 25.282613834000074], [85.82752965400005, 25.282247168000026], [85.82671052000006, 25.282232386000032], [85.82629931100007, 25.28137639600004], [85.82521567800006, 25.280026597000074], [85.82353504200006, 25.278394689000038], [85.82113220200006, 25.276242068000045], [85.81964652100004, 25.27488928500003], [85.81823669700003, 25.273825017000036], [85.81670741900007, 25.27267089000003]]]]}}, {"type": "Feature", "properties": {"OBJECTID": 9091, "GPCODE": "95703", "GPNAME_1": "MIRNAGAR", "DIST_CEN_C": "27", "BLK_NAME": "SARMERA", "ST_NAME": "BIHAR", "ST_CODE_1": "10", "GPCODE2011": "98257", "REMARKS": "FINALIZED", "MAP_STATUS": "COMPLETED", "BLK_C_2001": "270007", "BLK_C_2011": "01384", "DIST_NAME": "NALANDA", "code2011": 0.0, "Shape_Leng": 0.23556980096, "Shape_Area": 0.00121275374, "Area": 13.5257}, "geometry": {"type": "MultiPolygon", "coordinates": [[[[85.78132946700003, 25.31375790800007], [85.78219853700006, 25.311516032000043], [85.78206015700005, 25.31051453300006], [85.78160922000006, 25.308471607000058], [85.78164116000005, 25.30781250900003], [85.78330251100004, 25.30735061400003], [85.78509271200005, 25.30681609000004], [85.78714755500005, 25.306632578000062], [85.78780131200006, 25.307365919000063], [85.78817405400008, 25.308565096000052], [85.78864249700007, 25.30895162300004], [85.79126389700008, 25.30886074500006], [85.79145466900007, 25.308223617000067], [85.79208222300008, 25.30753082500007], [85.79136664200007, 25.307402542000034], [85.79104088200006, 25.305607360000067], [85.79160509300004, 25.30519006700007], [85.79350445200004, 25.304668496000033], [85.79477340300008, 25.304180893000023], [85.79480164300008, 25.302741037000033], [85.79441020900003, 25.30181266200003], [85.79415767300009, 25.300847677000036], [85.79292131300008, 25.299732945000073], [85.79148935600006, 25.299273294000045], [85.78940587600005, 25.298576826000044], [85.78841709100004, 25.298417932000064], [85.78762311700007, 25.29852009600006], [85.78724266500006, 25.295569656000055], [85.78680795100007, 25.292682682000077], [85.78621799500007, 25.290617584000074], [85.78585901700006, 25.289142997000056], [85.78500397800008, 25.28776496000006], [85.78478485400007, 25.285360085000036], [85.78489309800005, 25.28175344400006], [85.78466618700008, 25.27867149800005], [85.78377976300004, 25.27352481300005], [85.78367429700006, 25.272677729000065], [85.78322929200004, 25.26910353900007], [85.78306494500004, 25.267835842000068], [85.78301581300008, 25.264563732000056], [85.78343073900004, 25.262959902000034], [85.78466523200007, 25.26263503800004], [85.78633678000006, 25.262358135000056], [85.78802970900006, 25.262446776000047], [85.78810868200009, 25.26240109400004], [85.78857928900004, 25.262128870000026], [85.78920728400004, 25.26158040000007], [85.78912883400005, 25.25956313200004], [85.78885891300007, 25.25800699000007], [85.78796505600008, 25.25567225800006], [85.78823624300009, 25.253008308000062], [85.78780699800006, 25.251339832000042], [85.78796374000007, 25.250465871000074], [85.78799573200007, 25.24960818200003], [85.78788725200008, 25.248678315000063], [85.78799252900006, 25.24718892900006], [85.78800334300007, 25.24585286100006], [85.78801704800009, 25.245369950000054], [85.78803614400005, 25.244697062000057], [85.78803803900007, 25.24463028300005], [85.78805361800005, 25.244081351000034], [85.78806037400005, 25.243843301000027], [85.78806444300005, 25.24369991700007], [85.78833753800006, 25.243429281000033], [85.78833764100006, 25.243429220000053], [85.78771865200008, 25.242558661000032], [85.78771807400005, 25.242557848000047], [85.78771804100006, 25.242557808000072], [85.78697928800005, 25.241659183000024], [85.78616101500006, 25.240810098000054], [85.78616084000004, 25.240810045000046], [85.78493551600008, 25.240439226000035], [85.78338750800003, 25.24000503600007], [85.78221646200006, 25.239805665000063], [85.78052462200003, 25.239267461000054], [85.77966607900004, 25.239181145000032], [85.77842558100008, 25.239044954000065], [85.77552262000006, 25.238740565000057], [85.77427709300008, 25.238721707000025], [85.77276834900005, 25.238851571000055], [85.77307979800008, 25.24030965700007], [85.77346513200007, 25.24242236200007], [85.77362274400008, 25.24390746000006], [85.77382509400007, 25.245230047000064], [85.77385230400006, 25.24537015800007], [85.77387944500003, 25.245509910000067], [85.77407742000008, 25.246227702000056], [85.77408613200004, 25.247663077000027], [85.77401575500005, 25.248732735000033], [85.77432628200006, 25.25044753000003], [85.77432951700007, 25.250465381000026], [85.77435174400006, 25.250588134000054], [85.77407341500003, 25.25121314100005], [85.77375836600004, 25.251823579000074], [85.77400969300004, 25.25256296300006], [85.77489073900006, 25.253137550000076], [85.77602121400008, 25.254031698000063], [85.77627405500004, 25.25511859100004], [85.77607000200004, 25.25614385600005], [85.77561305500006, 25.257206188000055], [85.77540921000008, 25.258294637000063], [85.77592508500004, 25.259371534000024], [85.77606821600006, 25.26033244300004], [85.77550804300006, 25.260496859000057], [85.77548679600005, 25.260489128000074], [85.77402167400004, 25.25995599400005], [85.77247037900008, 25.259320624000054], [85.77242319500004, 25.25932079000006], [85.77028143000007, 25.259328323000034], [85.76788477400004, 25.259494713000038], [85.76622873500008, 25.259888661000048], [85.76618802600007, 25.259887024000022], [85.76467978500006, 25.259826389000068], [85.76468039900004, 25.259828327000037], [85.76530357200005, 25.261796639000067], [85.76588110300008, 25.264552362000074], [85.76638379200006, 25.26721358700007], [85.76641120800008, 25.268991854000035], [85.76643557800008, 25.270065980000027], [85.76686399600004, 25.270416479000062], [85.76951124000004, 25.270759227000042], [85.77014412400007, 25.27133479300005], [85.77125140900006, 25.273736541000062], [85.77192709700006, 25.275016046000076], [85.77214150600008, 25.276396385000055], [85.77181202600008, 25.277124246000028], [85.77117806600006, 25.277478485000074], [85.76843234500006, 25.278512740000053], [85.76674269000006, 25.279258906000052], [85.76516049900005, 25.280771903000073], [85.76520346200004, 25.281548155000053], [85.76552396800008, 25.282192387000066], [85.76591618300006, 25.283378094000057], [85.76694483100005, 25.28478274500003], [85.76758620300006, 25.286161555000035], [85.76797444600004, 25.286417466000046], [85.76910104700005, 25.286314250000032], [85.77036948700004, 25.285732068000073], [85.77093198300008, 25.28493114200006], [85.77142372500003, 25.284992595000062], [85.77167266500004, 25.285154291000026], [85.77183670500006, 25.28635428900003], [85.77177729100003, 25.28872855900005], [85.77175102500007, 25.290687517000038], [85.77256612400004, 25.292061213000068], [85.77355633400003, 25.29257232200007], [85.77468639800009, 25.293272396000077], [85.77509773200006, 25.294250374000057], [85.77384802300008, 25.294593305000035], [85.77106551500003, 25.295244086000025], [85.76944578800004, 25.296147948000055], [85.76726327800003, 25.296634079000057], [85.76631411800008, 25.29760330700003], [85.76712251000004, 25.300886235000064], [85.76752334200006, 25.30290693300003], [85.76886259900004, 25.307248686000037], [85.76957562600006, 25.30910575400003], [85.77001391800007, 25.31173559800004], [85.77095600800004, 25.31373621000006], [85.77562341900006, 25.313661032000027], [85.77903488800007, 25.31364878000005], [85.78132946700003, 25.31375790800007]]]]}}]}