{"type": "FeatureCollection", "features": [{"type": "Feature", "properties": {"OBJECTID": 5386, "GPCODE": "95689", "GPNAME_1": "BHUI", "DIST_CEN_C": "27", "BLK_NAME": "RAJGIR", "ST_NAME": "BIHAR", "ST_CODE_1": "10", "GPCODE2011": "98243", "REMARKS": "FINALIZED", "MAP_STATUS": "COMPLETED", "BLK_C_2001": "270017", "BLK_C_2011": "01394", "DIST_NAME": "NALANDA", "code2011": 0.0, "Shape_Leng": 0.18444586964, "Shape_Area": 0.00115255852, "Area": 12.8783}, "geometry": {"type": "MultiPolygon", "coordinates": [[[[85.39105687900008, 25.099431328000037], [85.39257829900004, 25.099068867000028], [85.39387702700003, 25.09912177700005], [85.39412530900006, 25.09943746400006], [85.39468688400007, 25.100673715000028], [85.39734888700008, 25.100788384000055], [85.39751052100007, 25.099163316000045], [85.39792630500006, 25.098634789000073], [85.39960049400008, 25.097617496000055], [85.39949887500006, 25.095586439000044], [85.39917403700008, 25.093397636000077], [85.39920724700005, 25.09219240300007], [85.39956359400009, 25.091749680000078], [85.39995967600004, 25.09138819700007], [85.40117851200006, 25.090994297000066], [85.40180727000006, 25.090393283000026], [85.40248436000007, 25.088857973000074], [85.40295364700006, 25.08755754200007], [85.40276955600007, 25.087029596000036], [85.40247146700005, 25.08642963400007], [85.40252012200006, 25.08567578800006], [85.40285561900004, 25.08451083800003], [85.40262527900006, 25.08260180900004], [85.40218717900007, 25.080999881000025], [85.40059638400004, 25.081186530000025], [85.39884702300003, 25.08128759300007], [85.39793498600005, 25.081256883000037], [85.39727988400006, 25.080548881000027], [85.39692714500006, 25.07979099000005], [85.39657387600005, 25.078671920000033], [85.39646378300006, 25.077764710000054], [85.39633955200009, 25.07748053000006], [85.39623435400006, 25.07655979200007], [85.39583716400006, 25.07597340700005], [85.39414712100006, 25.07597055900004], [85.39288345100005, 25.076053047000073], [85.39244707100005, 25.07581871600007], [85.39203022100008, 25.075363264000032], [85.39176260300007, 25.075363475000074], [85.39159367600007, 25.074970953000047], [85.39081493800006, 25.074448064000023], [85.38957973900006, 25.073429178000026], [85.38956273700006, 25.071546959000045], [85.38965666200005, 25.07133918200003], [85.39072692600007, 25.07118018600005], [85.39070981700007, 25.069221233000064], [85.39008003300006, 25.068865317000075], [85.39011402600005, 25.068206220000036], [85.39029694900006, 25.067854030000035], [85.38837365700005, 25.067467656000076], [85.38574689900008, 25.06718563000004], [85.38377941400006, 25.067128773000036], [85.38313499900005, 25.066948825000054], [85.38258923200004, 25.06636251300006], [85.38230093700008, 25.06556835300006], [85.38227993400005, 25.064525655000068], [85.38241259100005, 25.063397097000063], [85.38265994300008, 25.063080902000024], [85.38264446000005, 25.062480642000025], [85.38229703600007, 25.061997966000035], [85.38197951700005, 25.061668732000044], [85.38126591600007, 25.061574552000025], [85.38151290900004, 25.060852127000032], [85.38197290500005, 25.06008442500007], [85.38252621600003, 25.058540228000027], [85.38308467700006, 25.057172070000036], [85.38349973400005, 25.05608839300004], [85.38385971400004, 25.05449021100003], [85.38394276000008, 25.053375256000038], [85.38189157700003, 25.053557583000043], [85.38123265800004, 25.05366655800003], [85.38104966700007, 25.054041312000038], [85.38026749000005, 25.05471005000004], [85.37969317900007, 25.055143834000035], [85.37952609800004, 25.05652977400007], [85.37936322800005, 25.05714821600003], [85.37844726900005, 25.057875764000073], [85.37706072800006, 25.058752600000048], [85.37653603500007, 25.059294726000076], [85.37647823200007, 25.060924198000066], [85.37651419900004, 25.06216093100005], [85.37639582200006, 25.06267114700006], [85.37583653500008, 25.063348688000076], [85.37473197000008, 25.063877712000078], [85.37338470100008, 25.064470156000027], [85.37138274000006, 25.064562007000063], [85.36925194800006, 25.06468566600006], [85.36762675700004, 25.06496225500007], [85.36610560400004, 25.06514401900006], [85.36521379900006, 25.06535689900005], [85.36430738600006, 25.065854098000045], [85.36336661200005, 25.06671238800004], [85.36246579100003, 25.06793628400004], [85.36111011000008, 25.070316090000063], [85.36028748900009, 25.07034377900004], [85.35919660500008, 25.069685548000052], [85.35841834600006, 25.069460485000036], [85.35715454500007, 25.06929885200003], [85.35682793100005, 25.069813684000053], [85.35690296900003, 25.07071181200007], [85.35711775900006, 25.072548753000035], [85.35758416800007, 25.073193908000064], [85.35823966200007, 25.074755159000063], [85.35915193900007, 25.075156222000032], [85.35946494100006, 25.07596853800004], [85.35996199600004, 25.077593123000042], [85.36024583700004, 25.079055323000034], [85.36163398700006, 25.07953724400005], [85.36383027300008, 25.080293915000027], [85.36538199200004, 25.080744061000075], [85.36569447700003, 25.081032693000054], [85.36600229900006, 25.08163284400007], [85.36638537600004, 25.083117567000045], [85.36682303600008, 25.084651887000064], [85.36706733000005, 25.08614575300004], [85.36716787600005, 25.08768034700006], [85.36741240100008, 25.089372807000075], [85.36786004000004, 25.090997326000036], [85.36852077800006, 25.09253605400005], [85.36915187000005, 25.094115327000054], [85.37090146500003, 25.094037168000057], [85.37250737400007, 25.093904933000033], [85.37395950000007, 25.093781895000063], [85.37563996100005, 25.093857249000052], [85.37692433000007, 25.094447382000055], [85.37809964100006, 25.09490680500005], [85.37943377800008, 25.095682001000057], [85.38050081400007, 25.096940421000056], [85.38119628600003, 25.09828039000007], [85.38151505200005, 25.09969287800004], [85.38126826000007, 25.100708674000032], [85.38138303700003, 25.101466858000038], [85.38138375400007, 25.102103362000037], [85.38063558700009, 25.102379305000056], [85.37979782000008, 25.10239812900005], [85.37953045700004, 25.102714363000075], [85.37950619500003, 25.103237970000066], [85.37988899000004, 25.10422606000003], [85.38025752100003, 25.10581911500003], [85.38038258600005, 25.106870701000048], [85.38087886100004, 25.107380345000024], [85.38179104100004, 25.107424698000045], [85.38216790200005, 25.10748749000004], [85.38268403600006, 25.10806027500007], [85.38342755800005, 25.10796936400004], [85.38356024800004, 25.106913047000035], [85.38307859200006, 25.10620485000004], [85.38316244300006, 25.105816515000072], [85.38370711700009, 25.105242829000076], [85.38468802500006, 25.104695776000028], [85.38498467500006, 25.104000373000076], [85.38516741300003, 25.10334117700006], [85.38564771300008, 25.102916467000057], [85.38660397300004, 25.10241908000006], [85.38703462200004, 25.101877079000076], [85.38765298000004, 25.10077058400003], [85.38833154800005, 25.10030505800006], [85.38933736400008, 25.099911493000036], [85.39105687900008, 25.099431328000037]]]]}}, {"type": "Feature", "properties": {"OBJECTID": 5346, "GPCODE": "95696", "GPNAME_1": "PILKHI", "DIST_CEN_C": "27", "BLK_NAME": "RAJGIR", "ST_NAME": "BIHAR", "ST_CODE_1": "10", "GPCODE2011": "98250", "REMARKS": "FINALIZED", "MAP_STATUS": "COMPLETED", "BLK_C_2001": "270017", "BLK_C_2011": "01394", "DIST_NAME": "NALANDA", "code2011": 0.0, "Shape_Leng": 0.15557909671, "Shape_Area": 0.00115367243, "Area": 12.8984}, "geometry": {"type": "MultiPolygon", "coordinates": [[[[85.38288940000007, 25.032463930000063], [85.38341854500004, 25.03158777300007], [85.38420882700007, 25.02935728600005], [85.38447081100009, 25.028846934000057], [85.38563004900004, 25.028814287000046], [85.38579240000007, 25.02785269800006], [85.38693192600005, 25.027923903000044], [85.38752472300007, 25.02636160800006], [85.38788440500008, 25.02464152600004], [85.38781774500006, 25.022596838000027], [85.38783138100007, 25.021554110000068], [85.38799243000005, 25.01938734500004], [85.38818940200008, 25.01836254400007], [85.38835700300007, 25.01760858800003], [85.38957554400008, 25.017517186000077], [85.38975592800006, 25.014966793000042], [85.38998476000006, 25.011531542000057], [85.39018208800007, 25.010840753000025], [85.39057604300007, 25.00876405100007], [85.39130086700004, 25.005874532000064], [85.39174504700009, 25.00451996000004], [85.39153121000004, 25.003770919000033], [85.39108495500005, 25.00332449800004], [85.38995049600004, 25.00321722600006], [85.38900925800004, 25.00305558200006], [85.38866728000005, 25.002843744000074], [85.38818601200006, 25.002126501000077], [85.38758601400008, 25.001576358000023], [85.38538294500006, 25.000473070000055], [85.38200406600004, 24.99896631200005], [85.38014635000008, 24.99854192600003], [85.37949594900005, 24.997656251000024], [85.37850716300005, 24.996013966000078], [85.37649648600006, 24.995594862000075], [85.37603166000008, 24.99518454100007], [85.37474509800006, 24.994048820000046], [85.37505132700005, 24.994038169000078], [85.37169546900003, 24.992617813000038], [85.37008863800008, 24.990857211000048], [85.36751597100005, 24.989828700000032], [85.36623576400007, 24.988545694000038], [85.36427842000006, 24.987565681000035], [85.36346633500006, 24.986476069000048], [85.36088505900005, 24.984388722000062], [85.35939426700008, 24.985386154000025], [85.35865127400007, 24.986022503000072], [85.35805698600007, 24.986514404000047], [85.35779441300008, 24.986609181000063], [85.35668507800006, 24.98692501800008], [85.35609078500005, 24.986983573000032], [85.35592219000006, 24.988211312000033], [85.35566449500004, 24.989123031000076], [85.35548119300006, 24.990134150000074], [85.35513911800007, 24.992129187000046], [85.35502506000006, 24.99306798300006], [85.35489618500003, 24.99399329000005], [85.35472276500008, 24.99441310700007], [85.35453942000004, 24.994738014000063], [85.35417782400003, 24.995013363000055], [85.35388557200008, 24.995351808000066], [85.35395475400009, 24.99609660300007], [85.35403393300004, 24.996647322000058], [85.35386049900006, 24.99693614100005], [85.35351875600008, 24.99726109900007], [85.35289457800008, 24.997752997000077], [85.35274577200005, 24.99940047900003], [85.35237899800006, 25.000565059000053], [85.35051740300008, 25.001335166000047], [85.34939907400008, 25.002626811000027], [85.34913777800006, 25.004125627000064], [85.34890558900008, 25.004906645000062], [85.34834634700007, 25.005538968000053], [85.34890755900005, 25.007398247000026], [85.34874514200004, 25.00862611900004], [85.34925661300008, 25.01023268000006], [85.34948570800003, 25.011821376000057], [85.34995192500008, 25.012543305000065], [85.35284515900008, 25.012961120000057], [85.35571321800006, 25.012954527000034], [85.35654060300004, 25.013134507000075], [85.36024080200008, 25.01301], [85.36162876400005, 25.014123862000076], [85.36354562500009, 25.014000516000067], [85.36437316200005, 25.014270727000053], [85.36569128400004, 25.014784235000036], [85.36628656400006, 25.015686522000067], [85.36670403600004, 25.017166771000063], [85.36680569800006, 25.01990648900005], [85.36664409800005, 25.02186560000007], [85.36684550700005, 25.025268891000053], [85.36683123600005, 25.025887235000027], [85.36797528400007, 25.025480134000077], [85.36942671900005, 25.02543386700006], [85.37069972300003, 25.025279373000046], [85.37160128000005, 25.02522897700004], [85.37154240700005, 25.030799030000026], [85.37279624200005, 25.031131948000052], [85.37455094000006, 25.032064923000064], [85.37557111100006, 25.031639690000077], [85.37654723100007, 25.03183300200004], [85.37995175000003, 25.03264708000006], [85.38189912900003, 25.032974856000067], [85.38239436600009, 25.03282542000005], [85.38288940000007, 25.032463930000063]]]]}}, {"type": "Feature", "properties": {"OBJECTID": 5348, "GPCODE": "95692", "GPNAME_1": "MEYAR", "DIST_CEN_C": "27", "BLK_NAME": "RAJGIR", "ST_NAME": "BIHAR", "ST_CODE_1": "10", "GPCODE2011": "98246", "REMARKS": "FINALIZED", "MAP_STATUS": "COMPLETED", "BLK_C_2001": "270017", "BLK_C_2011": "01394", "DIST_NAME": "NALANDA", "code2011": 0.0, "Shape_Leng": 0.18612449226, "Shape_Area": 0.00131606667, "Area": 14.71}, "geometry": {"type": "MultiPolygon", "coordinates": [[[[85.37651419900004, 25.06216093100005], [85.37647823200007, 25.060924198000066], [85.37653603500007, 25.059294726000076], [85.37706072800006, 25.058752600000048], [85.37844726900005, 25.057875764000073], [85.37936322800005, 25.05714821600003], [85.37952609800004, 25.05652977400007], [85.37969317900007, 25.055143834000035], [85.38026749000005, 25.05471005000004], [85.38104966700007, 25.054041312000038], [85.38123265800004, 25.05366655800003], [85.38189157700003, 25.053557583000043], [85.38394276000008, 25.053375256000038], [85.38526573500008, 25.05330633500006], [85.38613266000004, 25.053161079000063], [85.38699878000006, 25.052221408000037], [85.38696325400008, 25.051440553000077], [85.38645134500007, 25.050086915000065], [85.38566578600006, 25.047704346000046], [85.38483738700006, 25.04686110600005], [85.38420140600005, 25.045200601000033], [85.38413059900006, 25.043923250000034], [85.38385673000005, 25.04265508800006], [85.38288028700003, 25.042294911000056], [85.38289917600008, 25.041482402000042], [85.38012296700003, 25.039945672000044], [85.37980047100007, 25.039503574000037], [85.37936851500007, 25.038659866000046], [85.37821356600006, 25.038119237000046], [85.37687561300004, 25.03789467100006], [85.37669111300005, 25.036766450000073], [85.37509555600008, 25.036609785000053], [85.37514367500006, 25.035183388000064], [85.37514111100006, 25.032651196000074], [85.37455094000006, 25.032064923000064], [85.37279624200005, 25.031131948000052], [85.37154240700005, 25.030799030000026], [85.37160128000005, 25.02522897700004], [85.37069972300003, 25.025279373000046], [85.36942671900005, 25.02543386700006], [85.36797528400007, 25.025480134000077], [85.36683123600005, 25.025887235000027], [85.36684550700005, 25.025268891000053], [85.36664409800005, 25.02186560000007], [85.36680569800006, 25.01990648900005], [85.36670403600004, 25.017166771000063], [85.36628656400006, 25.015686522000067], [85.36569128400004, 25.014784235000036], [85.36437316200005, 25.014270727000053], [85.36354562500009, 25.014000516000067], [85.36162876400005, 25.014123862000076], [85.36024080200008, 25.01301], [85.35654060300004, 25.013134507000075], [85.35571321800006, 25.012954527000034], [85.35284515900008, 25.012961120000057], [85.35301886000008, 25.013312991000078], [85.35320294200005, 25.014269823000063], [85.35346613700005, 25.01510922400007], [85.35420544100003, 25.016489920000026], [85.35315645900005, 25.01791698900007], [85.35209745500003, 25.019276413000057], [85.35125600600009, 25.020071339000026], [85.35053308700003, 25.020523249000064], [85.35052846200006, 25.020906903000025], [85.34982072700006, 25.021643118000043], [85.34980131700007, 25.022198350000053], [85.34998480000007, 25.022365276000073], [85.35179314500004, 25.022625831000028], [85.35253646100006, 25.022941304000028], [85.35328031900008, 25.023771243000056], [85.35337997500005, 25.024538557000028], [85.35339098100008, 25.025761801000044], [85.35335778100006, 25.027585352000074], [85.35337837100008, 25.02851974400005], [85.35372539200006, 25.028803797000023], [85.35517719000006, 25.028983346000075], [85.35578693000008, 25.029452389000028], [85.35580758000003, 25.03040474200003], [85.35548803400008, 25.033271238000054], [85.35527665600006, 25.035212330000036], [85.35505586200009, 25.037717607000047], [85.35500826000003, 25.039992571000028], [85.35413146500008, 25.040142143000025], [85.35284332700007, 25.04029646500004], [85.35091136900007, 25.040627361000077], [85.34975216400005, 25.040840295000066], [85.34854835800007, 25.041021601000068], [85.34770613300003, 25.041202734000024], [85.34726052400003, 25.04149643900007], [85.34684953700008, 25.04183970200006], [85.34589357400006, 25.042142763000072], [85.34536365900004, 25.04245909100007], [85.34537929500004, 25.043438509000055], [85.34550419500005, 25.044819654000037], [85.34582248500004, 25.046313498000075], [85.34500003500006, 25.046431382000037], [85.34366233300005, 25.046567625000023], [85.34370278100005, 25.04762835300005], [85.34385202800007, 25.048336928000026], [85.34422565600005, 25.050945610000042], [85.34450426600006, 25.052453076000063], [85.34446600300004, 25.054172864000066], [85.34477683600005, 25.054284971000072], [85.34537801400006, 25.054501794000032], [85.34618644300008, 25.054680680000047], [85.34714725800006, 25.05489328400006], [85.34825240400005, 25.054969286000073], [85.35010054000008, 25.054904884000052], [85.35018665400008, 25.057075987000076], [85.35016283400006, 25.058335330000034], [85.35074368100004, 25.059553666000056], [85.35105653200003, 25.060383970000032], [85.35159210200004, 25.060843987000055], [85.35207329200006, 25.061493622000057], [85.35215782800003, 25.06179146100004], [85.35235125300005, 25.062066739000045], [85.35459597700003, 25.06194775000006], [85.35536050400003, 25.06354061600007], [85.35547510000004, 25.06423112500005], [85.35603632900006, 25.065706761000058], [85.35632429400005, 25.066257232000055], [85.35692047900005, 25.06804872300006], [85.35715454500007, 25.06929885200003], [85.35841834600006, 25.069460485000036], [85.35919660500008, 25.069685548000052], [85.36028748900009, 25.07034377900004], [85.36111011000008, 25.070316090000063], [85.36246579100003, 25.06793628400004], [85.36336661200005, 25.06671238800004], [85.36430738600006, 25.065854098000045], [85.36521379900006, 25.06535689900005], [85.36610560400004, 25.06514401900006], [85.36762675700004, 25.06496225500007], [85.36925194800006, 25.06468566600006], [85.37138274000006, 25.064562007000063], [85.37338470100008, 25.064470156000027], [85.37473197000008, 25.063877712000078], [85.37583653500008, 25.063348688000076], [85.37639582200006, 25.06267114700006], [85.37651419900004, 25.06216093100005]]]]}}, {"type": "Feature", "properties": {"OBJECTID": 5349, "GPCODE": "95691", "GPNAME_1": "LODIPUR", "DIST_CEN_C": "27", "BLK_NAME": "RAJGIR", "ST_NAME": "BIHAR", "ST_CODE_1": "10", "GPCODE2011": "98245", "REMARKS": "FINALIZED", "MAP_STATUS": "COMPLETED", "BLK_C_2001": "270017", "BLK_C_2011": "01394", "DIST_NAME": "NALANDA", "code2011": 0.0, "Shape_Leng": 0.19546210447, "Shape_Area": 0.00129884738, "Area": 14.5182}, "geometry": {"type": "MultiPolygon", "coordinates": [[[[85.31259203900004, 25.068543421000072], [85.31382079400004, 25.068132087000038], [85.31456423300006, 25.068222052000067], [85.31550614000008, 25.068840021000028], [85.31618505900008, 25.068839710000077], [85.31653196200006, 25.068776382000067], [85.31732465800008, 25.06838332800004], [85.31759189200005, 25.067737703000034], [85.31894460800004, 25.067511457000023], [85.31901185200007, 25.063665650000075], [85.31952214500006, 25.06354805600006], [85.31994265000003, 25.06230207300007], [85.32113166000005, 25.061714719000065], [85.32394648100006, 25.061839734000046], [85.32500642900004, 25.061098996000055], [85.32611587100007, 25.060218277000047], [85.32595188900007, 25.059432913000023], [85.32560375400004, 25.057388380000077], [85.32565268400003, 25.056377269000052], [85.32588033000007, 25.05588065200004], [85.32592959900006, 25.055442777000053], [85.32593440600004, 25.05514940100005], [85.32482414300006, 25.05475726900005], [85.32389726000008, 25.05426116900003], [85.32219731000004, 25.05382419600005], [85.32141924900003, 25.053495035000026], [85.32108197300005, 25.05304835800007], [85.32060554000003, 25.05169450300008], [85.32017387300004, 25.05071513100006], [85.31974253100003, 25.05034077600004], [85.31955370200006, 25.049410989000023], [85.31829960600004, 25.048477225000056], [85.31823483200003, 25.047768580000024], [85.31797617600006, 25.045954189000042], [85.31784126400004, 25.044026840000072], [85.31800309600004, 25.04102062000004], [85.31658599800005, 25.040931], [85.31673396900004, 25.039712164000036], [85.31698148500004, 25.039202067000076], [85.31726276300003, 25.03727449200005], [85.31738500400007, 25.034317988000055], [85.31755590600005, 25.02984021900005], [85.31751506100005, 25.02760590500003], [85.31769274000004, 25.026355546000048], [85.31794963700008, 25.025055388000055], [85.31613073500006, 25.023643410000034], [85.31438621400008, 25.022280993000038], [85.31325704500006, 25.022850232000053], [85.30714962800005, 25.02436933000007], [85.30565367900005, 25.024685894000072], [85.30202295900006, 25.026000644000078], [85.30103719400006, 25.026213162000033], [85.29868399600008, 25.025943151000035], [85.29707873300003, 25.025591560000066], [85.29520100100007, 25.025100147000046], [85.29461111700004, 25.024287881000078], [85.29447198500003, 25.022974343000044], [85.29408056300008, 25.02287969500003], [85.29313452100007, 25.023353893000035], [85.29285737900005, 25.02407619400003], [85.29219929900006, 25.026220391000038], [85.28875131900008, 25.02639744800007], [85.28556094100009, 25.02651560100003], [85.28353476300003, 25.026655985000048], [85.28122127300009, 25.02670612000003], [85.27541511500004, 25.026427305000027], [85.27367128300006, 25.02638253200007], [85.27224459500007, 25.027132030000075], [85.27124420700005, 25.028653292000058], [85.27172492500006, 25.02947922100003], [85.27237392500007, 25.029939505000073], [85.27311715400003, 25.030237302000046], [85.27507415800005, 25.03064327800007], [85.27751182200006, 25.03143730900007], [85.27933004400006, 25.03153624500004], [85.28265439500007, 25.03170252900003], [85.28304105300003, 25.032672947000037], [85.28338362400007, 25.03529534000006], [85.28331935900007, 25.035927251000032], [85.28287395000007, 25.037638078000043], [85.28462805100008, 25.03818840300005], [85.28557945000006, 25.038653126000042], [85.28597587800004, 25.039054745000044], [85.28660054100004, 25.040210092000052], [85.28684828100006, 25.040318332000027], [85.28778464600003, 25.04007434500005], [85.28903799300008, 25.03971744200004], [85.28981091700007, 25.039654057000064], [85.29051949700005, 25.039969815000063], [85.29084662600008, 25.040330866000033], [85.29101033900008, 25.040782166000042], [85.29086181700006, 25.041319411000075], [85.28930174300007, 25.043075677000047], [85.28856871200009, 25.044136613000035], [85.28814296900003, 25.045138765000047], [85.28815804500005, 25.045757093000077], [85.28824241600006, 25.046312344000057], [85.28877775700005, 25.047011809000026], [85.28938734400003, 25.047508192000066], [85.29016045100008, 25.047747221000066], [85.29228615100004, 25.048062560000062], [85.29291069400006, 25.048509227000068], [85.29318824800004, 25.048942440000076], [85.29308936900009, 25.049538322000046], [85.29208392000004, 25.050712230000045], [85.29182148900009, 25.051145596000026], [85.29187112900007, 25.051461516000074], [85.29221807400006, 25.05180447600003], [85.29313991300006, 25.052314290000027], [85.29371490000005, 25.052855781000062], [85.29416111700004, 25.053437881000036], [85.29429012800006, 25.05390279900007], [85.29488490700004, 25.054340437000064], [85.29632701700007, 25.054890725000064], [85.29739758600005, 25.055504210000038], [85.29800738600005, 25.05616304700004], [85.29812148900004, 25.05667305700007], [85.29803751300005, 25.057291460000044], [85.29757678400006, 25.057666226000038], [85.29667013400007, 25.05802761900003], [85.29650668700003, 25.058208240000056], [85.29642753100006, 25.058402371000057], [85.29655643100006, 25.05870019100007], [85.29693801800005, 25.058776840000064], [85.29892967200004, 25.057891519000066], [85.29945502100009, 25.05789129200008], [85.30021341000008, 25.058459820000053], [85.30027817500007, 25.05937609700004], [85.29976832700004, 25.060757456000033], [85.29940226800005, 25.062256123000054], [85.29972008300007, 25.063948744000072], [85.29999347700004, 25.065997904000028], [85.30098023800008, 25.06736065900003], [85.30243785600004, 25.068854187000056], [85.30286429800003, 25.06936416700006], [85.30364258700007, 25.069932547000064], [85.30421765900007, 25.07033858400007], [85.30613057100004, 25.070243109000046], [85.30880613400006, 25.069203947000062], [85.31100637900005, 25.06895023800007], [85.31259203900004, 25.068543421000072]]]]}}, {"type": "Feature", "properties": {"OBJECTID": 5350, "GPCODE": "95694", "GPNAME_1": "NAI POKHAR", "DIST_CEN_C": "27", "BLK_NAME": "RAJGIR", "ST_NAME": "BIHAR", "ST_CODE_1": "10", "GPCODE2011": "98248", "REMARKS": "FINALIZED", "MAP_STATUS": "COMPLETED", "BLK_C_2001": "270017", "BLK_C_2011": "01394", "DIST_NAME": "NALANDA", "code2011": 0.0, "Shape_Leng": 0.20384001992, "Shape_Area": 0.00087237875, "Area": 9.75096}, "geometry": {"type": "MultiPolygon", "coordinates": [[[[85.44650150000007, 25.047442379000074], [85.44800258100008, 25.047273416000053], [85.44919182300004, 25.04731699100006], [85.44957401000005, 25.04776781000004], [85.44984817300008, 25.04875590900008], [85.45008204500004, 25.049373995000053], [85.45045977800004, 25.050050573000078], [85.450595, 25.050957620000077], [85.45158559500004, 25.050685481000073], [85.45270501000005, 25.050458261000074], [85.45439907200006, 25.050103899000078], [85.45575168400006, 25.050088507000055], [85.45684059900003, 25.04939187000008], [85.45879052400005, 25.04802145000008], [85.45894774700008, 25.047217759000034], [85.45879736700005, 25.046193428000038], [85.45866250100005, 25.045552604000022], [85.45829914200004, 25.044587196000066], [85.45786708400004, 25.04400098900004], [85.45694488300006, 25.043614115000025], [85.45668690300005, 25.043451968000056], [85.45483209900004, 25.042371251000077], [85.45413757400007, 25.041830591000064], [85.45319456800007, 25.040870421000022], [85.45221168000006, 25.039761401000078], [85.45025697600005, 25.03815261400007], [85.44901718900007, 25.037445622000064], [85.44809017300008, 25.03711736400004], [85.44741625400007, 25.037041531000057], [85.44625746100007, 25.03737705800006], [85.44621550900007, 25.035950745000036], [85.44834580500003, 25.035889218000023], [85.44983204300007, 25.03578348900004], [85.45060938500006, 25.035511591000045], [85.45125235100005, 25.03480205900007], [85.45153852400006, 25.03408401200005], [85.45195413500005, 25.033749415000045], [85.45242950700003, 25.03363140700003], [85.45269450200004, 25.032091824000076], [85.45761413300005, 25.03211663700006], [85.45777097400008, 25.031118853000066], [85.45826555800005, 25.030590113000073], [85.45827884300007, 25.029718906000028], [85.45905623500005, 25.02944705300007], [85.45950183900004, 25.029292948000034], [85.45989761500005, 25.028949263000072], [85.45992098400006, 25.028132327000037], [85.46015305100008, 25.02766250600007], [85.45980289500005, 25.02569498300005], [85.46037234500005, 25.025536223000074], [85.46117918400006, 25.025192015000073], [85.46132733400003, 25.024902952000048], [85.46155816300006, 25.02376067700004], [85.46172000800004, 25.02281254600007], [85.46147042400008, 25.021666426000024], [85.46089784500003, 25.020019700000034], [85.46054930000008, 25.018963945000053], [85.45935866300005, 25.017945490000045], [85.45873295600006, 25.01701651600007], [85.45785911900003, 25.01588930300005], [85.45703442900003, 25.014450633000024], [85.45630829200007, 25.01270926500007], [85.45544845900008, 25.01100430200006], [85.45324415200008, 25.01094409500007], [85.45156352300006, 25.010079764000068], [85.45031955900004, 25.00967518500005], [85.44902649400007, 25.009523454000032], [85.44738188600007, 25.009484978000046], [85.44535181600008, 25.009970702000032], [85.44369319800006, 25.01046938500008], [85.44333210700006, 25.01076768300004], [85.44323360100003, 25.01112895600005], [85.44250344700004, 25.013039218000074], [85.44235599400008, 25.01378866700003], [85.44235873800005, 25.015526458000068], [85.44248396100005, 25.01643359800005], [85.44268387900007, 25.017516640000053], [85.44284868500006, 25.018401105000066], [85.44302773500004, 25.01886582000003], [85.44396008600006, 25.019528137000066], [85.44440197200004, 25.020127856000045], [85.44450186100005, 25.020682966000038], [85.44473649100007, 25.021761465000054], [85.44493605400004, 25.02266395600003], [85.44478816100008, 25.023129039000025], [85.44447631900005, 25.023323531000074], [85.44417925500005, 25.023382635000075], [85.44322284600008, 25.023176249000073], [85.44257331900008, 25.022865640000077], [85.44056631000007, 25.02240328000005], [85.43886656200004, 25.02206237000007], [85.43791544200008, 25.022018453000044], [85.43733602800006, 25.02215463400006], [85.43679685100005, 25.022665347000043], [85.43657457900008, 25.023148605000074], [85.43637678900006, 25.023374536000063], [85.43637836000005, 25.024394637000057], [85.43647816500004, 25.024886465000066], [85.43648115300005, 25.026868082000078], [85.43621928400006, 25.027333294000073], [85.43610736900007, 25.02866497800005], [85.43599403300004, 25.029039753000063], [85.43483976000005, 25.029072788000065], [85.43407707700004, 25.029222676000074], [85.43353305600004, 25.029837274000045], [85.43276143900005, 25.03070030500004], [85.43261325600008, 25.031016514000044], [85.43302444800008, 25.031015973000024], [85.43358477400005, 25.031344773000058], [85.43354572100003, 25.031728541000064], [85.43300129200009, 25.032090277000066], [85.43278894300005, 25.032514866000042], [85.43273266100005, 25.034686023000063], [85.43268536400006, 25.036162085000058], [85.43274796100008, 25.03826089200004], [85.43287969400006, 25.04020618800007], [85.43324848800006, 25.041677204000052], [85.43331616900008, 25.04389337300006], [85.43293567800004, 25.044552880000026], [85.43227679700004, 25.04459878800003], [85.43146891500004, 25.04446439700007], [85.43065587000007, 25.044167405000053], [85.43042746600008, 25.043833660000075], [85.43011829000005, 25.04247090700005], [85.43006697300007, 25.041265834000058], [85.43022975500008, 25.040737514000057], [85.43099220300007, 25.040343905000043], [85.43114006000008, 25.03987875000007], [85.43033612600004, 25.03893640600006], [85.42863159200004, 25.038816546000078], [85.42698044600007, 25.03792935900003], [85.42642144400008, 25.038561956000024], [85.42613906300005, 25.03859388500007], [85.42521174100006, 25.037962977000063], [85.42522259000003, 25.038676165000027], [85.42570460300004, 25.039637018000064], [85.42553410300007, 25.04170457400005], [85.42550038500008, 25.042368105000037], [85.42578432800008, 25.043451060000052], [85.42602481900008, 25.04529240200003], [85.42587919100004, 25.047400534000076], [85.42806427800008, 25.047343727000055], [85.43095737300007, 25.047006200000055], [85.43212697200005, 25.047140229000036], [85.43241236100005, 25.049143959000048], [85.43263828100004, 25.051156869000067], [85.43270459200005, 25.05240249600007], [85.43283098100005, 25.054099519000033], [85.43271994400004, 25.056040620000033], [85.43253465700008, 25.058112652000034], [85.43231934100004, 25.059891320000077], [85.43233023100004, 25.06056387500007], [85.43294108900005, 25.06145228200006], [85.43337270200004, 25.06182641500004], [85.43373607200004, 25.062895688000026], [85.43476618300008, 25.06243858700003], [85.43476424700003, 25.06115661900003], [85.43497979700004, 25.059517869000047], [85.43513771600004, 25.059120531000076], [85.43556236400008, 25.058113374000072], [85.43552886900005, 25.055626381000025], [85.43583492500005, 25.054854153000065], [85.43685355700006, 25.053467112000078], [85.43754569800006, 25.052396557000066], [85.43804889800003, 25.050960476000057], [85.43827555400009, 25.050102598000024], [85.43869106100004, 25.04963714300004], [85.44013195800005, 25.049025983000035], [85.44135519400004, 25.04860008000003], [85.44236068400005, 25.048359626000035], [85.44342058400008, 25.048069347000023], [85.44451044700008, 25.047977631000037], [85.44587274900005, 25.047745682000027], [85.44650150000007, 25.047442379000074]]]]}}, {"type": "Feature", "properties": {"OBJECTID": 5354, "GPCODE": "95690", "GPNAME_1": "GOROUR", "DIST_CEN_C": "27", "BLK_NAME": "RAJGIR", "ST_NAME": "BIHAR", "ST_CODE_1": "10", "GPCODE2011": "98244", "REMARKS": "FINALIZED", "MAP_STATUS": "COMPLETED", "BLK_C_2001": "270017", "BLK_C_2011": "01394", "DIST_NAME": "NALANDA", "code2011": 0.0, "Shape_Leng": 0.18750722645, "Shape_Area": 0.00142976197, "Area": 15.9824}, "geometry": {"type": "MultiPolygon", "coordinates": [[[[85.33837582200005, 25.06056354900005], [85.33844894400005, 25.059006260000046], [85.33849753700008, 25.057593429000065], [85.33866941700006, 25.055539527000064], [85.33888165800005, 25.05427561700003], [85.33890560600008, 25.05323293400005], [85.34000073300007, 25.053241265000054], [85.34099205000007, 25.05361980400005], [85.34183447900006, 25.05372307300007], [85.34332610100006, 25.053961426000058], [85.34446600300004, 25.054172864000066], [85.34450426600006, 25.052453076000063], [85.34422565600005, 25.050945610000042], [85.34385202800007, 25.048336928000026], [85.34370278100005, 25.04762835300005], [85.34366233300005, 25.046567625000023], [85.34500003500006, 25.046431382000037], [85.34582248500004, 25.046313498000075], [85.34550419500005, 25.044819654000037], [85.34537929500004, 25.043438509000055], [85.34536365900004, 25.04245909100007], [85.34589357400006, 25.042142763000072], [85.34684953700008, 25.04183970200006], [85.34726052400003, 25.04149643900007], [85.34770613300003, 25.041202734000024], [85.34854835800007, 25.041021601000068], [85.34975216400005, 25.040840295000066], [85.35091136900007, 25.040627361000077], [85.35284332700007, 25.04029646500004], [85.35413146500008, 25.040142143000025], [85.35500826000003, 25.039992571000028], [85.35505586200009, 25.037717607000047], [85.35527665600006, 25.035212330000036], [85.35548803400008, 25.033271238000054], [85.35580758000003, 25.03040474200003], [85.35578693000008, 25.029452389000028], [85.35517719000006, 25.028983346000075], [85.35372539200006, 25.028803797000023], [85.35337837100008, 25.02851974400005], [85.35335778100006, 25.027585352000074], [85.35339098100008, 25.025761801000044], [85.35337997500005, 25.024538557000028], [85.35328031900008, 25.023771243000056], [85.35253646100006, 25.022941304000028], [85.35179314500004, 25.022625831000028], [85.34998480000007, 25.022365276000073], [85.34980131700007, 25.022198350000053], [85.34982072700006, 25.021643118000043], [85.35052846200006, 25.020906903000025], [85.35053308700003, 25.020523249000064], [85.34890296600008, 25.020014238000044], [85.34647070900007, 25.020106128000066], [85.34519759200003, 25.020174664000024], [85.34229959900006, 25.02013133300005], [85.34083329800006, 25.020163858000046], [85.33878212600007, 25.019664040000066], [85.33843904000008, 25.017908393000027], [85.33809046800008, 25.015466642000035], [85.33793059400006, 25.013453637000055], [85.33734048800005, 25.01264143800006], [85.33584422100006, 25.012209012000028], [85.33102882500003, 25.01126375900003], [85.32856156700007, 25.010511290000068], [85.32823932300005, 25.01013236600005], [85.32812376200008, 25.007568606000063], [85.32806718300003, 25.00679697700008], [85.32722617300004, 25.006946887000026], [85.32451280100008, 25.007430510000063], [85.32301203200007, 25.007625268000027], [85.32006002900005, 25.007829810000032], [85.31808357900007, 25.00774049200004], [85.31802433700005, 25.008074529000055], [85.31794608500007, 25.00983043800005], [85.31784817900007, 25.01187075000007], [85.31765094100007, 25.013595100000032], [85.31681904200008, 25.014173210000024], [85.31584840700003, 25.01457986400004], [85.31550222500005, 25.015613647000066], [85.31533940800006, 25.016832454000053], [85.31520119000004, 25.017830066000045], [85.31490492700004, 25.01952741200006], [85.31472215200006, 25.020574641000053], [85.31438621400008, 25.022280993000038], [85.31613073500006, 25.023643410000034], [85.31794963700008, 25.025055388000055], [85.31769274000004, 25.026355546000048], [85.31751506100005, 25.02760590500003], [85.31755590600005, 25.02984021900005], [85.31738500400007, 25.034317988000055], [85.31726276300003, 25.03727449200005], [85.31698148500004, 25.039202067000076], [85.31673396900004, 25.039712164000036], [85.31658599800005, 25.040931], [85.31800309600004, 25.04102062000004], [85.31784126400004, 25.044026840000072], [85.31797617600006, 25.045954189000042], [85.31823483200003, 25.047768580000024], [85.31829960600004, 25.048477225000056], [85.31955370200006, 25.049410989000023], [85.31974253100003, 25.05034077600004], [85.32017387300004, 25.05071513100006], [85.32060554000003, 25.05169450300008], [85.32108197300005, 25.05304835800007], [85.32141924900003, 25.053495035000026], [85.32219731000004, 25.05382419600005], [85.32389726000008, 25.05426116900003], [85.32482414300006, 25.05475726900005], [85.32593440600004, 25.05514940100005], [85.32592959900006, 25.055442777000053], [85.32588033000007, 25.05588065200004], [85.32565268400003, 25.056377269000052], [85.32560375400004, 25.057388380000077], [85.32595188900007, 25.059432913000023], [85.32611587100007, 25.060218277000047], [85.32681941000004, 25.059942560000025], [85.32962378600007, 25.059444563000056], [85.33074867200008, 25.059367187000078], [85.33260187700006, 25.059352657000034], [85.33318722600006, 25.06016032900004], [85.33358420600007, 25.060959022000077], [85.33427838700004, 25.061545446000025], [85.33507145100003, 25.06191962400004], [85.33596372600005, 25.062325288000068], [85.33655880500004, 25.06285312700004], [85.33706992000003, 25.063800694000065], [85.33728823300004, 25.06425190400006], [85.33728903300005, 25.065425454000035], [85.33677450500005, 25.066522647000056], [85.33857778200007, 25.065799362000064], [85.33845658200005, 25.062608262000026], [85.33837582200005, 25.06056354900005]]]]}}, {"type": "Feature", "properties": {"OBJECTID": 5355, "GPCODE": "95695", "GPNAME_1": "PATHROURA", "DIST_CEN_C": "27", "BLK_NAME": "RAJGIR", "ST_NAME": "BIHAR", "ST_CODE_1": "10", "GPCODE2011": "98249", "REMARKS": "FINALIZED", "MAP_STATUS": "COMPLETED", "BLK_C_2001": "270017", "BLK_C_2011": "01394", "DIST_NAME": "NALANDA", "code2011": 0.0, "Shape_Leng": 0.20765843984, "Shape_Area": 0.00107148446, "Area": 11.9751}, "geometry": {"type": "MultiPolygon", "coordinates": [[[[85.40822366700007, 25.07701699300003], [85.40740484700007, 25.07624594400005], [85.40672087300004, 25.07615646200003], [85.40600720600008, 25.076202325000054], [85.40449102900004, 25.07646120800007], [85.40409939900007, 25.076389316000075], [85.40404888500007, 25.075613046000058], [85.40434391800005, 25.07379370600006], [85.40451176800008, 25.07327897500005], [85.40554110200009, 25.07208174400006], [85.40534225100004, 25.071594477000076], [85.40550054700003, 25.07135956700006], [85.40564794500006, 25.070357410000042], [85.40543334900008, 25.069175010000038], [85.40521447200007, 25.068538841000077], [85.40528764800007, 25.06764503000005], [85.40572257500008, 25.066750824000053], [85.40568630300004, 25.06544639400005], [85.40606665800004, 25.064534196000068], [85.40613523600007, 25.063884200000075], [85.40603038300009, 25.063229765000074], [85.40533043600004, 25.062291681000033], [85.40433280200006, 25.06107852100007], [85.40372231900005, 25.060311777000038], [85.40308686000003, 25.05936009800007], [85.40315066100004, 25.058872491000045], [85.40434880200007, 25.058004580000045], [85.40454086200003, 25.05708809400005], [85.40484220400003, 25.056297951000033], [85.40515900400004, 25.056040272000075], [85.40682370400003, 25.05585346600003], [85.40760545400008, 25.05499050800006], [85.40775351200006, 25.054489356000033], [85.40773708200004, 25.053284175000044], [85.40862877200004, 25.05313433300006], [85.40908925100007, 25.05279976500003], [85.41110588300006, 25.052738962000035], [85.41171181300007, 25.050106796000023], [85.41343088000008, 25.049861174000057], [85.41346430300007, 25.048868054000025], [85.41382556600007, 25.048569739000072], [85.41405634400007, 25.047003260000054], [85.41399533900005, 25.045847813000023], [85.41323246500008, 25.045984058000045], [85.41108681800006, 25.045774246000065], [85.41110980500008, 25.044411075000028], [85.41117389800007, 25.044185348000042], [85.41119099600007, 25.042095368000048], [85.41130248300004, 25.040258177000055], [85.41016289700008, 25.040241409000032], [85.40807171400007, 25.039968300000055], [85.40802323900004, 25.04074924200006], [85.40864535700007, 25.042942234000066], [85.40833343000008, 25.043091511000057], [85.40547450100007, 25.04306290200003], [85.40534176900007, 25.043848446000027], [85.40260652500007, 25.04369330800006], [85.40232829100006, 25.043079747000036], [85.40143632600007, 25.04301741200004], [85.40113263200004, 25.041799049000076], [85.39731726200006, 25.04156363900006], [85.39720704100006, 25.04056623400004], [85.39742200800004, 25.03800672400007], [85.39769361200007, 25.037293258000034], [85.40087916200008, 25.037109496000028], [85.40117335800005, 25.03468529500003], [85.40257006300004, 25.03434538600004], [85.40257904600008, 25.033559930000024], [85.40119166900007, 25.033443977000047], [85.40121522800007, 25.032468979000043], [85.40089634400005, 25.031006837000064], [85.40044871500004, 25.029562918000067], [85.39981357900007, 25.02874201800006], [85.39829254700004, 25.028608141000063], [85.39606341600006, 25.028836038000065], [85.39504779400005, 25.02881446600003], [85.39429930800009, 25.02845405100004], [85.39335863000008, 25.028937989000042], [85.39132759400007, 25.029075353000053], [85.39028688100007, 25.028805531000046], [85.38729966800008, 25.02888498300007], [85.38693192600005, 25.027923903000044], [85.38579240000007, 25.02785269800006], [85.38563004900004, 25.028814287000046], [85.38447081100009, 25.028846934000057], [85.38420882700007, 25.02935728600005], [85.38341854500004, 25.03158777300007], [85.38288940000007, 25.032463930000063], [85.38239436600009, 25.03282542000005], [85.38189912900003, 25.032974856000067], [85.37995175000003, 25.03264708000006], [85.37654723100007, 25.03183300200004], [85.37557111100006, 25.031639690000077], [85.37455094000006, 25.032064923000064], [85.37514111100006, 25.032651196000074], [85.37514367500006, 25.035183388000064], [85.37509555600008, 25.036609785000053], [85.37669111300005, 25.036766450000073], [85.37687561300004, 25.03789467100006], [85.37821356600006, 25.038119237000046], [85.37936851500007, 25.038659866000046], [85.37980047100007, 25.039503574000037], [85.38012296700003, 25.039945672000044], [85.38289917600008, 25.041482402000042], [85.38288028700003, 25.042294911000056], [85.38385673000005, 25.04265508800006], [85.38413059900006, 25.043923250000034], [85.38420140600005, 25.045200601000033], [85.38483738700006, 25.04686110600005], [85.38566578600006, 25.047704346000046], [85.38645134500007, 25.050086915000065], [85.38696325400008, 25.051440553000077], [85.38699878000006, 25.052221408000037], [85.38613266000004, 25.053161079000063], [85.38526573500008, 25.05330633500006], [85.38394276000008, 25.053375256000038], [85.38385971400004, 25.05449021100003], [85.38349973400005, 25.05608839300004], [85.38308467700006, 25.057172070000036], [85.38252621600003, 25.058540228000027], [85.38197290500005, 25.06008442500007], [85.38151290900004, 25.060852127000032], [85.38126591600007, 25.061574552000025], [85.38197951700005, 25.061668732000044], [85.38229703600007, 25.061997966000035], [85.38264446000005, 25.062480642000025], [85.38265994300008, 25.063080902000024], [85.38241259100005, 25.063397097000063], [85.38227993400005, 25.064525655000068], [85.38230093700008, 25.06556835300006], [85.38258923200004, 25.06636251300006], [85.38313499900005, 25.066948825000054], [85.38377941400006, 25.067128773000036], [85.38574689900008, 25.06718563000004], [85.38837365700005, 25.067467656000076], [85.39029694900006, 25.067854030000035], [85.39011402600005, 25.068206220000036], [85.39008003300006, 25.068865317000075], [85.39070981700007, 25.069221233000064], [85.39072692600007, 25.07118018600005], [85.38965666200005, 25.07133918200003], [85.38956273700006, 25.071546959000045], [85.38957973900006, 25.073429178000026], [85.39081493800006, 25.074448064000023], [85.39159367600007, 25.074970953000047], [85.39176260300007, 25.075363475000074], [85.39203022100008, 25.075363264000032], [85.39244707100005, 25.07581871600007], [85.39288345100005, 25.076053047000073], [85.39414712100006, 25.07597055900004], [85.39583716400006, 25.07597340700005], [85.39623435400006, 25.07655979200007], [85.39633955200009, 25.07748053000006], [85.39646378300006, 25.077764710000054], [85.39657387600005, 25.078671920000033], [85.39692714500006, 25.07979099000005], [85.39727988400006, 25.080548881000027], [85.39793498600005, 25.081256883000037], [85.39884702300003, 25.08128759300007], [85.40059638400004, 25.081186530000025], [85.40218717900007, 25.080999881000025], [85.40448177600007, 25.080907178000075], [85.40689496200008, 25.080530069000076], [85.40866374500007, 25.080076802000065], [85.40873622700008, 25.078672957000038], [85.40822366700007, 25.07701699300003]]]]}}, {"type": "Feature", "properties": {"OBJECTID": 5358, "GPCODE": "95688", "GPNAME_1": "BARNOUSA", "DIST_CEN_C": "27", "BLK_NAME": "RAJGIR", "ST_NAME": "BIHAR", "ST_CODE_1": "10", "GPCODE2011": "98242", "REMARKS": "FINALIZED", "MAP_STATUS": "COMPLETED", "BLK_C_2001": "270017", "BLK_C_2011": "01394", "DIST_NAME": "NALANDA", "code2011": 0.0, "Shape_Leng": 0.17512342316, "Shape_Area": 0.0011460064, "Area": 12.8065}, "geometry": {"type": "MultiPolygon", "coordinates": [[[[85.35459597700003, 25.06194775000006], [85.35235125300005, 25.062066739000045], [85.35215782800003, 25.06179146100004], [85.35207329200006, 25.061493622000057], [85.35159210200004, 25.060843987000055], [85.35105653200003, 25.060383970000032], [85.35074368100004, 25.059553666000056], [85.35016283400006, 25.058335330000034], [85.35018665400008, 25.057075987000076], [85.35010054000008, 25.054904884000052], [85.34825240400005, 25.054969286000073], [85.34714725800006, 25.05489328400006], [85.34618644300008, 25.054680680000047], [85.34537801400006, 25.054501794000032], [85.34477683600005, 25.054284971000072], [85.34446600300004, 25.054172864000066], [85.34332610100006, 25.053961426000058], [85.34183447900006, 25.05372307300007], [85.34099205000007, 25.05361980400005], [85.34000073300007, 25.053241265000054], [85.33890560600008, 25.05323293400005], [85.33888165800005, 25.05427561700003], [85.33866941700006, 25.055539527000064], [85.33849753700008, 25.057593429000065], [85.33844894400005, 25.059006260000046], [85.33837582200005, 25.06056354900005], [85.33845658200005, 25.062608262000026], [85.33857778200007, 25.065799362000064], [85.33677450500005, 25.066522647000056], [85.33728903300005, 25.065425454000035], [85.33728823300004, 25.06425190400006], [85.33706992000003, 25.063800694000065], [85.33655880500004, 25.06285312700004], [85.33596372600005, 25.062325288000068], [85.33507145100003, 25.06191962400004], [85.33427838700004, 25.061545446000025], [85.33358420600007, 25.060959022000077], [85.33318722600006, 25.06016032900004], [85.33260187700006, 25.059352657000034], [85.33074867200008, 25.059367187000078], [85.32962378600007, 25.059444563000056], [85.32681941000004, 25.059942560000025], [85.32611587100007, 25.060218277000047], [85.32500642900004, 25.061098996000055], [85.32394648100006, 25.061839734000046], [85.32113166000005, 25.061714719000065], [85.31994265000003, 25.06230207300007], [85.31952214500006, 25.06354805600006], [85.31901185200007, 25.063665650000075], [85.31894460800004, 25.067511457000023], [85.31759189200005, 25.067737703000034], [85.31732465800008, 25.06838332800004], [85.31653196200006, 25.068776382000067], [85.31618505900008, 25.068839710000077], [85.31550614000008, 25.068840021000028], [85.31456423300006, 25.068222052000067], [85.31382079400004, 25.068132087000038], [85.31259203900004, 25.068543421000072], [85.31100637900005, 25.06895023800007], [85.30880613400006, 25.069203947000062], [85.30613057100004, 25.070243109000046], [85.30421765900007, 25.07033858400007], [85.30494152200004, 25.071150815000067], [85.30558624400004, 25.072215855000024], [85.30639474500003, 25.073655435000035], [85.30729725500004, 25.074760903000026], [85.30825953900006, 25.076344885000026], [85.30852237900007, 25.07685484600006], [85.30952908600005, 25.077996426000027], [85.31007945300007, 25.078515303000074], [85.31102138100005, 25.07908364700006], [85.31228544900006, 25.079566121000028], [85.31312818000004, 25.07992230800005], [85.31370332100005, 25.080359904000034], [85.31382737000007, 25.080675838000047], [85.31442256300005, 25.08140677800003], [85.31580571900008, 25.082128411000042], [85.31648012100004, 25.082800613000074], [85.31713990900005, 25.08385200500004], [85.31821092800004, 25.08473624800007], [85.31911355300008, 25.08567915100008], [85.31986260900004, 25.08684794900006], [85.32004630800003, 25.08729917100004], [85.31979870500004, 25.08766040100005], [85.31895640700003, 25.088152809000064], [85.31853031800006, 25.088468959000068], [85.31830258800005, 25.089055832000042], [85.31825360700003, 25.090030814000045], [85.31900731700006, 25.090567631000056], [85.32036079600005, 25.091095143000075], [85.32254211200006, 25.091807220000078], [85.32325531900005, 25.090926731000025], [85.32379524900006, 25.090380228000072], [85.32482602300007, 25.09000059600004], [85.32576778400005, 25.09004978300004], [85.32759683700004, 25.090071441000077], [85.32928640700004, 25.08919035400004], [85.33107534200008, 25.088665813000034], [85.33342429000004, 25.088028073000032], [85.33563468000006, 25.08772439300003], [85.33717592400006, 25.087335262000067], [85.33824619400008, 25.08685616200006], [85.33937604100004, 25.086566693000066], [85.33992587400007, 25.086187164000023], [85.34014367900005, 25.08579431900006], [85.34105543300007, 25.085473309000065], [85.34110466200008, 25.085035436000055], [85.34019150100005, 25.08344267500007], [85.34005729200004, 25.08289654300006], [85.34018588100008, 25.082440638000037], [85.34200941400007, 25.081997122000075], [85.34382799200006, 25.08148595700004], [85.34470514100008, 25.081349986000077], [85.34738117700005, 25.08094197400004], [85.34945255300005, 25.080602089000024], [85.35170219100007, 25.08001383100003], [85.35366938500005, 25.07953397500006], [85.35521536700008, 25.079167339000037], [85.35692995700003, 25.07889525400003], [85.35888272000005, 25.078893828000048], [85.36024583700004, 25.079055323000034], [85.35996199600004, 25.077593123000042], [85.35946494100006, 25.07596853800004], [85.35915193900007, 25.075156222000032], [85.35823966200007, 25.074755159000063], [85.35758416800007, 25.073193908000064], [85.35711775900006, 25.072548753000035], [85.35690296900003, 25.07071181200007], [85.35682793100005, 25.069813684000053], [85.35715454500007, 25.06929885200003], [85.35692047900005, 25.06804872300006], [85.35632429400005, 25.066257232000055], [85.35603632900006, 25.065706761000058], [85.35547510000004, 25.06423112500005], [85.35536050400003, 25.06354061600007], [85.35459597700003, 25.06194775000006]]]]}}, {"type": "Feature", "properties": {"OBJECTID": 5385, "GPCODE": "95693", "GPNAME_1": "NAHUB", "DIST_CEN_C": "27", "BLK_NAME": "RAJGIR", "ST_NAME": "BIHAR", "ST_CODE_1": "10", "GPCODE2011": "98247", "REMARKS": "FINALIZED", "MAP_STATUS": "COMPLETED", "BLK_C_2001": "270017", "BLK_C_2011": "01394", "DIST_NAME": "NALANDA", "code2011": 0.0, "Shape_Leng": 0.12417797168, "Shape_Area": 0.00063742132, "Area": 7.12329}, "geometry": {"type": "MultiPolygon", "coordinates": [[[[85.42801241000006, 25.07643942900006], [85.42782633400003, 25.074602560000073], [85.42774950300003, 25.072882899000035], [85.42740076100006, 25.071633011000074], [85.42708973600008, 25.069010873000025], [85.42690964500008, 25.067864592000035], [85.42693339500005, 25.067182994000063], [85.42855356000007, 25.066892137000025], [85.43035127800005, 25.066122637000035], [85.43170844100007, 25.065642556000057], [85.43292710900005, 25.06538381200005], [85.43438800500007, 25.064700438000045], [85.43524538700007, 25.064744458000064], [85.43623634800008, 25.064671022000027], [85.43550095600006, 25.063367491000065], [85.43523732800008, 25.06273587800007], [85.43476618300008, 25.06243858700003], [85.43373607200004, 25.062895688000026], [85.43337270200004, 25.06182641500004], [85.43294108900005, 25.06145228200006], [85.43233023100004, 25.06056387500007], [85.43231934100004, 25.059891320000077], [85.43253465700008, 25.058112652000034], [85.43271994400004, 25.056040620000033], [85.43283098100005, 25.054099519000033], [85.43270459200005, 25.05240249600007], [85.43263828100004, 25.051156869000067], [85.43241236100005, 25.049143959000048], [85.43212697200005, 25.047140229000036], [85.43095737300007, 25.047006200000055], [85.42806427800008, 25.047343727000055], [85.42587919100004, 25.047400534000076], [85.42485865000003, 25.047505530000024], [85.42401769100007, 25.048454400000026], [85.42321611800008, 25.049258819000045], [85.42120036900008, 25.049911071000054], [85.42027394800004, 25.050015961000042], [85.41953020900007, 25.049700821000044], [85.41820091200003, 25.048668685000052], [85.41640220600004, 25.048593993000054], [85.41618376200006, 25.04829184600004], [85.41616821000008, 25.04781336600007], [85.41647886900006, 25.04666654600004], [85.41663604400009, 25.04570943600004], [85.41594209400006, 25.045471022000072], [85.41531761100003, 25.045349835000025], [85.41475286100007, 25.04539559500006], [85.41399533900005, 25.045847813000023], [85.41405634400007, 25.047003260000054], [85.41382556600007, 25.048569739000072], [85.41346430300007, 25.048868054000025], [85.41343088000008, 25.049861174000057], [85.41171181300007, 25.050106796000023], [85.41110588300006, 25.052738962000035], [85.40908925100007, 25.05279976500003], [85.40862877200004, 25.05313433300006], [85.40773708200004, 25.053284175000044], [85.40775351200006, 25.054489356000033], [85.40760545400008, 25.05499050800006], [85.40682370400003, 25.05585346600003], [85.40515900400004, 25.056040272000075], [85.40484220400003, 25.056297951000033], [85.40454086200003, 25.05708809400005], [85.40434880200007, 25.058004580000045], [85.40315066100004, 25.058872491000045], [85.40308686000003, 25.05936009800007], [85.40372231900005, 25.060311777000038], [85.40433280200006, 25.06107852100007], [85.40533043600004, 25.062291681000033], [85.40603038300009, 25.063229765000074], [85.40613523600007, 25.063884200000075], [85.40606665800004, 25.064534196000068], [85.40568630300004, 25.06544639400005], [85.40572257500008, 25.066750824000053], [85.40528764800007, 25.06764503000005], [85.40521447200007, 25.068538841000077], [85.40543334900008, 25.069175010000038], [85.40564794500006, 25.070357410000042], [85.40550054700003, 25.07135956700006], [85.40534225100004, 25.071594477000076], [85.40554110200009, 25.07208174400006], [85.40634404300005, 25.072153161000074], [85.40724149400006, 25.072549397000046], [85.40805915700008, 25.072485337000046], [85.40894078100007, 25.07206013800004], [85.40975305400008, 25.07169816000004], [85.41120504000008, 25.07163335300004], [85.41252840600004, 25.07171314800007], [85.41462417600007, 25.071318186000042], [85.41629902400007, 25.071189979000053], [85.41679982600004, 25.071356399000024], [85.41707363800003, 25.072245246000023], [85.41809349200008, 25.075128404000054], [85.42001115000005, 25.074868948000073], [85.42086079200004, 25.07642969500006], [85.42101935100004, 25.07640248900003], [85.42278344200008, 25.07620181200008], [85.42313652600006, 25.077081604000057], [85.42706136600003, 25.07685123600004], [85.42801241000006, 25.07643942900006]]]]}}, {"type": "Feature", "properties": {"OBJECTID": 5578, "GPCODE": "271721", "GPNAME_1": "RAJGIR NAGAR PANCHAYAT", "DIST_CEN_C": "27", "BLK_NAME": "RAJGIR", "ST_NAME": "BIHAR", "ST_CODE_1": "10", "GPCODE2011": "801367", "REMARKS": "FINALIZED", "MAP_STATUS": "COMPLETED", "BLK_C_2001": "270017", "BLK_C_2011": "01394", "DIST_NAME": "NALANDA", "code2011": 0.0, "Shape_Leng": 0.44752467729, "Shape_Area": 0.00449213389, "Area": 50.2236}, "geometry": {"type": "MultiPolygon", "coordinates": [[[[85.42587919100004, 25.047400534000076], [85.42602481900008, 25.04529240200003], [85.42578432800008, 25.043451060000052], [85.42550038500008, 25.042368105000037], [85.42553410300007, 25.04170457400005], [85.42570460300004, 25.039637018000064], [85.42522259000003, 25.038676165000027], [85.42521174100006, 25.037962977000063], [85.42613906300005, 25.03859388500007], [85.42642144400008, 25.038561956000024], [85.42698044600007, 25.03792935900003], [85.42863159200004, 25.038816546000078], [85.43033612600004, 25.03893640600006], [85.43114006000008, 25.03987875000007], [85.43099220300007, 25.040343905000043], [85.43022975500008, 25.040737514000057], [85.43006697300007, 25.041265834000058], [85.43011829000005, 25.04247090700005], [85.43042746600008, 25.043833660000075], [85.43065587000007, 25.044167405000053], [85.43146891500004, 25.04446439700007], [85.43227679700004, 25.04459878800003], [85.43293567800004, 25.044552880000026], [85.43331616900008, 25.04389337300006], [85.43324848800006, 25.041677204000052], [85.43287969400006, 25.04020618800007], [85.43274796100008, 25.03826089200004], [85.43268536400006, 25.036162085000058], [85.43273266100005, 25.034686023000063], [85.43278894300005, 25.032514866000042], [85.43300129200009, 25.032090277000066], [85.43354572100003, 25.031728541000064], [85.43358477400005, 25.031344773000058], [85.43302444800008, 25.031015973000024], [85.43261325600008, 25.031016514000044], [85.43276143900005, 25.03070030500004], [85.43353305600004, 25.029837274000045], [85.43407707700004, 25.029222676000074], [85.43483976000005, 25.029072788000065], [85.43599403300004, 25.029039753000063], [85.43610736900007, 25.02866497800005], [85.43621928400006, 25.027333294000073], [85.43648115300005, 25.026868082000078], [85.43647816500004, 25.024886465000066], [85.43637836000005, 25.024394637000057], [85.43637678900006, 25.023374536000063], [85.43657457900008, 25.023148605000074], [85.43679685100005, 25.022665347000043], [85.43733602800006, 25.02215463400006], [85.43791544200008, 25.022018453000044], [85.43886656200004, 25.02206237000007], [85.44056631000007, 25.02240328000005], [85.44257331900008, 25.022865640000077], [85.44322284600008, 25.023176249000073], [85.44417925500005, 25.023382635000075], [85.44447631900005, 25.023323531000074], [85.44478816100008, 25.023129039000025], [85.44493605400004, 25.02266395600003], [85.44473649100007, 25.021761465000054], [85.44450186100005, 25.020682966000038], [85.44440197200004, 25.020127856000045], [85.44396008600006, 25.019528137000066], [85.44302773500004, 25.01886582000003], [85.44284868500006, 25.018401105000066], [85.44268387900007, 25.017516640000053], [85.44248396100005, 25.01643359800005], [85.44235873800005, 25.015526458000068], [85.44235599400008, 25.01378866700003], [85.44250344700004, 25.013039218000074], [85.44323360100003, 25.01112895600005], [85.44333210700006, 25.01076768300004], [85.44369319800006, 25.01046938500008], [85.44535181600008, 25.009970702000032], [85.44738188600007, 25.009484978000046], [85.44902649400007, 25.009523454000032], [85.45031955900004, 25.00967518500005], [85.45156352300006, 25.010079764000068], [85.45324415200008, 25.01094409500007], [85.45544845900008, 25.01100430200006], [85.45630829200007, 25.01270926500007], [85.45703442900003, 25.014450633000024], [85.45785911900003, 25.01588930300005], [85.45873295600006, 25.01701651600007], [85.45935866300005, 25.017945490000045], [85.46054930000008, 25.018963945000053], [85.46350791800006, 25.01970903700004], [85.46476686800008, 25.020072818000074], [85.46481637500005, 25.020086268000057], [85.46538640400007, 25.02024796200004], [85.46742803700005, 25.020664743000054], [85.47082615000005, 25.020542383000077], [85.47358982400004, 25.02020879400004], [85.47618962500007, 25.019721865000065], [85.47816523600005, 25.01924043400004], [85.47802819100008, 25.017439679000063], [85.47766503700007, 25.016632194000067], [85.47697063400005, 25.016150310000057], [85.47502777600005, 25.015557426000044], [85.47177237400007, 25.015052264000076], [85.46759076700005, 25.014607070000068], [85.46647083000005, 25.014396572000066], [85.46574192800006, 25.013950774000023], [85.46409678400005, 25.01362359500007], [85.46360580800007, 25.013294846000065], [85.46310892100007, 25.012392748000025], [85.46287463900006, 25.01155359100005], [85.46292111900004, 25.009829248000074], [85.46341334900006, 25.008032031000027], [85.46426120500007, 25.005629516000056], [85.46455098500007, 25.00426588700003], [85.46466007300006, 25.001458163000052], [85.46473270400008, 25.00047429700004], [85.46544944700008, 24.995462761000056], [85.46494125100008, 24.995179122000025], [85.46453876600003, 24.99439878900006], [85.46440733700007, 24.99290043800005], [85.46435683100003, 24.992336308000063], [85.46427638200004, 24.99160068900005], [85.46381020700005, 24.99124471600004], [85.46329032900007, 24.991317727000023], [85.46223056500008, 24.99141405900008], [85.46035864800007, 24.99147533400003], [85.45981358000006, 24.991331719000073], [85.45934752900007, 24.991061496000043], [85.45857886100003, 24.990435126000023], [85.45785963800006, 24.989804242000048], [85.45731403800005, 24.989317477000043], [85.45602516000008, 24.988565476000076], [85.45490029100006, 24.988187870000047], [85.45452874600005, 24.988102597000022], [85.45400312400005, 24.987728704000062], [85.45208501800005, 24.98680145800006], [85.45129216300006, 24.98656789200004], [85.45024692200008, 24.986384220000048], [85.44916187900003, 24.986105767000026], [85.44874090700006, 24.986070220000045], [85.44767042200004, 24.985620262000054], [85.44667151500005, 24.985277591000056], [85.44581738000005, 24.985081067000067], [85.44475184500004, 24.98455436000006], [85.44384960700006, 24.984000336000065], [85.44300192500003, 24.983500396000068], [85.44215942500006, 24.983077192000053], [85.44147076000007, 24.98290660500004], [85.44002456800007, 24.982791061000057], [85.43935072700003, 24.982593318000056], [85.43825529200006, 24.981953755000063], [85.43744735800004, 24.981498909000038], [85.43610955900004, 24.980994991000046], [85.43571821000006, 24.98096389500006], [85.43567831100006, 24.98078786900004], [85.43568272500005, 24.980426774000023], [85.43570205600008, 24.98008376300004], [85.43589434900008, 24.979555394000045], [85.43595795200008, 24.979040673000043], [85.43523502000005, 24.979050629000028], [85.43487854900008, 24.979100754000058], [85.43381377000009, 24.979047923000053], [85.43230827500008, 24.979067788000066], [85.43117924400008, 24.979087212000024], [85.43076812600003, 24.979001985000025], [85.43002451000007, 24.978465706000065], [85.42947422700007, 24.978055657000027], [85.42864640300007, 24.977492391000055], [85.42780901000003, 24.97716391000006], [85.42688722000008, 24.976636824000025], [85.42660472300008, 24.976488294000035], [85.42578191800004, 24.975988217000065], [85.42500860600006, 24.975420346000078], [85.42420058500005, 24.974834529000077], [85.42363068000003, 24.974523720000036], [85.42263992700003, 24.974267570000052], [85.42162929500006, 24.973961811000038], [85.42127764700007, 24.973867471000062], [85.42041525100007, 24.97337188800003], [85.41993458300004, 24.973106116000054], [85.41887437700007, 24.97271014000006], [85.41798264900007, 24.97246734600003], [85.41760127300006, 24.972382055000026], [85.41682331300007, 24.971994777000077], [85.41596103200004, 24.971544306000055], [85.41549036700007, 24.971364305000066], [85.41455429500007, 24.971198311000023], [85.41382142300006, 24.97119912000005], [85.41346480800007, 24.97115440700003], [85.41246429200004, 24.970938792000027], [85.41150835000008, 24.970799915000043], [85.41050819200007, 24.970837154000037], [85.40986944000008, 24.970900977000042], [85.40892863800008, 24.970924612000033], [85.40703214800004, 24.970904030000042], [85.40616554600007, 24.970877792000067], [85.40559119500006, 24.970932619000052], [85.40504176700006, 24.971113701000036], [85.40421036000004, 24.971570512000028], [85.40397279200005, 24.971638425000037], [85.40338847000004, 24.97160294300005], [85.40307133200008, 24.971458807000033], [85.40257089300007, 24.97123365400006], [85.40233309000007, 24.971125526000037], [85.40178302400005, 24.970792112000026], [85.40142615700006, 24.97050353000003], [85.40092556100007, 24.970151986000076], [85.40062342700008, 24.97003044300004], [85.39974645800004, 24.969656675000067], [85.39887452400006, 24.969291939000072], [85.39776974200004, 24.968859700000053], [85.39656086200006, 24.968323766000026], [85.39626870700005, 24.968287910000072], [85.39600605300006, 24.968143698000063], [85.39587215500006, 24.96792267400008], [85.39570810100008, 24.967421819000037], [85.39532083300008, 24.96651042800005], [85.39506262000003, 24.96592838400005], [85.39484946000005, 24.965720904000023], [85.39400688100005, 24.965022091000037], [85.39316427100005, 24.964264593000053], [85.39236126200007, 24.963552229000072], [85.39172672400008, 24.962907313000073], [85.39120106500008, 24.962212716000067], [85.39007060000006, 24.960800946000063], [85.38887809100004, 24.96156939900004], [85.38878425300004, 24.961700355000062], [85.38852715600007, 24.962034609000057], [85.38775404000006, 24.962808691000077], [85.38644701500004, 24.963986826000053], [85.38476852900004, 24.965007100000037], [85.38407037100006, 24.965670672000044], [85.38263450700003, 24.96700231600005], [85.38183736300005, 24.967674853000062], [85.38124311100006, 24.968216598000026], [85.37971805000006, 24.96958429700004], [85.37788106100004, 24.971204752000062], [85.37628657500005, 24.972721396000054], [85.37552891700005, 24.973416566000026], [85.37465739700008, 24.973154674000057], [85.37273614100008, 24.97272136400005], [85.37203786700007, 24.972662642000046], [85.37284004200006, 24.97382727100006], [85.37309262200006, 24.97416578800005], [85.37322140500004, 24.974571990000072], [85.37337984000004, 24.975763699000026], [85.37358287800004, 24.976666436000073], [85.37393943200004, 24.97705006800004], [85.37457326800006, 24.97755569700007], [85.37539037600004, 24.978467471000044], [85.37612328300008, 24.97882860800007], [85.37694037800009, 24.979225779000046], [85.37767822600006, 24.979523726000025], [85.37820324600006, 24.979884811000034], [85.37890148200006, 24.98049863600005], [85.37925805900005, 24.980990683000073], [85.37979298900007, 24.981988165000075], [85.38005550500003, 24.983035388000076], [85.38042699500005, 24.98467843800006], [85.38085792000004, 24.985472815000037], [85.38124919500007, 24.986456778000047], [85.38172463300003, 24.987454298000046], [85.38208628100006, 24.98823524000005], [85.38273518100004, 24.990049730000067], [85.38301754200006, 24.991205235000052], [85.38299277400006, 24.991670207000027], [85.38143770500005, 24.99141742100005], [85.38027872200007, 24.991322727000068], [85.37920895900004, 24.99109705500007], [85.37808964100003, 24.99095260100006], [85.37759443100003, 24.99089392700006], [85.37642068600007, 24.990627635000067], [85.37553911900005, 24.990374847000055], [85.37464267800004, 24.989955094000038], [85.37331043800003, 24.98921028500007], [85.37233974100008, 24.98860987100005], [85.37147302900007, 24.988262303000056], [85.37015078100006, 24.98770707500006], [85.36850656900003, 24.987169839000046], [85.36755077100008, 24.98687638000007], [85.36563911100006, 24.986145], [85.36391084800005, 24.98533694200006], [85.36114748100005, 24.98437519500004], [85.36101627000005, 24.984381959000075], [85.36088505900005, 24.984388722000062], [85.36346633500006, 24.986476069000048], [85.36427842000006, 24.987565681000035], [85.36623576400007, 24.988545694000038], [85.36751597100005, 24.989828700000032], [85.37008863800008, 24.990857211000048], [85.37169546900003, 24.992617813000038], [85.37505132700005, 24.994038169000078], [85.37474509800006, 24.994048820000046], [85.37603166000008, 24.99518454100007], [85.37649648600006, 24.995594862000075], [85.37850716300005, 24.996013966000078], [85.37949594900005, 24.997656251000024], [85.38014635000008, 24.99854192600003], [85.38200406600004, 24.99896631200005], [85.38538294500006, 25.000473070000055], [85.38758601400008, 25.001576358000023], [85.38818601200006, 25.002126501000077], [85.38866728000005, 25.002843744000074], [85.38900925800004, 25.00305558200006], [85.38995049600004, 25.00321722600006], [85.39108495500005, 25.00332449800004], [85.39153121000004, 25.003770919000033], [85.39174504700009, 25.00451996000004], [85.39130086700004, 25.005874532000064], [85.39057604300007, 25.00876405100007], [85.39018208800007, 25.010840753000025], [85.38998476000006, 25.011531542000057], [85.38975592800006, 25.014966793000042], [85.38957554400008, 25.017517186000077], [85.38835700300007, 25.01760858800003], [85.38818940200008, 25.01836254400007], [85.38799243000005, 25.01938734500004], [85.38783138100007, 25.021554110000068], [85.38781774500006, 25.022596838000027], [85.38788440500008, 25.02464152600004], [85.38752472300007, 25.02636160800006], [85.38693192600005, 25.027923903000044], [85.38729966800008, 25.02888498300007], [85.39028688100007, 25.028805531000046], [85.39132759400007, 25.029075353000053], [85.39335863000008, 25.028937989000042], [85.39429930800009, 25.02845405100004], [85.39504779400005, 25.02881446600003], [85.39606341600006, 25.028836038000065], [85.39829254700004, 25.028608141000063], [85.39981357900007, 25.02874201800006], [85.40044871500004, 25.029562918000067], [85.40089634400005, 25.031006837000064], [85.40121522800007, 25.032468979000043], [85.40119166900007, 25.033443977000047], [85.40257904600008, 25.033559930000024], [85.40257006300004, 25.03434538600004], [85.40117335800005, 25.03468529500003], [85.40087916200008, 25.037109496000028], [85.39769361200007, 25.037293258000034], [85.39742200800004, 25.03800672400007], [85.39720704100006, 25.04056623400004], [85.39731726200006, 25.04156363900006], [85.40113263200004, 25.041799049000076], [85.40143632600007, 25.04301741200004], [85.40232829100006, 25.043079747000036], [85.40260652500007, 25.04369330800006], [85.40534176900007, 25.043848446000027], [85.40547450100007, 25.04306290200003], [85.40833343000008, 25.043091511000057], [85.40864535700007, 25.042942234000066], [85.40802323900004, 25.04074924200006], [85.40807171400007, 25.039968300000055], [85.41016289700008, 25.040241409000032], [85.41130248300004, 25.040258177000055], [85.41119099600007, 25.042095368000048], [85.41117389800007, 25.044185348000042], [85.41110980500008, 25.044411075000028], [85.41108681800006, 25.045774246000065], [85.41323246500008, 25.045984058000045], [85.41399533900005, 25.045847813000023], [85.41475286100007, 25.04539559500006], [85.41531761100003, 25.045349835000025], [85.41594209400006, 25.045471022000072], [85.41663604400009, 25.04570943600004], [85.41647886900006, 25.04666654600004], [85.41616821000008, 25.04781336600007], [85.41618376200006, 25.04829184600004], [85.41640220600004, 25.048593993000054], [85.41820091200003, 25.048668685000052], [85.41953020900007, 25.049700821000044], [85.42027394800004, 25.050015961000042], [85.42120036900008, 25.049911071000054], [85.42321611800008, 25.049258819000045], [85.42401769100007, 25.048454400000026], [85.42485865000003, 25.047505530000024], [85.42587919100004, 25.047400534000076]]]]}}]}