{"type": "FeatureCollection", "features": [{"type": "Feature", "properties": {"OBJECTID": 5522, "GPCODE": "255390", "GPNAME_1": "PACHAURA", "DIST_CEN_C": "27", "BLK_NAME": "HARNAUT", "ST_NAME": "BIHAR", "ST_CODE_1": "10", "GPCODE2011": "245300", "REMARKS": "FINALIZED", "MAP_STATUS": "COMPLETED", "BLK_C_2001": "270003", "BLK_C_2011": "01380", "DIST_NAME": "NALANDA", "code2011": 0.0, "Shape_Leng": 0.18693890823, "Shape_Area": 0.0007930947, "Area": 8.84274}, "geometry": {"type": "MultiPolygon", "coordinates": [[[[85.58710139100003, 25.324336208000034], [85.58706776900004, 25.322937041000046], [85.58606534100005, 25.323201161000043], [85.58438310600008, 25.323660828000072], [85.58273527900008, 25.32398954300004], [85.58131570600005, 25.324277134000056], [85.58126613700006, 25.32428619600006], [85.57952800600003, 25.324303660000055], [85.57683663400007, 25.324377338000033], [85.57653533300004, 25.325009935000026], [85.57628131700005, 25.326581198000042], [85.57636538500003, 25.32828711800005], [85.57620640400006, 25.330097395000053], [85.57598170100005, 25.33148807300006], [85.57722434700008, 25.331873513000062], [85.57881868500004, 25.33192868200007], [85.57941406500004, 25.33355668400003], [85.57983715400007, 25.33388069600005], [85.58192390000005, 25.334205490000045], [85.58348864200008, 25.33428774500004], [85.58582378100004, 25.33462545900005], [85.58583542500008, 25.333424827000044], [85.58586607400008, 25.331939805000047], [85.58537129000007, 25.330844196000044], [85.58579510500005, 25.329629073000035], [85.58618483300006, 25.328680365000025], [85.58645905700007, 25.327303080000036], [85.58687606600006, 25.32543346400007], [85.58710139100003, 25.324336208000034]]], [[[85.56592186900008, 25.34753756500004], [85.56667173400007, 25.347504369000035], [85.56768617300008, 25.347949021000034], [85.56853587100005, 25.348064580000027], [85.56899201300007, 25.347738607000053], [85.56915019200005, 25.345571736000068], [85.56894611600006, 25.343495991000054], [85.56841781300005, 25.340919850000034], [85.56836786000008, 25.338947528000062], [85.56814889200007, 25.33688538900003], [85.56755682000005, 25.33457570400003], [85.56742587000008, 25.333862864000025], [85.56738892800007, 25.33303242900007], [85.56758491700003, 25.332025522000038], [85.56861013700006, 25.330971591000036], [85.57023752500004, 25.33034523400005], [85.57141368900005, 25.330044762000057], [85.57239091000008, 25.32960028100007], [85.57264510200008, 25.328087698000047], [85.57293252500006, 25.325979245000042], [85.57304278600003, 25.324480493000067], [85.57157280400008, 25.32448370900005], [85.56892114900006, 25.32455720200005], [85.56701922400003, 25.324592847000076], [85.56619491100008, 25.324626237000075], [85.56601561600007, 25.324432520000073], [85.56594465500007, 25.323877518000074], [85.56608543200008, 25.322640470000067], [85.56673065300004, 25.32060806000004], [85.56697794200005, 25.32021930700006], [85.56769543200005, 25.31923832800004], [85.56822833200005, 25.317932745000064], [85.56815153000008, 25.317057311000042], [85.56748909500004, 25.316291441000033], [85.56673796300004, 25.31576944300008], [85.56558898800006, 25.31505881100003], [85.56429710400005, 25.314736581000034], [85.56303935800008, 25.31421571800007], [85.56217970900008, 25.313991801000043], [85.56164375200007, 25.31408777000007], [85.56060584800008, 25.314089929000033], [85.55956852000008, 25.314254637000033], [85.55841980600007, 25.31360704000008], [85.55709241800008, 25.312991451000073], [85.55590120500005, 25.317146404000027], [85.55551456900008, 25.319426578000048], [85.55506244700007, 25.323268539000026], [85.55496999300004, 25.324036008000064], [85.55483208800007, 25.32646006600004], [85.55472970200003, 25.327227613000048], [85.55434299900008, 25.32749468800006], [85.55340905900005, 25.327365771000075], [85.55212266900008, 25.32730069100006], [85.55052764200008, 25.326947388000065], [85.54896679600006, 25.326381819000062], [85.54728955500008, 25.324891278000052], [85.54685690300005, 25.32466193600004], [85.54646454900006, 25.324649177000026], [85.54587413200005, 25.324862453000037], [85.54508525100005, 25.325170979000063], [85.54424176700007, 25.32546607300003], [85.54277261400006, 25.325830059000054], [85.54139764900003, 25.326099105000026], [85.53918296300003, 25.326198187000045], [85.53908269500005, 25.327850367000053], [85.53940661800004, 25.328323658000045], [85.53978420900006, 25.32838615000003], [85.54021125000008, 25.328385252000032], [85.54078719400007, 25.32830294400003], [85.54123894100007, 25.328252341000052], [85.54147242800008, 25.32825191300003], [85.54150748400008, 25.328382746000045], [85.54145404700006, 25.328906371000073], [85.54125676000007, 25.329461945000048], [85.54080171200007, 25.330239234000032], [85.54029713500006, 25.331057162000036], [85.53988699600006, 25.331942637000054], [85.53974490900004, 25.332759854000074], [85.53981167600006, 25.33364891100007], [85.54010248300006, 25.334808315000032], [85.54010260600006, 25.334857958000043], [85.54006952300006, 25.335575666000068], [85.53987130300004, 25.335756564000064], [85.53961841100005, 25.335906073000046], [85.53913678600009, 25.33598822700003], [85.53839696400007, 25.336052895000023], [85.53746380100006, 25.336284833000036], [85.53681898600007, 25.336629153000047], [85.53690104500004, 25.33776193800003], [85.53778164300007, 25.338383071000067], [85.53898367200009, 25.338412326000025], [85.54058457000008, 25.339090689000045], [85.54179269400004, 25.339620875000037], [85.54210183900005, 25.340107767000063], [85.54269048800006, 25.34117628300004], [85.54292005300005, 25.34161821400005], [85.54536498900006, 25.34214594900004], [85.54643945000004, 25.34282531200006], [85.54706248600007, 25.343713243000025], [85.54709967400004, 25.34469260700007], [85.54710183400005, 25.345581759000027], [85.54729660000004, 25.34599204500006], [85.55003753200003, 25.347679093000067], [85.55098228100007, 25.348060857000064], [85.55119340700008, 25.34706293000005], [85.55072836900007, 25.34383667000003], [85.55082703400006, 25.343538568000042], [85.55147755000007, 25.343510201000072], [85.55222843200005, 25.343860676000077], [85.55337136300005, 25.34406593500006], [85.55529327000005, 25.343944642000054], [85.55705207500006, 25.34418020700008], [85.55730680300007, 25.344707799000048], [85.55779549700009, 25.345478553000078], [85.55831717400008, 25.345536111000058], [85.55887316600007, 25.345417611000073], [85.55958768800008, 25.345149822000053], [85.55985100300006, 25.345149310000068], [85.56060124700008, 25.345265072000075], [85.56125310700008, 25.345710523000037], [85.56192539200003, 25.34640421200004], [85.56307181300008, 25.34794533400003], [85.56383751000004, 25.34825515400007], [85.56445853100007, 25.34831253300007], [85.56507858100008, 25.347981700000048], [85.56592186900008, 25.34753756500004]]]]}}, {"type": "Feature", "properties": {"OBJECTID": 5525, "GPCODE": "95582", "GPNAME_1": "CHOURIYA", "DIST_CEN_C": "27", "BLK_NAME": "HARNAUT", "ST_NAME": "BIHAR", "ST_CODE_1": "10", "GPCODE2011": "98136", "REMARKS": "FINALIZED", "MAP_STATUS": "COMPLETED", "BLK_C_2001": "270003", "BLK_C_2011": "01380", "DIST_NAME": "NALANDA", "code2011": 0.0, "Shape_Leng": 0.19471119851, "Shape_Area": 0.00097045073, "Area": 10.8206}, "geometry": {"type": "MultiPolygon", "coordinates": [[[[85.64738172300008, 25.34154511500003], [85.64743514600008, 25.33813729800005], [85.64697201300004, 25.334730798000066], [85.64561214100007, 25.333502279000072], [85.64328685900006, 25.333215119000045], [85.64109079800005, 25.33292755000008], [85.63846927400004, 25.331612068000027], [85.63671793400005, 25.330619157000058], [85.63432912600007, 25.330625345000044], [85.63142473900007, 25.33092629600003], [85.62845454200004, 25.330816640000023], [85.62790142100005, 25.328637999000023], [85.62791786000008, 25.32435912400007], [85.62767563300008, 25.319931937000035], [85.63029147800006, 25.319537075000028], [85.63248643000009, 25.319531357000074], [85.63545581700004, 25.319465019000063], [85.63768616100003, 25.319662248000043], [85.63852763400007, 25.320364115000075], [85.63995103400003, 25.32135789000006], [85.64098587200004, 25.32194189200004], [85.64227737700008, 25.322055789000046], [85.64305192100005, 25.321995066000056], [85.64369638400007, 25.321641274000058], [85.64369401600004, 25.32093724400005], [85.64349598400008, 25.319588176000025], [85.64265068300006, 25.317712853000046], [85.64148303600007, 25.314407496000058], [85.64067394200003, 25.314522528000055], [85.64008268800006, 25.31440671100006], [85.63975842900004, 25.31393362800003], [85.63947851900008, 25.313383764000037], [85.63934606500004, 25.312318867000045], [85.63917619300008, 25.31045071400007], [85.63907335800008, 25.30935415500005], [85.63936613500005, 25.309294770000065], [85.64011593300006, 25.309292807000077], [85.64099466200008, 25.30923179800004], [85.64155001000006, 25.308991055000035], [85.64190620100004, 25.308574900000053], [85.64190497100003, 25.308218279000073], [85.64155108700004, 25.307808546000047], [85.64144641700005, 25.307686898000043], [85.64067917000006, 25.306871989000058], [85.64009162100007, 25.30636805300003], [85.63989582800008, 25.30568699500003], [85.63960041600006, 25.30491597500003], [85.63910736000008, 25.304475010000033], [85.63839211300007, 25.304386545000057], [85.63787041500007, 25.30427058400005], [85.63744223800006, 25.303915129000075], [85.63688891100009, 25.303235103000077], [85.63636688900004, 25.303028785000038], [85.63568177100007, 25.30303058900006], [85.63483231500004, 25.302915487000064], [85.63421259000006, 25.303215015000035], [85.63339836300008, 25.303244164000034], [85.63183455100005, 25.303306917000043], [85.63061313800006, 25.303319075000047], [85.62738470700003, 25.302997917000027], [85.62464353200005, 25.30288753700006], [85.62213573100007, 25.302744966000034], [85.61945864400008, 25.302485339000043], [85.61691088000003, 25.30229761700008], [85.61660844500005, 25.304090247000033], [85.61661277600007, 25.305512049000072], [85.61645393200007, 25.30717336600003], [85.61625476000006, 25.308636257000046], [85.61616744200006, 25.309308995000038], [85.61566477000008, 25.310601145000078], [85.61550418600007, 25.311671244000024], [85.61570280600006, 25.313331756000025], [85.61511745900003, 25.31350919600004], [85.61433333700006, 25.313660123000034], [85.61267036700008, 25.313840214000038], [85.61064921300004, 25.313818083000058], [85.60885648800007, 25.313763798000025], [85.60807708400006, 25.313851425000053], [85.60785010300003, 25.314325917000076], [85.60759004700003, 25.315396287000056], [85.60717089400003, 25.316376708000064], [85.60673142100006, 25.31721729800006], [85.60572609400003, 25.318167618000075], [85.60523685800007, 25.318999226000074], [85.60517394900006, 25.319531979000033], [85.60527595800005, 25.320479628000044], [85.60540888200006, 25.321783647000075], [85.60541226900006, 25.32293916900005], [85.60502191200004, 25.32359457800004], [85.60417833800005, 25.323831330000075], [85.60182515600007, 25.32407614600004], [85.60172737000005, 25.324608959000045], [85.60218004400008, 25.326575771000023], [85.60267682900007, 25.328352985000038], [85.60326453900007, 25.328942806000043], [85.60401475700007, 25.329031276000023], [85.60574286300005, 25.328968400000065], [85.60766456600004, 25.32887353600006], [85.60851379000007, 25.32887144700004], [85.60903621800009, 25.329226790000064], [85.61043538700005, 25.32877655300007], [85.61196930500006, 25.328538071000025], [85.61343412800005, 25.32847128700007], [85.61476962200004, 25.328323511000065], [85.61526114800006, 25.32829068600006], [85.61614016200008, 25.328288489000045], [85.61734852500007, 25.328791008000053], [85.61711609000008, 25.33075498200003], [85.61705640500008, 25.33235299300003], [85.61683326600007, 25.334131848000027], [85.61716724900003, 25.336175595000043], [85.61715356100007, 25.33658184500007], [85.61754220900008, 25.336996170000077], [85.61803439600004, 25.337143853000043], [85.61907795400003, 25.337348916000053], [85.61999264300005, 25.337612900000067], [85.62090748000008, 25.337935549000065], [85.62133022300003, 25.338115032000076], [85.62139656200009, 25.338679116000037], [85.62159734400007, 25.33938717500007], [85.62244160000006, 25.339358020000077], [85.62325674000004, 25.339563514000076], [85.62340481500007, 25.33974035400007], [85.62405966000006, 25.338992848000032], [85.62496598600006, 25.338164564000067], [85.62543722700008, 25.337969220000048], [85.62638583300009, 25.337966837000067], [85.62703740400008, 25.33827662500005], [85.62798766500003, 25.33878419800004], [85.62915233700005, 25.339566577000028], [85.63096647800006, 25.33999521900006], [85.63208907900008, 25.340028390000043], [85.63398608200004, 25.339946722000036], [85.63579923400005, 25.340018685000075], [85.63700626000008, 25.340056211000046], [85.63799974300008, 25.340094220000026], [85.63864638600006, 25.340403955000056], [85.63964252000005, 25.34126783000005], [85.64012168900007, 25.342011333000073], [85.64128461900003, 25.342202325000073], [85.64196026900004, 25.342263761000027], [85.647385, 25.34254257500004], [85.64738172300008, 25.34154511500003]]]]}}, {"type": "Feature", "properties": {"OBJECTID": 5538, "GPCODE": "95577", "GPNAME_1": "BASNIYAWAN", "DIST_CEN_C": "27", "BLK_NAME": "HARNAUT", "ST_NAME": "BIHAR", "ST_CODE_1": "10", "GPCODE2011": "98131", "REMARKS": "FINALIZED", "MAP_STATUS": "COMPLETED", "BLK_C_2001": "270003", "BLK_C_2011": "01380", "DIST_NAME": "NALANDA", "code2011": 0.0, "Shape_Leng": 0.24052117621, "Shape_Area": 0.00091488298, "Area": 10.1998}, "geometry": {"type": "MultiPolygon", "coordinates": [[[[85.64085311700006, 25.350106622000055], [85.64097634900008, 25.348287343000038], [85.64136003700008, 25.347108341000023], [85.64235354300007, 25.344081653000046], [85.64196026900004, 25.342263761000027], [85.64128461900003, 25.342202325000073], [85.64012168900007, 25.342011333000073], [85.63964252000005, 25.34126783000005], [85.63864638600006, 25.340403955000056], [85.63799974300008, 25.340094220000026], [85.63700626000008, 25.340056211000046], [85.63579923400005, 25.340018685000075], [85.63398608200004, 25.339946722000036], [85.63208907900008, 25.340028390000043], [85.63096647800006, 25.33999521900006], [85.62915233700005, 25.339566577000028], [85.62898266700006, 25.340903026000035], [85.62877160700003, 25.341724964000036], [85.62907902000006, 25.34313693100006], [85.62934117700007, 25.344391002000066], [85.62940973900004, 25.34566361900005], [85.63019294300005, 25.346722365000062], [85.63135704700005, 25.34889932300007], [85.63206734500005, 25.348897462000025], [85.63323039400007, 25.349129224000023], [85.63458839500004, 25.349771065000027], [85.63536756100007, 25.35111861100006], [85.63621156000005, 25.35252458900004], [85.63718140700007, 25.352932742000064], [85.63873117900005, 25.352928684000062], [85.63989243500004, 25.352573618000065], [85.64059855100004, 25.35128082800003], [85.64085311700006, 25.350106622000055]]], [[[85.61031268500005, 25.350996890000033], [85.61043928900006, 25.350134567000055], [85.61240705400007, 25.350386999000023], [85.61357013700007, 25.35065943500007], [85.61343852500005, 25.349833818000036], [85.61317634900007, 25.348539017000064], [85.61282599400005, 25.34764173700006], [85.61273947000007, 25.346933309000065], [85.61328774400005, 25.345911922000028], [85.61421600100005, 25.345747131000053], [85.61527379500006, 25.34567233000007], [85.61760028800006, 25.34632546200004], [85.61999840300007, 25.347655471000053], [85.62073500300005, 25.348109488000034], [85.62153606700008, 25.348567888000048], [85.62200797700007, 25.348566705000053], [85.62259402200004, 25.348551616000066], [85.62295635300006, 25.34846045200004], [85.62332838000003, 25.348296995000055], [85.62350600600007, 25.347926432000065], [85.62349035300008, 25.347660245000043], [85.62334958600007, 25.347118945000034], [85.62328400700005, 25.346807684000055], [85.62334725900007, 25.346378727000058], [85.62352367500006, 25.345579427000075], [85.62357031500005, 25.344613415000026], [85.62344415600006, 25.343954695000036], [85.62359013500009, 25.342974945000037], [85.62374589600006, 25.34193644100003], [85.62372834800004, 25.341105950000042], [85.62355091900008, 25.339914839000073], [85.62340481500007, 25.33974035400007], [85.62325674000004, 25.339563514000076], [85.62244160000006, 25.339358020000077], [85.62159734400007, 25.33938717500007], [85.62139656200009, 25.338679116000037], [85.62133022300003, 25.338115032000076], [85.62090748000008, 25.337935549000065], [85.61999264300005, 25.337612900000067], [85.61907795400003, 25.337348916000053], [85.61803439600004, 25.337143853000043], [85.61754220900008, 25.336996170000077], [85.61715356100007, 25.33658184500007], [85.61716724900003, 25.336175595000043], [85.61683326600007, 25.334131848000027], [85.61705640500008, 25.33235299300003], [85.61711609000008, 25.33075498200003], [85.61734852500007, 25.328791008000053], [85.61614016200008, 25.328288489000045], [85.61526114800006, 25.32829068600006], [85.61476962200004, 25.328323511000065], [85.61343412800005, 25.32847128700007], [85.61196930500006, 25.328538071000025], [85.61043538700005, 25.32877655300007], [85.60903621800009, 25.329226790000064], [85.60851379000007, 25.32887144700004], [85.60766456600004, 25.32887353600006], [85.60574286300005, 25.328968400000065], [85.60401475700007, 25.329031276000023], [85.60326453900007, 25.328942806000043], [85.60267682900007, 25.328352985000038], [85.60218004400008, 25.326575771000023], [85.60172737000005, 25.324608959000045], [85.60039088200006, 25.324404514000037], [85.59964055900008, 25.324257355000043], [85.59895582600006, 25.324439519000066], [85.59859895200003, 25.324675049000064], [85.59800989700005, 25.325362488000053], [85.59771743800007, 25.325539224000067], [85.59742373700004, 25.325300670000047], [85.59699999600008, 25.324742026000024], [85.59680031300007, 25.324354354000036], [85.59650697900008, 25.324237650000043], [85.59626408900004, 25.324400710000077], [85.59597218900007, 25.32478955700003], [85.59571518500007, 25.325232503000052], [85.59496665900008, 25.325708211000062], [85.59363308100006, 25.32654179800005], [85.59288042900005, 25.32731535000005], [85.59226878300007, 25.328801729000077], [85.59230177900008, 25.329925501000048], [85.59199113600005, 25.330711648000033], [85.59090168300008, 25.330077716000062], [85.58965881600005, 25.32960663600005], [85.58799371600008, 25.329104995000023], [85.58618483300006, 25.328680365000025], [85.58579510500005, 25.329629073000035], [85.58537129000007, 25.330844196000044], [85.58586607400008, 25.331939805000047], [85.58583542500008, 25.333424827000044], [85.58582378100004, 25.33462545900005], [85.58348864200008, 25.33428774500004], [85.58192390000005, 25.334205490000045], [85.57983715400007, 25.33388069600005], [85.57941406500004, 25.33355668400003], [85.57881868500004, 25.33192868200007], [85.57722434700008, 25.331873513000062], [85.57598170100005, 25.33148807300006], [85.57620640400006, 25.330097395000053], [85.57636538500003, 25.32828711800005], [85.57628131700005, 25.326581198000042], [85.57653533300004, 25.325009935000026], [85.57683663400007, 25.324377338000033], [85.57565432000007, 25.32424911100003], [85.57440270900008, 25.32418416300004], [85.57304278600003, 25.324480493000067], [85.57293252500006, 25.325979245000042], [85.57264510200008, 25.328087698000047], [85.57239091000008, 25.32960028100007], [85.57141368900005, 25.330044762000057], [85.57023752500004, 25.33034523400005], [85.56861013700006, 25.330971591000036], [85.56758491700003, 25.332025522000038], [85.56738892800007, 25.33303242900007], [85.56742587000008, 25.333862864000025], [85.56755682000005, 25.33457570400003], [85.56814889200007, 25.33688538900003], [85.56836786000008, 25.338947528000062], [85.56946050900007, 25.338931659000025], [85.57154741900007, 25.339252074000058], [85.57556130900008, 25.33954118500003], [85.57921791100006, 25.339948339000046], [85.58096160100007, 25.340106895000076], [85.58226871400007, 25.34040182500007], [85.58458528000006, 25.34116845400007], [85.58448866900005, 25.342148128000076], [85.58578970900004, 25.34205481500004], [85.58751205900006, 25.34164021600003], [85.58896720700005, 25.341578163000065], [85.59067064800007, 25.341529155000046], [85.59313580300005, 25.342087561000028], [85.59350430100005, 25.342434232000073], [85.59431948600007, 25.342667047000077], [85.59490580900007, 25.342742413000053], [85.59606375300007, 25.34298799100003], [85.59722676000007, 25.34323798300005], [85.59724165700004, 25.34323790600007], [85.59776341100007, 25.343327015000057], [85.59817072400006, 25.343339566000054], [85.59848324100005, 25.343207979000056], [85.59887934000005, 25.342751167000074], [85.59910669000004, 25.342380494000054], [85.59924956400005, 25.34196488400005], [85.59924842300006, 25.341549687000054], [85.59896761300007, 25.340647653000076], [85.60039293200003, 25.34059909700005], [85.60181336800008, 25.34056866700007], [85.60277179200006, 25.34050316200006], [85.60323906500008, 25.34235263200003], [85.60359051700004, 25.343647170000054], [85.60406996300009, 25.346232256000064], [85.60437922100004, 25.348388912000075], [85.60453174200006, 25.349593738000067], [85.60496728300006, 25.350766128000032], [85.60519008000006, 25.352218953000033], [85.60540770000006, 25.35359053700006], [85.60532608000005, 25.354534126000033], [85.60563213600005, 25.355589517000055], [85.60602235000005, 25.35653188300006], [85.60682336200006, 25.35694522400007], [85.60755548400004, 25.35760689800003], [85.60880233700004, 25.357608390000053], [85.60925373100008, 25.357395213000075], [85.60959860500003, 25.356410408000045], [85.61011359400004, 25.355862959000035], [85.61002691500005, 25.35511843100005], [85.60976024100006, 25.353981762000046], [85.61010554100005, 25.353154909000068], [85.61023182100007, 25.352215778000073], [85.61031268500005, 25.350996890000033]]]]}}, {"type": "Feature", "properties": {"OBJECTID": 5547, "GPCODE": "95586", "GPNAME_1": "LOHARA", "DIST_CEN_C": "27", "BLK_NAME": "HARNAUT", "ST_NAME": "BIHAR", "ST_CODE_1": "10", "GPCODE2011": "98140", "REMARKS": "FINALIZED", "MAP_STATUS": "COMPLETED", "BLK_C_2001": "270003", "BLK_C_2011": "01380", "DIST_NAME": "NALANDA", "code2011": 0.0, "Shape_Leng": 0.14092904507, "Shape_Area": 0.00075431153, "Area": 8.40872}, "geometry": {"type": "MultiPolygon", "coordinates": [[[[85.56784216400007, 25.371441617000073], [85.56922235100006, 25.371082088000037], [85.57047465300008, 25.371196715000053], [85.57085870400005, 25.369904990000066], [85.57137116000007, 25.36833775300005], [85.57119961800004, 25.367318005000072], [85.57093911500004, 25.366492580000056], [85.57190142900004, 25.36596244100008], [85.57315115800003, 25.36517437200007], [85.57440265300005, 25.365018101000032], [85.57530671200004, 25.36497554500005], [85.57630131800005, 25.36536595800004], [85.57712213900004, 25.365792921000036], [85.57790453300004, 25.36669397000003], [85.57846250200004, 25.367283932000078], [85.57924551800005, 25.368419647000053], [85.57984740700005, 25.36868904800008], [85.58071124100007, 25.368493073000025], [85.58112358500006, 25.364836209000032], [85.58137768900008, 25.36148208900005], [85.58273385700005, 25.36147902700003], [85.58278997800005, 25.358418674000063], [85.58084596600008, 25.357777687000066], [85.58109845900003, 25.355660192000073], [85.58148167800005, 25.352305826000077], [85.58266811500005, 25.34839896400007], [85.58288554400008, 25.34616426300005], [85.58384293100005, 25.343927860000065], [85.58439108800007, 25.342771183000025], [85.58448866900005, 25.342148128000076], [85.58458528000006, 25.34116845400007], [85.58226871400007, 25.34040182500007], [85.58096160100007, 25.340106895000076], [85.57921791100006, 25.339948339000046], [85.57556130900008, 25.33954118500003], [85.57154741900007, 25.339252074000058], [85.56946050900007, 25.338931659000025], [85.56836786000008, 25.338947528000062], [85.56841781300005, 25.340919850000034], [85.56894611600006, 25.343495991000054], [85.56915019200005, 25.345571736000068], [85.56899201300007, 25.347738607000053], [85.56853587100005, 25.348064580000027], [85.56768617300008, 25.347949021000034], [85.56667173400007, 25.347504369000035], [85.56592186900008, 25.34753756500004], [85.56507858100008, 25.347981700000048], [85.56445853100007, 25.34831253300007], [85.56383751000004, 25.34825515400007], [85.56307181300008, 25.34794533400003], [85.56192539200003, 25.34640421200004], [85.56125310700008, 25.345710523000037], [85.56060124700008, 25.345265072000075], [85.55985100300006, 25.345149310000068], [85.55958768800008, 25.345149822000053], [85.55887316600007, 25.345417611000073], [85.55831717400008, 25.345536111000058], [85.55779549700009, 25.345478553000078], [85.55730680300007, 25.344707799000048], [85.55705207500006, 25.34418020700008], [85.55529327000005, 25.343944642000054], [85.55337136300005, 25.34406593500006], [85.55222843200005, 25.343860676000077], [85.55147755000007, 25.343510201000072], [85.55082703400006, 25.343538568000042], [85.55072836900007, 25.34383667000003], [85.55119340700008, 25.34706293000005], [85.55098228100007, 25.348060857000064], [85.55112126900008, 25.35002841100004], [85.55122366500007, 25.351274028000034], [85.54910008500008, 25.35425723800006], [85.54864174600004, 25.355693514000052], [85.54834162000003, 25.356867600000044], [85.54838948900004, 25.358158364000076], [85.54882049600008, 25.35972371400004], [85.54942844400006, 25.360467192000044], [85.55020462300007, 25.360975659000076], [85.55141214800005, 25.36113118700007], [85.55287758400004, 25.361128156000063], [85.55442816100003, 25.361400323000055], [85.55563517800005, 25.361357156000054], [85.55647636400005, 25.362000874000046], [85.55695464800004, 25.362586583000052], [85.55790680600006, 25.363875501000052], [85.55838170300007, 25.36505257600004], [85.55838477900005, 25.366266649000067], [85.55834277800005, 25.367322896000076], [85.55830631400005, 25.368613915000026], [85.55873370000006, 25.368676144000062], [85.55985081000006, 25.368398530000036], [85.56127606100006, 25.36820140900005], [85.56222470600005, 25.368118184000025], [85.56334801500003, 25.36831440800006], [85.56429834000005, 25.368899086000056], [85.56473406900005, 25.370229711000036], [85.56473701200008, 25.37136706000007], [85.56491178500005, 25.371718721000036], [85.56538436300008, 25.371952476000047], [85.56655168500004, 25.371873165000068], [85.56784216400007, 25.371441617000073]]]]}}, {"type": "Feature", "properties": {"OBJECTID": 5549, "GPCODE": "95580", "GPNAME_1": "CHERAN", "DIST_CEN_C": "27", "BLK_NAME": "HARNAUT", "ST_NAME": "BIHAR", "ST_CODE_1": "10", "GPCODE2011": "98134", "REMARKS": "FINALIZED", "MAP_STATUS": "COMPLETED", "BLK_C_2001": "270003", "BLK_C_2011": "01380", "DIST_NAME": "NALANDA", "code2011": 0.0, "Shape_Leng": 0.1397310356, "Shape_Area": 0.00060469802, "Area": 6.74119}, "geometry": {"type": "MultiPolygon", "coordinates": [[[[85.55404225900008, 25.36995422600006], [85.55572077800008, 25.369679921000056], [85.55744333800004, 25.369166378000045], [85.55830631400005, 25.368613915000026], [85.55834277800005, 25.367322896000076], [85.55838477900005, 25.366266649000067], [85.55838170300007, 25.36505257600004], [85.55790680600006, 25.363875501000052], [85.55695464800004, 25.362586583000052], [85.55647636400005, 25.362000874000046], [85.55563517800005, 25.361357156000054], [85.55442816100003, 25.361400323000055], [85.55287758400004, 25.361128156000063], [85.55141214800005, 25.36113118700007], [85.55020462300007, 25.360975659000076], [85.54942844400006, 25.360467192000044], [85.54882049600008, 25.35972371400004], [85.54838948900004, 25.358158364000076], [85.54834162000003, 25.356867600000044], [85.54864174600004, 25.355693514000052], [85.54910008500008, 25.35425723800006], [85.55122366500007, 25.351274028000034], [85.55112126900008, 25.35002841100004], [85.55098228100007, 25.348060857000064], [85.55003753200003, 25.347679093000067], [85.54729660000004, 25.34599204500006], [85.54710183400005, 25.345581759000027], [85.54709967400004, 25.34469260700007], [85.54706248600007, 25.343713243000025], [85.54643945000004, 25.34282531200006], [85.54536498900006, 25.34214594900004], [85.54292005300005, 25.34161821400005], [85.54269048800006, 25.34117628300004], [85.54210183900005, 25.340107767000063], [85.54179269400004, 25.339620875000037], [85.54058457000008, 25.339090689000045], [85.53898367200009, 25.338412326000025], [85.53778164300007, 25.338383071000067], [85.53690104500004, 25.33776193800003], [85.53681898600007, 25.336629153000047], [85.53578749400003, 25.337303681000037], [85.53397090200008, 25.337830772000075], [85.53330547700006, 25.33788170500003], [85.53251581100005, 25.337865134000026], [85.53151202300006, 25.33765494100004], [85.53048283600003, 25.337182952000035], [85.53046795500006, 25.337173995000057], [85.52927953700004, 25.33659853000006], [85.52865351900004, 25.33648233200006], [85.52860091000008, 25.33738062200007], [85.52709715400005, 25.340028441000072], [85.52688417600007, 25.340290628000048], [85.52605647600006, 25.341045876000067], [85.52570102800007, 25.34199438400003], [85.52565098600007, 25.344034642000054], [85.52565376300004, 25.345244308000076], [85.52533236300008, 25.345894822000048], [85.52465309600007, 25.346419651000076], [85.52368015100006, 25.34668322300007], [85.52278146800006, 25.346847428000046], [85.52159895100004, 25.346687107000037], [85.52023236500008, 25.346364682000058], [85.51822042100008, 25.346237377000023], [85.51642149400004, 25.345847966000065], [85.51620598000005, 25.347220509000067], [85.51656967600007, 25.34770734700004], [85.51700285000004, 25.348166934000062], [85.51718291800006, 25.348753337000062], [85.51745574100005, 25.350860656000066], [85.51810939800004, 25.352163936000068], [85.51853744200008, 25.352555816000063], [85.51907967600005, 25.35291590500003], [85.52070148200005, 25.354023228000074], [85.52185217700008, 25.35548803000006], [85.52199760600007, 25.35607906900003], [85.52366559800004, 25.355615552000074], [85.52577583200008, 25.355259584000066], [85.52654958600004, 25.354748148000056], [85.52762755100008, 25.35474609000005], [85.52973967200006, 25.35517541200005], [85.53154888000006, 25.35564140100007], [85.53292475100005, 25.355638713000076], [85.53490658700008, 25.355558189000078], [85.53654509900008, 25.355239090000055], [85.53912669000005, 25.35464724800005], [85.53992428600003, 25.355841767000072], [85.54079165000007, 25.35709034300004], [85.54152634500008, 25.35897101200004], [85.54170598900004, 25.361358318000043], [85.54171008200007, 25.363041830000043], [85.54143450400005, 25.364157265000074], [85.54113478700003, 25.365529992000063], [85.54105312200005, 25.366703613000027], [85.54226996900007, 25.36657030300006], [85.54321874500005, 25.366532323000058], [85.54494249700008, 25.366488262000075], [85.54597575700006, 25.366486205000058], [85.54700861100008, 25.366290083000024], [85.54739582200006, 25.366171958000052], [85.54787331200004, 25.36640568100006], [85.54813353300005, 25.367186016000062], [85.54831004000005, 25.368282425000075], [85.54852597900003, 25.369184638000036], [85.54936740400007, 25.36994573000004], [85.54999275200004, 25.369691688000046], [85.55102641100007, 25.369843037000066], [85.55262198500003, 25.37019190500007], [85.55404225900008, 25.36995422600006]]]]}}, {"type": "Feature", "properties": {"OBJECTID": 5554, "GPCODE": "95584", "GPNAME_1": "GONAWAN", "DIST_CEN_C": "27", "BLK_NAME": "HARNAUT", "ST_NAME": "BIHAR", "ST_CODE_1": "10", "GPCODE2011": "98138", "REMARKS": "FINALIZED", "MAP_STATUS": "COMPLETED", "BLK_C_2001": "270003", "BLK_C_2011": "01380", "DIST_NAME": "NALANDA", "code2011": 0.0, "Shape_Leng": 0.12878612813, "Shape_Area": 0.00067660455, "Area": 7.54188}, "geometry": {"type": "MultiPolygon", "coordinates": [[[[85.63487488200008, 25.358634878000032], [85.63311851100008, 25.354590823000024], [85.63233659100007, 25.352358636000076], [85.63148837700004, 25.34960307700004], [85.63135704700005, 25.34889932300007], [85.63019294300005, 25.346722365000062], [85.62940973900004, 25.34566361900005], [85.62934117700007, 25.344391002000066], [85.62907902000006, 25.34313693100006], [85.62877160700003, 25.341724964000036], [85.62898266700006, 25.340903026000035], [85.62915233700005, 25.339566577000028], [85.62798766500003, 25.33878419800004], [85.62703740400008, 25.33827662500005], [85.62638583300009, 25.337966837000067], [85.62543722700008, 25.337969220000048], [85.62496598600006, 25.338164564000067], [85.62405966000006, 25.338992848000032], [85.62340481500007, 25.33974035400007], [85.62355091900008, 25.339914839000073], [85.62372834800004, 25.341105950000042], [85.62374589600006, 25.34193644100003], [85.62359013500009, 25.342974945000037], [85.62344415600006, 25.343954695000036], [85.62357031500005, 25.344613415000026], [85.62352367500006, 25.345579427000075], [85.62334725900007, 25.346378727000058], [85.62328400700005, 25.346807684000055], [85.62334958600007, 25.347118945000034], [85.62349035300008, 25.347660245000043], [85.62350600600007, 25.347926432000065], [85.62332838000003, 25.348296995000055], [85.62295635300006, 25.34846045200004], [85.62259402200004, 25.348551616000066], [85.62200797700007, 25.348566705000053], [85.62153606700008, 25.348567888000048], [85.62073500300005, 25.348109488000034], [85.61999840300007, 25.347655471000053], [85.61760028800006, 25.34632546200004], [85.61527379500006, 25.34567233000007], [85.61421600100005, 25.345747131000053], [85.61328774400005, 25.345911922000028], [85.61273947000007, 25.346933309000065], [85.61282599400005, 25.34764173700006], [85.61317634900007, 25.348539017000064], [85.61343852500005, 25.349833818000036], [85.61357013700007, 25.35065943500007], [85.61240705400007, 25.350386999000023], [85.61043928900006, 25.350134567000055], [85.61031268500005, 25.350996890000033], [85.61023182100007, 25.352215778000073], [85.61010554100005, 25.353154909000068], [85.60976024100006, 25.353981762000046], [85.61002691500005, 25.35511843100005], [85.61011359400004, 25.355862959000035], [85.60959860500003, 25.356410408000045], [85.60925373100008, 25.357395213000075], [85.60880233700004, 25.357608390000053], [85.60755548400004, 25.35760689800003], [85.60752249700005, 25.35988635900003], [85.60765533900008, 25.361140799000054], [85.60774364300005, 25.36243139000004], [85.60774898300008, 25.364236840000046], [85.60728041200008, 25.365397896000047], [85.60786663700009, 25.367071059000068], [85.60932532100009, 25.368128116000037], [85.61126935600004, 25.36865149600004], [85.61224648100006, 25.369795502000045], [85.61263633600004, 25.370588917000077], [85.61215478500003, 25.372354882000025], [85.61225779900008, 25.373591324000074], [85.61313615000006, 25.374911605000023], [85.61449562800004, 25.375964469000053], [85.61440683000006, 25.377819742000042], [85.61421006400008, 25.379752325000027], [85.61421027900008, 25.379752305000068], [85.61665761000006, 25.379529286000036], [85.62143524800007, 25.37887188600007], [85.62388899000007, 25.378689578000035], [85.62537217600004, 25.377923013000043], [85.62601694500006, 25.375985101000026], [85.62570755000007, 25.37072770000003], [85.62557055500008, 25.368200456000068], [85.62517892400007, 25.366851890000078], [85.62576007500007, 25.36685041800007], [85.62692258200008, 25.36684746000003], [85.62814777100004, 25.366257589000043], [85.63053324200007, 25.364960522000047], [85.63466076500004, 25.363189555000076], [85.63540466800004, 25.362303412000074], [85.63540468400004, 25.362303392000058], [85.63614548900006, 25.361420922000036], [85.63594803000007, 25.360247878000052], [85.63487488200008, 25.358634878000032]]]]}}, {"type": "Feature", "properties": {"OBJECTID": 5556, "GPCODE": "95589", "GPNAME_1": "POWARI", "DIST_CEN_C": "27", "BLK_NAME": "HARNAUT", "ST_NAME": "BIHAR", "ST_CODE_1": "10", "GPCODE2011": "98143", "REMARKS": "FINALIZED", "MAP_STATUS": "COMPLETED", "BLK_C_2001": "270003", "BLK_C_2011": "01380", "DIST_NAME": "NALANDA", "code2011": 0.0, "Shape_Leng": 0.14844232876, "Shape_Area": 0.00097292689, "Area": 10.8448}, "geometry": {"type": "MultiPolygon", "coordinates": [[[[85.61039592100008, 25.380664051000053], [85.61401024400004, 25.379770533000055], [85.61421006400008, 25.379752325000027], [85.61440683000006, 25.377819742000042], [85.61449562800004, 25.375964469000053], [85.61313615000006, 25.374911605000023], [85.61225779900008, 25.373591324000074], [85.61215478500003, 25.372354882000025], [85.61263633600004, 25.370588917000077], [85.61224648100006, 25.369795502000045], [85.61126935600004, 25.36865149600004], [85.60932532100009, 25.368128116000037], [85.60786663700009, 25.367071059000068], [85.60728041200008, 25.365397896000047], [85.60774898300008, 25.364236840000046], [85.60774364300005, 25.36243139000004], [85.60765533900008, 25.361140799000054], [85.60752249700005, 25.35988635900003], [85.60755548400004, 25.35760689800003], [85.60682336200006, 25.35694522400007], [85.60602235000005, 25.35653188300006], [85.60563213600005, 25.355589517000055], [85.60532608000005, 25.354534126000033], [85.60540770000006, 25.35359053700006], [85.60519008000006, 25.352218953000033], [85.60496728300006, 25.350766128000032], [85.60453174200006, 25.349593738000067], [85.60437922100004, 25.348388912000075], [85.60406996300009, 25.346232256000064], [85.60359051700004, 25.343647170000054], [85.60323906500008, 25.34235263200003], [85.60277179200006, 25.34050316200006], [85.60181336800008, 25.34056866700007], [85.60039293200003, 25.34059909700005], [85.59896761300007, 25.340647653000076], [85.59924842300006, 25.341549687000054], [85.59924956400005, 25.34196488400005], [85.59910669000004, 25.342380494000054], [85.59887934000005, 25.342751167000074], [85.59848324100005, 25.343207979000056], [85.59817072400006, 25.343339566000054], [85.59776341100007, 25.343327015000057], [85.59724165700004, 25.34323790600007], [85.59722676000007, 25.34323798300005], [85.59606375300007, 25.34298799100003], [85.59490580900007, 25.342742413000053], [85.59431948600007, 25.342667047000077], [85.59350430100005, 25.342434232000073], [85.59313580300005, 25.342087561000028], [85.59067064800007, 25.341529155000046], [85.58896720700005, 25.341578163000065], [85.58751205900006, 25.34164021600003], [85.58578970900004, 25.34205481500004], [85.58448866900005, 25.342148128000076], [85.58439108800007, 25.342771183000025], [85.58384293100005, 25.343927860000065], [85.58288554400008, 25.34616426300005], [85.58266811500005, 25.34839896400007], [85.58148167800005, 25.352305826000077], [85.58109845900003, 25.355660192000073], [85.58084596600008, 25.357777687000066], [85.58278997800005, 25.358418674000063], [85.58273385700005, 25.36147902700003], [85.58137768900008, 25.36148208900005], [85.58112358500006, 25.364836209000032], [85.58071124100007, 25.368493073000025], [85.58175039900004, 25.368802173000063], [85.58284929100006, 25.369174328000042], [85.58574132800004, 25.369402471000058], [85.58807145800006, 25.36947838800006], [85.59070562800008, 25.369864953000047], [85.59135335300004, 25.370567599000026], [85.59182675100004, 25.37107646900006], [85.59182982900006, 25.372137185000042], [85.59148896600004, 25.372842054000046], [85.59140869400005, 25.374331691000066], [85.59119565100008, 25.376295597000023], [85.59214221000008, 25.37897895800006], [85.59278809600005, 25.37897739500005], [85.59324201000004, 25.37962181100005], [85.59363321100005, 25.38091177900003], [85.59409249800007, 25.383433737000075], [85.59403400800005, 25.38555067300007], [85.59436205200006, 25.38736885800006], [85.59513875300007, 25.38789514000007], [85.59669032700003, 25.38836093200007], [85.59811237200006, 25.388709619000053], [85.59914493000008, 25.388413780000064], [85.59972475800004, 25.387884303000078], [85.60075486300008, 25.386708347000024], [85.60236553900006, 25.38529632700005], [85.60423385700005, 25.383644425000057], [85.60468101800006, 25.381941734000065], [85.60555199900006, 25.38073455600005], [85.60748958200008, 25.380729786000074], [85.61039592100008, 25.380664051000053]]]]}}, {"type": "Feature", "properties": {"OBJECTID": 5558, "GPCODE": "95590", "GPNAME_1": "SABNAHUA", "DIST_CEN_C": "27", "BLK_NAME": "HARNAUT", "ST_NAME": "BIHAR", "ST_CODE_1": "10", "GPCODE2011": "98144", "REMARKS": "FINALIZED", "MAP_STATUS": "COMPLETED", "BLK_C_2001": "270003", "BLK_C_2011": "01380", "DIST_NAME": "NALANDA", "code2011": 0.0, "Shape_Leng": 0.11730852761, "Shape_Area": 0.00065929413, "Area": 7.34878}, "geometry": {"type": "MultiPolygon", "coordinates": [[[[85.52422048100004, 25.387904397000057], [85.52544756300006, 25.387784772000032], [85.52628744900005, 25.38790054900005], [85.52719181800006, 25.38789888900004], [85.52842202000005, 25.387016388000063], [85.52990269800006, 25.384896782000055], [85.53122553700007, 25.383278329000063], [85.53122171500007, 25.381635450000033], [85.53154224200006, 25.380574170000045], [85.53244479400007, 25.379868286000033], [85.53386334000004, 25.378809442000033], [85.53573485300006, 25.378160408000042], [85.53644510600003, 25.378100318000065], [85.53741642800009, 25.377037792000067], [85.53767283400003, 25.376215779000063], [85.53741305400007, 25.375629580000066], [85.53573300700003, 25.375280717000066], [85.53573098200008, 25.374418657000035], [85.53811738100006, 25.373037363000037], [85.53919406400007, 25.372484652000026], [85.53958005600003, 25.37182039000004], [85.53959766400004, 25.37089959700006], [85.53924652300003, 25.369451398000024], [85.53949969600006, 25.367293458000063], [85.54105312200005, 25.366703613000027], [85.54113478700003, 25.365529992000063], [85.54143450400005, 25.364157265000074], [85.54171008200007, 25.363041830000043], [85.54170598900004, 25.361358318000043], [85.54152634500008, 25.35897101200004], [85.54079165000007, 25.35709034300004], [85.53992428600003, 25.355841767000072], [85.53912669000005, 25.35464724800005], [85.53654509900008, 25.355239090000055], [85.53490658700008, 25.355558189000078], [85.53292475100005, 25.355638713000076], [85.53154888000006, 25.35564140100007], [85.52973967200006, 25.35517541200005], [85.52762755100008, 25.35474609000005], [85.52654958600004, 25.354748148000056], [85.52577583200008, 25.355259584000066], [85.52366559800004, 25.355615552000074], [85.52199760600007, 25.35607906900003], [85.52156842200003, 25.357415842000023], [85.52115795400005, 25.35825161300005], [85.52029635800005, 25.35946285700004], [85.51979663000003, 25.360380001000067], [85.51951081300007, 25.361391582000067], [85.51940434600004, 25.362664534000032], [85.51966019000008, 25.363810554000054], [85.51989699000006, 25.36529510300005], [85.51975460400007, 25.36601751200004], [85.51936316300004, 25.366505716000063], [85.51897007000008, 25.368433718000063], [85.51836473600008, 25.371016514000075], [85.51818751000008, 25.371770647000062], [85.51783055400006, 25.372064651000073], [85.51786518900008, 25.372028509000074], [85.51382179100005, 25.372311100000047], [85.51130331100006, 25.372446440000033], [85.51132983300005, 25.373240846000044], [85.51107498900006, 25.37483001100003], [85.51024029000007, 25.377119907000065], [85.50966559500006, 25.380176557000027], [85.50944181100004, 25.382438187000048], [85.51057556300003, 25.382878505000065], [85.51270703200004, 25.382874753000067], [85.51574341900005, 25.38316271900004], [85.51826287300008, 25.383334182000056], [85.52007641100005, 25.383330869000076], [85.52117518600005, 25.383680894000065], [85.52156537400003, 25.384853707000048], [85.52189608200007, 25.38831943400004], [85.52422048100004, 25.387904397000057]]]]}}, {"type": "Feature", "properties": {"OBJECTID": 5560, "GPCODE": "95591", "GPNAME_1": "SUDARI", "DIST_CEN_C": "27", "BLK_NAME": "HARNAUT", "ST_NAME": "BIHAR", "ST_CODE_1": "10", "GPCODE2011": "98145", "REMARKS": "FINALIZED", "MAP_STATUS": "COMPLETED", "BLK_C_2001": "270003", "BLK_C_2011": "01380", "DIST_NAME": "NALANDA", "code2011": 0.0, "Shape_Leng": 0.20023910058, "Shape_Area": 0.00090699492, "Area": 10.1087}, "geometry": {"type": "MultiPolygon", "coordinates": [[[[85.46970281400007, 25.359862921000058], [85.46929454200006, 25.359385107000037], [85.46752155200005, 25.35958628000003], [85.46651286000008, 25.35945689500005], [85.46541508500007, 25.35945848800003], [85.46447750800007, 25.36017755900008], [85.46349916100007, 25.360350484000037], [85.46220313400005, 25.360614087000044], [85.46072862500006, 25.361139840000078], [85.45905579700008, 25.361814684000024], [85.45855044100006, 25.362645876000045], [85.45822019700006, 25.364126792000036], [85.45783895600005, 25.364890149000075], [85.45682218400003, 25.365807867000058], [85.45703735200004, 25.366719239000076], [85.45677618900004, 25.367942765000066], [85.45673580600004, 25.370511099000055], [85.45696819400007, 25.37277656200007], [85.45637092600003, 25.37504322600006], [85.45600313000006, 25.377855641000053], [85.45703686800005, 25.378043809000076], [85.45888965700004, 25.377819970000076], [85.45961199700008, 25.376049675000047], [85.46035875300004, 25.374094209000077], [85.46040569600007, 25.37255051300008], [85.46104881500008, 25.370960852000053], [85.46244928800007, 25.370683452000037], [85.46619512600006, 25.370678054000052], [85.46724279300008, 25.370315418000075], [85.46764325800007, 25.369272186000046], [85.46801433400003, 25.36840959700004], [85.46931510400003, 25.367951805000075], [85.47068094900004, 25.36777373600006], [85.47057736500005, 25.365462930000035], [85.47049097400009, 25.364393302000053], [85.47039386700004, 25.362890503000074], [85.47005333200008, 25.361410570000032], [85.46991738800006, 25.36043129500007], [85.46970281400007, 25.359862921000058]]], [[[85.43471425400008, 25.40722641800005], [85.43467595400006, 25.404883899000026], [85.43556053000003, 25.40494149700004], [85.43755340900003, 25.404997622000053], [85.44050426400008, 25.404398041000036], [85.44464767800008, 25.403742716000068], [85.44797640800005, 25.403350126000078], [85.44856940000005, 25.40430163600007], [85.44928570400003, 25.40477465600003], [85.45014504400007, 25.404565863000073], [85.45038685000009, 25.403527360000055], [85.45084262400007, 25.402700819000074], [85.45084189300007, 25.402226874000064], [85.45041750200005, 25.401017816000035], [85.45062401500007, 25.399717684000052], [85.45174469400007, 25.398285291000036], [85.45198595000005, 25.396949026000073], [85.45278805900006, 25.395232720000024], [85.45266233600006, 25.39434823600004], [85.45196299200006, 25.392124085000034], [85.45108468900008, 25.38986845900007], [85.45034637000003, 25.38812277200003], [85.44920691100003, 25.38710877400007], [85.44868409600008, 25.386441425000044], [85.44854397000006, 25.385836797000024], [85.44854095900007, 25.38399525600005], [85.44874323200008, 25.383119408000027], [85.44873192600005, 25.382270869000024], [85.44819937300008, 25.38170287400004], [85.44594884200006, 25.381859318000068], [85.44405613800006, 25.381992755000056], [85.44336026200006, 25.381817598000055], [85.44417264000003, 25.380313542000067], [85.44412167400003, 25.37948767200004], [85.44361726900007, 25.37787695800006], [85.44235806200004, 25.376506520000078], [85.44110980100004, 25.375700203000065], [85.43957425400004, 25.37548551200007], [85.43882261600004, 25.375920394000048], [85.43806528700009, 25.376358562000064], [85.43754112100004, 25.37792993900007], [85.43759248300006, 25.378995087000078], [85.43714024500008, 25.382132582000054], [85.43677282600004, 25.385486581000066], [85.43660653600006, 25.387211], [85.43621310300006, 25.389824824000073], [85.43602531200008, 25.39050211600005], [85.43379449100007, 25.39061319900003], [85.43065436700005, 25.390702866000026], [85.42818483600007, 25.390705901000047], [85.42644566300004, 25.390644744000042], [85.42493435800003, 25.390122993000034], [85.42366736100007, 25.39014254500006], [85.42341451200008, 25.390499453000075], [85.42329644500006, 25.390996442000073], [85.42317747800007, 25.391497222000055], [85.42269689100004, 25.392499825000073], [85.42140542100003, 25.392803710000067], [85.41934394100008, 25.393243921000078], [85.41722244400006, 25.393399757000054], [85.41598529300006, 25.393509478000055], [85.41498640100008, 25.39338880400004], [85.41498738200005, 25.393391673000053], [85.41541548200007, 25.394643012000074], [85.41714335500006, 25.39729953500006], [85.41781600200005, 25.398603250000065], [85.41726561700006, 25.39947499400006], [85.41582989700004, 25.399693238000054], [85.41458262200007, 25.399694616000033], [85.41391305200005, 25.40061158700007], [85.41429689400007, 25.401527418000057], [85.41431269500004, 25.40215934200006], [85.41445845900006, 25.40342749200005], [85.41455899100004, 25.40423080900007], [85.41465946200003, 25.405056600000023], [85.41598006600003, 25.407776806000072], [85.41606070600005, 25.408553091000044], [85.41649089800006, 25.410619783000072], [85.41661733200004, 25.412199358000066], [85.41822855600003, 25.41291516900003], [85.41934186400005, 25.41296809200003], [85.41902193900006, 25.411695630000054], [85.42058703400005, 25.41145460300004], [85.42218725900005, 25.41139405100006], [85.42443840400006, 25.411332727000058], [85.42696770300006, 25.411149178000073], [85.43020293400008, 25.411145245000057], [85.43320452600005, 25.41114151000005], [85.43418328900003, 25.410932677000062], [85.43429570400008, 25.409745481000073], [85.43471425400008, 25.40722641800005]]]]}}, {"type": "Feature", "properties": {"OBJECTID": 5562, "GPCODE": "95578", "GPNAME_1": "BASTI", "DIST_CEN_C": "27", "BLK_NAME": "HARNAUT", "ST_NAME": "BIHAR", "ST_CODE_1": "10", "GPCODE2011": "98132", "REMARKS": "FINALIZED", "MAP_STATUS": "COMPLETED", "BLK_C_2001": "270003", "BLK_C_2011": "01380", "DIST_NAME": "NALANDA", "code2011": 0.0, "Shape_Leng": 0.16363041902, "Shape_Area": 0.00093292085, "Area": 10.3978}, "geometry": {"type": "MultiPolygon", "coordinates": [[[[85.57280149100006, 25.39423318300004], [85.57473928400003, 25.39422891600003], [85.57641883000008, 25.394225162000055], [85.57867822000009, 25.39369208900007], [85.58051997600006, 25.393069565000076], [85.58213105700008, 25.391657757000075], [85.58329052200008, 25.390481597000075], [85.58367402200008, 25.38900933800005], [85.58443914100008, 25.38536973600003], [85.58513833300003, 25.38131496500006], [85.58607505100008, 25.380459785000028], [85.58672094700006, 25.380458340000075], [85.58769134100004, 25.38104289100005], [85.58859726500003, 25.381627550000076], [85.58924316700006, 25.38162609400007], [85.59027368100004, 25.380567537000047], [85.59182044300007, 25.379390412000078], [85.59214221000008, 25.37897895800006], [85.59119565100008, 25.376295597000023], [85.59140869400005, 25.374331691000066], [85.59148896600004, 25.372842054000046], [85.59182982900006, 25.372137185000042], [85.59182675100004, 25.37107646900006], [85.59135335300004, 25.370567599000026], [85.59070562800008, 25.369864953000047], [85.58807145800006, 25.36947838800006], [85.58574132800004, 25.369402471000058], [85.58284929100006, 25.369174328000042], [85.58175039900004, 25.368802173000063], [85.58071124100007, 25.368493073000025], [85.57984740700005, 25.36868904800008], [85.57924551800005, 25.368419647000053], [85.57846250200004, 25.367283932000078], [85.57790453300004, 25.36669397000003], [85.57712213900004, 25.365792921000036], [85.57630131800005, 25.36536595800004], [85.57530671200004, 25.36497554500005], [85.57440265300005, 25.365018101000032], [85.57315115800003, 25.36517437200007], [85.57190142900004, 25.36596244100008], [85.57093911500004, 25.366492580000056], [85.57119961800004, 25.367318005000072], [85.57137116000007, 25.36833775300005], [85.57085870400005, 25.369904990000066], [85.57047465300008, 25.371196715000053], [85.56922235100006, 25.371082088000037], [85.56784216400007, 25.371441617000073], [85.56655168500004, 25.371873165000068], [85.56538436300008, 25.371952476000047], [85.56491178500005, 25.371718721000036], [85.56473701200008, 25.37136706000007], [85.56473406900005, 25.370229711000036], [85.56429834000005, 25.368899086000056], [85.56334801500003, 25.36831440800006], [85.56222470600005, 25.368118184000025], [85.56127606100006, 25.36820140900005], [85.55985081000006, 25.368398530000036], [85.55873370000006, 25.368676144000062], [85.55830631400005, 25.368613915000026], [85.55744333800004, 25.369166378000045], [85.55572077800008, 25.369679921000056], [85.55404225900008, 25.36995422600006], [85.55262198500003, 25.37019190500007], [85.55102641100007, 25.369843037000066], [85.54999275200004, 25.369691688000046], [85.54936740400007, 25.36994573000004], [85.54852597900003, 25.369184638000036], [85.54831004000005, 25.368282425000075], [85.54813353300005, 25.367186016000062], [85.54787331200004, 25.36640568100006], [85.54739582200006, 25.366171958000052], [85.54700861100008, 25.366290083000024], [85.54597575700006, 25.366486205000058], [85.54494249700008, 25.366488262000075], [85.54321874500005, 25.366532323000058], [85.54226996900007, 25.36657030300006], [85.54105312200005, 25.366703613000027], [85.53949969600006, 25.367293458000063], [85.53924652300003, 25.369451398000024], [85.53959766400004, 25.37089959700006], [85.53958005600003, 25.37182039000004], [85.53919406400007, 25.372484652000026], [85.53811738100006, 25.373037363000037], [85.53573098200008, 25.374418657000035], [85.53573300700003, 25.375280717000066], [85.53741305400007, 25.375629580000066], [85.53767283400003, 25.376215779000063], [85.53741642800009, 25.377037792000067], [85.53644510600003, 25.378100318000065], [85.53704296600006, 25.37876268200006], [85.53855437400006, 25.379229100000032], [85.54031853800007, 25.379379106000044], [85.54126812400006, 25.379652531000033], [85.54200343400004, 25.37965111400007], [85.54252016600003, 25.379650049000077], [85.54299222800006, 25.37968972500005], [85.54372930400007, 25.38042850900007], [85.54437706400006, 25.381171959000028], [85.54493527400007, 25.381874949000064], [85.54614439900007, 25.382617193000044], [85.54666328300004, 25.383518880000054], [85.54804590700007, 25.38406221200006], [85.55105133100005, 25.383848517000047], [85.55376878100003, 25.383725583000057], [85.55583544600006, 25.38360391200007], [85.55758080000004, 25.384187030000078], [85.55893766300005, 25.384360271000048], [85.56062114400004, 25.38400468800006], [85.56281766400008, 25.384176052000043], [85.56359640300008, 25.385582602000056], [85.56812491500006, 25.386394340000038], [85.56800363000008, 25.389391571000033], [85.56826568100007, 25.39079924300006], [85.56885122900007, 25.392382182000063], [85.56956410100008, 25.393260799000075], [85.57144020000004, 25.39431738600007], [85.57280149100006, 25.39423318300004]]]]}}, {"type": "Feature", "properties": {"OBJECTID": 5564, "GPCODE": "95585", "GPNAME_1": "KOLAWAN", "DIST_CEN_C": "27", "BLK_NAME": "HARNAUT", "ST_NAME": "BIHAR", "ST_CODE_1": "10", "GPCODE2011": "98139", "REMARKS": "FINALIZED", "MAP_STATUS": "COMPLETED", "BLK_C_2001": "270003", "BLK_C_2011": "01380", "DIST_NAME": "NALANDA", "code2011": 0.0, "Shape_Leng": 0.30476270845, "Shape_Area": 0.00173524376, "Area": 19.3373}, "geometry": {"type": "MultiPolygon", "coordinates": [[[[85.48873153200003, 25.441902807000076], [85.48887800200004, 25.440539466000075], [85.48958681300007, 25.43951376800004], [85.49075364500004, 25.438898015000063], [85.49203065300009, 25.438620609000054], [85.49302425800005, 25.438348162000068], [85.49298832000005, 25.43780206300005], [85.49189806200008, 25.436950766000052], [85.49088220000004, 25.436031710000066], [85.49061705900004, 25.43517909700006], [85.49140077600003, 25.434356310000055], [85.49204001800007, 25.433402965000028], [85.49214813800006, 25.432788947000063], [85.49098241300004, 25.431459348000033], [85.49006141900009, 25.43074775200006], [85.48994531100004, 25.429827137000075], [85.48909922600006, 25.429295987000046], [85.48909816700007, 25.42876338600007], [85.48939068400006, 25.428347682000037], [85.48935417900003, 25.42748559000006], [85.48905845600007, 25.426271992000068], [85.48853581700007, 25.425889191000067], [85.48722795900005, 25.425534726000024], [85.48729487100007, 25.424144440000077], [85.48725767800005, 25.422930347000033], [85.48698989600007, 25.420705644000066], [85.48647631700004, 25.41732580100006], [85.48575766500005, 25.41581492000006], [85.48526304200004, 25.41445268800004], [85.48566767200003, 25.413003197000023], [85.48586202000007, 25.410687435000057], [85.48601589100008, 25.40807836600004], [85.48589882900006, 25.40665681200005], [85.48563144500008, 25.404612601000053], [85.48553141400004, 25.401706071000035], [85.48521724900007, 25.398596742000052], [85.48524321700006, 25.396606250000048], [85.48491477500005, 25.396372039000028], [85.48228615300008, 25.396376217000068], [85.47928468300006, 25.396295160000022], [85.47758604400008, 25.39668141800007], [85.47504354000006, 25.397574564000024], [85.47320130000008, 25.39829042300005], [85.47156786200009, 25.39903315300006], [85.47090134500007, 25.39867756800004], [85.47013002300008, 25.39807395300005], [85.47045841300007, 25.395595511000067], [85.47045395800006, 25.393149163000032], [85.47073195900003, 25.390287212000032], [85.47063814200004, 25.387904156000047], [85.47101781000003, 25.386314828000025], [85.47070086800005, 25.384157839000068], [85.47024014800007, 25.382154487000037], [85.47352864400006, 25.381833571000072], [85.47403977200008, 25.384184401000027], [85.47457051300006, 25.38637712600007], [85.47506130300007, 25.388439085000073], [85.47570798500004, 25.388853380000057], [85.47707462300008, 25.38897762000005], [85.47939932000008, 25.38859493500007], [85.48233510200004, 25.388238224000077], [85.48488953500004, 25.388486916000033], [85.48614596000004, 25.388168997000037], [85.48765166600003, 25.388261328000056], [85.48871930100006, 25.387943715000063], [85.48885693300008, 25.387212216000023], [85.48856932800004, 25.384987531000036], [85.48804345900004, 25.38282644900005], [85.48814624300007, 25.382031892000043], [85.48914367600008, 25.38145701800005], [85.48952503600003, 25.380820044000075], [85.48913753900007, 25.378311148000023], [85.48877975700003, 25.375802116000045], [85.48935299800007, 25.374212501000045], [85.48927904500005, 25.372019012000067], [85.48854173500007, 25.37097308500006], [85.48825295000006, 25.37065752700005], [85.48741362300007, 25.37078984900006], [85.48589550200006, 25.37186652300005], [85.48424325200006, 25.37293429500005], [85.48319295700009, 25.374438988000065], [85.48271324900008, 25.375617790000035], [85.48315955000004, 25.376026284000034], [85.48361411000008, 25.376442333000057], [85.48395004700006, 25.378035040000043], [85.48407649400008, 25.379208426000048], [85.48330762800003, 25.37980088100005], [85.48262809000005, 25.38043383100006], [85.47950944700005, 25.38120155000007], [85.47816907100008, 25.381790413000033], [85.47725982300005, 25.381769211000062], [85.47668299600008, 25.38151281100005], [85.47646824900005, 25.38089932500003], [85.47616762100006, 25.37957283700007], [85.47561155200003, 25.37713185700005], [85.47508334600008, 25.376284068000075], [85.47470662900008, 25.37404140700005], [85.47427226200006, 25.372886625000035], [85.47453262400006, 25.371297432000063], [85.47492869500007, 25.37057919500006], [85.47451957000004, 25.369618418000073], [85.47391730000004, 25.36901004500004], [85.47278987100003, 25.36918773800005], [85.47178661600003, 25.369320144000028], [85.47101649200005, 25.369276221000064], [85.47068094900004, 25.36777373600006], [85.46931510400003, 25.367951805000075], [85.46801433400003, 25.36840959700004], [85.46764325800007, 25.369272186000046], [85.46724279300008, 25.370315418000075], [85.46619512600006, 25.370678054000052], [85.46244928800007, 25.370683452000037], [85.46104881500008, 25.370960852000053], [85.46040569600007, 25.37255051300008], [85.46035875300004, 25.374094209000077], [85.45961199700008, 25.376049675000047], [85.45888965700004, 25.377819970000076], [85.45703686800005, 25.378043809000076], [85.45600313000006, 25.377855641000053], [85.45610662000007, 25.38027475100006], [85.45576119200007, 25.38162483600007], [85.45446969300008, 25.381802637000078], [85.45374963800003, 25.38204285300003], [85.45326891200006, 25.38273858200006], [85.44874323200008, 25.383119408000027], [85.44854095900007, 25.38399525600005], [85.44854397000006, 25.385836797000024], [85.44868409600008, 25.386441425000044], [85.44920691100003, 25.38710877400007], [85.45034637000003, 25.38812277200003], [85.45108468900008, 25.38986845900007], [85.45196299200006, 25.392124085000034], [85.45266233600006, 25.39434823600004], [85.45278805900006, 25.395232720000024], [85.45198595000005, 25.396949026000073], [85.45174469400007, 25.398285291000036], [85.45062401500007, 25.399717684000052], [85.45041750200005, 25.401017816000035], [85.45084189300007, 25.402226874000064], [85.45084262400007, 25.402700819000074], [85.45038685000009, 25.403527360000055], [85.45014504400007, 25.404565863000073], [85.45289075400007, 25.406105656000022], [85.45576603100005, 25.407821368000043], [85.45877485200003, 25.409121540000058], [85.46014844300004, 25.410306640000044], [85.46269666500007, 25.41243789500004], [85.46449837900008, 25.413938253000026], [85.46469961000008, 25.415301028000044], [85.46528800400006, 25.416396963000068], [85.46574856100005, 25.418264905000058], [85.46623994200007, 25.42069699900003], [85.46671496200008, 25.42227153400006], [85.46744087000008, 25.42520422700005], [85.46780374500008, 25.427993043000072], [85.46880204800004, 25.43030694500004], [85.46867966300005, 25.434075896000024], [85.46932021400005, 25.436480690000053], [85.46933683100008, 25.437423978000027], [85.47039102100007, 25.437625532000027], [85.47155528800005, 25.438237568000034], [85.47302392400007, 25.43943144600007], [85.47407415600009, 25.44021520700005], [85.47467560200005, 25.440178229000026], [85.47505265800004, 25.439771363000034], [85.47467277700008, 25.438643613000067], [85.47456029500006, 25.43697379100007], [85.47493137100008, 25.43608405300006], [85.47586979600004, 25.435536526000078], [85.47726217600007, 25.43580963000005], [85.47786646000003, 25.43730716600004], [85.47861834900004, 25.438023697000062], [85.47976200400007, 25.438229489000037], [85.48051634700005, 25.437578374000054], [85.48126534900007, 25.436760277000076], [85.48213014000004, 25.436691213000074], [85.48291648100007, 25.437236116000065], [85.48341166500006, 25.438801501000057], [85.48352350200008, 25.440101178000077], [85.48352484200007, 25.440782788000035], [85.48284917600006, 25.440955329000076], [85.48187466200005, 25.440853093000044], [85.48119805800007, 25.440547183000035], [85.48059665100004, 25.440615869000055], [85.48007066300005, 25.44109515400004], [85.47999784400008, 25.442015996000066], [85.48014936000004, 25.44324344300003], [85.48097620000004, 25.44413129800006], [85.48242375100006, 25.444607430000076], [85.48430296400005, 25.44470825600007], [85.48689334700003, 25.444943334000072], [85.48828536000008, 25.445008753000025], [85.48865705800006, 25.444430456000077], [85.48873153200003, 25.441902807000076]]]]}}, {"type": "Feature", "properties": {"OBJECTID": 5567, "GPCODE": "95581", "GPNAME_1": "CHERO", "DIST_CEN_C": "27", "BLK_NAME": "HARNAUT", "ST_NAME": "BIHAR", "ST_CODE_1": "10", "GPCODE2011": "98135", "REMARKS": "FINALIZED", "MAP_STATUS": "COMPLETED", "BLK_C_2001": "270003", "BLK_C_2011": "01380", "DIST_NAME": "NALANDA", "code2011": 0.0, "Shape_Leng": 0.13987115863, "Shape_Area": 0.00060531388, "Area": 6.74517}, "geometry": {"type": "MultiPolygon", "coordinates": [[[[85.53929783900008, 25.419998261000046], [85.54033142000003, 25.419937482000023], [85.54130104200004, 25.420111641000062], [85.54304660900004, 25.42057757500004], [85.54388714800007, 25.420810584000037], [85.54492084700007, 25.42080853400006], [85.54588842200008, 25.420161153000038], [85.54659651000009, 25.419103595000024], [85.54749836800005, 25.417986877000033], [85.54794945900005, 25.41751656300005], [85.54796223300008, 25.414645981000035], [85.54821602800007, 25.41276787700008], [85.54905357700005, 25.411822829000073], [85.54989154500004, 25.411058290000028], [85.55098853900006, 25.410528002000035], [85.55157440800008, 25.41029214300005], [85.55163790400007, 25.40988128400005], [85.54981927000006, 25.407944170000064], [85.54923519800008, 25.40688917500006], [85.54903901900008, 25.40595081200007], [85.54942404100007, 25.40489382900006], [85.55013114200005, 25.403479640000057], [85.55139032700004, 25.402271986000073], [85.55338903700004, 25.400683591000075], [85.55390108800003, 25.398800445000063], [85.55421902000006, 25.396804786000075], [85.55421434700008, 25.394922645000065], [85.55401781900008, 25.39386694800004], [85.55243660600007, 25.393414321000023], [85.55262515100009, 25.391301619000046], [85.55300900100008, 25.38983395100007], [85.55352322500005, 25.38883541200005], [85.55455554400004, 25.38836386400004], [85.55507108600005, 25.38789332700003], [85.55532797200004, 25.387301539000077], [85.55506830400003, 25.386774038000055], [85.55435589700005, 25.386012685000026], [85.55390171300007, 25.385192155000027], [85.55383514100004, 25.384429583000042], [85.55376878100003, 25.383725583000057], [85.55105133100005, 25.383848517000047], [85.54804590700007, 25.38406221200006], [85.54786492800008, 25.385245183000052], [85.54791359000006, 25.38681120900003], [85.54791886300006, 25.388964131000023], [85.54762112700007, 25.391158381000025], [85.54731899000006, 25.391547110000033], [85.54665387500006, 25.391810294000038], [85.54363719800006, 25.39158162900003], [85.54057649100008, 25.391628315000048], [85.53829143900003, 25.39190356900008], [85.53721871700003, 25.39210427100005], [85.53687134200004, 25.39229904900003], [85.53657868700003, 25.39461052200005], [85.53726563500004, 25.395155303000024], [85.53860415400004, 25.395938023000042], [85.53916736600007, 25.396641035000073], [85.53933795000006, 25.397304190000057], [85.53891195000006, 25.397896368000033], [85.53826712800003, 25.398367042000075], [85.53667261200007, 25.398604797000075], [85.53468962200003, 25.398491290000038], [85.53244793800008, 25.398220276000075], [85.53207989900005, 25.398085577000074], [85.53152334400005, 25.398086644000045], [85.53109182400004, 25.398439518000032], [85.53087438600005, 25.398949994000077], [85.53018960700007, 25.399343952000038], [85.52876896200007, 25.399581409000064], [85.52738805700005, 25.399818725000046], [85.52661339300005, 25.40005486900003], [85.52614190100007, 25.400290427000073], [85.52605345500007, 25.400719388000027], [85.52618784100008, 25.402993958000025], [85.52654018300007, 25.404947594000078], [85.52636781100006, 25.405652088000068], [85.52662956900008, 25.40710043200005], [85.52729849500008, 25.408412589000022], [85.52773292100005, 25.409350585000027], [85.52829480100007, 25.409466871000063], [85.52945738900007, 25.409347311000033], [85.53105236100004, 25.409226965000073], [85.53294559000005, 25.40914661900007], [85.53471498200008, 25.409260500000073], [85.53531948200003, 25.410590858000035], [85.53541146800006, 25.411687415000074], [85.53510973100003, 25.412274771000057], [85.53424609100006, 25.412745864000044], [85.53226995700004, 25.41349437200006], [85.53024370200006, 25.414125640000066], [85.52903665800005, 25.414362658000073], [85.52843551500007, 25.41448107900004], [85.52791908900008, 25.414635530000055], [85.52770177500008, 25.41522722700006], [85.52750975100008, 25.416030972000044], [85.52807281700007, 25.416657298000075], [85.52897991800006, 25.417793043000074], [85.52982851100006, 25.419079256000032], [85.52982867000009, 25.419079097000065], [85.53015007700003, 25.41875665300006], [85.53086066300006, 25.41869667800006], [85.53150664500004, 25.41863670300006], [85.53247697300003, 25.419162920000076], [85.53325455100008, 25.420100260000027], [85.53396702300006, 25.42086169600003], [85.53506720400009, 25.421622369000033], [85.53590773500008, 25.421855420000043], [85.53723331100008, 25.421293131000027], [85.53833023200008, 25.420645601000047], [85.53929783900008, 25.419998261000046]]]]}}, {"type": "Feature", "properties": {"OBJECTID": 5569, "GPCODE": "95587", "GPNAME_1": "NEHUSA", "DIST_CEN_C": "27", "BLK_NAME": "HARNAUT", "ST_NAME": "BIHAR", "ST_CODE_1": "10", "GPCODE2011": "98141", "REMARKS": "FINALIZED", "MAP_STATUS": "COMPLETED", "BLK_C_2001": "270003", "BLK_C_2011": "01380", "DIST_NAME": "NALANDA", "code2011": 0.0, "Shape_Leng": 0.14453000751, "Shape_Area": 0.00083320331, "Area": 9.28442}, "geometry": {"type": "MultiPolygon", "coordinates": [[[[85.55701924000005, 25.413471901000037], [85.55766530300008, 25.413470576000066], [85.55863569900004, 25.413996630000042], [85.55960688900007, 25.414816010000038], [85.56019141700006, 25.415988294000044], [85.56135915100003, 25.417867946000058], [85.56252783900004, 25.420095165000077], [85.56388760100003, 25.42120711000007], [85.56518026000003, 25.42138030700005], [85.56576176100003, 25.421379056000035], [85.56634326300008, 25.42137780300004], [85.56692384100006, 25.421024550000027], [85.56789096300008, 25.42025969900004], [85.56956923000007, 25.419669267000074], [85.57066762100004, 25.41966693300003], [85.57176635400003, 25.419781830000034], [85.57306067300004, 25.42060047800004], [85.57429016000003, 25.42130189100004], [85.57519476000004, 25.421299858000054], [85.57590368500007, 25.420652834000066], [85.57651740700004, 25.419681144000037], [85.57696483300003, 25.417919812000036], [85.57747660600006, 25.41603660800007], [85.57798654400005, 25.413453726000057], [85.57806642500003, 25.41175168500007], [85.57826364800007, 25.407549439000036], [85.57779456400004, 25.40132638800003], [85.57714033800005, 25.398276742000064], [85.57610279500005, 25.39681214700005], [85.57448601600004, 25.396107080000036], [85.57287031400006, 25.395817271000055], [85.57280149100006, 25.39423318300004], [85.57144020000004, 25.39431738600007], [85.56956410100008, 25.393260799000075], [85.56885122900007, 25.392382182000063], [85.56826568100007, 25.39079924300006], [85.56800363000008, 25.389391571000033], [85.56812491500006, 25.386394340000038], [85.56359640300008, 25.385582602000056], [85.56281766400008, 25.384176052000043], [85.56062114400004, 25.38400468800006], [85.55893766300005, 25.384360271000048], [85.55758080000004, 25.384187030000078], [85.55583544600006, 25.38360391200007], [85.55376878100003, 25.383725583000057], [85.55383514100004, 25.384429583000042], [85.55390171300007, 25.385192155000027], [85.55435589700005, 25.386012685000026], [85.55506830400003, 25.386774038000055], [85.55532797200004, 25.387301539000077], [85.55507108600005, 25.38789332700003], [85.55455554400004, 25.38836386400004], [85.55352322500005, 25.38883541200005], [85.55300900100008, 25.38983395100007], [85.55262515100009, 25.391301619000046], [85.55243660600007, 25.393414321000023], [85.55401781900008, 25.39386694800004], [85.55421434700008, 25.394922645000065], [85.55421902000006, 25.396804786000075], [85.55390108800003, 25.398800445000063], [85.55338903700004, 25.400683591000075], [85.55139032700004, 25.402271986000073], [85.55013114200005, 25.403479640000057], [85.54942404100007, 25.40489382900006], [85.54903901900008, 25.40595081200007], [85.54923519800008, 25.40688917500006], [85.54981927000006, 25.407944170000064], [85.55163790400007, 25.40988128400005], [85.55157440800008, 25.41029214300005], [85.55098853900006, 25.410528002000035], [85.54989154500004, 25.411058290000028], [85.54905357700005, 25.411822829000073], [85.54821602800007, 25.41276787700008], [85.54796223300008, 25.414645981000035], [85.54794945900005, 25.41751656300005], [85.54924195200005, 25.417631318000076], [85.54969446600006, 25.41774775700003], [85.55021442900005, 25.418978845000026], [85.55125241200005, 25.420678353000028], [85.55248244900008, 25.421673274000057], [85.55422840800009, 25.42225641400006], [85.55610469400006, 25.423254593000024], [85.55740290100005, 25.423662619000027], [85.55817642200003, 25.422952391000024], [85.55862771000005, 25.422540711000067], [85.55888385300005, 25.421660020000047], [85.55888079300007, 25.42042784000006], [85.55855351700006, 25.418785617000026], [85.55803188600004, 25.416909039000075], [85.55660075500003, 25.415029959000037], [85.55646853600007, 25.41385665400003], [85.55701924000005, 25.413471901000037]]]]}}, {"type": "Feature", "properties": {"OBJECTID": 5572, "GPCODE": "95583", "GPNAME_1": "DIHRI", "DIST_CEN_C": "27", "BLK_NAME": "HARNAUT", "ST_NAME": "BIHAR", "ST_CODE_1": "10", "GPCODE2011": "98137", "REMARKS": "FINALIZED", "MAP_STATUS": "COMPLETED", "BLK_C_2001": "270003", "BLK_C_2011": "01380", "DIST_NAME": "NALANDA", "code2011": 0.0, "Shape_Leng": 0.19145137832, "Shape_Area": 0.00097291454, "Area": 10.842}, "geometry": {"type": "MultiPolygon", "coordinates": [[[[85.52982851100006, 25.419079256000032], [85.52897991800006, 25.417793043000074], [85.52807281700007, 25.416657298000075], [85.52750975100008, 25.416030972000044], [85.52770177500008, 25.41522722700006], [85.52791908900008, 25.414635530000055], [85.52843551500007, 25.41448107900004], [85.52903665800005, 25.414362658000073], [85.53024370200006, 25.414125640000066], [85.53226995700004, 25.41349437200006], [85.53424609100006, 25.412745864000044], [85.53510973100003, 25.412274771000057], [85.53541146800006, 25.411687415000074], [85.53531948200003, 25.410590858000035], [85.53471498200008, 25.409260500000073], [85.53294559000005, 25.40914661900007], [85.53105236100004, 25.409226965000073], [85.52945738900007, 25.409347311000033], [85.52829480100007, 25.409466871000063], [85.52773292100005, 25.409350585000027], [85.52729849500008, 25.408412589000022], [85.52662956900008, 25.40710043200005], [85.52636781100006, 25.405652088000068], [85.52654018300007, 25.404947594000078], [85.52618784100008, 25.402993958000025], [85.52605345500007, 25.400719388000027], [85.52614190100007, 25.400290427000073], [85.52661339300005, 25.40005486900003], [85.52738805700005, 25.399818725000046], [85.52876896200007, 25.399581409000064], [85.53018960700007, 25.399343952000038], [85.53087438600005, 25.398949994000077], [85.53109182400004, 25.398439518000032], [85.53152334400005, 25.398086644000045], [85.53207989900005, 25.398085577000074], [85.53244793800008, 25.398220276000075], [85.53468962200003, 25.398491290000038], [85.53667261200007, 25.398604797000075], [85.53826712800003, 25.398367042000075], [85.53891195000006, 25.397896368000033], [85.53933795000006, 25.397304190000057], [85.53916736600007, 25.396641035000073], [85.53860415400004, 25.395938023000042], [85.53726563500004, 25.395155303000024], [85.53657868700003, 25.39461052200005], [85.53687134200004, 25.39229904900003], [85.53721871700003, 25.39210427100005], [85.53829143900003, 25.39190356900008], [85.54057649100008, 25.391628315000048], [85.54363719800006, 25.39158162900003], [85.54665387500006, 25.391810294000038], [85.54731899000006, 25.391547110000033], [85.54762112700007, 25.391158381000025], [85.54791886300006, 25.388964131000023], [85.54791359000006, 25.38681120900003], [85.54786492800008, 25.385245183000052], [85.54804590700007, 25.38406221200006], [85.54666328300004, 25.383518880000054], [85.54614439900007, 25.382617193000044], [85.54493527400007, 25.381874949000064], [85.54437706400006, 25.381171959000028], [85.54372930400007, 25.38042850900007], [85.54299222800006, 25.37968972500005], [85.54252016600003, 25.379650049000077], [85.54200343400004, 25.37965111400007], [85.54126812400006, 25.379652531000033], [85.54031853800007, 25.379379106000044], [85.53855437400006, 25.379229100000032], [85.53704296600006, 25.37876268200006], [85.53644510600003, 25.378100318000065], [85.53573485300006, 25.378160408000042], [85.53386334000004, 25.378809442000033], [85.53244479400007, 25.379868286000033], [85.53154224200006, 25.380574170000045], [85.53122171500007, 25.381635450000033], [85.53122553700007, 25.383278329000063], [85.52990269800006, 25.384896782000055], [85.52842202000005, 25.387016388000063], [85.52719181800006, 25.38789888900004], [85.52628744900005, 25.38790054900005], [85.52544756300006, 25.387784772000032], [85.52422048100004, 25.387904397000057], [85.52189608200007, 25.38831943400004], [85.52156537400003, 25.384853707000048], [85.52117518600005, 25.383680894000065], [85.52007641100005, 25.383330869000076], [85.51826287300008, 25.383334182000056], [85.51574341900005, 25.38316271900004], [85.51270703200004, 25.382874753000067], [85.51057556300003, 25.382878505000065], [85.50944181100004, 25.382438187000048], [85.50931819700008, 25.38502470700007], [85.50880240100008, 25.38543633300003], [85.50789824300006, 25.385496551000074], [85.50738272200005, 25.386084269000037], [85.50744929200005, 25.387027473000046], [85.50764523500004, 25.388024660000042], [85.50829488400007, 25.38978375100004], [85.50900961600007, 25.391723358000036], [85.50995689000007, 25.395508523000046], [85.51047953800008, 25.398269809000055], [85.51061486900005, 25.40109054100003], [85.51042715800008, 25.403907367000045], [85.51062496400004, 25.405789153000057], [85.51133673800007, 25.406315938000034], [85.51263024800005, 25.40695909300007], [85.51321313800008, 25.407662136000056], [85.51337959500006, 25.40879925100006], [85.51344778500004, 25.410442019000072], [85.51332219400007, 25.41208522900007], [85.51300221200006, 25.413498452000056], [85.51339358300004, 25.415199357000063], [85.51371988200003, 25.41666567900006], [85.51378671800006, 25.417721777000054], [85.51366063300009, 25.419130129000052], [85.51405241500004, 25.421011632000045], [85.51584618700008, 25.42309812800005], [85.51781807500004, 25.422534849000044], [85.51943349400005, 25.42259055900007], [85.52111441800008, 25.423056921000068], [85.52214964000007, 25.42370044300003], [85.52377132100008, 25.42651839800004], [85.52441815600008, 25.426810541000066], [85.52538628500008, 25.426339288000065], [85.52661302300004, 25.42592632700007], [85.52790415000004, 25.42545450700004], [85.53035809200009, 25.424863015000028], [85.53197241900006, 25.424444754000035], [85.53222978700006, 25.423974861000033], [85.53197003200006, 25.423388573000068], [85.53151575800007, 25.422567999000023], [85.53035036900008, 25.42151406000005], [85.52963688700004, 25.42034185400007], [85.52950552800007, 25.419403284000055], [85.52982851100006, 25.419079256000032]]]]}}, {"type": "Feature", "properties": {"OBJECTID": 5573, "GPCODE": "95579", "GPNAME_1": "BRAH", "DIST_CEN_C": "27", "BLK_NAME": "HARNAUT", "ST_NAME": "BIHAR", "ST_CODE_1": "10", "GPCODE2011": "98133", "REMARKS": "FINALIZED", "MAP_STATUS": "COMPLETED", "BLK_C_2001": "270003", "BLK_C_2011": "01380", "DIST_NAME": "NALANDA", "code2011": 0.0, "Shape_Leng": 0.22382561359, "Shape_Area": 0.00149869663, "Area": 16.7015}, "geometry": {"type": "MultiPolygon", "coordinates": [[[[85.49711390800007, 25.42558159200007], [85.49778287900006, 25.425521222000043], [85.49950659500007, 25.42659317400006], [85.50008840100008, 25.426709500000072], [85.50066918600004, 25.42635649600004], [85.50099173700005, 25.426121241000033], [85.50144266200004, 25.42547046100003], [85.50228287500005, 25.425586362000047], [85.50234887400006, 25.42623621300004], [85.50286944300007, 25.427995637000038], [85.50319406000006, 25.428699125000037], [85.50364685500006, 25.428933029000063], [85.50403448200007, 25.428932444000054], [85.50448634100007, 25.42869692100004], [85.50500232500008, 25.428285320000043], [85.50635693400005, 25.427168080000058], [85.50809970400007, 25.426343564000035], [85.50932678900006, 25.42604807200007], [85.51061837300006, 25.425747881000063], [85.51229775200005, 25.425510159000055], [85.51371774700004, 25.424803524000026], [85.51500920400008, 25.42444914300006], [85.51584618700008, 25.42309812800005], [85.51405241500004, 25.421011632000045], [85.51366063300009, 25.419130129000052], [85.51378671800006, 25.417721777000054], [85.51371988200003, 25.41666567900006], [85.51339358300004, 25.415199357000063], [85.51300221200006, 25.413498452000056], [85.51332219400007, 25.41208522900007], [85.51344778500004, 25.410442019000072], [85.51337959500006, 25.40879925100006], [85.51321313800008, 25.407662136000056], [85.51263024800005, 25.40695909300007], [85.51133673800007, 25.406315938000034], [85.51062496400004, 25.405789153000057], [85.51042715800008, 25.403907367000045], [85.51061486900005, 25.40109054100003], [85.51047953800008, 25.398269809000055], [85.50995689000007, 25.395508523000046], [85.50900961600007, 25.391723358000036], [85.50829488400007, 25.38978375100004], [85.50764523500004, 25.388024660000042], [85.50744929200005, 25.387027473000046], [85.50738272200005, 25.386084269000037], [85.50789824300006, 25.385496551000074], [85.50880240100008, 25.38543633300003], [85.50931819700008, 25.38502470700007], [85.50944181100004, 25.382438187000048], [85.50966559500006, 25.380176557000027], [85.51024029000007, 25.377119907000065], [85.51107498900006, 25.37483001100003], [85.51132983300005, 25.373240846000044], [85.51130331100006, 25.372446440000033], [85.50907312400005, 25.372644534000074], [85.50688229300005, 25.372716024000056], [85.50562579400008, 25.372912265000025], [85.50235258700008, 25.373247424000056], [85.50141913300007, 25.37351082300006], [85.50016244400007, 25.373639327000035], [85.49926310300003, 25.373609246000058], [85.49854239900003, 25.373416425000073], [85.49777037900003, 25.372451813000055], [85.49748457400005, 25.371165908000023], [85.49628372700005, 25.36944832000006], [85.49513212400007, 25.369928654000034], [85.49398058900005, 25.370408946000055], [85.49161164000003, 25.370805594000046], [85.48964429100005, 25.370808777000036], [85.48825295000006, 25.37065752700005], [85.48854173500007, 25.37097308500006], [85.48927904500005, 25.372019012000067], [85.48935299800007, 25.374212501000045], [85.48877975700003, 25.375802116000045], [85.48913753900007, 25.378311148000023], [85.48952503600003, 25.380820044000075], [85.48914367600008, 25.38145701800005], [85.48814624300007, 25.382031892000043], [85.48804345900004, 25.38282644900005], [85.48856932800004, 25.384987531000036], [85.48885693300008, 25.387212216000023], [85.48871930100006, 25.387943715000063], [85.48765166600003, 25.388261328000056], [85.48614596000004, 25.388168997000037], [85.48488953500004, 25.388486916000033], [85.48233510200004, 25.388238224000077], [85.47939932000008, 25.38859493500007], [85.47707462300008, 25.38897762000005], [85.47570798500004, 25.388853380000057], [85.47506130300007, 25.388439085000073], [85.47457051300006, 25.38637712600007], [85.47403977200008, 25.384184401000027], [85.47352864400006, 25.381833571000072], [85.47024014800007, 25.382154487000037], [85.47070086800005, 25.384157839000068], [85.47101781000003, 25.386314828000025], [85.47063814200004, 25.387904156000047], [85.47073195900003, 25.390287212000032], [85.47045395800006, 25.393149163000032], [85.47045841300007, 25.395595511000067], [85.47013002300008, 25.39807395300005], [85.47090134500007, 25.39867756800004], [85.47156786200009, 25.39903315300006], [85.47320130000008, 25.39829042300005], [85.47504354000006, 25.397574564000024], [85.47758604400008, 25.39668141800007], [85.47928468300006, 25.396295160000022], [85.48228615300008, 25.396376217000068], [85.48491477500005, 25.396372039000028], [85.48524321700006, 25.396606250000048], [85.48521724900007, 25.398596742000052], [85.48553141400004, 25.401706071000035], [85.48563144500008, 25.404612601000053], [85.48589882900006, 25.40665681200005], [85.48601589100008, 25.40807836600004], [85.48586202000007, 25.410687435000057], [85.48566767200003, 25.413003197000023], [85.48526304200004, 25.41445268800004], [85.48575766500005, 25.41581492000006], [85.48647631700004, 25.41732580100006], [85.48698989600007, 25.420705644000066], [85.48725767800005, 25.422930347000033], [85.48729487100007, 25.424144440000077], [85.48722795900005, 25.425534726000024], [85.48853581700007, 25.425889191000067], [85.48905845600007, 25.426271992000068], [85.48935417900003, 25.42748559000006], [85.48939068400006, 25.428347682000037], [85.48909816700007, 25.42876338600007], [85.48909922600006, 25.429295987000046], [85.48994531100004, 25.429827137000075], [85.49076932600008, 25.429279696000037], [85.49272212500006, 25.429037299000072], [85.49449135300006, 25.42889440500005], [85.49602474800008, 25.427731872000038], [85.49655058300004, 25.42722093900005], [85.49658828400004, 25.426196322000067], [85.49711390800007, 25.42558159200007]]]]}}, {"type": "Feature", "properties": {"OBJECTID": 5574, "GPCODE": "95588", "GPNAME_1": "PAKAR", "DIST_CEN_C": "27", "BLK_NAME": "HARNAUT", "ST_NAME": "BIHAR", "ST_CODE_1": "10", "GPCODE2011": "98142", "REMARKS": "FINALIZED", "MAP_STATUS": "COMPLETED", "BLK_C_2001": "270003", "BLK_C_2011": "01380", "DIST_NAME": "NALANDA", "code2011": 0.0, "Shape_Leng": 0.15394191971, "Shape_Area": 0.00085735783, "Area": 9.55204}, "geometry": {"type": "MultiPolygon", "coordinates": [[[[85.42279365800005, 25.452932324000074], [85.42301703600003, 25.45283168700007], [85.42413940200004, 25.452045043000055], [85.42565946400003, 25.451226245000043], [85.42723482700006, 25.45088138400007], [85.42843741300004, 25.450573038000073], [85.42881421600003, 25.449891010000044], [85.42900079800006, 25.448320043000024], [85.42752479000006, 25.44861972500007], [85.42684340800008, 25.448394892000067], [85.42580335100007, 25.447646939000037], [85.42469372000005, 25.446899018000067], [85.42419175400005, 25.44696722900005], [85.423402, 25.44748721800005], [85.42229439800008, 25.44810691600003], [85.42225808900008, 25.44706430800005], [85.42185863800006, 25.445828085000073], [85.42107192100008, 25.444953356000042], [85.42122924600005, 25.44371655200007], [85.42115725200006, 25.441992438000057], [85.42122459700005, 25.440399119000062], [85.42098925800008, 25.439252940000074], [85.42037982400007, 25.437087096000027], [85.42037718500006, 25.435218531000032], [85.42047311300007, 25.432758539000076], [85.42074929600005, 25.431241726000053], [85.42110521400008, 25.42987372400006], [85.42058038200008, 25.427798120000034], [85.42010390400003, 25.424742971000057], [85.41960741900004, 25.42162920000004], [85.41941441500006, 25.419930978000025], [85.41905753100008, 25.415816462000066], [85.41699931800008, 25.415313282000056], [85.41485206000004, 25.415094559000067], [85.41465054700006, 25.416701515000057], [85.41416578000008, 25.41835409500004], [85.41160098300008, 25.418167310000058], [85.41033881400006, 25.418326663000073], [85.40950944300005, 25.41872474300004], [85.40929195500007, 25.419672881000054], [85.40872613100004, 25.420228654000027], [85.40753844100004, 25.42032468900004], [85.40598507900006, 25.422050505000072], [85.40521068800007, 25.422809619000077], [85.40524632900008, 25.42347759300003], [85.40385430200007, 25.42317657600006], [85.40245738400006, 25.42292526800003], [85.40101652900006, 25.42332397000007], [85.40041171800004, 25.424552307000056], [85.39984628800005, 25.42550066000007], [85.39893262600003, 25.42617414500006], [85.39718884800004, 25.426848423000024], [85.39684628800006, 25.427096953000046], [85.39570888400004, 25.42780224100005], [85.39402949300006, 25.428246198000068], [85.39294149000006, 25.428680533000033], [85.39254975500006, 25.42943474300006], [85.39303329000006, 25.430621330000065], [85.39313798700005, 25.43087397200003], [85.39338645000004, 25.430873750000046], [85.39398339500008, 25.431283841000038], [85.39455003400008, 25.431247187000054], [85.39492213000005, 25.43073680300006], [85.39544863700007, 25.430429380000078], [85.39605018100008, 25.43049650100005], [85.39680221800006, 25.431754968000064], [85.39718153500007, 25.433054493000043], [85.39781840000006, 25.433563940000056], [85.39902038600007, 25.43284506300006], [85.39996412800008, 25.436324040000045], [85.40041919200007, 25.438472027000046], [85.40054927500006, 25.439126299000066], [85.40104191300009, 25.439536495000027], [85.40111699600004, 25.439978822000057], [85.40107762500008, 25.44028578500007], [85.40085424000006, 25.440525198000046], [85.40055121800003, 25.44073312200004], [85.40029330500005, 25.441175715000043], [85.40029499000008, 25.442538753000065], [85.40025830900004, 25.44499866900003], [85.40035794700003, 25.447272917000078], [85.40039138500003, 25.448036130000048], [85.40047335800006, 25.44998139200004], [85.40103910700003, 25.45315832500006], [85.40117157800006, 25.45575343400003], [85.40124766600007, 25.45695398500004], [85.40132375500008, 25.458154535000062], [85.40160789900006, 25.458754529000032], [85.40358155300004, 25.458684781000045], [85.40440598000004, 25.458038436000038], [85.40493259300007, 25.45776257600005], [85.40572395300006, 25.45844325400003], [85.40655008300007, 25.459060733000058], [85.40719140600004, 25.459060024000053], [85.40846814200006, 25.45834106500007], [85.40925279000004, 25.45769027800003], [85.41004306700006, 25.45751784500004], [85.41117175300008, 25.457656601000053], [85.41263315900005, 25.457447296000055], [85.41325475700006, 25.457618188000026], [85.41351899100005, 25.458132376000037], [85.41355478000008, 25.458881655000027], [85.41261617900005, 25.45960027900003], [85.41186647800004, 25.46035034500005], [85.41183265400008, 25.461104170000056], [85.41198233600005, 25.461510177000036], [85.41258456700007, 25.461956391000058], [85.41318657500005, 25.46229421000004], [85.41423534300003, 25.46208998700007], [85.41528811600006, 25.46119965400004], [85.41599675300006, 25.459492699000066], [85.41644780400009, 25.458535313000027], [85.41734669900006, 25.457821182000032], [85.41806157800005, 25.45710269600005], [85.41813514800003, 25.456421067000065], [85.41835781900005, 25.45566708900003], [85.41922203900003, 25.45505224300007], [85.42121406400008, 25.453993750000052], [85.42256492100006, 25.45303537800004], [85.42279365800005, 25.452932324000074]]]]}}, {"type": "Feature", "properties": {"OBJECTID": 5575, "GPCODE": "95588", "GPNAME_1": "TELMAR", "DIST_CEN_C": "27", "BLK_NAME": "HARNAUT", "ST_NAME": "BIHAR", "ST_CODE_1": "10", "GPCODE2011": "98146", "REMARKS": "FINALIZED", "MAP_STATUS": "COMPLETED", "BLK_C_2001": "270003", "BLK_C_2011": "01380", "DIST_NAME": "NALANDA", "code2011": 0.0, "Shape_Leng": 0.18976495331, "Shape_Area": 0.00165625103, "Area": 18.4542}, "geometry": {"type": "MultiPolygon", "coordinates": [[[[85.42900079800006, 25.448320043000024], [85.42927270400008, 25.447392998000055], [85.42941132600004, 25.446920374000058], [85.42985725000005, 25.445967445000065], [85.43036397000003, 25.445696059000056], [85.43175614000006, 25.44589746200006], [85.43352149800006, 25.446342100000038], [85.43434646400004, 25.44616952000007], [85.43472340300008, 25.445622952000065], [85.43385601500006, 25.44402175600004], [85.43321353100004, 25.443201070000043], [85.43332705100005, 25.442654797000046], [85.43411772200005, 25.44289299600007], [85.43498446200005, 25.444051941000055], [85.43588710200004, 25.44592838500006], [85.43622692800005, 25.44708791900007], [85.43660123500007, 25.448044356000025], [85.43705424500007, 25.44841834300007], [85.43765546000003, 25.44824613000003], [85.43829623400006, 25.447902230000068], [85.43934389700007, 25.44712002400007], [85.44028175700004, 25.44605817000007], [85.44061858300006, 25.445308527000066], [85.44025869600006, 25.444081271000073], [85.43961949300007, 25.442172862000064], [85.43946867900007, 25.441112436000026], [85.44002928800006, 25.440430192000065], [85.44104239700005, 25.43981496300006], [85.44265863200008, 25.44029134500005], [85.44333446600007, 25.44015507900008], [85.44393547000004, 25.43987895500004], [85.44396897200005, 25.439093527000068], [85.44481307800004, 25.43847858600003], [85.44567822200008, 25.438617313000066], [85.44647084000007, 25.44001550400003], [85.44699547000005, 25.441684765000048], [85.44759875700004, 25.442776267000056], [85.44853851000005, 25.442946436000057], [85.45075521600006, 25.442704242000048], [85.45293304700004, 25.443044272000066], [85.45421019700007, 25.442803281000067], [85.45563835200005, 25.44368596100003], [85.45648436700003, 25.44423092100004], [85.45757306700006, 25.444301575000054], [85.45821307500006, 25.44354693200006], [85.45805557800009, 25.44160183400004], [85.45847193900005, 25.440883609000025], [85.45963481700005, 25.440746525000066], [85.46132471800007, 25.44060874400003], [85.46286487500004, 25.440164174000074], [85.46443893900005, 25.43924111700005], [85.46605266500006, 25.43821422600007], [85.46774172700003, 25.437697214000025], [85.46933683100008, 25.437423978000027], [85.46932021400005, 25.436480690000053], [85.46867966300005, 25.434075896000024], [85.46880204800004, 25.43030694500004], [85.46780374500008, 25.427993043000072], [85.46744087000008, 25.42520422700005], [85.46671496200008, 25.42227153400006], [85.46623994200007, 25.42069699900003], [85.46574856100005, 25.418264905000058], [85.46528800400006, 25.416396963000068], [85.46469961000008, 25.415301028000044], [85.46449837900008, 25.413938253000026], [85.46269666500007, 25.41243789500004], [85.46014844300004, 25.410306640000044], [85.45877485200003, 25.409121540000058], [85.45576603100005, 25.407821368000043], [85.45289075400007, 25.406105656000022], [85.45014504400007, 25.404565863000073], [85.44928570400003, 25.40477465600003], [85.44856940000005, 25.40430163600007], [85.44797640800005, 25.403350126000078], [85.44464767800008, 25.403742716000068], [85.44050426400008, 25.404398041000036], [85.43755340900003, 25.404997622000053], [85.43556053000003, 25.40494149700004], [85.43467595400006, 25.404883899000026], [85.43471425400008, 25.40722641800005], [85.43429570400008, 25.409745481000073], [85.43418328900003, 25.410932677000062], [85.43320452600005, 25.41114151000005], [85.43020293400008, 25.411145245000057], [85.42696770300006, 25.411149178000073], [85.42443840400006, 25.411332727000058], [85.42218725900005, 25.41139405100006], [85.42058703400005, 25.41145460300004], [85.41902193900006, 25.411695630000054], [85.41934186400005, 25.41296809200003], [85.41908136100005, 25.41506259500005], [85.41905753100008, 25.415816462000066], [85.41941441500006, 25.419930978000025], [85.41960741900004, 25.42162920000004], [85.42010390400003, 25.424742971000057], [85.42058038200008, 25.427798120000034], [85.42110521400008, 25.42987372400006], [85.42074929600005, 25.431241726000053], [85.42047311300007, 25.432758539000076], [85.42037718500006, 25.435218531000032], [85.42037982400007, 25.437087096000027], [85.42098925800008, 25.439252940000074], [85.42122459700005, 25.440399119000062], [85.42115725200006, 25.441992438000057], [85.42122924600005, 25.44371655200007], [85.42107192100008, 25.444953356000042], [85.42185863800006, 25.445828085000073], [85.42225808900008, 25.44706430800005], [85.42229439800008, 25.44810691600003], [85.423402, 25.44748721800005], [85.42419175400005, 25.44696722900005], [85.42469372000005, 25.446899018000067], [85.42580335100007, 25.447646939000037], [85.42684340800008, 25.448394892000067], [85.42752479000006, 25.44861972500007], [85.42900079800006, 25.448320043000024]]]]}}]}