{"type": "FeatureCollection", "features": [{"type": "Feature", "properties": {"OBJECTID": 5513, "GPCODE": "95545", "GPNAME_1": "SALEHPUR", "DIST_CEN_C": "27", "BLK_NAME": "CHANDI", "ST_NAME": "BIHAR", "ST_CODE_1": "10", "GPCODE2011": "98099", "REMARKS": "FINALIZED", "MAP_STATUS": "COMPLETED", "BLK_C_2001": "270004", "BLK_C_2011": "01381", "DIST_NAME": "NALANDA", "code2011": 0.0, "Shape_Leng": 0.19412711224, "Shape_Area": 0.00126700096, "Area": 14.1299}, "geometry": {"type": "MultiPolygon", "coordinates": [[[[85.46008547200006, 25.342576432000044], [85.45962537500003, 25.340798749000044], [85.45901087800007, 25.338732401000073], [85.45904072000008, 25.335870750000026], [85.45889880200008, 25.334219], [85.45942376400006, 25.333360664000054], [85.46026175700007, 25.332596667000075], [85.46137910200008, 25.33253187100007], [85.46303810800003, 25.332655860000045], [85.46434974100004, 25.332906756000057], [85.46454149500005, 25.331796075000057], [85.46443139000007, 25.32855552600006], [85.46433761300005, 25.32604610800007], [85.46429884800006, 25.32382102100007], [85.46491992200004, 25.323964545000024], [85.46531625300008, 25.323453916000062], [85.46535535100008, 25.323092759000076], [85.46499436900007, 25.32117046600007], [85.46619078600008, 25.320952060000025], [85.46866412900005, 25.321092849000024], [85.47038222100008, 25.32105421600005], [85.47201555700008, 25.32079906000007], [85.47385321000007, 25.320904554000037], [85.47532737600005, 25.320536719000074], [85.47492807800006, 25.319413462000057], [85.47408667400003, 25.318290810000065], [85.47376542700005, 25.316404705000025], [85.47378245900006, 25.314879047000034], [85.47390049800003, 25.31426501900006], [85.47504929300004, 25.312480425000047], [85.47490139600006, 25.310408852000023], [85.47456505600007, 25.308427941000048], [85.47413107000006, 25.30467782000005], [85.47286943000006, 25.304440537000062], [85.47222774100004, 25.303791537000052], [85.47136077200008, 25.302131846000066], [85.47072574800006, 25.29966831100006], [85.47050678100004, 25.299397870000064], [85.46978728200008, 25.299656222000067], [85.46862586100008, 25.299901616000056], [85.46699826400004, 25.30038700500006], [85.46572235000008, 25.300492725000026], [85.46473850600006, 25.300056290000043], [85.46441498200005, 25.299605402000054], [85.46349888100008, 25.298184952000042], [85.46273260500004, 25.297238186000072], [85.46237404600004, 25.296602282000038], [85.46177620900005, 25.29541155900006], [85.46110810600004, 25.293841790000045], [85.46073392800008, 25.29276807900004], [85.46018553200008, 25.291455403000043], [85.45958811600008, 25.290503958000045], [85.45809258800006, 25.289828987000078], [85.45648830800008, 25.289452125000025], [85.45394568700004, 25.289044915000034], [85.45325017700003, 25.28874793700004], [85.45167953900005, 25.28767588200003], [85.45081507900005, 25.287284347000025], [85.44895666400004, 25.286257762000048], [85.44771014200006, 25.28602020900007], [85.44619093300008, 25.28594550400004], [85.44390287600004, 25.286359279000067], [85.44154618800007, 25.287296681000043], [85.44069796900004, 25.287753681000027], [85.43974627500006, 25.288689230000045], [85.43974826100003, 25.289930433000052], [85.43974934100004, 25.290621035000072], [85.43866727800008, 25.29082095800004], [85.43780375000006, 25.29101614900003], [85.43703528500004, 25.291698668000038], [85.43650576100003, 25.29281879200005], [85.43617574400008, 25.294507229000033], [85.43586444200008, 25.29553670000007], [85.43531364400008, 25.295686361000037], [85.43480212700007, 25.295596723000074], [85.43274294900004, 25.296456853000052], [85.43314569300009, 25.296822036000037], [85.43450635000005, 25.297027979000063], [85.43566908800005, 25.297631308000064], [85.43613622900006, 25.297933154000077], [85.43683114300006, 25.297810395000056], [85.43772926200006, 25.297448108000026], [85.43822553700005, 25.297267009000052], [85.43882639300006, 25.297324854000067], [85.43925463800008, 25.29813226400006], [85.43973397500008, 25.29990097600006], [85.43991975800003, 25.30118260200004], [85.44025536500004, 25.303068822000057], [85.44038083900006, 25.303899202000025], [85.44108286800008, 25.305180196000038], [85.44189798600007, 25.305693630000064], [85.44285645600007, 25.30579167700006], [85.44450462900005, 25.305586391000077], [85.44599471900005, 25.305864323000037], [85.44719180700008, 25.30613347600007], [85.44796679000007, 25.306362659000058], [85.44739808700007, 25.307785203000037], [85.44731062700004, 25.30896340700008], [85.44735701400003, 25.310010439000052], [85.44724616200006, 25.312091396000028], [85.44710867200007, 25.313039425000056], [85.44787, 25.314013329000034], [85.44826902000005, 25.315059933000043], [85.44815665100003, 25.31618853300006], [85.44809012500008, 25.318034614000055], [85.44778273000009, 25.318364579000047], [85.44726304100004, 25.319430494000073], [85.44659466200005, 25.320636480000076], [85.44603498400005, 25.32154896000003], [85.44579254400008, 25.322086368000043], [85.44600689100008, 25.32263673600005], [85.44627583600004, 25.323110300000053], [85.44557548500006, 25.323034516000064], [85.44499470700003, 25.323175219000063], [85.44488782800005, 25.32462424700003], [85.44494046300008, 25.326497262000032], [85.44504166000007, 25.32767517800005], [85.44463977800007, 25.32787885700003], [85.44294649300008, 25.32801193800003], [85.44142716900006, 25.328203552000048], [85.44171244800003, 25.329602326000042], [85.44117754200005, 25.330550939000034], [85.44124336100003, 25.331336151000073], [85.44222467100008, 25.333203534000063], [85.44382767700006, 25.335575560000052], [85.44415796000004, 25.337118736000036], [85.44330784900006, 25.336614374000078], [85.44258962600009, 25.33780236700005], [85.44342438500007, 25.338031502000035], [85.44472102200007, 25.338287051000066], [85.44605749500005, 25.338542571000062], [85.44658483400008, 25.339092527000048], [85.44731392600005, 25.34151981900004], [85.44808335000005, 25.34122538400004], [85.44962238500005, 25.34085773700008], [85.45106850100007, 25.341311628000028], [85.45256463400005, 25.341968594000036], [85.45400105800007, 25.342594027000075], [85.45505482900006, 25.34302585900008], [85.45697698200007, 25.343054718000076], [85.458233, 25.342705425000077], [85.46008547200006, 25.342576432000044]]]]}}, {"type": "Feature", "properties": {"OBJECTID": 5519, "GPCODE": "95535", "GPNAME_1": "BARHAUNA", "DIST_CEN_C": "27", "BLK_NAME": "CHANDI", "ST_NAME": "BIHAR", "ST_CODE_1": "10", "GPCODE2011": "98089", "REMARKS": "FINALIZED", "MAP_STATUS": "COMPLETED", "BLK_C_2001": "270004", "BLK_C_2011": "01381", "DIST_NAME": "NALANDA", "code2011": 0.0, "Shape_Leng": 0.15310600598, "Shape_Area": 0.0006261794, "Area": 6.9838}, "geometry": {"type": "MultiPolygon", "coordinates": [[[[85.44815665100003, 25.31618853300006], [85.44826902000005, 25.315059933000043], [85.44787, 25.314013329000034], [85.44710867200007, 25.313039425000056], [85.44724616200006, 25.312091396000028], [85.44735701400003, 25.310010439000052], [85.44731062700004, 25.30896340700008], [85.44739808700007, 25.307785203000037], [85.44796679000007, 25.306362659000058], [85.44719180700008, 25.30613347600007], [85.44599471900005, 25.305864323000037], [85.44450462900005, 25.305586391000077], [85.44285645600007, 25.30579167700006], [85.44189798600007, 25.305693630000064], [85.44108286800008, 25.305180196000038], [85.44038083900006, 25.303899202000025], [85.44025536500004, 25.303068822000057], [85.43991975800003, 25.30118260200004], [85.43973397500008, 25.29990097600006], [85.43925463800008, 25.29813226400006], [85.43882639300006, 25.297324854000067], [85.43822553700005, 25.297267009000052], [85.43772926200006, 25.297448108000026], [85.43683114300006, 25.297810395000056], [85.43613622900006, 25.297933154000077], [85.43566908800005, 25.297631308000064], [85.43450635000005, 25.297027979000063], [85.43314569300009, 25.296822036000037], [85.43274294900004, 25.296456853000052], [85.43046892500007, 25.296428079000066], [85.42887587400008, 25.296912958000064], [85.42595712900004, 25.297309227000028], [85.42270010300007, 25.297371687000066], [85.42160261000004, 25.297192445000064], [85.42130499500007, 25.297373354000058], [85.42134255700006, 25.299336725000046], [85.42121004600006, 25.30048784300004], [85.42034678300007, 25.300940183000023], [85.41996532800005, 25.301572500000077], [85.41930649000005, 25.302629469000067], [85.41807526900004, 25.30278435200006], [85.41638229200004, 25.302876525000045], [85.41412322000008, 25.302937711000027], [85.41192908100004, 25.303274119000037], [85.41032042500007, 25.303393306000032], [85.40995238200009, 25.302910707000024], [85.40992056300007, 25.301371579000033], [85.41044965700007, 25.299710068000024], [85.41101013800005, 25.29928512300006], [85.41197335600003, 25.299284083000032], [85.41320436900008, 25.29904350100003], [85.41367053500005, 25.298650303000045], [85.41343632900004, 25.298014186000046], [85.41260120500004, 25.29722967600003], [85.41167216200006, 25.296838063000052], [85.41017736500004, 25.29656881300008], [85.40911492800006, 25.296628663000035], [85.40825138800005, 25.296873334000054], [85.40768638600008, 25.29762771600008], [85.40711206100008, 25.29891471800005], [85.40646753500005, 25.299660172000074], [85.40583217200003, 25.29973751700004], [85.40427904400008, 25.300510979000023], [85.40295532300007, 25.302024436000067], [85.40177492800007, 25.30312696200008], [85.39977522800007, 25.304158097000027], [85.39835101600005, 25.304773365000074], [85.39809893600005, 25.30577562600007], [85.39880514000004, 25.306673113000045], [85.40010179800004, 25.307258588000025], [85.40185058000003, 25.30802862400003], [85.40340485200005, 25.308076666000034], [85.40585670000007, 25.30723004600003], [85.40723565800005, 25.306176933000074], [85.40849154600005, 25.30586865300006], [85.40916736700007, 25.306251625000073], [85.40984347300008, 25.306873790000054], [85.40948239500005, 25.307975486000032], [85.41117105800004, 25.308280529000058], [85.41323195300004, 25.30848596800007], [85.41400678100007, 25.308638505000033], [85.41541862400004, 25.309815033000064], [85.41617990200007, 25.310942540000042], [85.41615119000005, 25.311741477000055], [85.41547662000005, 25.312306469000077], [85.41480218700008, 25.312970653000036], [85.41432147700004, 25.31363920900003], [85.41471916800003, 25.313999915000068], [85.41608505600004, 25.314201512000068], [85.41839395300008, 25.314149246000056], [85.42067823200006, 25.31417370500003], [85.42138381100006, 25.314479779000067], [85.42169719000003, 25.31489011700006], [85.42209027000007, 25.315399721000063], [85.42268170500006, 25.315809813000044], [85.42358535200003, 25.315731946000028], [85.42455910000007, 25.31606481700004], [85.42469726000007, 25.315401130000055], [85.42506401500003, 25.31494036600003], [85.42699606700006, 25.31521792800004], [85.42829336900007, 25.316037841000025], [85.42922838800007, 25.317038721000074], [85.42998862000007, 25.317344684000034], [85.43139864600005, 25.317135363000034], [85.43396553000008, 25.316852303000076], [85.43507709700003, 25.31636345800007], [85.43710727400008, 25.315846333000025], [85.43902386100007, 25.315744617000064], [85.44085616900009, 25.315715195000053], [85.44124980000004, 25.316536153000072], [85.44339504700008, 25.31658303000006], [85.44339548700003, 25.316867354000067], [85.44368112600006, 25.31845577200005], [85.44430200700003, 25.31853168500004], [85.44641235900008, 25.318479257000035], [85.44778273000009, 25.318364579000047], [85.44809012500008, 25.318034614000055], [85.44815665100003, 25.31618853300006]]]]}}, {"type": "Feature", "properties": {"OBJECTID": 5520, "GPCODE": "95537", "GPNAME_1": "BHAGWANPUR", "DIST_CEN_C": "27", "BLK_NAME": "CHANDI", "ST_NAME": "BIHAR", "ST_CODE_1": "10", "GPCODE2011": "98091", "REMARKS": "FINALIZED", "MAP_STATUS": "COMPLETED", "BLK_C_2001": "270004", "BLK_C_2011": "01381", "DIST_NAME": "NALANDA", "code2011": 0.0, "Shape_Leng": 0.16603987538, "Shape_Area": 0.00075261325, "Area": 8.39336}, "geometry": {"type": "MultiPolygon", "coordinates": [[[[85.38470265500007, 25.337076722000063], [85.38739452400006, 25.337038154000027], [85.38915772600006, 25.337153784000066], [85.39085571500004, 25.336597076000032], [85.39380548500003, 25.33634144800004], [85.39337240600008, 25.33550683900006], [85.39347002200003, 25.33403084200006], [85.39413308100006, 25.33194485100006], [85.39510669300006, 25.332160567000074], [85.39755534900007, 25.33230261700004], [85.40073857000004, 25.33209628800006], [85.40398664800006, 25.33215160900005], [85.40659867000005, 25.331914141000027], [85.40839642500003, 25.331858040000043], [85.40819046800004, 25.33386229200005], [85.41064434800006, 25.334193695000067], [85.41078195300008, 25.333119252000074], [85.41072533000005, 25.331602751000048], [85.41004325400007, 25.330348763000075], [85.40837836200006, 25.32945237200005], [85.40617725800007, 25.328610594000054], [85.40392219500006, 25.32832865200004], [85.40274922100008, 25.327562511000053], [85.40201833800006, 25.32689525400008], [85.40167981400003, 25.32627731900004], [85.40195684700006, 25.32538334000003], [85.40314274200006, 25.324610294000024], [85.40472137700004, 25.32414821800006], [85.40584755900005, 25.323298480000062], [85.40665116200006, 25.322607085000072], [85.40673484300004, 25.322042770000053], [85.40653539500005, 25.32140202900007], [85.40506803900007, 25.319557556000063], [85.40374038400006, 25.31811908900005], [85.40437041800004, 25.317680605000078], [85.40569531200003, 25.316884815000037], [85.40629988300003, 25.315882222000027], [85.40672343100005, 25.31321418300007], [85.40714339400006, 25.311548216000062], [85.40787144600006, 25.31016181700005], [85.40948239500005, 25.307975486000032], [85.40984347300008, 25.306873790000054], [85.40916736700007, 25.306251625000073], [85.40849154600005, 25.30586865300006], [85.40723565800005, 25.306176933000074], [85.40585670000007, 25.30723004600003], [85.40340485200005, 25.308076666000034], [85.40185058000003, 25.30802862400003], [85.40010179800004, 25.307258588000025], [85.39880514000004, 25.306673113000045], [85.39809893600005, 25.30577562600007], [85.39835101600005, 25.304773365000074], [85.39638112300008, 25.305926287000034], [85.39303982800004, 25.30618687300006], [85.39156968500004, 25.305881398000054], [85.39024406800007, 25.306036119000055], [85.38990607500006, 25.30570238100006], [85.38976590400006, 25.30470051800006], [85.38832393000007, 25.30288291100004], [85.38586980500008, 25.301756750000038], [85.38607030900005, 25.30344917000008], [85.38601682600006, 25.30445122900005], [85.38514380700008, 25.305219360000024], [85.38476205300003, 25.305783894000058], [85.38276428200004, 25.308710493000035], [85.37850346700003, 25.308303609000063], [85.37690442300004, 25.308146988000033], [85.37464477800006, 25.30773814300005], [85.37332399300004, 25.307716717000062], [85.37253483400008, 25.30815064500007], [85.37151711400008, 25.308332015000076], [85.37029063600005, 25.308283437000057], [85.37094166200006, 25.308792882000034], [85.37108171500006, 25.309821930000055], [85.37057615500004, 25.310770198000057], [85.37057717500005, 25.311767683000028], [85.37192907200006, 25.313048449000064], [85.37298760800007, 25.31389155200003], [85.37349488000007, 25.314613303000044], [85.37357972600006, 25.315019500000062], [85.37290483200007, 25.315484926000067], [85.37285067400006, 25.31591832500004], [85.37315875300004, 25.316148225000063], [85.37372500900005, 25.316278630000056], [85.37411786900003, 25.31686959500007], [85.37428720700007, 25.317352440000036], [85.37470923600006, 25.31725278700003], [85.37504631400003, 25.316710835000038], [85.37555744700006, 25.316353873000025], [85.37611838500004, 25.316222501000027], [85.37645632700008, 25.31642980500004], [85.37713707800003, 25.31691673200004], [85.37837968500008, 25.317940203000035], [85.37884694200005, 25.318427256000064], [85.37918516700006, 25.31896410400003], [85.37960769900008, 25.319324770000037], [85.38008926600008, 25.319170903000042], [85.38036702200003, 25.318886319000057], [85.38133556000008, 25.31906149200006], [85.38145083000006, 25.320036309000045], [85.38142278700008, 25.321625114000028], [85.38283385600005, 25.322341510000058], [85.38278044100008, 25.323415858000033], [85.38238422700005, 25.324445283000045], [85.38317492300007, 25.325419477000025], [85.38532127300005, 25.326234465000027], [85.38522405700007, 25.328184427000053], [85.38524075200007, 25.32977323800003], [85.38571997700006, 25.331970916000046], [85.38619836400005, 25.333392255000035], [85.38572270600008, 25.334345049000035], [85.38370378300004, 25.336540460000037], [85.38336697300008, 25.33741197200004], [85.38470265500007, 25.337076722000063]]]]}}, {"type": "Feature", "properties": {"OBJECTID": 5529, "GPCODE": "95548", "GPNAME_1": "TULSIGARH", "DIST_CEN_C": "27", "BLK_NAME": "CHANDI", "ST_NAME": "BIHAR", "ST_CODE_1": "10", "GPCODE2011": "98102", "REMARKS": "FINALIZED", "MAP_STATUS": "COMPLETED", "BLK_C_2001": "270004", "BLK_C_2011": "01381", "DIST_NAME": "NALANDA", "code2011": 0.0, "Shape_Leng": 0.20988130024, "Shape_Area": 0.00088302791, "Area": 9.84504}, "geometry": {"type": "MultiPolygon", "coordinates": [[[[85.43532759300007, 25.372940748000076], [85.43500153000008, 25.37091913100005], [85.43360284000005, 25.369156076000024], [85.43230440800005, 25.367943512000068], [85.43125385300004, 25.366401170000074], [85.43351966100005, 25.366691752000065], [85.43485105600007, 25.366690117000076], [85.43606810100005, 25.366688520000025], [85.43675365400009, 25.366651581000042], [85.43781086400008, 25.36609511100005], [85.43812781000008, 25.365435657000035], [85.43788093100005, 25.363228889000027], [85.43777795100004, 25.360872923000045], [85.43759195700005, 25.35944240500004], [85.43751030300007, 25.358079331000056], [85.43767198500007, 25.35660778400006], [85.43799207100005, 25.354806463000045], [85.43827333100006, 25.35359193100004], [85.43887726800006, 25.35226862600007], [85.43932358500007, 25.35178966600006], [85.44013243800003, 25.35127403200005], [85.44057316200008, 25.350461100000075], [85.44126224400009, 25.349543932000074], [85.44132092500007, 25.348993191000034], [85.44099707300006, 25.348366259000045], [85.43998266000006, 25.347667959000034], [85.43881021400006, 25.34748888000007], [85.43812396600003, 25.346975240000063], [85.43739226800005, 25.346019236000075], [85.43706818100009, 25.34520726100004], [85.43617819200006, 25.344585534000032], [85.43500570200007, 25.34443802100003], [85.43493060900005, 25.344018344000062], [85.43460115100004, 25.342921941000043], [85.43474913400007, 25.342294383000024], [85.43510578500008, 25.341671113000075], [85.43576083000005, 25.341286617000037], [85.43693291500006, 25.341253515000062], [85.43758848700008, 25.34119404000006], [85.43768665600004, 25.340453645000025], [85.43725792600009, 25.33941608500004], [85.43699802200007, 25.338346717000036], [85.43777698100007, 25.337840151000023], [85.43846183500006, 25.337482782000052], [85.43947506100005, 25.337540157000035], [85.44078128200005, 25.337511343000074], [85.44258962600009, 25.33780236700005], [85.44330784900006, 25.336614374000078], [85.44205077800007, 25.336263934000044], [85.44035168100004, 25.33594116100005], [85.43852386300006, 25.33588032800003], [85.43871812800006, 25.333063582000023], [85.43897448400008, 25.331817577000038], [85.44005184400004, 25.33160853100003], [85.44124336100003, 25.331336151000073], [85.44117754200005, 25.330550939000034], [85.44171244800003, 25.329602326000042], [85.44142716900006, 25.328203552000048], [85.44294649300008, 25.32801193800003], [85.44463977800007, 25.32787885700003], [85.44504166000007, 25.32767517800005], [85.44494046300008, 25.326497262000032], [85.44488782800005, 25.32462424700003], [85.44499470700003, 25.323175219000063], [85.44557548500006, 25.323034516000064], [85.44627583600004, 25.323110300000053], [85.44600689100008, 25.32263673600005], [85.44579254400008, 25.322086368000043], [85.44603498400005, 25.32154896000003], [85.44659466200005, 25.320636480000076], [85.44568510500005, 25.32015927300006], [85.44443859900008, 25.320120271000064], [85.44385774800008, 25.320211327000038], [85.44333651300008, 25.320329300000026], [85.44252314600004, 25.32099839400007], [85.44168917700006, 25.32116649200003], [85.44066590000006, 25.321000800000036], [85.43880317600008, 25.320669207000037], [85.43844009300005, 25.320335716000045], [85.43819571800003, 25.31964537400006], [85.43792579200004, 25.31854448100006], [85.43748365900007, 25.31842763700007], [85.43512554600005, 25.318854857000076], [85.43415235600008, 25.318896728000027], [85.43383001300003, 25.319231149000075], [85.43371794300003, 25.320639546000052], [85.43374986300006, 25.32204768200006], [85.43394497100007, 25.32298633100004], [85.43500885700007, 25.323747780000076], [85.43543650600003, 25.324117331000025], [85.43553213000007, 25.324925172000064], [85.43539539800008, 25.32643740900005], [85.43513413500006, 25.32769251700006], [85.43453007400007, 25.328889368000034], [85.43390503200004, 25.329337010000074], [85.43333914400006, 25.329545305000067], [85.43274292900009, 25.32939258600004], [85.43206260900007, 25.32944305500007], [85.43147291200006, 25.330265247000057], [85.43122225700006, 25.332007775000022], [85.43063264000006, 25.332956422000052], [85.42986851800003, 25.333444749000023], [85.42868688900006, 25.33367644200007], [85.42735993700006, 25.333091249000063], [85.42604838600005, 25.332835526000054], [85.42408689600006, 25.33299584200006], [85.42333984100009, 25.33153436200007], [85.42305934600006, 25.329842032000045], [85.42282747200005, 25.32748169200005], [85.42329087300004, 25.325043871000048], [85.42188118700005, 25.32556009700005], [85.42113661100007, 25.325818167000023], [85.42014822600004, 25.325715502000037], [85.42109516600004, 25.328129215000047], [85.42135071500007, 25.329695129000072], [85.42110064300005, 25.331952220000062], [85.42083405200003, 25.333130572000073], [85.41990760000004, 25.33474749800007], [85.41976516400007, 25.335876003000067], [85.42016390700007, 25.336850550000065], [85.42072714000005, 25.33826265400006], [85.42146300700006, 25.338825937000024], [85.42260537900006, 25.338874300000043], [85.42254239700009, 25.33997110300004], [85.42179424400007, 25.34124938100007], [85.42071812900008, 25.342437716000063], [85.42008388300007, 25.34350816700004], [85.41985663100007, 25.344429168000033], [85.41988823700007, 25.34570650300003], [85.42048201700004, 25.347633055000074], [85.42034871800007, 25.348197448000064], [85.42007123200005, 25.34870323900003], [85.42099008000008, 25.352146094000034], [85.42187835300007, 25.354993068000056], [85.42117393100006, 25.355657386000075], [85.41970447900007, 25.35634062300005], [85.41891960300006, 25.35631446000008], [85.41914904500004, 25.356964167000058], [85.41859813900004, 25.357321365000075], [85.41781399500007, 25.357796135000058], [85.41755148800007, 25.358419381000033], [85.41815903200006, 25.35945681000004], [85.41897625700005, 25.361265753000055], [85.41880116800007, 25.363969652000037], [85.41844702500003, 25.36652470000007], [85.41861476700007, 25.369223606000048], [85.41840380300005, 25.37112402200006], [85.41873915300005, 25.372901997000042], [85.42068159700005, 25.372899756000038], [85.42262509900007, 25.373560981000026], [85.42432972900008, 25.373960672000067], [85.42752551200005, 25.37480542000003], [85.42971301000006, 25.375867975000062], [85.43442564700007, 25.377685685000074], [85.43529249500006, 25.375991962000057], [85.43577710700004, 25.37451997900007], [85.43532759300007, 25.372940748000076]]]]}}, {"type": "Feature", "properties": {"OBJECTID": 5530, "GPCODE": "95538", "GPNAME_1": "CHANDI", "DIST_CEN_C": "27", "BLK_NAME": "CHANDI", "ST_NAME": "BIHAR", "ST_CODE_1": "10", "GPCODE2011": "98092", "REMARKS": "FINALIZED", "MAP_STATUS": "COMPLETED", "BLK_C_2001": "270004", "BLK_C_2011": "01381", "DIST_NAME": "NALANDA", "code2011": 0.0, "Shape_Leng": 0.1562653574, "Shape_Area": 0.0005234606, "Area": 5.83752}, "geometry": {"type": "MultiPolygon", "coordinates": [[[[85.41678966000006, 25.324672204000024], [85.41808553800007, 25.324440564000042], [85.41961096400007, 25.32503003900007], [85.42014822600004, 25.325715502000037], [85.42113661100007, 25.325818167000023], [85.42188118700005, 25.32556009700005], [85.42329087300004, 25.325043871000048], [85.42282747200005, 25.32748169200005], [85.42305934600006, 25.329842032000045], [85.42333984100009, 25.33153436200007], [85.42408689600006, 25.33299584200006], [85.42604838600005, 25.332835526000054], [85.42735993700006, 25.333091249000063], [85.42868688900006, 25.33367644200007], [85.42986851800003, 25.333444749000023], [85.43063264000006, 25.332956422000052], [85.43122225700006, 25.332007775000022], [85.43147291200006, 25.330265247000057], [85.43206260900007, 25.32944305500007], [85.43274292900009, 25.32939258600004], [85.43333914400006, 25.329545305000067], [85.43390503200004, 25.329337010000074], [85.43453007400007, 25.328889368000034], [85.43513413500006, 25.32769251700006], [85.43539539800008, 25.32643740900005], [85.43553213000007, 25.324925172000064], [85.43543650600003, 25.324117331000025], [85.43500885700007, 25.323747780000076], [85.43394497100007, 25.32298633100004], [85.43374986300006, 25.32204768200006], [85.43371794300003, 25.320639546000052], [85.43383001300003, 25.319231149000075], [85.43415235600008, 25.318896728000027], [85.43512554600005, 25.318854857000076], [85.43748365900007, 25.31842763700007], [85.43792579200004, 25.31854448100006], [85.43819571800003, 25.31964537400006], [85.43844009300005, 25.320335716000045], [85.43880317600008, 25.320669207000037], [85.44066590000006, 25.321000800000036], [85.44168917700006, 25.32116649200003], [85.44252314600004, 25.32099839400007], [85.44333651300008, 25.320329300000026], [85.44385774800008, 25.320211327000038], [85.44443859900008, 25.320120271000064], [85.44568510500005, 25.32015927300006], [85.44659466200005, 25.320636480000076], [85.44726304100004, 25.319430494000073], [85.44778273000009, 25.318364579000047], [85.44641235900008, 25.318479257000035], [85.44430200700003, 25.31853168500004], [85.44368112600006, 25.31845577200005], [85.44339548700003, 25.316867354000067], [85.44339504700008, 25.31658303000006], [85.44124980000004, 25.316536153000072], [85.44085616900009, 25.315715195000053], [85.43902386100007, 25.315744617000064], [85.43710727400008, 25.315846333000025], [85.43507709700003, 25.31636345800007], [85.43396553000008, 25.316852303000076], [85.43139864600005, 25.317135363000034], [85.42998862000007, 25.317344684000034], [85.42922838800007, 25.317038721000074], [85.42829336900007, 25.316037841000025], [85.42699606700006, 25.31521792800004], [85.42506401500003, 25.31494036600003], [85.42469726000007, 25.315401130000055], [85.42455910000007, 25.31606481700004], [85.42358535200003, 25.315731946000028], [85.42268170500006, 25.315809813000044], [85.42209027000007, 25.315399721000063], [85.42169719000003, 25.31489011700006], [85.42138381100006, 25.314479779000067], [85.42067823200006, 25.31417370500003], [85.41839395300008, 25.314149246000056], [85.41608505600004, 25.314201512000068], [85.41471916800003, 25.313999915000068], [85.41432147700004, 25.31363920900003], [85.41480218700008, 25.312970653000036], [85.41547662000005, 25.312306469000077], [85.41615119000005, 25.311741477000055], [85.41617990200007, 25.310942540000042], [85.41541862400004, 25.309815033000064], [85.41400678100007, 25.308638505000033], [85.41323195300004, 25.30848596800007], [85.41117105800004, 25.308280529000058], [85.40948239500005, 25.307975486000032], [85.40787144600006, 25.31016181700005], [85.40714339400006, 25.311548216000062], [85.40672343100005, 25.31321418300007], [85.40629988300003, 25.315882222000027], [85.40569531200003, 25.316884815000037], [85.40437041800004, 25.317680605000078], [85.40374038400006, 25.31811908900005], [85.40506803900007, 25.319557556000063], [85.40653539500005, 25.32140202900007], [85.40673484300004, 25.322042770000053], [85.40665116200006, 25.322607085000072], [85.40584755900005, 25.323298480000062], [85.40472137700004, 25.32414821800006], [85.40314274200006, 25.324610294000024], [85.40195684700006, 25.32538334000003], [85.40167981400003, 25.32627731900004], [85.40201833800006, 25.32689525400008], [85.40274922100008, 25.327562511000053], [85.40392219500006, 25.32832865200004], [85.40617725800007, 25.328610594000054], [85.40837836200006, 25.32945237200005], [85.41004325400007, 25.330348763000075], [85.41072533000005, 25.331602751000048], [85.41078195300008, 25.333119252000074], [85.41064434800006, 25.334193695000067], [85.41134973600003, 25.33429672500006], [85.41185601400008, 25.334038830000054], [85.41247568000006, 25.333243766000066], [85.41271317700006, 25.332525877000023], [85.41389192300005, 25.330136888000027], [85.41543925700006, 25.328546378000055], [85.41575062700008, 25.32746732700008], [85.41591678100008, 25.325521735000052], [85.41678966000006, 25.324672204000024]]]]}}, {"type": "Feature", "properties": {"OBJECTID": 5531, "GPCODE": "95547", "GPNAME_1": "SIRNAWA N", "DIST_CEN_C": "27", "BLK_NAME": "CHANDI", "ST_NAME": "BIHAR", "ST_CODE_1": "10", "GPCODE2011": "98101", "REMARKS": "FINALIZED", "MAP_STATUS": "COMPLETED", "BLK_C_2001": "270004", "BLK_C_2011": "01381", "DIST_NAME": "NALANDA", "code2011": 0.0, "Shape_Leng": 0.15887373173, "Shape_Area": 0.00092926853, "Area": 10.362}, "geometry": {"type": "MultiPolygon", "coordinates": [[[[85.48846748000005, 25.350951060000057], [85.48990169200005, 25.350289771000064], [85.49063600300008, 25.34984171900004], [85.49104484600008, 25.34813041500007], [85.49111234900005, 25.347114740000052], [85.49072739900004, 25.345851572000072], [85.49020919300006, 25.345035428000074], [85.49091357900005, 25.344587511000043], [85.49241285800008, 25.344187779000038], [85.49434989900004, 25.344184607000045], [85.49522300400008, 25.343637013000034], [85.49607993900008, 25.34249367600006], [85.49670519300008, 25.342221794000068], [85.49777156200008, 25.34151138900006], [85.49924704000006, 25.341653388000054], [85.49971655700006, 25.340515117000052], [85.50018621700008, 25.339458170000057], [85.50027202700005, 25.337738396000077], [85.49957910900008, 25.336484790000043], [85.49897662800004, 25.335741020000057], [85.49824083600004, 25.335390217000054], [85.49776862500005, 25.33520598800004], [85.49726648900008, 25.334931448000077], [85.49682376900006, 25.334593729000062], [85.49652461500006, 25.334016500000075], [85.49636922000008, 25.33330807300007], [85.49618803300007, 25.332161937000023], [85.49585264600006, 25.330839998000044], [85.49540324300006, 25.32963115800004], [85.49473978300006, 25.328183422000052], [85.49369700200003, 25.325774890000048], [85.49273365100004, 25.32334363700005], [85.49197146500006, 25.32214430600004], [85.49125033400009, 25.321603851000077], [85.49025206000005, 25.321569314000044], [85.48901580000006, 25.32171581600005], [85.48818114000005, 25.321500462000074], [85.48693755500005, 25.320410175000063], [85.48585802500008, 25.319432522000056], [85.48531932200007, 25.318201114000033], [85.48637699500006, 25.318163390000052], [85.48777182400005, 25.317908313000032], [85.48933061300005, 25.317648521000024], [85.49016388800004, 25.317177791000063], [85.49072373100006, 25.31652239400006], [85.49123783500005, 25.315325444000052], [85.49123512200003, 25.313944351000032], [85.49047581000008, 25.311697799000058], [85.48997613300008, 25.310100815000055], [85.48977058500003, 25.30912169000004], [85.48988750900008, 25.307961471000056], [85.49062820000006, 25.305874991000053], [85.48920285000008, 25.305755463000025], [85.48793120300007, 25.305486693000034], [85.48620191000003, 25.30476279100003], [85.48499008600004, 25.304629308000074], [85.48295446800006, 25.304722825000056], [85.48084462400004, 25.304893182000058], [85.47758253400008, 25.30497493000007], [85.47612309000004, 25.305175741000028], [85.47413107000006, 25.30467782000005], [85.47456505600007, 25.308427941000048], [85.47490139600006, 25.310408852000023], [85.47504929300004, 25.312480425000047], [85.47390049800003, 25.31426501900006], [85.47378245900006, 25.314879047000034], [85.47376542700005, 25.316404705000025], [85.47408667400003, 25.318290810000065], [85.47492807800006, 25.319413462000057], [85.47532737600005, 25.320536719000074], [85.47385321000007, 25.320904554000037], [85.47201555700008, 25.32079906000007], [85.47038222100008, 25.32105421600005], [85.46866412900005, 25.321092849000024], [85.46619078600008, 25.320952060000025], [85.46499436900007, 25.32117046600007], [85.46535535100008, 25.323092759000076], [85.46531625300008, 25.323453916000062], [85.46491992200004, 25.323964545000024], [85.46429884800006, 25.32382102100007], [85.46433761300005, 25.32604610800007], [85.46443139000007, 25.32855552600006], [85.46454149500005, 25.331796075000057], [85.46434974100004, 25.332906756000057], [85.46564722200003, 25.333604498000057], [85.46718288000005, 25.33420706000004], [85.46900101900007, 25.334425494000072], [85.47015267200004, 25.334107876000076], [85.47106102200007, 25.33382214200003], [85.47183079500007, 25.333789344000024], [85.47225376900008, 25.334231083000077], [85.47327013400007, 25.33594469800005], [85.47383008700007, 25.337979491000056], [85.47399324400004, 25.340267594000068], [85.47371948500006, 25.342651169000078], [85.47510195000007, 25.343538245000047], [85.47615129100006, 25.344231680000064], [85.47678146500004, 25.34391024400003], [85.47775988000006, 25.34387713800004], [85.47957713500006, 25.343526807000046], [85.47997981600008, 25.343715760000066], [85.48008652300007, 25.344988423000075], [85.48110092400003, 25.34559168900006], [85.48226005900005, 25.346542234000026], [85.48285318700005, 25.34762001000007], [85.48497294000003, 25.349589068000057], [85.48497470500007, 25.350509810000062], [85.48553154500007, 25.350766243000066], [85.48630124000005, 25.35067019400003], [85.48748843800007, 25.350668323000036], [85.48846748000005, 25.350951060000057]]]]}}, {"type": "Feature", "properties": {"OBJECTID": 5537, "GPCODE": "95540", "GPNAME_1": "HASNI", "DIST_CEN_C": "27", "BLK_NAME": "CHANDI", "ST_NAME": "BIHAR", "ST_CODE_1": "10", "GPCODE2011": "98094", "REMARKS": "FINALIZED", "MAP_STATUS": "COMPLETED", "BLK_C_2001": "270004", "BLK_C_2011": "01381", "DIST_NAME": "NALANDA", "code2011": 0.0, "Shape_Leng": 0.17961979303, "Shape_Area": 0.00076813039, "Area": 8.56393}, "geometry": {"type": "MultiPolygon", "coordinates": [[[[85.41914904500004, 25.356964167000058], [85.41891960300006, 25.35631446000008], [85.41970447900007, 25.35634062300005], [85.42117393100006, 25.355657386000075], [85.42187835300007, 25.354993068000056], [85.42099008000008, 25.352146094000034], [85.42007123200005, 25.34870323900003], [85.42034871800007, 25.348197448000064], [85.42048201700004, 25.347633055000074], [85.41988823700007, 25.34570650300003], [85.41985663100007, 25.344429168000033], [85.42008388300007, 25.34350816700004], [85.42071812900008, 25.342437716000063], [85.42179424400007, 25.34124938100007], [85.42254239700009, 25.33997110300004], [85.42260537900006, 25.338874300000043], [85.42146300700006, 25.338825937000024], [85.42072714000005, 25.33826265400006], [85.42016390700007, 25.336850550000065], [85.41976516400007, 25.335876003000067], [85.41990760000004, 25.33474749800007], [85.42083405200003, 25.333130572000073], [85.42110064300005, 25.331952220000062], [85.42135071500007, 25.329695129000072], [85.42109516600004, 25.328129215000047], [85.42014822600004, 25.325715502000037], [85.41961096400007, 25.32503003900007], [85.41808553800007, 25.324440564000042], [85.41678966000006, 25.324672204000024], [85.41591678100008, 25.325521735000052], [85.41575062700008, 25.32746732700008], [85.41543925700006, 25.328546378000055], [85.41389192300005, 25.330136888000027], [85.41271317700006, 25.332525877000023], [85.41247568000006, 25.333243766000066], [85.41185601400008, 25.334038830000054], [85.41134973600003, 25.33429672500006], [85.41064434800006, 25.334193695000067], [85.40819046800004, 25.33386229200005], [85.40839642500003, 25.331858040000043], [85.40659867000005, 25.331914141000027], [85.40398664800006, 25.33215160900005], [85.40073857000004, 25.33209628800006], [85.39755534900007, 25.33230261700004], [85.39510669300006, 25.332160567000074], [85.39413308100006, 25.33194485100006], [85.39347002200003, 25.33403084200006], [85.39337240600008, 25.33550683900006], [85.39380548500003, 25.33634144800004], [85.39496341100005, 25.33691355700006], [85.39719357200005, 25.337010629000076], [85.39937906400007, 25.337175450000075], [85.40071565900007, 25.33764798900006], [85.40140171900003, 25.338157283000044], [85.40207348200005, 25.339199265000047], [85.40200046800004, 25.340381878000073], [85.40177834900004, 25.341497016000062], [85.40274200300007, 25.341527622000058], [85.40537933300004, 25.34152481700005], [85.40604558100006, 25.342029625000066], [85.40723398500006, 25.34311168000005], [85.40771775500008, 25.344596135000074], [85.40740242500004, 25.34655537100008], [85.40726090000004, 25.34847823700005], [85.40777906100004, 25.349691894000046], [85.40811403800006, 25.351379563000023], [85.40809501700005, 25.352056653000034], [85.40857754700005, 25.352530004000073], [85.40988001700003, 25.35337263400004], [85.40999082900004, 25.354518985000027], [85.40965880300007, 25.355124197000066], [85.41040473000004, 25.355696573000046], [85.40981080800003, 25.357371801000056], [85.40921623600008, 25.358554926000068], [85.40873531400007, 25.359227962000034], [85.40528310100007, 25.359367087000066], [85.40262541900006, 25.35937436300003], [85.40293537100007, 25.36089057600003], [85.40256985700006, 25.362547490000054], [85.40219971300007, 25.364488707000078], [85.40246396900005, 25.36524673300005], [85.40302109800007, 25.365810341000042], [85.40413479300008, 25.366508728000042], [85.40435403900005, 25.367045610000048], [85.40459972400004, 25.368841752000037], [85.40463727600007, 25.370949556000028], [85.40468435200006, 25.37283164400003], [85.40475072600003, 25.374208232000058], [85.40428467200007, 25.374939950000055], [85.40394890700009, 25.37656965900004], [85.40381113800004, 25.37766663800005], [85.40444734700003, 25.377832906000037], [85.40630155400004, 25.378675024000074], [85.40917843600005, 25.378811839000036], [85.41223964300008, 25.379372755000077], [85.41443712700004, 25.38043544900006], [85.41695715700007, 25.38121798900005], [85.41923820800008, 25.381585529000063], [85.41854419000003, 25.37915804900007], [85.41831760600007, 25.377023331000032], [85.41835464400003, 25.375073462000046], [85.41851796300006, 25.374599399000033], [85.41873915300005, 25.372901997000042], [85.41840380300005, 25.37112402200006], [85.41861476700007, 25.369223606000048], [85.41844702500003, 25.36652470000007], [85.41880116800007, 25.363969652000037], [85.41897625700005, 25.361265753000055], [85.41815903200006, 25.35945681000004], [85.41755148800007, 25.358419381000033], [85.41781399500007, 25.357796135000058], [85.41859813900004, 25.357321365000075], [85.41914904500004, 25.356964167000058]]]]}}, {"type": "Feature", "properties": {"OBJECTID": 5540, "GPCODE": "95534", "GPNAME_1": "ARAUT", "DIST_CEN_C": "27", "BLK_NAME": "CHANDI", "ST_NAME": "BIHAR", "ST_CODE_1": "10", "GPCODE2011": "98088", "REMARKS": "FINALIZED", "MAP_STATUS": "COMPLETED", "BLK_C_2001": "270004", "BLK_C_2011": "01381", "DIST_NAME": "NALANDA", "code2011": 0.0, "Shape_Leng": 0.15049479997, "Shape_Area": 0.000619696, "Area": 6.90972}, "geometry": {"type": "MultiPolygon", "coordinates": [[[[85.52865351900004, 25.33648233200006], [85.52732036700007, 25.335568631000058], [85.52656412500005, 25.334983256000044], [85.52559308700006, 25.333843114000047], [85.52440347800007, 25.33269887600005], [85.52325217300006, 25.330873031000067], [85.52234885100006, 25.32894742700006], [85.52160833600004, 25.326484356000037], [85.52124363200005, 25.325501087000077], [85.51998858400003, 25.32612628000004], [85.51851448900004, 25.326490026000045], [85.51682727700006, 25.327079922000053], [85.51568075400007, 25.32740692300007], [85.51471263100007, 25.327539570000056], [85.51402727900006, 25.32754084000004], [85.51269522600006, 25.32701964100005], [85.51079207600003, 25.326535506000027], [85.50969412500007, 25.326293706000058], [85.50832870000005, 25.326458586000058], [85.50668033600004, 25.32662392900005], [85.50524003800007, 25.326563285000077], [85.50358568500008, 25.326304366000045], [85.50285941800007, 25.325842571000067], [85.50214854000006, 25.325390554000023], [85.50081553500007, 25.32434564400006], [85.50013284400006, 25.32323646800006], [85.49973076500004, 25.32091722900003], [85.49970763500005, 25.319301336000024], [85.49934649400006, 25.317568761000075], [85.49887655400005, 25.316034951000063], [85.49856876500007, 25.315313341000035], [85.49826285900008, 25.31459614000005], [85.49819075200008, 25.31332343300005], [85.49806428900007, 25.31223134800007], [85.49776979000006, 25.311473598000077], [85.49685537300007, 25.310756746000038], [85.49306195700007, 25.307782920000022], [85.49062820000006, 25.305874991000053], [85.48988750900008, 25.307961471000056], [85.48977058500003, 25.30912169000004], [85.48997613300008, 25.310100815000055], [85.49047581000008, 25.311697799000058], [85.49123512200003, 25.313944351000032], [85.49123783500005, 25.315325444000052], [85.49072373100006, 25.31652239400006], [85.49016388800004, 25.317177791000063], [85.48933061300005, 25.317648521000024], [85.48777182400005, 25.317908313000032], [85.48637699500006, 25.318163390000052], [85.48531932200007, 25.318201114000033], [85.48585802500008, 25.319432522000056], [85.48693755500005, 25.320410175000063], [85.48818114000005, 25.321500462000074], [85.48901580000006, 25.32171581600005], [85.49025206000005, 25.321569314000044], [85.49125033400009, 25.321603851000077], [85.49197146500006, 25.32214430600004], [85.49273365100004, 25.32334363700005], [85.49369700200003, 25.325774890000048], [85.49473978300006, 25.328183422000052], [85.49540324300006, 25.32963115800004], [85.49585264600006, 25.330839998000044], [85.49618803300007, 25.332161937000023], [85.49636922000008, 25.33330807300007], [85.49652461500006, 25.334016500000075], [85.49682376900006, 25.334593729000062], [85.49726648900008, 25.334931448000077], [85.49776862500005, 25.33520598800004], [85.49824083600004, 25.335390217000054], [85.49897662800004, 25.335741020000057], [85.49957910900008, 25.336484790000043], [85.50027202700005, 25.337738396000077], [85.50074389800005, 25.337737582000045], [85.50113065600004, 25.337461526000027], [85.50112961000008, 25.33695155500004], [85.50104354600006, 25.336170854000045], [85.50138540400008, 25.33573695000007], [85.50198590800005, 25.335505714000078], [85.50276031800007, 25.33532835500006], [85.50404996000003, 25.334563365000065], [85.50473969100005, 25.334250748000045], [85.50538507000005, 25.334132303000047], [85.50616044000003, 25.334406229000024], [85.50676824200008, 25.335303422000038], [85.50715646700007, 25.335695368000074], [85.50730705900008, 25.33645793200003], [85.50717996400004, 25.337437610000052], [85.50697024900006, 25.339238889000057], [85.50701303900007, 25.340687627000023], [85.50671889100005, 25.34248904800006], [85.50693487600006, 25.343621590000055], [85.50736937100004, 25.34475824900005], [85.50988917700005, 25.345476018000056], [85.51350659100007, 25.346178190000046], [85.51620598000005, 25.347220509000067], [85.51642149400004, 25.345847966000065], [85.51822042100008, 25.346237377000023], [85.52023236500008, 25.346364682000058], [85.52159895100004, 25.346687107000037], [85.52278146800006, 25.346847428000046], [85.52368015100006, 25.34668322300007], [85.52465309600007, 25.346419651000076], [85.52533236300008, 25.345894822000048], [85.52565376300004, 25.345244308000076], [85.52565098600007, 25.344034642000054], [85.52570102800007, 25.34199438400003], [85.52605647600006, 25.341045876000067], [85.52688417600007, 25.340290628000048], [85.52709715400005, 25.340028441000072], [85.52860091000008, 25.33738062200007], [85.52865351900004, 25.33648233200006]]]]}}, {"type": "Feature", "properties": {"OBJECTID": 5542, "GPCODE": "95539", "GPNAME_1": "GANGAURA", "DIST_CEN_C": "27", "BLK_NAME": "CHANDI", "ST_NAME": "BIHAR", "ST_CODE_1": "10", "GPCODE2011": "98093", "REMARKS": "FINALIZED", "MAP_STATUS": "COMPLETED", "BLK_C_2001": "270004", "BLK_C_2011": "01381", "DIST_NAME": "NALANDA", "code2011": 0.0, "Shape_Leng": 0.21214261111, "Shape_Area": 0.0005435595, "Area": 6.06032}, "geometry": {"type": "MultiPolygon", "coordinates": [[[[85.44222467100008, 25.333203534000063], [85.44124336100003, 25.331336151000073], [85.44005184400004, 25.33160853100003], [85.43897448400008, 25.331817577000038], [85.43871812800006, 25.333063582000023], [85.43852386300006, 25.33588032800003], [85.44035168100004, 25.33594116100005], [85.44205077800007, 25.336263934000044], [85.44330784900006, 25.336614374000078], [85.44415796000004, 25.337118736000036], [85.44382767700006, 25.335575560000052], [85.44222467100008, 25.333203534000063]]], [[[85.47689418400006, 25.34842370000007], [85.47647254100008, 25.34607271400006], [85.47573780100004, 25.34623186400006], [85.47458611600007, 25.346617311000045], [85.47263018300004, 25.347188931000062], [85.47233340600008, 25.347857429000044], [85.47212147800008, 25.348751358000072], [85.47214345600008, 25.34989327100004], [85.47172444700004, 25.351640702000054], [85.47175987500003, 25.351992684000038], [85.47326696400006, 25.35313235600006], [85.47407367300008, 25.35418281500006], [85.47417993000005, 25.35526132600006], [85.47362061800004, 25.35630936700005], [85.47222693500004, 25.35752106700005], [85.47212383700008, 25.358189261000064], [85.47247255700006, 25.358694224000033], [85.47334711200006, 25.358886980000023], [85.47394340200003, 25.358949279000058], [85.47422029600006, 25.35824924800005], [85.47456730100004, 25.357896655000047], [85.47566798600008, 25.356753037000033], [85.47647028600005, 25.35544743500003], [85.47667745300004, 25.354684280000072], [85.47618705300005, 25.352775821000023], [85.47632478900005, 25.35201281600007], [85.47688470400004, 25.351285274000077], [85.47686255700006, 25.350107261000062], [85.47689418400006, 25.34842370000007]]], [[[85.46490373900008, 25.356863899000075], [85.46447570700008, 25.353592234000075], [85.46429847800005, 25.35168780600003], [85.46364808200008, 25.349021196000024], [85.46290839500006, 25.346413452000036], [85.46237826500004, 25.344383109000034], [85.46386244600006, 25.34383930300004], [85.46602711100007, 25.34333061700005], [85.46805846600006, 25.343296077000048], [85.46928035700006, 25.343294225000022], [85.47046672400006, 25.34294038200005], [85.47371948500006, 25.342651169000078], [85.47399324400004, 25.340267594000068], [85.47383008700007, 25.337979491000056], [85.47327013400007, 25.33594469800005], [85.47225376900008, 25.334231083000077], [85.47183079500007, 25.333789344000024], [85.47106102200007, 25.33382214200003], [85.47015267200004, 25.334107876000076], [85.46900101900007, 25.334425494000072], [85.46718288000005, 25.33420706000004], [85.46564722200003, 25.333604498000057], [85.46434974100004, 25.332906756000057], [85.46303810800003, 25.332655860000045], [85.46137910200008, 25.33253187100007], [85.46026175700007, 25.332596667000075], [85.45942376400006, 25.333360664000054], [85.45889880200008, 25.334219], [85.45904072000008, 25.335870750000026], [85.45901087800007, 25.338732401000073], [85.45962537500003, 25.340798749000044], [85.46008547200006, 25.342576432000044], [85.458233, 25.342705425000077], [85.45697698200007, 25.343054718000076], [85.45505482900006, 25.34302585900008], [85.45400105800007, 25.342594027000075], [85.45256463400005, 25.341968594000036], [85.45106850100007, 25.341311628000028], [85.44962238500005, 25.34085773700008], [85.44808335000005, 25.34122538400004], [85.44731392600005, 25.34151981900004], [85.44658483400008, 25.339092527000048], [85.44605749500005, 25.338542571000062], [85.44472102200007, 25.338287051000066], [85.44342438500007, 25.338031502000035], [85.44258962600009, 25.33780236700005], [85.44078128200005, 25.337511343000074], [85.43947506100005, 25.337540157000035], [85.43846183500006, 25.337482782000052], [85.43777698100007, 25.337840151000023], [85.43699802200007, 25.338346717000036], [85.43725792600009, 25.33941608500004], [85.43768665600004, 25.340453645000025], [85.43758848700008, 25.34119404000006], [85.43693291500006, 25.341253515000062], [85.43576083000005, 25.341286617000037], [85.43510578500008, 25.341671113000075], [85.43474913400007, 25.342294383000024], [85.43460115100004, 25.342921941000043], [85.43493060900005, 25.344018344000062], [85.43500570200007, 25.34443802100003], [85.43617819200006, 25.344585534000032], [85.43706818100009, 25.34520726100004], [85.43739226800005, 25.346019236000075], [85.43812396600003, 25.346975240000063], [85.43881021400006, 25.34748888000007], [85.43998266000006, 25.347667959000034], [85.44099707300006, 25.348366259000045], [85.44132092500007, 25.348993191000034], [85.44126224400009, 25.349543932000074], [85.44057316200008, 25.350461100000075], [85.44013243800003, 25.35127403200005], [85.43932358500007, 25.35178966600006], [85.43887726800006, 25.35226862600007], [85.43827333100006, 25.35359193100004], [85.43892001400008, 25.354177880000066], [85.43936829000006, 25.35495362200004], [85.43940908900004, 25.355648608000024], [85.43981227800003, 25.35616720300004], [85.44050315200008, 25.356423603000053], [85.44118855400006, 25.356382042000064], [85.44193848300006, 25.356272726000043], [85.44357662600004, 25.355571007000037], [85.44462831200008, 25.354725553000037], [85.44535140200009, 25.353397667000024], [85.44583687400007, 25.352593556000045], [85.44688893500006, 25.352005419000022], [85.44777777200005, 25.351819163000073], [85.44781679800008, 25.351340677000053], [85.44757237700009, 25.350754256000073], [85.44660272800007, 25.350092097000072], [85.44534452300007, 25.34917296100008], [85.44481701500007, 25.34855079600004], [85.44469661600004, 25.347815222000065], [85.44497819100008, 25.346821901000055], [85.44550407800006, 25.346451114000047], [85.44684007400008, 25.346340980000036], [85.44784835800004, 25.346375727000066], [85.44916545500007, 25.346852408000075], [85.45021953100007, 25.347509925000054], [85.45143404200007, 25.34905642900003], [85.45245177800007, 25.351736134000078], [85.45308085600004, 25.35361288200005], [85.45353495400008, 25.35484900800003], [85.45458369600004, 25.355262783000057], [85.45510982800005, 25.35500930200004], [85.45603323900008, 25.35468749000006], [85.45610370400004, 25.355260679000025], [85.45631371400003, 25.356023117000063], [85.45740168900005, 25.35608484100004], [85.45799244300008, 25.355894378000073], [85.45820532600004, 25.35547884600004], [85.45896962900008, 25.35509860600007], [85.46023168600004, 25.355318037000075], [85.46037138300005, 25.35566984700006], [85.46051246000007, 25.356811610000022], [85.46048052400005, 25.35840038500004], [85.46098962100007, 25.359830463000037], [85.46072862500006, 25.361139840000078], [85.46220313400005, 25.360614087000044], [85.46349916100007, 25.360350484000037], [85.46447750800007, 25.36017755900008], [85.46541508500007, 25.35945848800003], [85.46490373900008, 25.356863899000075]]]]}}, {"type": "Feature", "properties": {"OBJECTID": 5543, "GPCODE": "95546", "GPNAME_1": "SARTHA", "DIST_CEN_C": "27", "BLK_NAME": "CHANDI", "ST_NAME": "BIHAR", "ST_CODE_1": "10", "GPCODE2011": "98100", "REMARKS": "FINALIZED", "MAP_STATUS": "COMPLETED", "BLK_C_2001": "270004", "BLK_C_2011": "01381", "DIST_NAME": "NALANDA", "code2011": 0.0, "Shape_Leng": 0.12563672377, "Shape_Area": 0.00083306204, "Area": 9.28688}, "geometry": {"type": "MultiPolygon", "coordinates": [[[[85.51382179100005, 25.372311100000047], [85.51786518900008, 25.372028509000074], [85.51783055400006, 25.372064651000073], [85.51818751000008, 25.371770647000062], [85.51836473600008, 25.371016514000075], [85.51897007000008, 25.368433718000063], [85.51936316300004, 25.366505716000063], [85.51975460400007, 25.36601751200004], [85.51989699000006, 25.36529510300005], [85.51966019000008, 25.363810554000054], [85.51940434600004, 25.362664534000032], [85.51951081300007, 25.361391582000067], [85.51979663000003, 25.360380001000067], [85.52029635800005, 25.35946285700004], [85.52115795400005, 25.35825161300005], [85.52156842200003, 25.357415842000023], [85.52199760600007, 25.35607906900003], [85.52185217700008, 25.35548803000006], [85.52070148200005, 25.354023228000074], [85.51907967600005, 25.35291590500003], [85.51853744200008, 25.352555816000063], [85.51810939800004, 25.352163936000068], [85.51745574100005, 25.350860656000066], [85.51718291800006, 25.348753337000062], [85.51700285000004, 25.348166934000062], [85.51656967600007, 25.34770734700004], [85.51620598000005, 25.347220509000067], [85.51350659100007, 25.346178190000046], [85.50988917700005, 25.345476018000056], [85.50736937100004, 25.34475824900005], [85.50693487600006, 25.343621590000055], [85.50671889100005, 25.34248904800006], [85.50701303900007, 25.340687627000023], [85.50697024900006, 25.339238889000057], [85.50717996400004, 25.337437610000052], [85.50730705900008, 25.33645793200003], [85.50715646700007, 25.335695368000074], [85.50676824200008, 25.335303422000038], [85.50616044000003, 25.334406229000024], [85.50538507000005, 25.334132303000047], [85.50473969100005, 25.334250748000045], [85.50404996000003, 25.334563365000065], [85.50276031800007, 25.33532835500006], [85.50198590800005, 25.335505714000078], [85.50138540400008, 25.33573695000007], [85.50104354600006, 25.336170854000045], [85.50112961000008, 25.33695155500004], [85.50113065600004, 25.337461526000027], [85.50074389800005, 25.337737582000045], [85.50027202700005, 25.337738396000077], [85.50018621700008, 25.339458170000057], [85.49971655700006, 25.340515117000052], [85.49924704000006, 25.341653388000054], [85.49777156200008, 25.34151138900006], [85.49670519300008, 25.342221794000068], [85.49607993900008, 25.34249367600006], [85.49522300400008, 25.343637013000034], [85.49434989900004, 25.344184607000045], [85.49241285800008, 25.344187779000038], [85.49091357900005, 25.344587511000043], [85.49020919300006, 25.345035428000074], [85.49072739900004, 25.345851572000072], [85.49111234900005, 25.347114740000052], [85.49104484600008, 25.34813041500007], [85.49063600300008, 25.34984171900004], [85.48990169200005, 25.350289771000064], [85.48846748000005, 25.350951060000057], [85.48840116700006, 25.352571563000026], [85.48868826400007, 25.354606654000065], [85.48860104900007, 25.355685563000065], [85.48870781400007, 25.356926619000035], [85.48947930800006, 25.357719794000047], [85.48986376400006, 25.358734652000066], [85.49017987500008, 25.36032290600008], [85.49067350500007, 25.361242892000064], [85.49098680500003, 25.361404864000065], [85.49151315400007, 25.361273109000024], [85.49215974800006, 25.361687250000045], [85.49303527300003, 25.362286149000056], [85.49321144400005, 25.363463857000056], [85.49440709900006, 25.36514545700004], [85.49535428800004, 25.36679588100003], [85.49521200200007, 25.367653656000073], [85.49476156800006, 25.368448760000035], [85.49460372100003, 25.369022290000032], [85.49495734800007, 25.36946402800004], [85.49513212400007, 25.369928654000034], [85.49628372700005, 25.36944832000006], [85.49748457400005, 25.371165908000023], [85.49777037900003, 25.372451813000055], [85.49854239900003, 25.373416425000073], [85.49926310300003, 25.373609246000058], [85.50016244400007, 25.373639327000035], [85.50141913300007, 25.37351082300006], [85.50235258700008, 25.373247424000056], [85.50562579400008, 25.372912265000025], [85.50688229300005, 25.372716024000056], [85.50907312400005, 25.372644534000074], [85.51130331100006, 25.372446440000033], [85.51382179100005, 25.372311100000047]]]]}}, {"type": "Feature", "properties": {"OBJECTID": 5550, "GPCODE": "95543", "GPNAME_1": "NARSANDA", "DIST_CEN_C": "27", "BLK_NAME": "CHANDI", "ST_NAME": "BIHAR", "ST_CODE_1": "10", "GPCODE2011": "98097", "REMARKS": "FINALIZED", "MAP_STATUS": "COMPLETED", "BLK_C_2001": "270004", "BLK_C_2011": "01381", "DIST_NAME": "NALANDA", "code2011": 0.0, "Shape_Leng": 0.19297728707, "Shape_Area": 0.00086432735, "Area": 9.63474}, "geometry": {"type": "MultiPolygon", "coordinates": [[[[85.42341451200008, 25.390499453000075], [85.42366736100007, 25.39014254500006], [85.42493435800003, 25.390122993000034], [85.42644566300004, 25.390644744000042], [85.42818483600007, 25.390705901000047], [85.43065436700005, 25.390702866000026], [85.43379449100007, 25.39061319900003], [85.43602531200008, 25.39050211600005], [85.43621310300006, 25.389824824000073], [85.43660653600006, 25.387211], [85.43677282600004, 25.385486581000066], [85.43714024500008, 25.382132582000054], [85.43759248300006, 25.378995087000078], [85.43754112100004, 25.37792993900007], [85.43806528700009, 25.376358562000064], [85.43882261600004, 25.375920394000048], [85.43957425400004, 25.37548551200007], [85.44110980100004, 25.375700203000065], [85.44235806200004, 25.376506520000078], [85.44361726900007, 25.37787695800006], [85.44412167400003, 25.37948767200004], [85.44417264000003, 25.380313542000067], [85.44336026200006, 25.381817598000055], [85.44405613800006, 25.381992755000056], [85.44594884200006, 25.381859318000068], [85.44819937300008, 25.38170287400004], [85.44873192600005, 25.382270869000024], [85.44874323200008, 25.383119408000027], [85.45326891200006, 25.38273858200006], [85.45374963800003, 25.38204285300003], [85.45446969300008, 25.381802637000078], [85.45576119200007, 25.38162483600007], [85.45610662000007, 25.38027475100006], [85.45600313000006, 25.377855641000053], [85.45637092600003, 25.37504322600006], [85.45696819400007, 25.37277656200007], [85.45673580600004, 25.370511099000055], [85.45677618900004, 25.367942765000066], [85.45703735200004, 25.366719239000076], [85.45682218400003, 25.365807867000058], [85.45783895600005, 25.364890149000075], [85.45822019700006, 25.364126792000036], [85.45855044100006, 25.362645876000045], [85.45905579700008, 25.361814684000024], [85.46072862500006, 25.361139840000078], [85.46098962100007, 25.359830463000037], [85.46048052400005, 25.35840038500004], [85.46051246000007, 25.356811610000022], [85.46037138300005, 25.35566984700006], [85.46023168600004, 25.355318037000075], [85.45896962900008, 25.35509860600007], [85.45820532600004, 25.35547884600004], [85.45799244300008, 25.355894378000073], [85.45740168900005, 25.35608484100004], [85.45631371400003, 25.356023117000063], [85.45610370400004, 25.355260679000025], [85.45603323900008, 25.35468749000006], [85.45510982800005, 25.35500930200004], [85.45458369600004, 25.355262783000057], [85.45353495400008, 25.35484900800003], [85.45308085600004, 25.35361288200005], [85.45245177800007, 25.351736134000078], [85.45143404200007, 25.34905642900003], [85.45021953100007, 25.347509925000054], [85.44916545500007, 25.346852408000075], [85.44784835800004, 25.346375727000066], [85.44684007400008, 25.346340980000036], [85.44550407800006, 25.346451114000047], [85.44497819100008, 25.346821901000055], [85.44469661600004, 25.347815222000065], [85.44481701500007, 25.34855079600004], [85.44534452300007, 25.34917296100008], [85.44660272800007, 25.350092097000072], [85.44757237700009, 25.350754256000073], [85.44781679800008, 25.351340677000053], [85.44777777200005, 25.351819163000073], [85.44688893500006, 25.352005419000022], [85.44583687400007, 25.352593556000045], [85.44535140200009, 25.353397667000024], [85.44462831200008, 25.354725553000037], [85.44357662600004, 25.355571007000037], [85.44193848300006, 25.356272726000043], [85.44118855400006, 25.356382042000064], [85.44050315200008, 25.356423603000053], [85.43981227800003, 25.35616720300004], [85.43940908900004, 25.355648608000024], [85.43936829000006, 25.35495362200004], [85.43892001400008, 25.354177880000066], [85.43827333100006, 25.35359193100004], [85.43799207100005, 25.354806463000045], [85.43767198500007, 25.35660778400006], [85.43751030300007, 25.358079331000056], [85.43759195700005, 25.35944240500004], [85.43777795100004, 25.360872923000045], [85.43788093100005, 25.363228889000027], [85.43812781000008, 25.365435657000035], [85.43781086400008, 25.36609511100005], [85.43675365400009, 25.366651581000042], [85.43606810100005, 25.366688520000025], [85.43485105600007, 25.366690117000076], [85.43351966100005, 25.366691752000065], [85.43125385300004, 25.366401170000074], [85.43230440800005, 25.367943512000068], [85.43360284000005, 25.369156076000024], [85.43500153000008, 25.37091913100005], [85.43532759300007, 25.372940748000076], [85.43577710700004, 25.37451997900007], [85.43529249500006, 25.375991962000057], [85.43442564700007, 25.377685685000074], [85.42971301000006, 25.375867975000062], [85.42752551200005, 25.37480542000003], [85.42432972900008, 25.373960672000067], [85.42262509900007, 25.373560981000026], [85.42068159700005, 25.372899756000038], [85.41873915300005, 25.372901997000042], [85.41851796300006, 25.374599399000033], [85.41835464400003, 25.375073462000046], [85.41831760600007, 25.377023331000032], [85.41854419000003, 25.37915804900007], [85.41923820800008, 25.381585529000063], [85.41940072200003, 25.384162557000025], [85.41936429300006, 25.386514156000032], [85.41916462000006, 25.389385032000064], [85.41977697400006, 25.39022830300007], [85.42050229300008, 25.39015532800005], [85.42253014900007, 25.39055912300006], [85.42329644500006, 25.390996442000073], [85.42341451200008, 25.390499453000075]]]]}}, {"type": "Feature", "properties": {"OBJECTID": 5551, "GPCODE": "95536", "GPNAME_1": "BELCHHI", "DIST_CEN_C": "27", "BLK_NAME": "CHANDI", "ST_NAME": "BIHAR", "ST_CODE_1": "10", "GPCODE2011": "98090", "REMARKS": "FINALIZED", "MAP_STATUS": "COMPLETED", "BLK_C_2001": "270004", "BLK_C_2011": "01381", "DIST_NAME": "NALANDA", "code2011": 0.0, "Shape_Leng": 0.15906536178, "Shape_Area": 0.0006545776, "Area": 7.29708}, "geometry": {"type": "MultiPolygon", "coordinates": [[[[85.48741362300007, 25.37078984900006], [85.48825295000006, 25.37065752700005], [85.48964429100005, 25.370808777000036], [85.49161164000003, 25.370805594000046], [85.49398058900005, 25.370408946000055], [85.49513212400007, 25.369928654000034], [85.49495734800007, 25.36946402800004], [85.49460372100003, 25.369022290000032], [85.49476156800006, 25.368448760000035], [85.49521200200007, 25.367653656000073], [85.49535428800004, 25.36679588100003], [85.49440709900006, 25.36514545700004], [85.49321144400005, 25.363463857000056], [85.49303527300003, 25.362286149000056], [85.49215974800006, 25.361687250000045], [85.49151315400007, 25.361273109000024], [85.49098680500003, 25.361404864000065], [85.49067350500007, 25.361242892000064], [85.49017987500008, 25.36032290600008], [85.48986376400006, 25.358734652000066], [85.48947930800006, 25.357719794000047], [85.48870781400007, 25.356926619000035], [85.48860104900007, 25.355685563000065], [85.48868826400007, 25.354606654000065], [85.48840116700006, 25.352571563000026], [85.48846748000005, 25.350951060000057], [85.48748843800007, 25.350668323000036], [85.48630124000005, 25.35067019400003], [85.48553154500007, 25.350766243000066], [85.48497470500007, 25.350509810000062], [85.48497294000003, 25.349589068000057], [85.48285318700005, 25.34762001000007], [85.48226005900005, 25.346542234000026], [85.48110092400003, 25.34559168900006], [85.48008652300007, 25.344988423000075], [85.47997981600008, 25.343715760000066], [85.47957713500006, 25.343526807000046], [85.47775988000006, 25.34387713800004], [85.47678146500004, 25.34391024400003], [85.47615129100006, 25.344231680000064], [85.47510195000007, 25.343538245000047], [85.47371948500006, 25.342651169000078], [85.47046672400006, 25.34294038200005], [85.46928035700006, 25.343294225000022], [85.46805846600006, 25.343296077000048], [85.46602711100007, 25.34333061700005], [85.46386244600006, 25.34383930300004], [85.46237826500004, 25.344383109000034], [85.46290839500006, 25.346413452000036], [85.46364808200008, 25.349021196000024], [85.46429847800005, 25.35168780600003], [85.46447570700008, 25.353592234000075], [85.46490373900008, 25.356863899000075], [85.46541508500007, 25.35945848800003], [85.46651286000008, 25.35945689500005], [85.46752155200005, 25.35958628000003], [85.46929454200006, 25.359385107000037], [85.46970281400007, 25.359862921000058], [85.46991738800006, 25.36043129500007], [85.47005333200008, 25.361410570000032], [85.47039386700004, 25.362890503000074], [85.47049097400009, 25.364393302000053], [85.47057736500005, 25.365462930000035], [85.47068094900004, 25.36777373600006], [85.47101649200005, 25.369276221000064], [85.47178661600003, 25.369320144000028], [85.47278987100003, 25.36918773800005], [85.47391730000004, 25.36901004500004], [85.47451957000004, 25.369618418000073], [85.47492869500007, 25.37057919500006], [85.47453262400006, 25.371297432000063], [85.47427226200006, 25.372886625000035], [85.47470662900008, 25.37404140700005], [85.47508334600008, 25.376284068000075], [85.47561155200003, 25.37713185700005], [85.47616762100006, 25.37957283700007], [85.47646824900005, 25.38089932500003], [85.47668299600008, 25.38151281100005], [85.47725982300005, 25.381769211000062], [85.47816907100008, 25.381790413000033], [85.47950944700005, 25.38120155000007], [85.48262809000005, 25.38043383100006], [85.48330762800003, 25.37980088100005], [85.48407649400008, 25.379208426000048], [85.48395004700006, 25.378035040000043], [85.48361411000008, 25.376442333000057], [85.48315955000004, 25.376026284000034], [85.48271324900008, 25.375617790000035], [85.48319295700009, 25.374438988000065], [85.48424325200006, 25.37293429500005], [85.48589550200006, 25.37186652300005], [85.48741362300007, 25.37078984900006]], [[85.47573780100004, 25.34623186400006], [85.47647254100008, 25.34607271400006], [85.47689418400006, 25.34842370000007], [85.47686255700006, 25.350107261000062], [85.47688470400004, 25.351285274000077], [85.47632478900005, 25.35201281600007], [85.47618705300005, 25.352775821000023], [85.47667745300004, 25.354684280000072], [85.47647028600005, 25.35544743500003], [85.47566798600008, 25.356753037000033], [85.47456730100004, 25.357896655000047], [85.47422029600006, 25.35824924800005], [85.47394340200003, 25.358949279000058], [85.47334711200006, 25.358886980000023], [85.47247255700006, 25.358694224000033], [85.47212383700008, 25.358189261000064], [85.47222693500004, 25.35752106700005], [85.47362061800004, 25.35630936700005], [85.47417993000005, 25.35526132600006], [85.47407367300008, 25.35418281500006], [85.47326696400006, 25.35313235600006], [85.47175987500003, 25.351992684000038], [85.47172444700004, 25.351640702000054], [85.47214345600008, 25.34989327100004], [85.47212147800008, 25.348751358000072], [85.47233340600008, 25.347857429000044], [85.47263018300004, 25.347188931000062], [85.47458611600007, 25.346617311000045], [85.47573780100004, 25.34623186400006]]]]}}, {"type": "Feature", "properties": {"OBJECTID": 5552, "GPCODE": "95542", "GPNAME_1": "MAHKAR", "DIST_CEN_C": "27", "BLK_NAME": "CHANDI", "ST_NAME": "BIHAR", "ST_CODE_1": "10", "GPCODE2011": "98096", "REMARKS": "FINALIZED", "MAP_STATUS": "COMPLETED", "BLK_C_2001": "270004", "BLK_C_2011": "01381", "DIST_NAME": "NALANDA", "code2011": 0.0, "Shape_Leng": 0.18192179018, "Shape_Area": 0.00086764256, "Area": 9.67132}, "geometry": {"type": "MultiPolygon", "coordinates": [[[[85.40414269200005, 25.39996323400004], [85.40582158600006, 25.39943783700005], [85.40622178800004, 25.401500173000045], [85.40686533400003, 25.403417707000074], [85.40858919500005, 25.403041211000073], [85.41117743800004, 25.40248329800005], [85.41431269500004, 25.40215934200006], [85.41429689400007, 25.401527418000057], [85.41391305200005, 25.40061158700007], [85.41458262200007, 25.399694616000033], [85.41582989700004, 25.399693238000054], [85.41726561700006, 25.39947499400006], [85.41781600200005, 25.398603250000065], [85.41714335500006, 25.39729953500006], [85.41541548200007, 25.394643012000074], [85.41498738200005, 25.393391673000053], [85.41498640100008, 25.39338880400004], [85.41598529300006, 25.393509478000055], [85.41722244400006, 25.393399757000054], [85.41934394100008, 25.393243921000078], [85.42140542100003, 25.392803710000067], [85.42269689100004, 25.392499825000073], [85.42317747800007, 25.391497222000055], [85.42329644500006, 25.390996442000073], [85.42253014900007, 25.39055912300006], [85.42050229300008, 25.39015532800005], [85.41977697400006, 25.39022830300007], [85.41916462000006, 25.389385032000064], [85.41936429300006, 25.386514156000032], [85.41940072200003, 25.384162557000025], [85.41923820800008, 25.381585529000063], [85.41695715700007, 25.38121798900005], [85.41443712700004, 25.38043544900006], [85.41223964300008, 25.379372755000077], [85.40917843600005, 25.378811839000036], [85.40630155400004, 25.378675024000074], [85.40444734700003, 25.377832906000037], [85.40381113800004, 25.37766663800005], [85.40394890700009, 25.37656965900004], [85.40428467200007, 25.374939950000055], [85.40475072600003, 25.374208232000058], [85.40468435200006, 25.37283164400003], [85.40463727600007, 25.370949556000028], [85.40459972400004, 25.368841752000037], [85.40435403900005, 25.367045610000048], [85.40413479300008, 25.366508728000042], [85.40302109800007, 25.365810341000042], [85.40246396900005, 25.36524673300005], [85.40219971300007, 25.364488707000078], [85.40256985700006, 25.362547490000054], [85.40293537100007, 25.36089057600003], [85.40262541900006, 25.35937436300003], [85.39971871100005, 25.35873641200004], [85.39845653800006, 25.35839915300005], [85.39652453600007, 25.358739615000047], [85.39370207400003, 25.357929975000047], [85.39132764200008, 25.35793226800007], [85.38894788600004, 25.357663735000074], [85.38709507100003, 25.357665419000057], [85.38568368800009, 25.357129599000075], [85.38345284000007, 25.356725480000023], [85.38345354400008, 25.35733482300003], [85.38385140500003, 25.357758687000057], [85.38387212300006, 25.35853045300007], [85.38335144600006, 25.359307299000022], [85.38281557700003, 25.35989907900006], [85.38240866000007, 25.360269564000077], [85.38162868300003, 25.360188976000074], [85.38096336800004, 25.360564191000037], [85.38048203800008, 25.361006977000045], [85.38031878300006, 25.36159391800004], [85.38069710400003, 25.362329230000057], [85.38134390800008, 25.363258495000025], [85.38125588300005, 25.364585556000065], [85.38171409600005, 25.365641287000074], [85.38212250000004, 25.366570719000038], [85.38333508700003, 25.367034543000045], [85.38473612700005, 25.367105524000067], [85.38608758100008, 25.367253189000053], [85.38708666500008, 25.367766862000053], [85.38793720800004, 25.368655216000036], [85.38829039000007, 25.369052069000077], [85.38856916800006, 25.36955733600007], [85.38865041900004, 25.371132447000036], [85.38911979700003, 25.373158640000042], [85.38961266200005, 25.374110536000046], [85.39054274200004, 25.37492657100006], [85.39199862100008, 25.375177949000033], [85.39221270400003, 25.375516263000065], [85.39192080100008, 25.376554670000075], [85.39150393500006, 25.376992848000043], [85.38982122200008, 25.37824475700006], [85.38985212200004, 25.37919705300004], [85.39056373600005, 25.380207469000027], [85.39177179800004, 25.380824648000043], [85.39231435800008, 25.381641070000057], [85.39213128500006, 25.38229115300004], [85.39129840100009, 25.383835599000065], [85.39185571000007, 25.38456631200006], [85.39275112600006, 25.385522338000044], [85.39286212600007, 25.386921404000077], [85.39478007300005, 25.386946597000076], [85.39601272800007, 25.387351600000045], [85.39661998200006, 25.38822212200006], [85.39665615000007, 25.389382108000063], [85.39553565700004, 25.391360075000023], [85.39518909800006, 25.39243464300006], [85.39574605800004, 25.392759084000033], [85.39671989000004, 25.392731085000037], [85.39790218000007, 25.392440971000042], [85.39883104900008, 25.392205356000034], [85.39950216700004, 25.392498085000057], [85.40013930700007, 25.393395643000076], [85.39998129800006, 25.394158515000072], [85.39953536200005, 25.395174567000026], [85.39819516900008, 25.396399054000028], [85.39803707100003, 25.39715299200003], [85.39877291700003, 25.397441168000057], [85.39985596800005, 25.397268521000058], [85.40120273300005, 25.397438700000066], [85.40180995000009, 25.398164690000044], [85.40196960200007, 25.398746840000058], [85.40174714000005, 25.399649744000044], [85.40139495300008, 25.400114977000044], [85.39989963100004, 25.40046409400003], [85.39999011000003, 25.40131253100003], [85.40023487200006, 25.402327826000032], [85.40050464100005, 25.40343334000005], [85.40239258400004, 25.403133539000066], [85.40216213600007, 25.401653363000037], [85.40203634800008, 25.400430284000038], [85.40293065000003, 25.400284916000032], [85.40414269200005, 25.39996323400004]]]]}}, {"type": "Feature", "properties": {"OBJECTID": 5576, "GPCODE": "95644", "GPNAME_1": "RUKHAI", "DIST_CEN_C": "27", "BLK_NAME": "CHANDI", "ST_NAME": "BIHAR", "ST_CODE_1": "10", "GPCODE2011": "98098", "REMARKS": "FINALIZED", "MAP_STATUS": "COMPLETED", "BLK_C_2001": "270004", "BLK_C_2011": "01381", "DIST_NAME": "NALANDA", "code2011": 0.0, "Shape_Leng": 0.15143285887, "Shape_Area": 0.00110199352, "Area": 12.2889}, "geometry": {"type": "MultiPolygon", "coordinates": [[[[85.37656633700004, 25.350335796000024], [85.37787198000007, 25.349680208000052], [85.37887450000005, 25.348866851000025], [85.38058180600007, 25.347637665000036], [85.38214058000005, 25.346805802000063], [85.38283525800006, 25.346164200000032], [85.38318619700004, 25.344647371000065], [85.38348148600005, 25.342200731000048], [85.38351000100005, 25.34097298100005], [85.38358306300006, 25.339691091000077], [85.38315462800006, 25.338490910000075], [85.38299499800007, 25.33788616000004], [85.38336697300008, 25.33741197200004], [85.38370378300004, 25.336540460000037], [85.38572270600008, 25.334345049000035], [85.38619836400005, 25.333392255000035], [85.38571997700006, 25.331970916000046], [85.38524075200007, 25.32977323800003], [85.38522405700007, 25.328184427000053], [85.38532127300005, 25.326234465000027], [85.38317492300007, 25.325419477000025], [85.38238422700005, 25.324445283000045], [85.38278044100008, 25.323415858000033], [85.38283385600005, 25.322341510000058], [85.38142278700008, 25.321625114000028], [85.38145083000006, 25.320036309000045], [85.38133556000008, 25.31906149200006], [85.38036702200003, 25.318886319000057], [85.38008926600008, 25.319170903000042], [85.37960769900008, 25.319324770000037], [85.37918516700006, 25.31896410400003], [85.37884694200005, 25.318427256000064], [85.37837968500008, 25.317940203000035], [85.37713707800003, 25.31691673200004], [85.37645632700008, 25.31642980500004], [85.37611838500004, 25.316222501000027], [85.37555744700006, 25.316353873000025], [85.37504631400003, 25.316710835000038], [85.37470923600006, 25.31725278700003], [85.37428720700007, 25.317352440000036], [85.37411786900003, 25.31686959500007], [85.37372500900005, 25.316278630000056], [85.37315875300004, 25.316148225000063], [85.37285067400006, 25.31591832500004], [85.37290483200007, 25.315484926000067], [85.37357972600006, 25.315019500000062], [85.37349488000007, 25.314613303000044], [85.37298760800007, 25.31389155200003], [85.37192907200006, 25.313048449000064], [85.37057717500005, 25.311767683000028], [85.37057615500004, 25.310770198000057], [85.37108171500006, 25.309821930000055], [85.37094166200006, 25.308792882000034], [85.37029063600005, 25.308283437000057], [85.36915890400007, 25.308676997000077], [85.36844906200008, 25.30893932300006], [85.36776865500008, 25.30870518200004], [85.36754473200006, 25.308294681000064], [85.36793149600004, 25.307707545000028], [85.36880477700004, 25.30702986500006], [85.36880415700006, 25.30641599100005], [85.36757081100006, 25.30444903500006], [85.36392170000005, 25.304803934000063], [85.36130503400005, 25.304923334000023], [85.35888206000004, 25.304983766000078], [85.35868923700008, 25.305922743000053], [85.35700689600003, 25.30695311100004], [85.35573177300006, 25.308073372000024], [85.35502311300007, 25.309631078000052], [85.35496020400007, 25.311513244000025], [85.35596433600006, 25.312713226000028], [85.35533422100008, 25.31336363500003], [85.35449518500008, 25.31350859500003], [85.35462464500006, 25.31395083800004], [85.35501245700004, 25.31453732500006], [85.35485396400009, 25.31500692800006], [85.35433266900003, 25.315124602000026], [85.35365747700007, 25.31530110600005], [85.35339963700005, 25.31571657300003], [85.35385201500003, 25.316330122000068], [85.35414048000007, 25.31679929200004], [85.35414082600005, 25.317214496000076], [85.35365947900004, 25.317652699000064], [85.35301421400004, 25.317978114000027], [85.35235455500003, 25.31883170100008], [85.35222636200007, 25.319951075000063], [85.35212762400005, 25.32065532200005], [85.35235655400004, 25.321241960000066], [85.35354887600005, 25.321859422000045], [85.35335578100006, 25.322536626000044], [85.35329177600005, 25.323150514000076], [85.35406702500006, 25.323768379000057], [85.35411740600006, 25.32462138300008], [85.35408331100007, 25.325330027000064], [85.35547375700008, 25.32529745200003], [85.35583233100004, 25.32641206900007], [85.35521738200003, 25.32738293400007], [85.35479627500007, 25.328588324000066], [85.35502560000003, 25.329617235000057], [85.35552797600008, 25.330469997000023], [85.35572289400005, 25.331851018000066], [85.35543054700008, 25.332704257000046], [85.35462718400004, 25.334000221000053], [85.35438441800005, 25.33467747900005], [85.35454962500006, 25.336293197000032], [85.35537498300005, 25.33732168000006], [85.35644309700007, 25.337614319000068], [85.35728283600008, 25.33808763600007], [85.35799340700004, 25.33838055800004], [85.35802395200005, 25.33920200400007], [85.35783167500006, 25.340876679000075], [85.35786829200003, 25.342934795000076], [85.35820746500008, 25.344554989000073], [85.35937557000005, 25.345520020000038], [85.36015129300006, 25.346404113000062], [85.36095732300004, 25.34792903400006], [85.36134521500009, 25.34839815500004], [85.36262226600007, 25.34901556400007], [85.36307526000007, 25.34998569000004], [85.36385113000006, 25.351041258000066], [85.36421123600007, 25.353658851000034], [85.36516446800005, 25.353166069000054], [85.36581535000005, 25.353319089000024], [85.36636617000005, 25.352795008000044], [85.36682243700005, 25.352095054000074], [85.37021014600003, 25.35209238300007], [85.37161089300008, 25.35210021100005], [85.37324000400008, 25.35200413700005], [85.37513662900005, 25.35112683400007], [85.37656633700004, 25.350335796000024]]]]}}, {"type": "Feature", "properties": {"OBJECTID": 5577, "GPCODE": "95541", "GPNAME_1": "MADHOPUR", "DIST_CEN_C": "27", "BLK_NAME": "CHANDI", "ST_NAME": "BIHAR", "ST_CODE_1": "10", "GPCODE2011": "98095", "REMARKS": "FINALIZED", "MAP_STATUS": "COMPLETED", "BLK_C_2001": "270004", "BLK_C_2011": "01381", "DIST_NAME": "NALANDA", "code2011": 0.0, "Shape_Leng": 0.10647253522, "Shape_Area": 0.00057326708, "Area": 6.39166}, "geometry": {"type": "MultiPolygon", "coordinates": [[[[85.40262541900006, 25.35937436300003], [85.40528310100007, 25.359367087000066], [85.40873531400007, 25.359227962000034], [85.40921623600008, 25.358554926000068], [85.40981080800003, 25.357371801000056], [85.41040473000004, 25.355696573000046], [85.40965880300007, 25.355124197000066], [85.40999082900004, 25.354518985000027], [85.40988001700003, 25.35337263400004], [85.40857754700005, 25.352530004000073], [85.40809501700005, 25.352056653000034], [85.40811403800006, 25.351379563000023], [85.40777906100004, 25.349691894000046], [85.40726090000004, 25.34847823700005], [85.40740242500004, 25.34655537100008], [85.40771775500008, 25.344596135000074], [85.40723398500006, 25.34311168000005], [85.40604558100006, 25.342029625000066], [85.40537933300004, 25.34152481700005], [85.40274200300007, 25.341527622000058], [85.40177834900004, 25.341497016000062], [85.40200046800004, 25.340381878000073], [85.40207348200005, 25.339199265000047], [85.40140171900003, 25.338157283000044], [85.40071565900007, 25.33764798900006], [85.39937906400007, 25.337175450000075], [85.39719357200005, 25.337010629000076], [85.39496341100005, 25.33691355700006], [85.39380548500003, 25.33634144800004], [85.39085571500004, 25.336597076000032], [85.38915772600006, 25.337153784000066], [85.38739452400006, 25.337038154000027], [85.38470265500007, 25.337076722000063], [85.38336697300008, 25.33741197200004], [85.38299499800007, 25.33788616000004], [85.38315462800006, 25.338490910000075], [85.38358306300006, 25.339691091000077], [85.38351000100005, 25.34097298100005], [85.38348148600005, 25.342200731000048], [85.38318619700004, 25.344647371000065], [85.38283525800006, 25.346164200000032], [85.38214058000005, 25.346805802000063], [85.38058180600007, 25.347637665000036], [85.37887450000005, 25.348866851000025], [85.37787198000007, 25.349680208000052], [85.37656633700004, 25.350335796000024], [85.37667753300008, 25.352226913000038], [85.37681842100005, 25.353910314000075], [85.37747041500006, 25.355123929000058], [85.37826610100007, 25.35596726700004], [85.37832662500006, 25.356878941000048], [85.37822267900003, 25.357213021000064], [85.37827823000003, 25.358020881000073], [85.37903859900007, 25.358358770000052], [85.37972433300007, 25.358601891000035], [85.38096336800004, 25.360564191000037], [85.38162868300003, 25.360188976000074], [85.38240866000007, 25.360269564000077], [85.38281557700003, 25.35989907900006], [85.38335144600006, 25.359307299000022], [85.38387212300006, 25.35853045300007], [85.38385140500003, 25.357758687000057], [85.38345354400008, 25.35733482300003], [85.38345284000007, 25.356725480000023], [85.38568368800009, 25.357129599000075], [85.38709507100003, 25.357665419000057], [85.38894788600004, 25.357663735000074], [85.39132764200008, 25.35793226800007], [85.39370207400003, 25.357929975000047], [85.39652453600007, 25.358739615000047], [85.39845653800006, 25.35839915300005], [85.39971871100005, 25.35873641200004], [85.40262541900006, 25.35937436300003]]]]}}]}