{"type": "FeatureCollection", "features": [{"type": "Feature", "properties": {"OBJECTID": 5372, "GPCODE": "95481", "GPNAME_1": "ASTHAWAN", "DIST_CEN_C": "27", "BLK_NAME": "ASTHAWAN", "ST_NAME": "BIHAR", "ST_CODE_1": "10", "GPCODE2011": "98035", "REMARKS": "FINALIZED", "MAP_STATUS": "COMPLETED", "BLK_C_2001": "270008", "BLK_C_2011": "01385", "DIST_NAME": "NALANDA", "code2011": 0.0, "Shape_Leng": 0.14764580227, "Shape_Area": 0.00077006892, "Area": 8.59333}, "geometry": {"type": "MultiPolygon", "coordinates": [[[[85.63467964700004, 25.231037291000064], [85.63460596500005, 25.229728584000043], [85.63517460800006, 25.22907255100006], [85.63594210800005, 25.228551507000077], [85.63604039300003, 25.228244309000047], [85.63607249800003, 25.227422830000023], [85.63801159100007, 25.22708370400005], [85.63848000400003, 25.22613910900003], [85.63898002300004, 25.225772230000075], [85.63921339400008, 25.22580315700003], [85.64021959600007, 25.227014703000066], [85.64099475500007, 25.227351157000044], [85.64146034400005, 25.227106200000037], [85.64135974100003, 25.226677648000077], [85.64095688300006, 25.226376362000053], [85.64021188000004, 25.22460895100005], [85.64024195500008, 25.223151006000023], [85.64067697700006, 25.222630809000066], [85.64251538700006, 25.221863163000023], [85.64539227400007, 25.22155304300003], [85.64582392500006, 25.22155194800007], [85.64444749900008, 25.217854481000074], [85.64373714700008, 25.216059931000075], [85.64201204000005, 25.21656553500003], [85.64086067500006, 25.216496305000078], [85.63925400700003, 25.21520972600007], [85.63820285900005, 25.21387194600004], [85.63593982300006, 25.212158131000024], [85.63344629300008, 25.209673165000027], [85.63256234800008, 25.207829334000053], [85.63222634200008, 25.20509494500004], [85.63225997900008, 25.203149551000024], [85.63242226700004, 25.202693184000054], [85.63312592000005, 25.202425121000033], [85.63289321300005, 25.201012929000058], [85.63192091900004, 25.201015423000058], [85.62917250100008, 25.20102254300008], [85.62858888800008, 25.200008441000023], [85.62803746800006, 25.199770650000062], [85.62598334700004, 25.199681076000047], [85.62552259400007, 25.20151929000008], [85.62526175700003, 25.203803828000048], [85.62503515100008, 25.20596192900007], [85.62510699500007, 25.208340400000054], [85.62477660700006, 25.209009302000027], [85.62410701400006, 25.209074163000025], [85.62346595900004, 25.208732756000074], [85.62319771600005, 25.20700017100006], [85.62299240800007, 25.206359759000065], [85.62235639300008, 25.20605897200005], [85.62131978700006, 25.206151891000047], [85.62094839200006, 25.204749054000047], [85.61984142700004, 25.204539698000076], [85.61823468600005, 25.20478741900007], [85.61546047500008, 25.20449188300006], [85.61485598800004, 25.20476418900006], [85.61422423300007, 25.205849045000036], [85.61449369200005, 25.206380927000055], [85.61496666500005, 25.208573414000057], [85.61530786300006, 25.209849956000028], [85.61534220400006, 25.211407073000032], [85.61528216400006, 25.212883141000077], [85.61505366600005, 25.214436341000066], [85.61512267100005, 25.21595728500006], [85.61493566900003, 25.219780786000058], [85.61370946800008, 25.222920776000024], [85.61337777500006, 25.224839819000067], [85.61234780600006, 25.22723002200007], [85.61188256400004, 25.22930294400004], [85.61195718900007, 25.231036003000042], [85.61142735300007, 25.233077454000068], [85.61065563700004, 25.23391881400005], [85.61323696000005, 25.235862419000057], [85.61441238000003, 25.235638331000075], [85.61655219100004, 25.235967052000035], [85.61896380100006, 25.235902398000064], [85.62090430300003, 25.235956230000056], [85.62247676600003, 25.235740142000054], [85.62488751400008, 25.23539999600007], [85.62656028300006, 25.23554473100006], [85.62746448200005, 25.235867350000035], [85.62780526500006, 25.236931723000055], [85.62734077700009, 25.239185211000063], [85.62845109300008, 25.24037388200003], [85.62995506700008, 25.24046032800004], [85.63129348000007, 25.239969402000042], [85.63159248300008, 25.23878154500005], [85.63115110300004, 25.237275175000036], [85.63041034500003, 25.235264017000077], [85.63070618500007, 25.234658456000034], [85.63278364700005, 25.23407081000005], [85.63424939800007, 25.23309206500005], [85.63435028400005, 25.232026646000065], [85.63467964700004, 25.231037291000064]]]]}}, {"type": "Feature", "properties": {"OBJECTID": 5378, "GPCODE": "95486", "GPNAME_1": "KAILA", "DIST_CEN_C": "27", "BLK_NAME": "ASTHAWAN", "ST_NAME": "BIHAR", "ST_CODE_1": "10", "GPCODE2011": "98040", "REMARKS": "FINALIZED", "MAP_STATUS": "COMPLETED", "BLK_C_2001": "270008", "BLK_C_2011": "01385", "DIST_NAME": "NALANDA", "code2011": 0.0, "Shape_Leng": 0.14874060424, "Shape_Area": 0.00062498508, "Area": 6.97469}, "geometry": {"type": "MultiPolygon", "coordinates": [[[[85.67667832700005, 25.22895415800008], [85.67610203600003, 25.22733989900007], [85.67572202300005, 25.22368500500005], [85.67521453000006, 25.221876517000055], [85.67380086300005, 25.219140897000045], [85.67322820700008, 25.218564767000032], [85.67255747000007, 25.218291340000064], [85.67034463600004, 25.21689840600004], [85.66957235400008, 25.215970862000063], [85.66939765500007, 25.214206541000067], [85.66963243300006, 25.213230964000047], [85.66989930200003, 25.212927789000048], [85.67133527900006, 25.212097698000036], [85.67179704200004, 25.210760338000057], [85.67172745600004, 25.20926658700006], [85.67316493600003, 25.208896835000075], [85.67463348800004, 25.20889265900007], [85.67520566600007, 25.209346837000055], [85.67637847900005, 25.20990768000007], [85.67823357500004, 25.20975793300005], [85.67967636200007, 25.209473873000036], [85.68186143700007, 25.208659581000063], [85.68180360600007, 25.206312641000068], [85.68160809100004, 25.205753555000058], [85.68161651600008, 25.203934609000044], [85.68174408800007, 25.203518978000034], [85.68332994600007, 25.203044928000054], [85.68451239800004, 25.203510841000025], [85.68545468300005, 25.203422343000057], [85.68553209200007, 25.202875990000052], [85.68497717100007, 25.201676974000065], [85.68433747600005, 25.20036987900005], [85.68426774700004, 25.198880641000073], [85.68496354400008, 25.197840471000063], [85.68516353500007, 25.196896535000064], [85.68475808200003, 25.195873135000056], [85.68413118300003, 25.195369412000048], [85.68235169800005, 25.19577182200004], [85.68116915500008, 25.19524270200003], [85.68042683300007, 25.19577743900004], [85.67977498500005, 25.195210684000074], [85.67980776600007, 25.194664403000047], [85.67973976600007, 25.193649058000062], [85.67866480000004, 25.19266365900006], [85.67777451900008, 25.192011772000058], [85.67717623000004, 25.19259123300003], [85.67549552700007, 25.192875896000032], [85.67223681100006, 25.192998120000027], [85.66966303300006, 25.193262661000063], [85.66856499900007, 25.194209159000025], [85.66659149900005, 25.194481049000046], [85.66493992400007, 25.194575959000076], [85.66273940500008, 25.195213994000028], [85.66235723400007, 25.19661429100006], [85.66141691400009, 25.197293897000065], [85.65944452500008, 25.197922248000054], [85.65870044100006, 25.197924304000026], [85.65686752100004, 25.198710206000044], [85.65850955900004, 25.200199733000034], [85.65925208000004, 25.201168126000027], [85.65976009900004, 25.203238458000044], [85.66023449600004, 25.205642845000057], [85.66131272300004, 25.207603238000047], [85.66169175100003, 25.211136343000078], [85.66256859700007, 25.213661503000026], [85.66301477200005, 25.216476742000054], [85.66312927000007, 25.220985558000052], [85.66276651400005, 25.222313549000035], [85.66213288100005, 25.222739560000036], [85.66082771800006, 25.222711568000022], [85.66002259900006, 25.222321128000033], [85.65948448300009, 25.22165009300005], [85.65871376700005, 25.22116479600004], [85.65750919400006, 25.22153372400004], [85.65741750100005, 25.22378624600003], [85.65802615800004, 25.22625350800007], [85.65816231200006, 25.22689409900005], [85.65675896500005, 25.227186823000068], [85.65628960100008, 25.227797399000053], [85.65609346200006, 25.228511113000025], [85.65893557400005, 25.228137626000034], [85.66054218900007, 25.227794707000044], [85.66181232600007, 25.227732511000056], [85.66305632600006, 25.22876259000003], [85.66429823100003, 25.229156381000053], [85.66490039600006, 25.22967370300006], [85.66634985200005, 25.232711792000032], [85.66671823900003, 25.233049281000035], [85.66765699500007, 25.233303895000063], [85.66839050400006, 25.233044535000033], [85.66915599900005, 25.231977226000026], [85.67066269700007, 25.23144026800003], [85.67427306500008, 25.230789087000062], [85.67497668200008, 25.230516236000028], [85.67630837300004, 25.22959615700006], [85.67667832700005, 25.22895415800008]]]]}}, {"type": "Feature", "properties": {"OBJECTID": 5379, "GPCODE": "95491", "GPNAME_1": "MURGIA CHAK", "DIST_CEN_C": "27", "BLK_NAME": "ASTHAWAN", "ST_NAME": "BIHAR", "ST_CODE_1": "10", "GPCODE2011": "98045", "REMARKS": "FINALIZED", "MAP_STATUS": "COMPLETED", "BLK_C_2001": "270008", "BLK_C_2011": "01385", "DIST_NAME": "NALANDA", "code2011": 0.0, "Shape_Leng": 0.11431333941, "Shape_Area": 0.00049170939, "Area": 5.48784}, "geometry": {"type": "MultiPolygon", "coordinates": [[[[85.72446685900007, 25.205279293000046], [85.72572497400006, 25.204751702000067], [85.72709201900005, 25.204187644000058], [85.72903313500007, 25.203233471000033], [85.72921450800004, 25.201404870000033], [85.72941872200005, 25.199097770000037], [85.72930690000004, 25.195879949000073], [85.72932681800006, 25.194625157000075], [85.72932207600007, 25.194612990000053], [85.72902110600006, 25.193840816000034], [85.72898040600006, 25.19385849200006], [85.72755516500007, 25.194477466000023], [85.72522171000008, 25.195270281000035], [85.72392848400006, 25.195667161000074], [85.72308081900007, 25.19585041600004], [85.72306434100005, 25.19584369000006], [85.72202746300007, 25.195420462000072], [85.72121554200004, 25.194556435000038], [85.72136773000005, 25.19286783700005], [85.72124266700007, 25.192588448000038], [85.72022214600008, 25.19164829600004], [85.71970766200008, 25.18944284300005], [85.71949645600006, 25.188698749000025], [85.71902856800006, 25.188289515000065], [85.71898315400006, 25.188291417000073], [85.71856230800006, 25.188309047000075], [85.71856207000008, 25.188307063000025], [85.71848551600004, 25.187668320000057], [85.71830475100006, 25.187095644000067], [85.71868124300005, 25.18698168900005], [85.71977714800005, 25.18687891600007], [85.72046020500005, 25.186483985000052], [85.72034666900004, 25.18533794500007], [85.71968762200004, 25.18423417500003], [85.71918016500007, 25.183843078000052], [85.71707673200007, 25.183800115000054], [85.71707669900007, 25.183801086000074], [85.71702770600007, 25.185240135000072], [85.71712222900004, 25.186616447000063], [85.71707428900004, 25.18661133100005], [85.71638288900004, 25.186537540000074], [85.71616646000007, 25.185721227000045], [85.71605496100005, 25.18509873100004], [85.71482839800007, 25.184759603000032], [85.71478732100007, 25.18476140300004], [85.71105912900003, 25.184924812000077], [85.70915559000008, 25.185260263000032], [85.70783189300005, 25.185485500000027], [85.70641387100005, 25.185652391000076], [85.70637481900008, 25.185651386000075], [85.70531750200007, 25.185624181000037], [85.70317195300004, 25.18492658200006], [85.70316017000005, 25.184938224000064], [85.70273207800005, 25.185361208000074], [85.70257062200005, 25.18595305100007], [85.70212540800009, 25.18629740800003], [85.70102950100005, 25.186381999000048], [85.70056262100007, 25.18756149400008], [85.70045093000004, 25.188211747000025], [85.70103030000007, 25.190629321000074], [85.70023133100005, 25.191909112000076], [85.69896423700004, 25.192675700000052], [85.69682043800003, 25.192470060000062], [85.69655339500008, 25.192714614000067], [85.69679898900006, 25.19475397900004], [85.69700627800006, 25.197172633000037], [85.69755016600004, 25.19939170400005], [85.69818540400007, 25.199452979000057], [85.69868753600008, 25.199726792000035], [85.69872446100004, 25.200331495000057], [85.69899738800007, 25.20170279900003], [85.69980406800005, 25.20249472100005], [85.70043950400003, 25.20261014700003], [85.70137727400004, 25.202638895000064], [85.70515737000005, 25.20256861300004], [85.70586310500005, 25.202900489000058], [85.70709917400006, 25.203108805000056], [85.70773284700005, 25.20274127600004], [85.70881027500008, 25.204290537000077], [85.70984906700005, 25.204774823000037], [85.71168793100009, 25.20431316400004], [85.71476269100003, 25.20399664000007], [85.71673823100008, 25.20426573700007], [85.71864691900004, 25.205175954000026], [85.72015520700006, 25.20519825100007], [85.72095829000006, 25.205028731000027], [85.72109357400007, 25.205393874000038], [85.72106346600003, 25.206581047000043], [85.72200917000004, 25.208649769000033], [85.72364029800008, 25.20944206100006], [85.72368926500008, 25.209465846000057], [85.72357764500003, 25.207538930000055], [85.72367992100004, 25.20576927600007], [85.72446685900007, 25.205279293000046]]]]}}, {"type": "Feature", "properties": {"OBJECTID": 5408, "GPCODE": "95497", "GPNAME_1": "UGANWAN", "DIST_CEN_C": "27", "BLK_NAME": "ASTHAWAN", "ST_NAME": "BIHAR", "ST_CODE_1": "10", "GPCODE2011": "98051", "REMARKS": "FINALIZED", "MAP_STATUS": "COMPLETED", "BLK_C_2001": "270008", "BLK_C_2011": "01385", "DIST_NAME": "NALANDA", "code2011": 0.0, "Shape_Leng": 0.09201454452, "Shape_Area": 0.00047923173, "Area": 5.35161}, "geometry": {"type": "MultiPolygon", "coordinates": [[[[85.66904805200005, 25.142639711000072], [85.67061252200006, 25.141895049000027], [85.67164403600003, 25.141950834000056], [85.67120041800007, 25.14126152800003], [85.67149721400006, 25.13816876900006], [85.67169897600007, 25.136295053000026], [85.67192815600004, 25.133730695000054], [85.67226864600008, 25.131824987000073], [85.67257224300005, 25.13070017700005], [85.67232846500008, 25.129017270000077], [85.67146487000008, 25.127331662000074], [85.67187515500007, 25.126987462000045], [85.67190390700006, 25.125236062000056], [85.67203438700005, 25.124269784000035], [85.67268829900007, 25.12409186700006], [85.67214478900007, 25.12320880200008], [85.67073761600005, 25.122030176000067], [85.67012163000004, 25.120231011000044], [85.66992022500006, 25.120082968000077], [85.66972398800004, 25.119938723000075], [85.66838508700005, 25.11839884400007], [85.66741307400008, 25.118306777000043], [85.66608027900008, 25.118540773000063], [85.66457301800006, 25.118513343000075], [85.66345218700008, 25.118417213000043], [85.66165757800007, 25.118422201000044], [85.65974934100007, 25.118589962000044], [85.65701494900009, 25.119288054000037], [85.65539425300005, 25.11942341100007], [85.65417411500005, 25.119259725000063], [85.65115114900004, 25.119665175000023], [85.64999800300006, 25.12028666200007], [85.64870529600006, 25.12068283600007], [85.64784227300004, 25.120554240000047], [85.64672908400007, 25.12127935500007], [85.64525608900004, 25.12265996600007], [85.64540091500004, 25.122989087000065], [85.64915561100008, 25.126517768000042], [85.65090528300004, 25.129374709000047], [85.65091095700006, 25.131112398000027], [85.65132056000004, 25.13204114000007], [85.65254793500003, 25.132841247000044], [85.65309720700003, 25.134017758000027], [85.65303142700003, 25.135132818000045], [85.65235786500006, 25.13686335500006], [85.65229513100007, 25.138908186000037], [85.65284650500007, 25.14070312700005], [85.65631896400004, 25.141127010000048], [85.66312112500003, 25.140801245000034], [85.66598492700007, 25.14302294600003], [85.66707288900005, 25.142153351000047], [85.66904805200005, 25.142639711000072]]]]}}, {"type": "Feature", "properties": {"OBJECTID": 5421, "GPCODE": "95493", "GPNAME_1": "NOANWAN", "DIST_CEN_C": "27", "BLK_NAME": "ASTHAWAN", "ST_NAME": "BIHAR", "ST_CODE_1": "10", "GPCODE2011": "98047", "REMARKS": "FINALIZED", "MAP_STATUS": "COMPLETED", "BLK_C_2001": "270008", "BLK_C_2011": "01385", "DIST_NAME": "NALANDA", "code2011": 0.0, "Shape_Leng": 0.14698517432, "Shape_Area": 0.00048481844, "Area": 5.41357}, "geometry": {"type": "MultiPolygon", "coordinates": [[[[85.64685776300007, 25.15334391600004], [85.64818609000008, 25.153123717000028], [85.65046792300006, 25.15330267300004], [85.65176176400007, 25.15317729900005], [85.65264321700005, 25.152768689000027], [85.65550363600005, 25.152485537000075], [85.65669194100008, 25.151891024000065], [85.65747358900006, 25.15133366500004], [85.65821692300005, 25.149688636000064], [85.65807356500005, 25.148325957000054], [85.65714475700008, 25.144907181000065], [85.65932391000007, 25.145578190000037], [85.66048742200007, 25.146504752000055], [85.66171928500006, 25.148609259000068], [85.66274288800008, 25.149224761000028], [85.66348988700008, 25.148667531000058], [85.66369005200005, 25.14773713900007], [85.66525227800008, 25.147795925000025], [85.66573096800005, 25.147113089000072], [85.66607173700004, 25.148163795000073], [85.66647193700004, 25.149178237000058], [85.66674740300004, 25.149967308000043], [85.66785276800005, 25.149837830000024], [85.66892394700005, 25.149834790000057], [85.66968664900008, 25.149539228000037], [85.67021396300004, 25.14857638600006], [85.67009254000004, 25.14788162600007], [85.66988315700007, 25.147557198000072], [85.66918833700004, 25.147405692000063], [85.66926373400008, 25.146231960000023], [85.66892079400003, 25.144562921000045], [85.66904805200005, 25.142639711000072], [85.66707288900005, 25.142153351000047], [85.66598492700007, 25.14302294600003], [85.66312112500003, 25.140801245000034], [85.65631896400004, 25.141127010000048], [85.65284650500007, 25.14070312700005], [85.65229513100007, 25.138908186000037], [85.65235786500006, 25.13686335500006], [85.65303142700003, 25.135132818000045], [85.65309720700003, 25.134017758000027], [85.65254793500003, 25.132841247000044], [85.65132056000004, 25.13204114000007], [85.65091095700006, 25.131112398000027], [85.65090528300004, 25.129374709000047], [85.64915561100008, 25.126517768000042], [85.64540091500004, 25.122989087000065], [85.64525608900004, 25.12265996600007], [85.64137398900004, 25.124209415000053], [85.63738673100005, 25.12545214000005], [85.63722564500006, 25.127822244000072], [85.63712630900005, 25.12932552500007], [85.63660346200004, 25.130193485000063], [85.63686962300005, 25.132837831000074], [85.63877441500006, 25.133081076000053], [85.63945902800003, 25.13320112200006], [85.63962833100004, 25.133417333000068], [85.63980268700004, 25.135213349000026], [85.64004386500005, 25.136237247000054], [85.63995111500003, 25.13825064200006], [85.64015865400006, 25.13958160900006], [85.64029846500006, 25.141440878000026], [85.64027304700005, 25.142794984000034], [85.63973395100004, 25.144782451000026], [85.64014270900003, 25.145462886000075], [85.64103061700007, 25.145550826000033], [85.64242341000005, 25.14536213100007], [85.64320743800005, 25.145513450000067], [85.64494521700004, 25.146190439000065], [85.64542538800004, 25.14746198100005], [85.64604083600005, 25.149162017000037], [85.64638395600008, 25.149472566000043], [85.64601051500006, 25.150525235000032], [85.64655776300003, 25.151078907000056], [85.64659500200008, 25.15185514700005], [85.64608652000004, 25.152569682000035], [85.64523889800006, 25.15266224000004], [85.64448815600008, 25.152077389000056], [85.64475788900006, 25.15114688500006], [85.64512719600003, 25.150342454000054], [85.64509070400004, 25.14978285600006], [85.64464849100005, 25.14950420100007], [85.64345774600008, 25.149322308000023], [85.64287611300006, 25.14889056000004], [85.64053015900004, 25.148774908000064], [85.63984737100003, 25.149273212000026], [85.63957688200009, 25.14998255100005], [85.63958441600005, 25.152338653000072], [85.63974862400005, 25.154075973000033], [85.64261016500006, 25.15409997000006], [85.64454844600004, 25.153878193000025], [85.64610936700007, 25.153499461000024], [85.64685776300007, 25.15334391600004]]]]}}, {"type": "Feature", "properties": {"OBJECTID": 5427, "GPCODE": "95482", "GPNAME_1": "DUMRANWAN", "DIST_CEN_C": "27", "BLK_NAME": "ASTHAWAN", "ST_NAME": "BIHAR", "ST_CODE_1": "10", "GPCODE2011": "98036", "REMARKS": "FINALIZED", "MAP_STATUS": "COMPLETED", "BLK_C_2001": "270008", "BLK_C_2011": "01385", "DIST_NAME": "NALANDA", "code2011": 0.0, "Shape_Leng": 0.18198673799, "Shape_Area": 0.00077143618, "Area": 8.61166}, "geometry": {"type": "MultiPolygon", "coordinates": [[[[85.67992236100008, 25.156686618000037], [85.68104379900007, 25.156868384000063], [85.68339143800006, 25.15742122300003], [85.68529713000004, 25.157785755000077], [85.68611474400007, 25.157598273000076], [85.68706321500008, 25.156543803000034], [85.68869911800005, 25.157744088000072], [85.68985934900007, 25.157681989000025], [85.69087784600003, 25.156807875000027], [85.69104491700006, 25.156374005000032], [85.69205609800008, 25.15623565900006], [85.69161545800006, 25.155072421000057], [85.69079543500004, 25.153201723000052], [85.69029748800006, 25.151244279000025], [85.69003089000006, 25.150197895000076], [85.68969000800007, 25.14917883800007], [85.68968199200003, 25.14832579800003], [85.68922084900004, 25.146964043000025], [85.68897347400008, 25.145750667000073], [85.68865379300007, 25.145101623000073], [85.68838749600008, 25.14411841900005], [85.68786858300007, 25.143239849000054], [85.68558044600007, 25.144018378000055], [85.68436189400006, 25.144396547000042], [85.68381381300009, 25.145052700000065], [85.68308083600004, 25.145307539000044], [85.68212002400008, 25.14565337500005], [85.68028561500006, 25.14576707300006], [85.67973547800005, 25.145849914000053], [85.67852238300009, 25.146367954000027], [85.67876382300005, 25.147337712000024], [85.67927833600004, 25.148419509000064], [85.67942087000006, 25.149470740000027], [85.67881912300004, 25.151796997000076], [85.67943671100005, 25.153961777000063], [85.67968044900005, 25.15560403300003], [85.67992236100008, 25.156686618000037]]], [[[85.67992236100008, 25.156686618000037], [85.67968563500006, 25.157088947000034], [85.67937958700008, 25.157491608000043], [85.67829540700006, 25.158022779000078], [85.67802387800003, 25.15839367800004], [85.67816216500006, 25.15963455600007], [85.67806886200003, 25.161304838000035], [85.67705531700005, 25.16363227200003], [85.676546, 25.164067072000023], [85.67341651500004, 25.164076089000048], [85.67025204400005, 25.164021839000043], [85.66871911000004, 25.163899841000045], [85.66773735000004, 25.163956807000034], [85.66646024100004, 25.164682516000028], [85.66583201900005, 25.16518528900008], [85.66437610800006, 25.16582125900004], [85.66397907400005, 25.167208126000048], [85.66373766400005, 25.167705298000044], [85.66255850300007, 25.168078707000063], [85.66084161500004, 25.16781716400004], [85.65991822200004, 25.16757144500008], [85.65836751300003, 25.16807678600003], [85.65801109800003, 25.16828990600004], [85.65765878700006, 25.169721638000055], [85.65729284000008, 25.171537090000072], [85.65632160300004, 25.171797093000066], [85.65432000600003, 25.172452538000073], [85.65166089300004, 25.172283721000042], [85.65126551600008, 25.172731681000073], [85.65043799900008, 25.172968618000027], [85.64950251500005, 25.173557892000076], [85.64948994100007, 25.17425303400006], [85.64976790100008, 25.17582754700004], [85.65009257300005, 25.17653976200006], [85.65061459700007, 25.17689498900006], [85.65101632500006, 25.17690740300003], [85.65158620900007, 25.176743345000034], [85.65239498500006, 25.17683144500006], [85.65291221900009, 25.177240821000055], [85.65338655100004, 25.178182839000044], [85.65395396700006, 25.178772594000066], [85.65542988000004, 25.17959906300007], [85.65596805400008, 25.180337825000038], [85.65661559400007, 25.181162036000046], [85.65740836300006, 25.180880003000027], [85.65832191000004, 25.181148300000075], [85.65893946900007, 25.181882306000034], [85.65930112000007, 25.183239929000024], [85.66007968500008, 25.184650473000033], [85.66056881600008, 25.18553379900004], [85.66177516900007, 25.187295326000026], [85.66278101600005, 25.188443473000063], [85.66288480100008, 25.189788226000076], [85.66250318500005, 25.192826959000058], [85.66260637200008, 25.19400471700004], [85.66273940500008, 25.195213994000028], [85.66493992400007, 25.194575959000076], [85.66659149900005, 25.194481049000046], [85.66856499900007, 25.194209159000025], [85.66966303300006, 25.193262661000063], [85.67223681100006, 25.192998120000027], [85.67549552700007, 25.192875896000032], [85.67717623000004, 25.19259123300003], [85.67777451900008, 25.192011772000058], [85.67778720800004, 25.19138433300003], [85.67736312400007, 25.190694982000025], [85.67780169700006, 25.189867771000024], [85.67776443200006, 25.189145713000073], [85.67758333200004, 25.18840148000004], [85.67697893500008, 25.187225158000047], [85.67736773100006, 25.18632579900003], [85.67755530300008, 25.18465069900003], [85.67770199500006, 25.18406357300006], [85.67820068100008, 25.183398588000045], [85.67941290200008, 25.18251949000006], [85.67965339200003, 25.181778485000052], [85.68008784500006, 25.18119046700008], [85.68016464000004, 25.180481631000077], [85.67969195200004, 25.18006324600003], [85.67876809500007, 25.179695777000063], [85.67787728800005, 25.17887237900004], [85.67753270300005, 25.178182780000043], [85.67733191000008, 25.176089043000047], [85.67696833400004, 25.174239501000045], [85.67719263100008, 25.173133093000047], [85.67720546800007, 25.17112446300007], [85.67723883800005, 25.169327972000076], [85.67822331900004, 25.168611992000024], [85.67845715600004, 25.167406105000055], [85.68298102500006, 25.167578026000058], [85.68325256100007, 25.167202605000057], [85.68389308500008, 25.16463255000008], [85.68415767700003, 25.162307249000037], [85.68473090000003, 25.161718810000025], [85.68571295800007, 25.160352758000045], [85.68500291500004, 25.160111139000037], [85.68482747800005, 25.159583552000072], [85.68401230800004, 25.15908941500004], [85.68387150400008, 25.158534667000026], [85.68339366000004, 25.15803955900003], [85.68240716000008, 25.158164320000026], [85.68063395400009, 25.157397658000036], [85.67992236100008, 25.156686618000037]]]]}}, {"type": "Feature", "properties": {"OBJECTID": 5433, "GPCODE": "95488", "GPNAME_1": "KONAND", "DIST_CEN_C": "27", "BLK_NAME": "ASTHAWAN", "ST_NAME": "BIHAR", "ST_CODE_1": "10", "GPCODE2011": "98042", "REMARKS": "FINALIZED", "MAP_STATUS": "COMPLETED", "BLK_C_2001": "270008", "BLK_C_2011": "01385", "DIST_NAME": "NALANDA", "code2011": 0.0, "Shape_Leng": 0.13876393436, "Shape_Area": 0.00065775484, "Area": 7.34229}, "geometry": {"type": "MultiPolygon", "coordinates": [[[[85.69626563300005, 25.187267573000042], [85.69554286200008, 25.18628581200005], [85.69563981700009, 25.18432208400003], [85.69588995200007, 25.183535925000058], [85.69523832100003, 25.181669295000063], [85.69532622500003, 25.178563678000046], [85.69578596700006, 25.176797457000077], [85.69586731100009, 25.17461716200006], [85.69610076000004, 25.17197148500003], [85.69598580700006, 25.170383017000063], [85.69562392700004, 25.167721108000023], [85.69580437300004, 25.166885759000024], [85.69580441900007, 25.16688554800004], [85.69701955900007, 25.16689093100007], [85.69840394800008, 25.167441374000077], [85.69840533400009, 25.16744192500005], [85.69988661100007, 25.167424262000054], [85.69993292500004, 25.167423710000037], [85.70105063400007, 25.16790781700007], [85.70147726700003, 25.168470503000037], [85.70148422200003, 25.16847967500007], [85.70284209400006, 25.168173170000046], [85.70314457300003, 25.166827167000065], [85.70367601700008, 25.16567907800004], [85.70401347800004, 25.164400691000026], [85.70384069100004, 25.163277360000052], [85.70289821200004, 25.16189], [85.70289549500006, 25.161881746000063], [85.70260724500008, 25.161006212000075], [85.70110038800004, 25.15987344800004], [85.69957408200008, 25.160203005000028], [85.69791774100008, 25.160226145000024], [85.69644156200008, 25.16070444500008], [85.69559823600008, 25.160643828000048], [85.69424662200004, 25.159925732000033], [85.69316055500008, 25.158556865000037], [85.69247103500004, 25.15716419100005], [85.69205609800008, 25.15623565900006], [85.69104491700006, 25.156374005000032], [85.69087784600003, 25.156807875000027], [85.68985934900007, 25.157681989000025], [85.68869911800005, 25.157744088000072], [85.68706321500008, 25.156543803000034], [85.68611474400007, 25.157598273000076], [85.68529713000004, 25.157785755000077], [85.68339143800006, 25.15742122300003], [85.68104379900007, 25.156868384000063], [85.67992236100008, 25.156686618000037], [85.68063395400009, 25.157397658000036], [85.68240716000008, 25.158164320000026], [85.68339366000004, 25.15803955900003], [85.68387150400008, 25.158534667000026], [85.68401230800004, 25.15908941500004], [85.68482747800005, 25.159583552000072], [85.68500291500004, 25.160111139000037], [85.68571295800007, 25.160352758000045], [85.68473090000003, 25.161718810000025], [85.68415767700003, 25.162307249000037], [85.68389308500008, 25.16463255000008], [85.68325256100007, 25.167202605000057], [85.68298102500006, 25.167578026000058], [85.67845715600004, 25.167406105000055], [85.67822331900004, 25.168611992000024], [85.67723883800005, 25.169327972000076], [85.67720546800007, 25.17112446300007], [85.67719263100008, 25.173133093000047], [85.67696833400004, 25.174239501000045], [85.67733191000008, 25.176089043000047], [85.67753270300005, 25.178182780000043], [85.67787728800005, 25.17887237900004], [85.67876809500007, 25.179695777000063], [85.67969195200004, 25.18006324600003], [85.68016464000004, 25.180481631000077], [85.68008784500006, 25.18119046700008], [85.67965339200003, 25.181778485000052], [85.67941290200008, 25.18251949000006], [85.67820068100008, 25.183398588000045], [85.67770199500006, 25.18406357300006], [85.67755530300008, 25.18465069900003], [85.67736773100006, 25.18632579900003], [85.67697893500008, 25.187225158000047], [85.67758333200004, 25.18840148000004], [85.67776443200006, 25.189145713000073], [85.67780169700006, 25.189867771000024], [85.67736312400007, 25.190694982000025], [85.67778720800004, 25.19138433300003], [85.67777451900008, 25.192011772000058], [85.67866480000004, 25.19266365900006], [85.67973976600007, 25.193649058000062], [85.67980776600007, 25.194664403000047], [85.67977498500005, 25.195210684000074], [85.68042683300007, 25.19577743900004], [85.68116915500008, 25.19524270200003], [85.68235169800005, 25.19577182200004], [85.68413118300003, 25.195369412000048], [85.68475808200003, 25.195873135000056], [85.68569571300003, 25.195870384000045], [85.68727079100006, 25.19656532700003], [85.68796932000004, 25.196319490000064], [85.68859958300004, 25.19637638000006], [85.69091714700005, 25.19658606400003], [85.69131092300006, 25.19572739000006], [85.69183887900004, 25.193563769000036], [85.69223904300009, 25.193106688000057], [85.69304171400006, 25.192860589000077], [85.69451140400008, 25.19185417500006], [85.69550720200004, 25.19011338400003], [85.69580293100006, 25.188252890000058], [85.69625766000007, 25.18728455200005], [85.69626563300005, 25.187267573000042]]]]}}, {"type": "Feature", "properties": {"OBJECTID": 5435, "GPCODE": "95494", "GPNAME_1": "OIYAV", "DIST_CEN_C": "27", "BLK_NAME": "ASTHAWAN", "ST_NAME": "BIHAR", "ST_CODE_1": "10", "GPCODE2011": "98048", "REMARKS": "FINALIZED", "MAP_STATUS": "COMPLETED", "BLK_C_2001": "270008", "BLK_C_2011": "01385", "DIST_NAME": "NALANDA", "code2011": 0.0, "Shape_Leng": 0.13858563158, "Shape_Area": 0.00064900472, "Area": 7.24583}, "geometry": {"type": "MultiPolygon", "coordinates": [[[[85.65126551600008, 25.172731681000073], [85.65166089300004, 25.172283721000042], [85.65432000600003, 25.172452538000073], [85.65632160300004, 25.171797093000066], [85.65729284000008, 25.171537090000072], [85.65765878700006, 25.169721638000055], [85.65801109800003, 25.16828990600004], [85.65836751300003, 25.16807678600003], [85.65991822200004, 25.16757144500008], [85.66084161500004, 25.16781716400004], [85.66255850300007, 25.168078707000063], [85.66373766400005, 25.167705298000044], [85.66397907400005, 25.167208126000048], [85.66437610800006, 25.16582125900004], [85.66583201900005, 25.16518528900008], [85.66646024100004, 25.164682516000028], [85.66773735000004, 25.163956807000034], [85.66871911000004, 25.163899841000045], [85.67025204400005, 25.164021839000043], [85.67341651500004, 25.164076089000048], [85.676546, 25.164067072000023], [85.67705531700005, 25.16363227200003], [85.67806886200003, 25.161304838000035], [85.67816216500006, 25.15963455600007], [85.67802387800003, 25.15839367800004], [85.67829540700006, 25.158022779000078], [85.67937958700008, 25.157491608000043], [85.67968563500006, 25.157088947000034], [85.67992236100008, 25.156686618000037], [85.67968044900005, 25.15560403300003], [85.67943671100005, 25.153961777000063], [85.67881912300004, 25.151796997000076], [85.67942087000006, 25.149470740000027], [85.67927833600004, 25.148419509000064], [85.67876382300005, 25.147337712000024], [85.67852238300009, 25.146367954000027], [85.67829951100003, 25.146259757000053], [85.67666463600005, 25.14546607500006], [85.67475558200005, 25.144081399000072], [85.67164403600003, 25.141950834000056], [85.67061252200006, 25.141895049000027], [85.66904805200005, 25.142639711000072], [85.66892079400003, 25.144562921000045], [85.66926373400008, 25.146231960000023], [85.66918833700004, 25.147405692000063], [85.66988315700007, 25.147557198000072], [85.67009254000004, 25.14788162600007], [85.67021396300004, 25.14857638600006], [85.66968664900008, 25.149539228000037], [85.66892394700005, 25.149834790000057], [85.66785276800005, 25.149837830000024], [85.66674740300004, 25.149967308000043], [85.66647193700004, 25.149178237000058], [85.66607173700004, 25.148163795000073], [85.66573096800005, 25.147113089000072], [85.66525227800008, 25.147795925000025], [85.66369005200005, 25.14773713900007], [85.66348988700008, 25.148667531000058], [85.66274288800008, 25.149224761000028], [85.66171928500006, 25.148609259000068], [85.66048742200007, 25.146504752000055], [85.65932391000007, 25.145578190000037], [85.65714475700008, 25.144907181000065], [85.65807356500005, 25.148325957000054], [85.65821692300005, 25.149688636000064], [85.65747358900006, 25.15133366500004], [85.65669194100008, 25.151891024000065], [85.65550363600005, 25.152485537000075], [85.65264321700005, 25.152768689000027], [85.65176176400007, 25.15317729900005], [85.65046792300006, 25.15330267300004], [85.64818609000008, 25.153123717000028], [85.64685776300007, 25.15334391600004], [85.64610936700007, 25.153499461000024], [85.64454844600004, 25.153878193000025], [85.64261016500006, 25.15409997000006], [85.63974862400005, 25.154075973000033], [85.64009408200008, 25.15509514100006], [85.64167603000004, 25.15662112700005], [85.64284861000004, 25.157317642000066], [85.64438730000006, 25.157706190000056], [85.64488920500008, 25.15804337700007], [85.64489246600004, 25.159031904000074], [85.64422710000008, 25.160342558000025], [85.64406221400003, 25.161503035000067], [85.64450423600005, 25.16320801100005], [85.64517835900006, 25.16463699800005], [85.64662129700008, 25.166063999000073], [85.64732349500008, 25.166973863000067], [85.64699268200008, 25.16743060400006], [85.64662576700005, 25.167463246000068], [85.64685684900007, 25.16834728200007], [85.64718449400004, 25.168450200000052], [85.64791346000004, 25.168403053000077], [85.64815867900006, 25.16908399700003], [85.64877661400004, 25.169966990000034], [85.64915061900007, 25.17060242100007], [85.64930441900003, 25.17211855100004], [85.64925801200008, 25.17311625600007], [85.64950251500005, 25.173557892000076], [85.65043799900008, 25.172968618000027], [85.65126551600008, 25.172731681000073]]]]}}, {"type": "Feature", "properties": {"OBJECTID": 5447, "GPCODE": "95484", "GPNAME_1": "JANA", "DIST_CEN_C": "27", "BLK_NAME": "ASTHAWAN", "ST_NAME": "BIHAR", "ST_CODE_1": "10", "GPCODE2011": "98038", "REMARKS": "FINALIZED", "MAP_STATUS": "COMPLETED", "BLK_C_2001": "270008", "BLK_C_2011": "01385", "DIST_NAME": "NALANDA", "code2011": 0.0, "Shape_Leng": 0.18083757799, "Shape_Area": 0.00080006254, "Area": 8.92896}, "geometry": {"type": "MultiPolygon", "coordinates": [[[[85.65750919400006, 25.22153372400004], [85.65871376700005, 25.22116479600004], [85.65948448300009, 25.22165009300005], [85.66002259900006, 25.222321128000033], [85.66082771800006, 25.222711568000022], [85.66213288100005, 25.222739560000036], [85.66276651400005, 25.222313549000035], [85.66312927000007, 25.220985558000052], [85.66301477200005, 25.216476742000054], [85.66256859700007, 25.213661503000026], [85.66169175100003, 25.211136343000078], [85.66131272300004, 25.207603238000047], [85.66023449600004, 25.205642845000057], [85.65976009900004, 25.203238458000044], [85.65925208000004, 25.201168126000027], [85.65850955900004, 25.200199733000034], [85.65686752100004, 25.198710206000044], [85.65870044100006, 25.197924304000026], [85.65944452500008, 25.197922248000054], [85.66141691400009, 25.197293897000065], [85.66235723400007, 25.19661429100006], [85.66273940500008, 25.195213994000028], [85.66260637200008, 25.19400471700004], [85.66250318500005, 25.192826959000058], [85.66288480100008, 25.189788226000076], [85.66278101600005, 25.188443473000063], [85.66177516900007, 25.187295326000026], [85.66056881600008, 25.18553379900004], [85.66007968500008, 25.184650473000033], [85.65930112000007, 25.183239929000024], [85.65893946900007, 25.181882306000034], [85.65832191000004, 25.181148300000075], [85.65740836300006, 25.180880003000027], [85.65661559400007, 25.181162036000046], [85.65596805400008, 25.180337825000038], [85.65542988000004, 25.17959906300007], [85.65395396700006, 25.178772594000066], [85.65338655100004, 25.178182839000044], [85.65291221900009, 25.177240821000055], [85.65239498500006, 25.17683144500006], [85.65158620900007, 25.176743345000034], [85.65101632500006, 25.17690740300003], [85.65061459700007, 25.17689498900006], [85.65118337900003, 25.179421078000075], [85.65125338000007, 25.181099906000043], [85.65148713300005, 25.182823511000038], [85.65240102500007, 25.18468063000006], [85.65236985400009, 25.18576851200004], [85.65175949700006, 25.187214520000055], [85.64845591200003, 25.187254979000045], [85.64722383000003, 25.18666707500006], [85.64592978200005, 25.186878168000078], [85.64427764300007, 25.18676515100003], [85.64363395000004, 25.187132509000037], [85.64432273300008, 25.189992312000072], [85.64461619600007, 25.190244243000052], [85.64736862300003, 25.189997735000077], [85.64801698700006, 25.191056670000023], [85.64806412700005, 25.194897637000054], [85.64518216300007, 25.194963994000034], [85.64509302200008, 25.196557506000033], [85.64464111800004, 25.197944450000023], [85.64506618200005, 25.198990442000024], [85.64703738200006, 25.201034339000046], [85.64662726600005, 25.20154997000003], [85.64368202700007, 25.202058839000074], [85.64041413900009, 25.202541456000063], [85.63937989300007, 25.203365654000038], [85.63928846200008, 25.205785176000063], [85.63916554700006, 25.20771733600003], [85.63900712800006, 25.209365219000063], [85.63817085000005, 25.21007607000007], [85.63700515900007, 25.210137776000067], [85.63567439000008, 25.209789198000067], [85.63454159200006, 25.209291172000064], [85.63395380400004, 25.208556916000077], [85.63362722800008, 25.207257859000038], [85.63339152700007, 25.204870794000044], [85.63312592000005, 25.202425121000033], [85.63242226700004, 25.202693184000054], [85.63225997900008, 25.203149551000024], [85.63222634200008, 25.20509494500004], [85.63256234800008, 25.207829334000053], [85.63344629300008, 25.209673165000027], [85.63593982300006, 25.212158131000024], [85.63820285900005, 25.21387194600004], [85.63925400700003, 25.21520972600007], [85.64086067500006, 25.216496305000078], [85.64201204000005, 25.21656553500003], [85.64373714700008, 25.216059931000075], [85.64444749900008, 25.217854481000074], [85.64582392500006, 25.22155194800007], [85.64710869000004, 25.224468724000076], [85.64808928000008, 25.22693507100007], [85.64879941300006, 25.22863923600005], [85.64930147700005, 25.228881611000077], [85.65107425500008, 25.229269584000065], [85.65408468100009, 25.22877388200004], [85.65609346200006, 25.228511113000025], [85.65628960100008, 25.227797399000053], [85.65675896500005, 25.227186823000068], [85.65816231200006, 25.22689409900005], [85.65802615800004, 25.22625350800007], [85.65741750100005, 25.22378624600003], [85.65750919400006, 25.22153372400004]]]]}}, {"type": "Feature", "properties": {"OBJECTID": 5451, "GPCODE": "95496", "GPNAME_1": "SARE", "DIST_CEN_C": "27", "BLK_NAME": "ASTHAWAN", "ST_NAME": "BIHAR", "ST_CODE_1": "10", "GPCODE2011": "98050", "REMARKS": "FINALIZED", "MAP_STATUS": "COMPLETED", "BLK_C_2001": "270008", "BLK_C_2011": "01385", "DIST_NAME": "NALANDA", "code2011": 0.0, "Shape_Leng": 0.16572582966, "Shape_Area": 0.00059117767, "Area": 6.59726}, "geometry": {"type": "MultiPolygon", "coordinates": [[[[85.70032363900003, 25.227683454000044], [85.69912941700005, 25.22678881300004], [85.69857875400004, 25.22684012700006], [85.69737260500006, 25.22673546900006], [85.69696896700003, 25.226280881000037], [85.69632748100008, 25.224536064000063], [85.69630555300006, 25.22263137500005], [85.69679014500008, 25.22215598500003], [85.69693368200006, 25.220715753000036], [85.69699104400007, 25.218765674000053], [85.69700577000003, 25.217352841000036], [85.69633498000007, 25.217111206000027], [85.69624129900006, 25.215892773000064], [85.69596827000004, 25.21452147900004], [85.69529668100006, 25.214036027000077], [85.69485609500003, 25.21292698900004], [85.69508179700006, 25.210886237000068], [85.69550962100004, 25.208479237000063], [85.69506631000007, 25.20663895200005], [85.69683727100005, 25.206574983000053], [85.69837957000004, 25.206385284000078], [85.70011238700005, 25.20540506800006], [85.70081710600004, 25.20546607800003], [85.70135519000007, 25.206073785000058], [85.70142180400006, 25.206651323000074], [85.70259471300005, 25.207193913000026], [85.70514134900003, 25.20758324600007], [85.70701827200008, 25.20798820400006], [85.70811895000008, 25.20779525200004], [85.70868955800006, 25.20779346200004], [85.70979417700005, 25.20864306800007], [85.71040026900005, 25.20885340800004], [85.71056209200003, 25.208365370000024], [85.71042532900003, 25.207607563000067], [85.70968744000004, 25.20666198600003], [85.70958409000008, 25.205565507000074], [85.70984906700005, 25.204774823000037], [85.70881027500008, 25.204290537000077], [85.70773284700005, 25.20274127600004], [85.70709917400006, 25.203108805000056], [85.70586310500005, 25.202900489000058], [85.70515737000005, 25.20256861300004], [85.70137727400004, 25.202638895000064], [85.70043950400003, 25.20261014700003], [85.69980406800005, 25.20249472100005], [85.69899738800007, 25.20170279900003], [85.69872446100004, 25.200331495000057], [85.69868753600008, 25.199726792000035], [85.69818540400007, 25.199452979000057], [85.69755016600004, 25.19939170400005], [85.69700627800006, 25.197172633000037], [85.69679898900006, 25.19475397900004], [85.69655339500008, 25.192714614000067], [85.69682043800003, 25.192470060000062], [85.69896423700004, 25.192675700000052], [85.70023133100005, 25.191909112000076], [85.70103030000007, 25.190629321000074], [85.70045093000004, 25.188211747000025], [85.70056262100007, 25.18756149400008], [85.69736366200004, 25.187738153000055], [85.69735823000008, 25.18773582500006], [85.69626563300005, 25.187267573000042], [85.69625766000007, 25.18728455200005], [85.69580293100006, 25.188252890000058], [85.69550720200004, 25.19011338400003], [85.69451140400008, 25.19185417500006], [85.69304171400006, 25.192860589000077], [85.69223904300009, 25.193106688000057], [85.69183887900004, 25.193563769000036], [85.69131092300006, 25.19572739000006], [85.69091714700005, 25.19658606400003], [85.68859958300004, 25.19637638000006], [85.68796932000004, 25.196319490000064], [85.68727079100006, 25.19656532700003], [85.68569571300003, 25.195870384000045], [85.68475808200003, 25.195873135000056], [85.68516353500007, 25.196896535000064], [85.68496354400008, 25.197840471000063], [85.68426774700004, 25.198880641000073], [85.68433747600005, 25.20036987900005], [85.68497717100007, 25.201676974000065], [85.68553209200007, 25.202875990000052], [85.68545468300005, 25.203422343000057], [85.68451239800004, 25.203510841000025], [85.68332994600007, 25.203044928000054], [85.68174408800007, 25.203518978000034], [85.68161651600008, 25.203934609000044], [85.68160809100004, 25.205753555000058], [85.68180360600007, 25.206312641000068], [85.68186143700007, 25.208659581000063], [85.67967636200007, 25.209473873000036], [85.67823357500004, 25.20975793300005], [85.67637847900005, 25.20990768000007], [85.67876213600005, 25.211913861000028], [85.67933113600003, 25.212882629000035], [85.67981355400008, 25.21601818700003], [85.68014709700003, 25.216355727000064], [85.68198836600004, 25.21648575300003], [85.68272424500003, 25.21690791700007], [85.68299890100008, 25.218798262000064], [85.68371426100003, 25.22183829000005], [85.68445070000007, 25.22243195200008], [85.68469030700004, 25.22422768100006], [85.68500874600005, 25.228641030000063], [85.68531976500003, 25.229583410000032], [85.68661011100005, 25.229620218000036], [85.68795115000006, 25.229968359000054], [85.68853682900004, 25.229993637000064], [85.68867575700006, 25.22999774500005], [85.69082477800004, 25.230090662000066], [85.69189934400003, 25.23083675400005], [85.69252056400006, 25.231114684000033], [85.69392596600005, 25.231385790000047], [85.69670598700003, 25.231711420000067], [85.70055891600003, 25.231757687000027], [85.70060659300003, 25.23175826000005], [85.70014401300006, 25.228762708000033], [85.70032285400004, 25.22768817000008], [85.70032363900003, 25.227683454000044]]]]}}, {"type": "Feature", "properties": {"OBJECTID": 5452, "GPCODE": "95487", "GPNAME_1": "KATHARI", "DIST_CEN_C": "27", "BLK_NAME": "ASTHAWAN", "ST_NAME": "BIHAR", "ST_CODE_1": "10", "GPCODE2011": "98041", "REMARKS": "FINALIZED", "MAP_STATUS": "COMPLETED", "BLK_C_2001": "270008", "BLK_C_2011": "01385", "DIST_NAME": "NALANDA", "code2011": 0.0, "Shape_Leng": 0.09177730228, "Shape_Area": 0.00036959523, "Area": 4.12513}, "geometry": {"type": "MultiPolygon", "coordinates": [[[[85.61485598800004, 25.20476418900006], [85.61546047500008, 25.20449188300006], [85.61823468600005, 25.20478741900007], [85.61984142700004, 25.204539698000076], [85.62094839200006, 25.204749054000047], [85.62131978700006, 25.206151891000047], [85.62235639300008, 25.20605897200005], [85.62197878000006, 25.202616027000033], [85.62150335200005, 25.199629208000033], [85.62088436900007, 25.19512616000003], [85.62067848000004, 25.192644210000026], [85.62096829700005, 25.190084286000058], [85.62041893000008, 25.190487360000077], [85.61915806900004, 25.190224174000036], [85.61770056400007, 25.190525712000067], [85.61488464500007, 25.191119440000023], [85.61397624400007, 25.190886997000064], [85.61300465800008, 25.191155665000053], [85.61141750000007, 25.19121819000003], [85.61083562500005, 25.190745712000023], [85.61067023300006, 25.190159382000047], [85.61018367700007, 25.19001157400004], [85.60924667400008, 25.190221482000027], [85.60889049900004, 25.19054731800003], [85.60879853500006, 25.191341952000073], [85.60890093100005, 25.192420454000057], [85.60876841200007, 25.192894694000074], [85.60838202100007, 25.19307165400005], [85.60750696900004, 25.19242379800005], [85.60688982200008, 25.191721181000048], [85.60582184900005, 25.191249803000062], [85.60458717500006, 25.19140174300003], [85.60355604500006, 25.191670572000078], [85.60300259600007, 25.190696924000065], [85.60232055900008, 25.18984547100007], [85.60157112200005, 25.18969830700007], [85.60027741000005, 25.190053445000046], [85.59872531500008, 25.190264725000077], [85.59817615100008, 25.19078055600005], [85.59795092600007, 25.191814720000025], [85.59805291500004, 25.192816505000053], [85.59867068900007, 25.193726768000033], [85.59886884500008, 25.19535120300003], [85.59858155300003, 25.19726568300007], [85.59875239000007, 25.19975683100006], [85.59936946200008, 25.200432398000032], [85.59938234600008, 25.201461445000064], [85.60015321900005, 25.20213218200007], [85.60122761100007, 25.203072984000073], [85.60160097400006, 25.20352798600004], [85.60160585600005, 25.203505333000066], [85.60134231400008, 25.205031594000047], [85.60164324500005, 25.20615477000007], [85.60405714800004, 25.207078855000077], [85.60559777200007, 25.20798690400005], [85.60690534600008, 25.20889997100005], [85.60884884200004, 25.21011396600005], [85.61032422200003, 25.21074678100007], [85.61209662700008, 25.211139717000037], [85.61534220400006, 25.211407073000032], [85.61530786300006, 25.209849956000028], [85.61496666500005, 25.208573414000057], [85.61449369200005, 25.206380927000055], [85.61422423300007, 25.205849045000036], [85.61485598800004, 25.20476418900006]]]]}}, {"type": "Feature", "properties": {"OBJECTID": 5454, "GPCODE": "95485", "GPNAME_1": "JIAR", "DIST_CEN_C": "27", "BLK_NAME": "ASTHAWAN", "ST_NAME": "BIHAR", "ST_CODE_1": "10", "GPCODE2011": "98039", "REMARKS": "FINALIZED", "MAP_STATUS": "COMPLETED", "BLK_C_2001": "270008", "BLK_C_2011": "01385", "DIST_NAME": "NALANDA", "code2011": 0.0, "Shape_Leng": 0.17355162624, "Shape_Area": 0.00088617827, "Area": 9.89161}, "geometry": {"type": "MultiPolygon", "coordinates": [[[[85.64703738200006, 25.201034339000046], [85.64506618200005, 25.198990442000024], [85.64464111800004, 25.197944450000023], [85.64509302200008, 25.196557506000033], [85.64518216300007, 25.194963994000034], [85.64806412700005, 25.194897637000054], [85.64801698700006, 25.191056670000023], [85.64736862300003, 25.189997735000077], [85.64461619600007, 25.190244243000052], [85.64432273300008, 25.189992312000072], [85.64363395000004, 25.187132509000037], [85.64427764300007, 25.18676515100003], [85.64592978200005, 25.186878168000078], [85.64722383000003, 25.18666707500006], [85.64845591200003, 25.187254979000045], [85.65175949700006, 25.187214520000055], [85.65236985400009, 25.18576851200004], [85.65240102500007, 25.18468063000006], [85.65148713300005, 25.182823511000038], [85.65125338000007, 25.181099906000043], [85.65118337900003, 25.179421078000075], [85.65061459700007, 25.17689498900006], [85.65009257300005, 25.17653976200006], [85.64976790100008, 25.17582754700004], [85.64948994100007, 25.17425303400006], [85.64950251500005, 25.173557892000076], [85.64925801200008, 25.17311625600007], [85.64930441900003, 25.17211855100004], [85.64915061900007, 25.17060242100007], [85.64877661400004, 25.169966990000034], [85.64815867900006, 25.16908399700003], [85.64791346000004, 25.168403053000077], [85.64718449400004, 25.168450200000052], [85.64685684900007, 25.16834728200007], [85.64662576700005, 25.167463246000068], [85.64618705700008, 25.16676476400005], [85.64447672300008, 25.165460361000044], [85.64384169000004, 25.165385323000066], [85.64378028000004, 25.16636045200005], [85.64288615100008, 25.16901233300007], [85.64222081800006, 25.170323060000044], [85.64138337200006, 25.170568970000033], [85.64044481300004, 25.17020586600006], [85.64017482400004, 25.169538527000043], [85.64007139100005, 25.16819825500005], [85.63953209000005, 25.167044200000078], [85.63826309400008, 25.167291265000074], [85.63692549400008, 25.16775067100008], [85.63709737300007, 25.168783807000068], [85.63699721000006, 25.170034309000073], [85.63636515300004, 25.170947769000065], [85.63536546200004, 25.17163639000006], [85.63342136800009, 25.171704687000044], [85.63182052100007, 25.172074414000065], [85.63151947000006, 25.172562645000028], [85.63165598000006, 25.173383813000044], [85.63209391000004, 25.173870115000057], [85.63196267300003, 25.174723504000042], [85.63041990000005, 25.174632710000026], [85.62898196200007, 25.17478985300005], [85.62841552300006, 25.174488864000068], [85.62784126600008, 25.173240056000054], [85.62740303400005, 25.172663475000036], [85.62676664200006, 25.172177651000027], [85.62355784600004, 25.172244454000065], [85.62353373200006, 25.17573354900003], [85.62373742800008, 25.177470715000027], [85.62381689000006, 25.18072942200007], [85.62261614000005, 25.182239966000054], [85.62078176900008, 25.184194497000078], [85.62068692400004, 25.185625517000062], [85.62106260600007, 25.18847264200008], [85.62096829700005, 25.190084286000058], [85.62067848000004, 25.192644210000026], [85.62088436900007, 25.19512616000003], [85.62150335200005, 25.199629208000033], [85.62197878000006, 25.202616027000033], [85.62235639300008, 25.20605897200005], [85.62299240800007, 25.206359759000065], [85.62319771600005, 25.20700017100006], [85.62346595900004, 25.208732756000074], [85.62410701400006, 25.209074163000025], [85.62477660700006, 25.209009302000027], [85.62510699500007, 25.208340400000054], [85.62503515100008, 25.20596192900007], [85.62526175700003, 25.203803828000048], [85.62552259400007, 25.20151929000008], [85.62598334700004, 25.199681076000047], [85.62803746800006, 25.199770650000062], [85.62858888800008, 25.200008441000023], [85.62917250100008, 25.20102254300008], [85.63192091900004, 25.201015423000058], [85.63289321300005, 25.201012929000058], [85.63312592000005, 25.202425121000033], [85.63339152700007, 25.204870794000044], [85.63362722800008, 25.207257859000038], [85.63395380400004, 25.208556916000077], [85.63454159200006, 25.209291172000064], [85.63567439000008, 25.209789198000067], [85.63700515900007, 25.210137776000067], [85.63817085000005, 25.21007607000007], [85.63900712800006, 25.209365219000063], [85.63916554700006, 25.20771733600003], [85.63928846200008, 25.205785176000063], [85.63937989300007, 25.203365654000038], [85.64041413900009, 25.202541456000063], [85.64368202700007, 25.202058839000074], [85.64662726600005, 25.20154997000003], [85.64703738200006, 25.201034339000046]]]]}}, {"type": "Feature", "properties": {"OBJECTID": 5464, "GPCODE": "95483", "GPNAME_1": "GILANI", "DIST_CEN_C": "27", "BLK_NAME": "ASTHAWAN", "ST_NAME": "BIHAR", "ST_CODE_1": "10", "GPCODE2011": "98037", "REMARKS": "FINALIZED", "MAP_STATUS": "COMPLETED", "BLK_C_2001": "270008", "BLK_C_2011": "01385", "DIST_NAME": "NALANDA", "code2011": 0.0, "Shape_Leng": 0.10371927435, "Shape_Area": 0.00051487527, "Area": 5.7455}, "geometry": {"type": "MultiPolygon", "coordinates": [[[[85.70327099900004, 25.227642799000023], [85.70589699000004, 25.226583111000025], [85.70690197000005, 25.225961660000053], [85.70780096500005, 25.22487558800003], [85.70882661500008, 25.22446615900003], [85.71073074100008, 25.224130810000077], [85.71231273100005, 25.22389566800007], [85.71356781300005, 25.223800157000028], [85.71361237700006, 25.223796766000078], [85.71390148100005, 25.224120861000074], [85.71430046700004, 25.225956643000075], [85.71462484500006, 25.226404824000042], [85.71462964100004, 25.226411450000057], [85.71721839600008, 25.22601058600003], [85.71674532700007, 25.224274363000063], [85.71674218100009, 25.223457465000024], [85.71756732300008, 25.222538585000052], [85.72094617600004, 25.221187360000044], [85.72198576900007, 25.220561117000045], [85.72259236300005, 25.219606896000073], [85.72273305600004, 25.218789468000068], [85.72255078200004, 25.21784220400008], [85.72262327100003, 25.217349995000063], [85.72408933400004, 25.215377378000028], [85.72395969000007, 25.213956049000046], [85.72405274800008, 25.211071525000023], [85.72368926500008, 25.209465846000057], [85.72364029800008, 25.20944206100006], [85.72200917000004, 25.208649769000033], [85.72106346600003, 25.206581047000043], [85.72109357400007, 25.205393874000038], [85.72095829000006, 25.205028731000027], [85.72015520700006, 25.20519825100007], [85.71864691900004, 25.205175954000026], [85.71673823100008, 25.20426573700007], [85.71476269100003, 25.20399664000007], [85.71168793100009, 25.20431316400004], [85.70984906700005, 25.204774823000037], [85.70958409000008, 25.205565507000074], [85.70968744000004, 25.20666198600003], [85.71042532900003, 25.207607563000067], [85.71056209200003, 25.208365370000024], [85.71040026900005, 25.20885340800004], [85.70979417700005, 25.20864306800007], [85.70868955800006, 25.20779346200004], [85.70811895000008, 25.20779525200004], [85.70701827200008, 25.20798820400006], [85.70514134900003, 25.20758324600007], [85.70259471300005, 25.207193913000026], [85.70142180400006, 25.206651323000074], [85.70135519000007, 25.206073785000058], [85.70081710600004, 25.20546607800003], [85.70011238700005, 25.20540506800006], [85.69837957000004, 25.206385284000078], [85.69683727100005, 25.206574983000053], [85.69506631000007, 25.20663895200005], [85.69550962100004, 25.208479237000063], [85.69508179700006, 25.210886237000068], [85.69485609500003, 25.21292698900004], [85.69529668100006, 25.214036027000077], [85.69596827000004, 25.21452147900004], [85.69624129900006, 25.215892773000064], [85.69633498000007, 25.217111206000027], [85.69700577000003, 25.217352841000036], [85.69699104400007, 25.218765674000053], [85.69693368200006, 25.220715753000036], [85.69679014500008, 25.22215598500003], [85.69630555300006, 25.22263137500005], [85.69632748100008, 25.224536064000063], [85.69696896700003, 25.226280881000037], [85.69737260500006, 25.22673546900006], [85.69857875400004, 25.22684012700006], [85.69912941700005, 25.22678881300004], [85.70032363900003, 25.227683454000044], [85.70156083400008, 25.227808105000065], [85.70158447100005, 25.227810487000056], [85.70327099900004, 25.227642799000023]]]]}}, {"type": "Feature", "properties": {"OBJECTID": 5468, "GPCODE": "95479", "GPNAME_1": "AMANWAN", "DIST_CEN_C": "27", "BLK_NAME": "ASTHAWAN", "ST_NAME": "BIHAR", "ST_CODE_1": "10", "GPCODE2011": "98033", "REMARKS": "FINALIZED", "MAP_STATUS": "COMPLETED", "BLK_C_2001": "270008", "BLK_C_2011": "01385", "DIST_NAME": "NALANDA", "code2011": 0.0, "Shape_Leng": 0.15075963225, "Shape_Area": 0.00055879473, "Area": 6.23469}, "geometry": {"type": "MultiPolygon", "coordinates": [[[[85.69201907500008, 25.25430235400006], [85.69299151800004, 25.254182134000075], [85.69371202900004, 25.254414680000025], [85.69442867100008, 25.254945091000025], [85.69475639100006, 25.255002773000058], [85.69507706000007, 25.254469223000058], [85.69487941300008, 25.253345925000076], [85.69520440500008, 25.252631847000032], [85.69702452400008, 25.252274261000025], [85.69891549700003, 25.25226851800005], [85.70139077500005, 25.251904455000044], [85.70300686300004, 25.25169758100003], [85.70305262000005, 25.251691724000068], [85.70195707200008, 25.25045945100004], [85.70220078700004, 25.248173764000057], [85.70226184900008, 25.245880706000037], [85.70193336200003, 25.24431093800007], [85.70127600100005, 25.242345099000033], [85.70108563600007, 25.239172620000033], [85.70061636600008, 25.234407714000042], [85.70060659300003, 25.23175826000005], [85.70055891600003, 25.231757687000027], [85.69670598700003, 25.231711420000067], [85.69392596600005, 25.231385790000047], [85.69252056400006, 25.231114684000033], [85.69189934400003, 25.23083675400005], [85.69082477800004, 25.230090662000066], [85.68867575700006, 25.22999774500005], [85.68853682900004, 25.229993637000064], [85.68795115000006, 25.229968359000054], [85.68661011100005, 25.229620218000036], [85.68531976500003, 25.229583410000032], [85.68500874600005, 25.228641030000063], [85.68469030700004, 25.22422768100006], [85.68445070000007, 25.22243195200008], [85.68371426100003, 25.22183829000005], [85.68299890100008, 25.218798262000064], [85.68272424500003, 25.21690791700007], [85.68198836600004, 25.21648575300003], [85.68014709700003, 25.216355727000064], [85.67981355400008, 25.21601818700003], [85.67933113600003, 25.212882629000035], [85.67876213600005, 25.211913861000028], [85.67637847900005, 25.20990768000007], [85.67520566600007, 25.209346837000055], [85.67463348800004, 25.20889265900007], [85.67316493600003, 25.208896835000075], [85.67172745600004, 25.20926658700006], [85.67179704200004, 25.210760338000057], [85.67133527900006, 25.212097698000036], [85.66989930200003, 25.212927789000048], [85.66963243300006, 25.213230964000047], [85.66939765500007, 25.214206541000067], [85.66957235400008, 25.215970862000063], [85.67034463600004, 25.21689840600004], [85.67255747000007, 25.218291340000064], [85.67322820700008, 25.218564767000032], [85.67380086300005, 25.219140897000045], [85.67521453000006, 25.221876517000055], [85.67572202300005, 25.22368500500005], [85.67610203600003, 25.22733989900007], [85.67667832700005, 25.22895415800008], [85.67804892000004, 25.22925708200006], [85.68005811200004, 25.229097804000048], [85.68196229200004, 25.22874024400005], [85.68310554400006, 25.22928747700007], [85.68422019400003, 25.23016894500006], [85.68365163000004, 25.230748336000033], [85.68409521000007, 25.232692344000043], [85.68470478400008, 25.23524975400005], [85.68481018300008, 25.236955609000063], [85.68488014800005, 25.239898260000075], [85.68532985500008, 25.243521260000023], [85.68520576700007, 25.24631101600005], [85.68594494600006, 25.24762226200005], [85.68661856200004, 25.248622342000033], [85.68717945400005, 25.25045939900008], [85.68869077700003, 25.253481829000066], [85.68850423600009, 25.255436702000054], [85.68904036700008, 25.259583131000056], [85.69008385100005, 25.259501730000068], [85.69379399400003, 25.25921230800003], [85.69320101200003, 25.25720106500006], [85.69241161300005, 25.25578162000005], [85.69188698100004, 25.25483541500006], [85.69188553700008, 25.254420107000044], [85.69201907500008, 25.25430235400006]]]]}}, {"type": "Feature", "properties": {"OBJECTID": 5469, "GPCODE": "95495", "GPNAME_1": "ONDA", "DIST_CEN_C": "27", "BLK_NAME": "ASTHAWAN", "ST_NAME": "BIHAR", "ST_CODE_1": "10", "GPCODE2011": "98049", "REMARKS": "FINALIZED", "MAP_STATUS": "COMPLETED", "BLK_C_2001": "270008", "BLK_C_2011": "01385", "DIST_NAME": "NALANDA", "code2011": 0.0, "Shape_Leng": 0.14758876436, "Shape_Area": 0.00066890867, "Area": 7.46288}, "geometry": {"type": "MultiPolygon", "coordinates": [[[[85.67130655900007, 25.264094130000046], [85.67112173800007, 25.26233436700005], [85.66900283100006, 25.262489325000047], [85.66727618600004, 25.262670246000027], [85.66574779400008, 25.262791941000046], [85.66405038400006, 25.262855321000075], [85.66333570200004, 25.262857324000038], [85.66313615600006, 25.262564504000068], [85.66300252500008, 25.261228903000074], [85.66306026400008, 25.259211178000044], [85.66276345200004, 25.25805656500006], [85.66274687600009, 25.257542052000076], [85.66388244900008, 25.257240937000063], [85.66678412600004, 25.25670017300007], [85.66873908600007, 25.256514120000077], [85.67349336800004, 25.256324535000033], [85.67514060700006, 25.256157320000057], [85.67604837600004, 25.25601028400007], [85.67693089100004, 25.25573695500003], [85.67555458800007, 25.25390387300007], [85.67502825900004, 25.252424959000052], [85.67414438200007, 25.250856802000044], [85.673323, 25.25045864200007], [85.67269947200003, 25.249258621000024], [85.67188731100003, 25.246886766000046], [85.67147825100005, 25.244847794000066], [85.67075268300005, 25.238810689000047], [85.67007226000004, 25.23578400300005], [85.66899340500004, 25.233746973000052], [85.66839050400006, 25.233044535000033], [85.66765699500007, 25.233303895000063], [85.66671823900003, 25.233049281000035], [85.66634985200005, 25.232711792000032], [85.66490039600006, 25.22967370300006], [85.66429823100003, 25.229156381000053], [85.66305632600006, 25.22876259000003], [85.66181232600007, 25.227732511000056], [85.66054218900007, 25.227794707000044], [85.65893557400005, 25.228137626000034], [85.65609346200006, 25.228511113000025], [85.65408468100009, 25.22877388200004], [85.65107425500008, 25.229269584000065], [85.64930147700005, 25.228881611000077], [85.64879941300006, 25.22863923600005], [85.64808928000008, 25.22693507100007], [85.64710869000004, 25.224468724000076], [85.64582392500006, 25.22155194800007], [85.64539227400007, 25.22155304300003], [85.64516387600008, 25.223043188000076], [85.64577040800003, 25.224946252000052], [85.64628059100005, 25.22771625000007], [85.64655383600007, 25.229331341000034], [85.64740155200008, 25.23211398500007], [85.64808050600004, 25.234883524000054], [85.64771870200008, 25.23655898900006], [85.64796101700006, 25.23932971100004], [85.64863944100006, 25.241932250000048], [85.64944433300008, 25.242205399000056], [85.64991300900004, 25.242876601000034], [85.65052210700009, 25.245492805000026], [85.65039496700007, 25.24756492800003], [85.65148774100004, 25.250458525000056], [85.65091110000003, 25.252104148000058], [85.65133674300006, 25.253231420000077], [85.65131157500008, 25.254653245000043], [85.65230374000004, 25.254488070000036], [85.65507291200004, 25.254394707000074], [85.65518109300007, 25.257061968000073], [85.65599917700007, 25.25830542400007], [85.65657310200004, 25.259238241000048], [85.65722459200003, 25.259624548000033], [85.65807402600007, 25.259829887000024], [85.65888879900007, 25.260062281000046], [85.65911786500004, 25.260269280000045], [85.65921989700007, 25.261099487000024], [85.65935567900004, 25.263085079000064], [85.65958760700005, 25.26415418600004], [85.65978285200003, 25.26465461400005], [85.66045339300007, 25.26478818000004], [85.66140136100006, 25.26477655800005], [85.66322732500004, 25.264563792000047], [85.66518257200005, 25.264440971000056], [85.66791712700007, 25.264311345000067], [85.66990214500004, 25.264188388000036], [85.67130655900007, 25.264094130000046]]]]}}, {"type": "Feature", "properties": {"OBJECTID": 5470, "GPCODE": "95490", "GPNAME_1": "MALTI", "DIST_CEN_C": "27", "BLK_NAME": "ASTHAWAN", "ST_NAME": "BIHAR", "ST_CODE_1": "10", "GPCODE2011": "98044", "REMARKS": "FINALIZED", "MAP_STATUS": "COMPLETED", "BLK_C_2001": "270008", "BLK_C_2011": "01385", "DIST_NAME": "NALANDA", "code2011": 0.0, "Shape_Leng": 0.12670292408, "Shape_Area": 0.00075528499, "Area": 8.42831}, "geometry": {"type": "MultiPolygon", "coordinates": [[[[85.61059811100006, 25.248001387000045], [85.61119747200007, 25.24760724300006], [85.61125719900008, 25.246004741000036], [85.61152101100004, 25.244573271000036], [85.61137769200008, 25.241436737000072], [85.61231355600006, 25.240734789000044], [85.61321609600003, 25.240520511000057], [85.61310936400008, 25.237993103000065], [85.61323696000005, 25.235862419000057], [85.61065563700004, 25.23391881400005], [85.61142735300007, 25.233077454000068], [85.61195718900007, 25.231036003000042], [85.61188256400004, 25.22930294400004], [85.61234780600006, 25.22723002200007], [85.61337777500006, 25.224839819000067], [85.61370946800008, 25.222920776000024], [85.61493566900003, 25.219780786000058], [85.61512267100005, 25.21595728500006], [85.61505366600005, 25.214436341000066], [85.61528216400006, 25.212883141000077], [85.61534220400006, 25.211407073000032], [85.61209662700008, 25.211139717000037], [85.61032422200003, 25.21074678100007], [85.60884884200004, 25.21011396600005], [85.60690534600008, 25.20889997100005], [85.60559777200007, 25.20798690400005], [85.60405714800004, 25.207078855000077], [85.60164324500005, 25.20615477000007], [85.60134231400008, 25.205031594000047], [85.60160585600005, 25.203505333000066], [85.60160097400006, 25.20352798600004], [85.60122761100007, 25.203072984000073], [85.60015321900005, 25.20213218200007], [85.59938234600008, 25.201461445000064], [85.59871407700007, 25.201982134000048], [85.59781257700007, 25.20247164500006], [85.59663691500003, 25.20253313300003], [85.59503068000004, 25.202934063000043], [85.59409335600003, 25.20305812400005], [85.59382732400007, 25.203713208000067], [85.59349332500005, 25.20490107100005], [85.59349617000004, 25.20590763200005], [85.59376588600009, 25.206579558000044], [85.59376739000004, 25.207098587000075], [85.59390405500005, 25.20804163200006], [85.59350375300005, 25.208620318000044], [85.59280062700003, 25.20910935200004], [85.59206912900004, 25.210117568000044], [85.59143071600005, 25.210669753000047], [85.59069806400004, 25.211280792000025], [85.58962212000006, 25.21152700300007], [85.58962921500006, 25.21407259500006], [85.59020448800004, 25.215745860000027], [85.59057522100005, 25.21702690400008], [85.59014136200005, 25.218016343000045], [85.58991316000004, 25.219817827000043], [85.58955202700008, 25.222012290000066], [85.58945593900006, 25.224892201000046], [85.58972547800005, 25.225473769000075], [85.58996723700005, 25.226750622000054], [85.59040340600006, 25.228365432000032], [85.59101156400004, 25.22937057200005], [85.59171779900004, 25.229919599000027], [85.59242442800007, 25.230649156000027], [85.59446680500008, 25.231646504000025], [85.59620147500004, 25.23263993300003], [85.59757200200005, 25.232961712000076], [85.59930679900003, 25.233968643000026], [85.59914989900005, 25.236374784000077], [85.59908238700007, 25.237047465000046], [85.59948914200004, 25.23874814900006], [85.60046749100007, 25.240695664000043], [85.60184582700003, 25.241987848000065], [85.60375241700007, 25.242285667000033], [85.60465835200006, 25.24322682500008], [85.60516295600007, 25.244354027000043], [85.60540087800007, 25.245973846000027], [85.60654660800003, 25.247433493000074], [85.60785327000008, 25.247886185000027], [85.61025976900004, 25.247699805000025], [85.61059811100006, 25.248001387000045]]]]}}, {"type": "Feature", "properties": {"OBJECTID": 5472, "GPCODE": "95480", "GPNAME_1": "ANDI", "DIST_CEN_C": "27", "BLK_NAME": "ASTHAWAN", "ST_NAME": "BIHAR", "ST_CODE_1": "10", "GPCODE2011": "98034", "REMARKS": "FINALIZED", "MAP_STATUS": "COMPLETED", "BLK_C_2001": "270008", "BLK_C_2011": "01385", "DIST_NAME": "NALANDA", "code2011": 0.0, "Shape_Leng": 0.15709564031, "Shape_Area": 0.00074709727, "Area": 8.33547}, "geometry": {"type": "MultiPolygon", "coordinates": [[[[85.65081848600005, 25.258640097000068], [85.65115944400009, 25.25818328400004], [85.65122016800007, 25.25702767200005], [85.65131157500008, 25.254653245000043], [85.65133674300006, 25.253231420000077], [85.65091110000003, 25.252104148000058], [85.65148774100004, 25.250458525000056], [85.65039496700007, 25.24756492800003], [85.65052210700009, 25.245492805000026], [85.64991300900004, 25.242876601000034], [85.64944433300008, 25.242205399000056], [85.64863944100006, 25.241932250000048], [85.64796101700006, 25.23932971100004], [85.64771870200008, 25.23655898900006], [85.64808050600004, 25.234883524000054], [85.64740155200008, 25.23211398500007], [85.64655383600007, 25.229331341000034], [85.64628059100005, 25.22771625000007], [85.64577040800003, 25.224946252000052], [85.64516387600008, 25.223043188000076], [85.64539227400007, 25.22155304300003], [85.64251538700006, 25.221863163000023], [85.64067697700006, 25.222630809000066], [85.64024195500008, 25.223151006000023], [85.64021188000004, 25.22460895100005], [85.64095688300006, 25.226376362000053], [85.64135974100003, 25.226677648000077], [85.64146034400005, 25.227106200000037], [85.64099475500007, 25.227351157000044], [85.64021959600007, 25.227014703000066], [85.63921339400008, 25.22580315700003], [85.63898002300004, 25.225772230000075], [85.63848000400003, 25.22613910900003], [85.63801159100007, 25.22708370400005], [85.63607249800003, 25.227422830000023], [85.63604039300003, 25.228244309000047], [85.63594210800005, 25.228551507000077], [85.63517460800006, 25.22907255100006], [85.63460596500005, 25.229728584000043], [85.63467964700004, 25.231037291000064], [85.63435028400005, 25.232026646000065], [85.63424939800007, 25.23309206500005], [85.63278364700005, 25.23407081000005], [85.63070618500007, 25.234658456000034], [85.63041034500003, 25.235264017000077], [85.63115110300004, 25.237275175000036], [85.63159248300008, 25.23878154500005], [85.63129348000007, 25.239969402000042], [85.62995506700008, 25.24046032800004], [85.62845109300008, 25.24037388200003], [85.62734077700009, 25.239185211000063], [85.62780526500006, 25.236931723000055], [85.62746448200005, 25.235867350000035], [85.62656028300006, 25.23554473100006], [85.62488751400008, 25.23539999600007], [85.62247676600003, 25.235740142000054], [85.62090430300003, 25.235956230000056], [85.61896380100006, 25.235902398000064], [85.61655219100004, 25.235967052000035], [85.61441238000003, 25.235638331000075], [85.61323696000005, 25.235862419000057], [85.61310936400008, 25.237993103000065], [85.61321609600003, 25.240520511000057], [85.61231355600006, 25.240734789000044], [85.61137769200008, 25.241436737000072], [85.61152101100004, 25.244573271000036], [85.61125719900008, 25.246004741000036], [85.61119747200007, 25.24760724300006], [85.61263662600004, 25.24757212700007], [85.61277202500008, 25.248059213000033], [85.61488281800007, 25.248541559000046], [85.61521839300008, 25.24957426700007], [85.61579007800003, 25.24989335300006], [85.61753207500004, 25.249857435000024], [85.62131417100005, 25.249942739000062], [85.62181278500003, 25.24908849600007], [85.62265162800009, 25.249113401000045], [85.62579780700008, 25.248970021000048], [85.62904824600008, 25.248880545000077], [85.62965053400006, 25.249429589000044], [85.63102447100005, 25.249182318000067], [85.63222387500008, 25.24862855500004], [85.63346373400003, 25.24835454300006], [85.63473496300008, 25.248563362000027], [85.63557380600008, 25.248592803000065], [85.63708147000006, 25.249807574000044], [85.63754425500008, 25.25045857300006], [85.63708128100006, 25.251324101000023], [85.63763557500005, 25.252392374000067], [85.63814594100006, 25.25367742900005], [85.63817890700005, 25.254688316000056], [85.63818187600003, 25.255604584000025], [85.63821948200007, 25.256525303000046], [85.63822308200008, 25.25764908600007], [85.63832041900008, 25.258601251000073], [85.64123867300003, 25.258516805000056], [85.64400884200006, 25.258690009000077], [85.64736911700004, 25.258708075000072], [85.65081848600005, 25.258640097000068]]]]}}, {"type": "Feature", "properties": {"OBJECTID": 5484, "GPCODE": "95492", "GPNAME_1": "NERUT", "DIST_CEN_C": "27", "BLK_NAME": "ASTHAWAN", "ST_NAME": "BIHAR", "ST_CODE_1": "10", "GPCODE2011": "98046", "REMARKS": "FINALIZED", "MAP_STATUS": "COMPLETED", "BLK_C_2001": "270008", "BLK_C_2011": "01385", "DIST_NAME": "NALANDA", "code2011": 0.0, "Shape_Leng": 0.19040325027, "Shape_Area": 0.00074609349, "Area": 8.32315}, "geometry": {"type": "MultiPolygon", "coordinates": [[[[85.68628499400006, 25.288491446000023], [85.68760011900008, 25.288370206000025], [85.68832542600006, 25.288485432000073], [85.68832092700006, 25.28724875000006], [85.68844044400004, 25.285971034000056], [85.69056576200006, 25.28611819300005], [85.69109618900006, 25.284509786000058], [85.69108813500003, 25.282307203000073], [85.69095139600006, 25.280181749000064], [85.69123954300005, 25.277513404000047], [85.69178445100005, 25.275810125000078], [85.69202498200008, 25.27097544800006], [85.69224186600007, 25.266434101000073], [85.69245093400008, 25.265237454000044], [85.69263022000007, 25.26403176900004], [85.69347373500005, 25.262602965000042], [85.69355184300008, 25.260860449000063], [85.69379399400003, 25.25921230800003], [85.69008385100005, 25.259501730000068], [85.68904036700008, 25.259583131000056], [85.68850423600009, 25.255436702000054], [85.68869077700003, 25.253481829000066], [85.68717945400005, 25.25045939900008], [85.68661856200004, 25.248622342000033], [85.68594494600006, 25.24762226200005], [85.68520576700007, 25.24631101600005], [85.68532985500008, 25.243521260000023], [85.68488014800005, 25.239898260000075], [85.68481018300008, 25.236955609000063], [85.68470478400008, 25.23524975400005], [85.68409521000007, 25.232692344000043], [85.68365163000004, 25.230748336000033], [85.68422019400003, 25.23016894500006], [85.68310554400006, 25.22928747700007], [85.68196229200004, 25.22874024400005], [85.68005811200004, 25.229097804000048], [85.67804892000004, 25.22925708200006], [85.67667832700005, 25.22895415800008], [85.67630837300004, 25.22959615700006], [85.67497668200008, 25.230516236000028], [85.67427306500008, 25.230789087000062], [85.67066269700007, 25.23144026800003], [85.66915599900005, 25.231977226000026], [85.66839050400006, 25.233044535000033], [85.66899340500004, 25.233746973000052], [85.67007226000004, 25.23578400300005], [85.67075268300005, 25.238810689000047], [85.67147825100005, 25.244847794000066], [85.67188731100003, 25.246886766000046], [85.67269947200003, 25.249258621000024], [85.673323, 25.25045864200007], [85.67414438200007, 25.250856802000044], [85.67502825900004, 25.252424959000052], [85.67555458800007, 25.25390387300007], [85.67693089100004, 25.25573695500003], [85.67604837600004, 25.25601028400007], [85.67514060700006, 25.256157320000057], [85.67349336800004, 25.256324535000033], [85.66873908600007, 25.256514120000077], [85.66678412600004, 25.25670017300007], [85.66388244900008, 25.257240937000063], [85.66274687600009, 25.257542052000076], [85.66276345200004, 25.25805656500006], [85.66306026400008, 25.259211178000044], [85.66300252500008, 25.261228903000074], [85.66313615600006, 25.262564504000068], [85.66333570200004, 25.262857324000038], [85.66405038400006, 25.262855321000075], [85.66574779400008, 25.262791941000046], [85.66727618600004, 25.262670246000027], [85.66900283100006, 25.262489325000047], [85.67112173800007, 25.26233436700005], [85.67223767000007, 25.262060349000024], [85.67536275700007, 25.261518799000044], [85.67679638900006, 25.261279992000027], [85.67822895900008, 25.26073869700008], [85.67847404100007, 25.262683337000055], [85.67907921600005, 25.265385239000068], [85.67976173900007, 25.266078264000043], [85.68112201900004, 25.266155584000046], [85.68231320700005, 25.266111514000045], [85.68255871200006, 25.268164460000037], [85.68270072000007, 25.271797416000027], [85.68454855000004, 25.272162095000056], [85.68480755000007, 25.272391540000058], [85.68476688900006, 25.273515479000025], [85.68315453500009, 25.273791034000055], [85.68200352100007, 25.27398406100008], [85.68192233300005, 25.27487338800006], [85.68226544700008, 25.27503038800006], [85.68345714800006, 25.27513976000006], [85.68468839000008, 25.27517674300003], [85.68490432200008, 25.27587120900006], [85.68502992900005, 25.276295126000036], [85.68537563400008, 25.27718324700004], [85.68550669500007, 25.279119154000057], [85.68551910700006, 25.282594537000023], [85.68518361700006, 25.283177790000025], [85.68471773000005, 25.283373227000027], [85.68237891900003, 25.28322212300003], [85.68244310100005, 25.284517321000067], [85.68346648100004, 25.28470840700004], [85.68363925700004, 25.28583178300005], [85.68381683900003, 25.28830466900007], [85.68628499400006, 25.288491446000023]]]]}}, {"type": "Feature", "properties": {"OBJECTID": 5595, "GPCODE": "95489", "GPNAME_1": "MAHAMMADPUR", "DIST_CEN_C": "27", "BLK_NAME": "ASTHAWAN", "ST_NAME": "BIHAR", "ST_CODE_1": "10", "GPCODE2011": "98043", "REMARKS": "FINALIZED", "MAP_STATUS": "COMPLETED", "BLK_C_2001": "270008", "BLK_C_2011": "01385", "DIST_NAME": "NALANDA", "code2011": 0.0, "Shape_Leng": 0.08992075588, "Shape_Area": 0.00032480366, "Area": 3.6246}, "geometry": {"type": "MultiPolygon", "coordinates": [[[[85.58173720400004, 25.234862152000062], [85.58227763000008, 25.23464885800007], [85.58355344100005, 25.23482651300003], [85.58432229900006, 25.23470289100004], [85.58485784400006, 25.234579852000024], [85.58515968900008, 25.23427667900006], [85.58549023000006, 25.233544774000052], [85.58565468200004, 25.232018829000026], [85.58565254200005, 25.231224402000066], [85.58555128900008, 25.230493426000066], [85.58619032400009, 25.23011286700006], [85.58719228700005, 25.229961567000032], [85.58903870800003, 25.230106332000048], [85.59040911000005, 25.23041012400006], [85.59104977600003, 25.230589185000042], [85.59242442800007, 25.230649156000027], [85.59171779900004, 25.229919599000027], [85.59101156400004, 25.22937057200005], [85.59040340600006, 25.228365432000032], [85.58996723700005, 25.226750622000054], [85.58972547800005, 25.225473769000075], [85.58945593900006, 25.224892201000046], [85.58955202700008, 25.222012290000066], [85.58991316000004, 25.219817827000043], [85.59014136200005, 25.218016343000045], [85.59057522100005, 25.21702690400008], [85.59020448800004, 25.215745860000027], [85.58962921500006, 25.21407259500006], [85.58962212000006, 25.21152700300007], [85.58861359600007, 25.211041846000057], [85.58814589400004, 25.210586997000064], [85.58774166700005, 25.20973485500008], [85.58740341800006, 25.209401623000076], [85.58619750300005, 25.209309549000068], [85.58525952100007, 25.20918983400003], [85.58321449300007, 25.208860409000067], [85.57979635500004, 25.20895841400005], [85.57973411300009, 25.20979358200003], [85.57987120500007, 25.21095328000007], [85.58047369800005, 25.211746246000075], [85.58041317700008, 25.213208854000072], [85.58095178600007, 25.21424574400004], [85.58135645700008, 25.215278434000027], [85.58102048800004, 25.215766700000074], [85.58035096300006, 25.215890046000027], [85.57961448900005, 25.21510181600007], [85.57914119500003, 25.214371713000048], [85.57813811600005, 25.214066935000062], [85.57579207400005, 25.214379073000032], [85.57505378100007, 25.214746312000045], [85.57485763000005, 25.21559983800006], [85.57485923900003, 25.216209133000064], [85.57481477100004, 25.216299535000076], [85.57531815800007, 25.217151451000063], [85.57551931600005, 25.21815758400004], [85.57595896400005, 25.219285011000068], [85.57639884000008, 25.22047562000006], [85.57643628200003, 25.221482120000076], [85.57623540900005, 25.222457501000065], [85.57543680200007, 25.224427159000072], [85.57517104900006, 25.225222114000076], [85.57430120500004, 25.226533024000048], [85.57387206700008, 25.227508879000027], [85.57381018400008, 25.22849297500005], [85.57320537200007, 25.228706442000032], [85.57240329100006, 25.229376256000023], [85.57224040600005, 25.229715119000048], [85.57227063900007, 25.229895592000048], [85.57297595700004, 25.230169399000033], [85.57358139900003, 25.230168054000046], [85.57391452300004, 25.230411040000035], [85.57408678300004, 25.23175120800005], [85.57402370500006, 25.232270434000043], [85.57429313400007, 25.232820524000033], [85.57449682900005, 25.232928335000054], [85.57492811800006, 25.232773988000076], [85.57559617800007, 25.232072878000054], [85.57599778800005, 25.231918491000044], [85.57623648100008, 25.232134658000064], [85.57700845600004, 25.23316655700006], [85.57758057900008, 25.233715963000066], [85.57898607900006, 25.234137144000044], [85.58173720400004, 25.234862152000062]]]]}}]}