{"type": "FeatureCollection", "features": [{"type": "Feature", "properties": {"OBJECTID": 8781, "GPCODE": "95852", "GPNAME_1": "UKAURA", "DIST_CEN_C": "36", "BLK_NAME": "PAKRIBARAWAN", "ST_NAME": "BIHAR", "ST_CODE_1": "10", "GPCODE2011": "98406", "REMARKS": "FINALIZED", "MAP_STATUS": "COMPLETED", "BLK_C_2001": "360005", "BLK_C_2011": "01515", "DIST_NAME": "NAWADA", "code2011": 0.0, "Shape_Leng": 0.23147961809, "Shape_Area": 0.00143505444, "Area": 16.043}, "geometry": {"type": "MultiPolygon", "coordinates": [[[[85.78042445600005, 25.005917045000047], [85.77986664200006, 25.00339802800005], [85.77963778900005, 25.001820235000025], [85.77944170100005, 25.000468332000025], [85.77887071000004, 24.99551438800006], [85.77833288000005, 24.992537267000046], [85.78003635900006, 24.99246802600004], [85.78245096100005, 24.991926789000047], [85.78243514100006, 24.99188410100004], [85.78218535100007, 24.991210083000055], [85.78217683900004, 24.989242182000055], [85.78315256500008, 24.988105699000073], [85.78641726200004, 24.987200253000026], [85.78824758200005, 24.98671977200007], [85.78818167000009, 24.98635887000006], [85.78823722600004, 24.984332085000062], [85.78725536900004, 24.984037741000066], [85.78476109400003, 24.982141916000046], [85.78393437800008, 24.981075108000027], [85.78308540000006, 24.980581640000025], [85.78296439300004, 24.98008561300003], [85.78344236900006, 24.979533169000035], [85.78404079900008, 24.978213078000067], [85.78361349500005, 24.976725101000056], [85.78258132600007, 24.97623683000006], [85.78065220200006, 24.976735689000066], [85.77817855800004, 24.977295151000078], [85.77594562500008, 24.977415869000026], [85.77552257600007, 24.976920901000028], [85.77473307800005, 24.97642710100007], [85.77322915600007, 24.976761915000054], [85.76833858100008, 24.977275528000064], [85.76823335400007, 24.974599327000078], [85.76798346500004, 24.972889466000026], [85.76761599800005, 24.971459930000037], [85.76725241900004, 24.970964656000035], [85.76386613100004, 24.971143364000056], [85.76127119100005, 24.97109818100006], [85.76091046000005, 24.972476112000038], [85.75825967800006, 24.97331116400005], [85.75560165000007, 24.973595490000037], [85.75445394200005, 24.973874746000035], [85.75385563900005, 24.97530757100003], [85.75253147500007, 24.97602972100003], [85.75119848000008, 24.975813087000063], [85.75011268100008, 24.97548727800006], [85.74896352100006, 24.975436899000044], [85.74884417900006, 24.97653863000005], [85.74878657800008, 24.97697664900005], [85.74774231000004, 24.977138129000025], [85.74545161200007, 24.97739783000003], [85.74508858600007, 24.975876968000023], [85.74495783800006, 24.973787123000022], [85.74515534100004, 24.973182119000057], [85.74484106400007, 24.970844259000046], [85.74521654400007, 24.970026906000044], [85.74506272700006, 24.96967948400004], [85.74541849700006, 24.968934449000074], [85.74549713600004, 24.968302447000042], [85.74513393700005, 24.966515233000052], [85.74448857900006, 24.96482308700007], [85.74397792500008, 24.964223224000023], [85.74341202300008, 24.962688981000042], [85.74246492800006, 24.961281400000075], [85.74193973300004, 24.96088457700006], [85.74122112400005, 24.960262215000057], [85.74012161900004, 24.95987042200005], [85.73900259100003, 24.959830647000047], [85.73717039300004, 24.959696567000037], [85.73567053100004, 24.96014456200004], [85.73429418700005, 24.960258401000033], [85.73382879600007, 24.960358042000053], [85.73381611100007, 24.96277301600003], [85.73343508300007, 24.96300348400007], [85.73257459800004, 24.96423635700006], [85.73280877400003, 24.965883736000023], [85.73393516100003, 24.968505462000053], [85.73406958200007, 24.96940806200007], [85.73283279000003, 24.970623205000038], [85.73211470000007, 24.970628199000032], [85.72905318100004, 24.969041567000033], [85.72861808200008, 24.969773103000023], [85.72813447500005, 24.971786603000055], [85.72711514500008, 24.97274423300007], [85.72631807500005, 24.97296145000007], [85.72578440600006, 24.974270792000027], [85.72579035600006, 24.975534612000047], [85.72577114200004, 24.97620723700004], [85.72602933900004, 24.977046564000034], [85.72567376400008, 24.97824298200004], [85.72650747800003, 24.98036841100003], [85.72827556200008, 24.98057484000003], [85.72882155700006, 24.98209115700007], [85.73120876100006, 24.982319648000043], [85.73141748100005, 24.98315905100003], [85.73157757100006, 24.984937414000058], [85.72942457300007, 24.986441978000073], [85.72917753000007, 24.98719150200003], [85.72928311000004, 24.988965343000075], [85.72954134500003, 24.989881406000052], [85.72939415500008, 24.991425262000064], [85.73004404800008, 24.992756405000023], [85.72960939400008, 24.994101784000065], [85.72960470300006, 24.994404238000072], [85.72991170300008, 24.994404002000067], [85.73072332400005, 24.993636029000072], [85.73232833200007, 24.99395542800005], [85.73475043100007, 24.99424706800005], [85.73586985700007, 24.994313956000042], [85.73640497900004, 24.994615904000057], [85.73661292400004, 24.994548115000043], [85.73951532200005, 24.994604604000074], [85.73997615900004, 24.994861483000022], [85.74091689000005, 24.99458091400004], [85.74175379400003, 24.994435852000038], [85.74394777800006, 24.994384438000054], [85.74490395000004, 24.99467254700005], [85.74676683100006, 24.994263681000064], [85.74663008400006, 24.99301606100005], [85.74774338000003, 24.993013808000057], [85.74891456800003, 24.992970238000055], [85.75401669700005, 24.992919536000045], [85.75741326700006, 24.992668730000048], [85.75735300300005, 24.993684512000073], [85.75768430900007, 24.99475314400007], [85.75918899600003, 24.99451326700006], [85.76251747300006, 24.993368910000072], [85.76349778500008, 24.993306827000026], [85.76344131700006, 24.99521181600005], [85.76338213900004, 24.996462312000062], [85.76280222800006, 24.998730195000064], [85.76308851500005, 25.00033071200005], [85.76310949000003, 25.000380818000053], [85.76397299900003, 25.00244359800007], [85.76492263800003, 25.003942894000033], [85.76572994800006, 25.004038257000047], [85.76817185700008, 25.004039996000074], [85.76823789600007, 25.00789487700007], [85.76904522300003, 25.00793153500007], [85.77005511100003, 25.007811145000062], [85.77143225200007, 25.007646941000075], [85.77446471900004, 25.007285368000055], [85.77716919700003, 25.00680955200005], [85.77990899300005, 25.00632752200005], [85.78042445600005, 25.005917045000047]]]]}}, {"type": "Feature", "properties": {"OBJECTID": 5017, "GPCODE": "95837", "GPNAME_1": "BALKHUNDA", "DIST_CEN_C": "36", "BLK_NAME": "PAKRIBARAWAN", "ST_NAME": "BIHAR", "ST_CODE_1": "10", "GPCODE2011": "98391", "REMARKS": "FINALIZED", "MAP_STATUS": "COMPLETED", "BLK_C_2001": "360005", "BLK_C_2011": "01515", "DIST_NAME": "NAWADA", "code2011": 0.0, "Shape_Leng": 0.22879271391, "Shape_Area": 0.00109177522, "Area": 12.2075}, "geometry": {"type": "MultiPolygon", "coordinates": [[[[85.81529921300006, 24.95559704300007], [85.81511264800008, 24.95378782000006], [85.81737263800005, 24.954271193000068], [85.81927649200009, 24.95698111300004], [85.82182170400006, 24.96026184300007], [85.82310223100006, 24.964125141000068], [85.82546038900006, 24.966503772000067], [85.82827337800006, 24.96871364900005], [85.82985331800006, 24.968788734000043], [85.83041442800004, 24.96384859500006], [85.82922595600007, 24.960644046000027], [85.82921321900005, 24.957931346000066], [85.83091970700008, 24.95545577200005], [85.83152087200006, 24.951891270000033], [85.82753187600008, 24.95202049100004], [85.82596158100006, 24.95185049500003], [85.82635429500004, 24.95113131200003], [85.82654343500008, 24.95029551600004], [85.82588630800007, 24.949526284000058], [85.82620980100006, 24.948807315000067], [85.82691988500005, 24.947134537000068], [85.82796083200003, 24.94528434700004], [85.82840510900007, 24.942899432000047], [85.82813123100004, 24.93938439300007], [85.82759679000003, 24.937301108000042], [85.82660683100005, 24.935219619000065], [85.82536150000004, 24.934628651000025], [85.82523254700004, 24.934565887000076], [85.82507353500006, 24.933180896000067], [85.82495904800004, 24.932183719000022], [85.82521119600005, 24.92998009100006], [85.82572789600005, 24.928249364000067], [85.82461167700006, 24.927716541000052], [85.82199964600005, 24.92808766400003], [85.82237184100006, 24.929350079000073], [85.82225708400006, 24.930230707000078], [85.82123078300003, 24.930952304000073], [85.81846414100005, 24.93321971900008], [85.81690622800005, 24.935703681000064], [85.81631108600004, 24.937633294000022], [85.81371907700003, 24.93808542100004], [85.81366797900006, 24.939904616000035], [85.81397303300008, 24.940562493000073], [85.81524335900008, 24.941221159000065], [85.81542558100006, 24.942100637000067], [85.81362626900005, 24.944860831000028], [85.81242726300007, 24.946846866000044], [85.81340240600008, 24.947890354000037], [85.81419137500006, 24.94937240300004], [85.81371873900008, 24.951870849000045], [85.81312042800005, 24.952296799000067], [85.81058483800007, 24.953245183000035], [85.80937428500005, 24.95269902900003], [85.80822764900006, 24.95203981000003], [85.80508351400005, 24.95199741500005], [85.80260621600007, 24.95162300900006], [85.800613, 24.950966789000063], [85.79457377400007, 24.95121023300004], [85.78817656800004, 24.95222640700007], [85.78756743300005, 24.951068629000076], [85.78744382300005, 24.949967746000027], [85.78593551200004, 24.950361370000053], [85.78388507300008, 24.95135719700005], [85.78184697600005, 24.95289916200005], [85.77991938100007, 24.95367336000004], [85.77907788700008, 24.95489051100003], [85.77897135500007, 24.958908103000056], [85.77982929800004, 24.96154105200003], [85.78206831000006, 24.96290974200008], [85.78604878300007, 24.963929045000043], [85.78636277000004, 24.966681282000025], [85.78812866300007, 24.970804976000068], [85.79188074100006, 24.972718645000043], [85.79394126400007, 24.97397500900007], [85.79424938400007, 24.975350517000038], [85.79624317500009, 24.977153215000044], [85.79690104600007, 24.97810320800005], [85.79731484100006, 24.978435400000023], [85.79867525500003, 24.979527524000048], [85.79913773600003, 24.98107403100005], [85.79986012700004, 24.982028223000043], [85.79993469300007, 24.98321955800003], [85.80072059900004, 24.98398847800007], [85.80209773800004, 24.985179549000065], [85.80223454100008, 24.98365339000003], [85.80380317500004, 24.983372248000023], [85.80475999600003, 24.981387136000023], [85.80637812600008, 24.978907652000032], [85.80939640400004, 24.978345683000043], [85.80807372500004, 24.97496538000007], [85.80680321700004, 24.97324141200005], [85.80788057200004, 24.97167112900007], [85.80930844200003, 24.968786083000055], [85.80948203400004, 24.966645921000065], [85.80801790500004, 24.96262073400004], [85.80782849100007, 24.960152400000027], [85.81278833100004, 24.95873456100003], [85.81413285700006, 24.957163192000053], [85.81529921300006, 24.95559704300007]]]]}}, {"type": "Feature", "properties": {"OBJECTID": 5038, "GPCODE": "95838", "GPNAME_1": "BUDHAULI", "DIST_CEN_C": "36", "BLK_NAME": "PAKRIBARAWAN", "ST_NAME": "BIHAR", "ST_CODE_1": "10", "GPCODE2011": "98392", "REMARKS": "FINALIZED", "MAP_STATUS": "COMPLETED", "BLK_C_2001": "360005", "BLK_C_2011": "01515", "DIST_NAME": "NAWADA", "code2011": 0.0, "Shape_Leng": 0.16289657907, "Shape_Area": 0.00100743915, "Area": 11.2711}, "geometry": {"type": "MultiPolygon", "coordinates": [[[[85.75082485200005, 24.912942832000056], [85.75051937300003, 24.91205460900005], [85.75081296100007, 24.91000437300005], [85.75080462900007, 24.907950637000056], [85.75244190700005, 24.906500813000036], [85.75225113800008, 24.904614646000027], [85.75199986900003, 24.902453405000074], [85.75187095200005, 24.901176520000035], [85.75143800400008, 24.89936340400004], [85.75185649500008, 24.89758813000003], [85.75142213500004, 24.89542292400006], [85.75080732900005, 24.893926426000064], [85.75055945700007, 24.892595739000058], [85.75031473500007, 24.89205038500006], [85.74964049100004, 24.891723171000024], [85.74969985600006, 24.89049971000003], [85.74993696600006, 24.889167357000076], [85.74956337200007, 24.88733607900008], [85.74986004200008, 24.884834429000023], [85.74868035400004, 24.879408374000036], [85.74777654000007, 24.876134362000073], [85.74602197900003, 24.877668690000064], [85.74499828600005, 24.87829249500004], [85.74434485300003, 24.877972502000034], [85.74399765400005, 24.877173799000047], [85.74354169200006, 24.876402361000032], [85.74283840000004, 24.875603914000067], [85.74183886900005, 24.875654363000024], [85.74035932500004, 24.87550199100008], [85.73931040700006, 24.875615715000038], [85.73837875700008, 24.87400038900006], [85.73787381900007, 24.873725430000036], [85.73699792900004, 24.87359066700003], [85.73679457800006, 24.87306724800004], [85.73636835700006, 24.87236341700003], [85.73571507300005, 24.872088529000052], [85.73471044600007, 24.871863637000047], [85.73393281400007, 24.870974948000026], [85.73300781700004, 24.871278064000023], [85.73163260600006, 24.87155440300006], [85.73108368200008, 24.87187523700004], [85.73076159000004, 24.871378977000063], [85.72973735300008, 24.871357110000076], [85.72846023500006, 24.870676364000076], [85.72678324900005, 24.871047702000055], [85.72515565900005, 24.87128350100005], [85.72403262300008, 24.871446768000055], [85.72220172700008, 24.87117706600003], [85.71995062600007, 24.87136811000005], [85.71634883400003, 24.87174504400008], [85.71272250400006, 24.872392665000064], [85.71119907900004, 24.873039067000036], [85.71135326100006, 24.87422613900003], [85.71187824100008, 24.87486225300006], [85.71268025800003, 24.875475675000075], [85.71377016300005, 24.877434016000052], [85.71424109400004, 24.87862087700006], [85.71470244900007, 24.88017340400006], [85.71555916300008, 24.881152404000034], [85.71603455700006, 24.88156286000003], [85.71668289900003, 24.88183331500005], [85.71721311500005, 24.88278993800003], [85.71821270100008, 24.882784795000077], [85.71914393100008, 24.884057136000024], [85.72037124900004, 24.884214361000033], [85.72089645600005, 24.88514840000005], [85.72130299400004, 24.886082504000058], [85.72195665100008, 24.886700457000074], [85.72317904000005, 24.886898289000044], [85.72388700100004, 24.88724085800004], [85.72451601200004, 24.887967142000036], [85.72410078200005, 24.888558748000037], [85.72374544200005, 24.889710059000038], [85.72375089000008, 24.890283302000057], [85.72412783400006, 24.891416032000052], [85.72438610400008, 24.892535287000044], [85.72546577600008, 24.893631454000058], [85.72676768500008, 24.89408189200003], [85.72824709900004, 24.893733378000036], [85.72884613000008, 24.894030858000065], [85.72929694500004, 24.894603790000076], [85.72953017600008, 24.895303280000064], [85.72935234400006, 24.89569610700005], [85.72972874800007, 24.89610208700003], [85.72963531700003, 24.896810843000026], [85.73013642700005, 24.89827293700006], [85.73083960300005, 24.898750906000032], [85.73131960800004, 24.898768652000058], [85.73136946400007, 24.899111661000063], [85.73119163300004, 24.899504489000037], [85.73204303600005, 24.899725055000033], [85.73239966000006, 24.900135540000065], [85.73295004200008, 24.90134491400005], [85.73303517500005, 24.902391992000048], [85.73418951700006, 24.90383110600004], [85.73421499000005, 24.90465264200003], [85.73376484600004, 24.90481096800005], [85.73374530600006, 24.90519911800004], [85.73419619000003, 24.905699800000036], [85.73417180200005, 24.906115125000042], [85.73380183000006, 24.907483051000042], [85.73462889900009, 24.908168587000034], [85.73518356400007, 24.90848418300004], [85.73590569700008, 24.90793293300004], [85.73693535700005, 24.908180388000062], [85.73746499500004, 24.908270349000077], [85.73784146500003, 24.90861310300005], [85.73804030200006, 24.909551840000063], [85.73894707800008, 24.910711185000025], [85.74010032500007, 24.91077344400003], [85.74085358800005, 24.911707229000058], [85.74130898800007, 24.91182426100005], [85.74183417600005, 24.912392640000064], [85.74313584700008, 24.912296784000034], [85.74380964200003, 24.913022984000065], [85.74431959800006, 24.913225689000058], [85.74483896400005, 24.91290481300007], [85.74641924600007, 24.914316382000038], [85.74642499700008, 24.915047621000042], [85.74702952000007, 24.91580089300004], [85.74775946700004, 24.916230065000036], [85.74820322700003, 24.918277811000053], [85.74947461800008, 24.91932070200005], [85.75092866800009, 24.920250182000075], [85.75191272800004, 24.918788954000036], [85.75290487600006, 24.918126589000053], [85.75341822200005, 24.91776831800007], [85.75341566700007, 24.917131857000072], [85.75235531100003, 24.916860131000078], [85.75187284500004, 24.91628392900003], [85.75162268000008, 24.914416104000054], [85.75082485200005, 24.912942832000056]]]]}}, {"type": "Feature", "properties": {"OBJECTID": 5049, "GPCODE": "95839", "GPNAME_1": "DATRAUL", "DIST_CEN_C": "36", "BLK_NAME": "PAKRIBARAWAN", "ST_NAME": "BIHAR", "ST_CODE_1": "10", "GPCODE2011": "98393", "REMARKS": "FINALIZED", "MAP_STATUS": "COMPLETED", "BLK_C_2001": "360005", "BLK_C_2011": "01515", "DIST_NAME": "NAWADA", "code2011": 0.0, "Shape_Leng": 0.2036365891, "Shape_Area": 0.00091320902, "Area": 10.2135}, "geometry": {"type": "MultiPolygon", "coordinates": [[[[85.77907788700008, 24.95489051100003], [85.77991938100007, 24.95367336000004], [85.78184697600005, 24.95289916200005], [85.78154324100007, 24.952512053000078], [85.78068511400005, 24.948678426000072], [85.78022019200006, 24.945321885000055], [85.77911998100006, 24.942739450000033], [85.77806637000003, 24.941781796000043], [85.77727580000004, 24.940985665000028], [85.77802768600003, 24.939692078000064], [85.77910918100008, 24.939056337000068], [85.78113363500006, 24.938994946000037], [85.78517584400004, 24.938429814000074], [85.78813288200007, 24.937647363000053], [85.79163147800006, 24.936203844000033], [85.79282839400008, 24.934822819000033], [85.79275833900004, 24.93239917300008], [85.79202792000007, 24.930637035000075], [85.79099698400006, 24.929209925000066], [85.78965865800006, 24.926533651000057], [85.78903871400007, 24.922843670000077], [85.78818530700005, 24.92124883300005], [85.78594174900007, 24.918670577000057], [85.78376482400006, 24.918895029000055], [85.78050561600008, 24.91835599700005], [85.77893462000003, 24.917923718000054], [85.77970798900003, 24.915880796000067], [85.77951704600008, 24.912906914000075], [85.78083341800004, 24.910537030000057], [85.78027599200004, 24.907510340000044], [85.77972309300003, 24.90552626400006], [85.77923669100005, 24.904042940000068], [85.77863171100006, 24.903769736000072], [85.77802812600004, 24.903826046000063], [85.77389293600004, 24.904382261000023], [85.77037763000004, 24.905229657000064], [85.76757423500004, 24.90590287200007], [85.76204056400007, 24.90697821200007], [85.76235199000007, 24.908082988000046], [85.76302774500004, 24.90991327100005], [85.76328192000005, 24.912746969000068], [85.76176292900004, 24.912860503000047], [85.75805407100006, 24.91364959400005], [85.75162268000008, 24.914416104000054], [85.75279292600004, 24.914922185000023], [85.75454928900007, 24.915963460000057], [85.75768819200005, 24.917374687000063], [85.76101535300006, 24.918794124000044], [85.76217159200007, 24.920717500000023], [85.76212288900007, 24.92330856600006], [85.76285587500007, 24.925784133000036], [85.76177866300003, 24.927439806000052], [85.76154658500008, 24.929972844000076], [85.76287323900004, 24.929968307000024], [85.76570897200008, 24.929796035000038], [85.76782060400006, 24.929292171000043], [85.76854596800007, 24.928738993000024], [85.76915146600004, 24.92912056700004], [85.77295224000005, 24.928890641000066], [85.77608850700005, 24.928383091000057], [85.77675246500007, 24.928543171000058], [85.77682247100006, 24.929865445000075], [85.77700081200004, 24.93222552000003], [85.77724946200004, 24.933655448000025], [85.77870695200005, 24.936457818000065], [85.77886480400008, 24.937472850000063], [85.77331092400004, 24.938792431000024], [85.77029520500008, 24.939768884000046], [85.76742848700007, 24.94088021700003], [85.76634744000006, 24.94162420600003], [85.76605047600003, 24.942839479000043], [85.76633134300005, 24.944874174000063], [85.76691433100007, 24.946966503000056], [85.76688986400006, 24.94823038100003], [85.76423289800005, 24.94862327900006], [85.76423977900004, 24.950279763000026], [85.76479294500007, 24.95234059200004], [85.76545952300006, 24.953083091000053], [85.76661027000006, 24.953575613000055], [85.76775924100008, 24.953652857000066], [85.76951414500007, 24.95417033800004], [85.77060202900003, 24.955019616000072], [85.77147838400003, 24.955016541000077], [85.77247187700004, 24.95462940400006], [85.77371157100004, 24.955062902000066], [85.77471596200007, 24.95607945300003], [85.77583509100003, 24.957258102000026], [85.77698816400004, 24.958301234000032], [85.77897135500007, 24.958908103000056], [85.77907788700008, 24.95489051100003]]]]}}, {"type": "Feature", "properties": {"OBJECTID": 5052, "GPCODE": "95840", "GPNAME_1": "DHAMAUL", "DIST_CEN_C": "36", "BLK_NAME": "PAKRIBARAWAN", "ST_NAME": "BIHAR", "ST_CODE_1": "10", "GPCODE2011": "98394", "REMARKS": "FINALIZED", "MAP_STATUS": "COMPLETED", "BLK_C_2001": "360005", "BLK_C_2011": "01515", "DIST_NAME": "NAWADA", "code2011": 0.0, "Shape_Leng": 0.09925099476, "Shape_Area": 0.00041168179, "Area": 4.60313}, "geometry": {"type": "MultiPolygon", "coordinates": [[[[85.85022213800005, 24.964350142000058], [85.85053556800005, 24.96240126300006], [85.85052976200006, 24.96120962300006], [85.85052045700007, 24.95930489600005], [85.85175742000007, 24.958108286000027], [85.85201522100004, 24.957150355000067], [85.85286333700003, 24.95744484200003], [85.85286625100008, 24.958040663000077], [85.85319595400006, 24.95863967200006], [85.85528973800007, 24.958509277000076], [85.85653129700006, 24.95826504000007], [85.85884366300007, 24.958282663000034], [85.85893635700006, 24.955989303000024], [85.85821403000006, 24.95509856800004], [85.85857573900006, 24.95213614000005], [85.85895840400008, 24.950405873000022], [85.85823463900005, 24.94921722500004], [85.85782919300004, 24.94629853500004], [85.85808034600007, 24.944031679000034], [85.85736345300006, 24.944215130000032], [85.85396436200006, 24.944644177000043], [85.85200266300006, 24.944412901000078], [85.85160669700008, 24.943403445000058], [85.84970852600009, 24.942991266000035], [85.84788690900007, 24.944072912000024], [85.84678308800005, 24.946162601000026], [85.84601635700005, 24.94938393500007], [85.84693924500004, 24.950811101000056], [85.84667768700007, 24.950992650000046], [85.84583178100007, 24.951135966000038], [85.84334937800008, 24.95178224800003], [85.84269105300007, 24.950769339000033], [85.84033581200003, 24.951076588000035], [85.83485410900005, 24.951933219000068], [85.83406465400003, 24.95145786300003], [85.83165055200004, 24.951887068000076], [85.83152087200006, 24.951891270000033], [85.83091970700008, 24.95545577200005], [85.82921321900005, 24.957931346000066], [85.82922595600007, 24.960644046000027], [85.83041442800004, 24.96384859500006], [85.83294698800006, 24.964335187000074], [85.83538077300005, 24.963829217000068], [85.83696750100006, 24.96430586300005], [85.83700722600008, 24.96431928800007], [85.83828181800004, 24.96579475200008], [85.83963596900008, 24.96628587300006], [85.84207398700005, 24.965617206000047], [85.84450573300006, 24.964700340000036], [85.84766406700004, 24.964525166000044], [85.85022213800005, 24.964350142000058]]]]}}, {"type": "Feature", "properties": {"OBJECTID": 5054, "GPCODE": "95841", "GPNAME_1": "DHEWADHA", "DIST_CEN_C": "36", "BLK_NAME": "PAKRIBARAWAN", "ST_NAME": "BIHAR", "ST_CODE_1": "10", "GPCODE2011": "98395", "REMARKS": "FINALIZED", "MAP_STATUS": "COMPLETED", "BLK_C_2001": "360005", "BLK_C_2011": "01515", "DIST_NAME": "NAWADA", "code2011": 0.0, "Shape_Leng": 0.20208259539, "Shape_Area": 0.00151140608, "Area": 16.8986}, "geometry": {"type": "MultiPolygon", "coordinates": [[[[85.71622417100008, 24.996904651000023], [85.71744668900004, 24.99580250500003], [85.71809046900006, 24.995562822000068], [85.72193908200006, 24.99602076900004], [85.72332549400005, 24.995545993000064], [85.72399384700003, 24.99519343700007], [85.72578631800008, 24.994650621000062], [85.72637540000005, 24.99434779300003], [85.72960939400008, 24.994101784000065], [85.73004404800008, 24.992756405000023], [85.72939415500008, 24.991425262000064], [85.72954134500003, 24.989881406000052], [85.72928311000004, 24.988965343000075], [85.72917753000007, 24.98719150200003], [85.72942457300007, 24.986441978000073], [85.73157757100006, 24.984937414000058], [85.73141748100005, 24.98315905100003], [85.73120876100006, 24.982319648000043], [85.72882155700006, 24.98209115700007], [85.72827556200008, 24.98057484000003], [85.72650747800003, 24.98036841100003], [85.72567376400008, 24.97824298200004], [85.72602933900004, 24.977046564000034], [85.72577114200004, 24.97620723700004], [85.72579035600006, 24.975534612000047], [85.72578440600006, 24.974270792000027], [85.72631807500005, 24.97296145000007], [85.72711514500008, 24.97274423300007], [85.72813447500005, 24.971786603000055], [85.72861808200008, 24.969773103000023], [85.72905318100004, 24.969041567000033], [85.73211470000007, 24.970628199000032], [85.73283279000003, 24.970623205000038], [85.73406958200007, 24.96940806200007], [85.73393516100003, 24.968505462000053], [85.73280877400003, 24.965883736000023], [85.73257459800004, 24.96423635700006], [85.73343508300007, 24.96300348400007], [85.73381611100007, 24.96277301600003], [85.73382879600007, 24.960358042000053], [85.73429418700005, 24.960258401000033], [85.73360497600004, 24.959198207000043], [85.73326735700005, 24.958106075000046], [85.73374615300008, 24.956390492000025], [85.73394204700008, 24.954047668000044], [85.73299593300004, 24.953488625000034], [85.72986653200007, 24.95312979700003], [85.72940577500003, 24.95275993300004], [85.72909773700007, 24.951550514000076], [85.72845301500007, 24.95021031500005], [85.72773975200005, 24.949818116000074], [85.72722966300006, 24.949701135000055], [85.72651707300008, 24.950148415000058], [85.72607195300003, 24.950690439000027], [85.72643408800008, 24.951534304000063], [85.72572224000004, 24.95289338400005], [85.72556958100006, 24.953872971000067], [85.72280222700005, 24.954258551000066], [85.72018794100006, 24.95421958000003], [85.71761901500008, 24.955119461000038], [85.71700478700006, 24.954745199000058], [85.71613322900004, 24.954560667000067], [85.71577822600005, 24.956573984000045], [85.71480298100005, 24.956764203000034], [85.71264908600006, 24.956634549000057], [85.71069816300007, 24.956355848000044], [85.71083987300005, 24.953782901000068], [85.70996772100006, 24.95256915300007], [85.70975366600004, 24.950930764000077], [85.71020699100006, 24.94779340900004], [85.71014105100005, 24.94555003800008], [85.70853192700008, 24.94532980500003], [85.70771016100008, 24.94547017900004], [85.70694251300006, 24.94510044200007], [85.70535345700006, 24.94534055400004], [85.70450193500005, 24.945318476000068], [85.70337353800005, 24.94588327100007], [85.70137899300005, 24.946872880000058], [85.70022552900008, 24.947112705000052], [85.69943384700008, 24.947812730000066], [85.69940979800003, 24.948891557000024], [85.69915793900003, 24.950060694000058], [85.69851990200004, 24.951117304000036], [85.69792611600008, 24.951636626000038], [85.69631238800008, 24.952179097000055], [85.69510969600003, 24.952811610000026], [85.69482823600003, 24.954102704000036], [85.69506635600004, 24.955009894000057], [85.69509671800006, 24.956133788000045], [85.69479014500007, 24.95679295700006], [85.69484002200005, 24.95739780200006], [85.69485083900008, 24.959103947000074], [85.69462431600004, 24.961193998000056], [85.69416465600005, 24.962737919000062], [85.69342226300006, 24.96320318000005], [85.69337289700007, 24.963555281000026], [85.69422515100007, 24.964538875000073], [85.69476535400008, 24.965472977000047], [85.69446428800006, 24.96717937300008], [85.69408340400008, 24.967838603000075], [85.69459356900006, 24.968118210000057], [85.69496043700008, 24.968862830000035], [85.69483197100004, 24.969377416000043], [85.69488197800007, 24.97017185800007], [85.69514980600007, 24.970921049000026], [85.69597773900006, 24.972721621000062], [85.69583030400008, 24.974667141000054], [85.69614900700003, 24.97763709900005], [85.69589770200008, 24.97974067000007], [85.69657211500004, 24.981423993000078], [85.70065803800009, 24.981950081000036], [85.70149992200004, 24.981899945000066], [85.70189122100004, 24.982107447000033], [85.70163453800006, 24.983375972000033], [85.70117999700005, 24.98503726900003], [85.70103784000008, 24.987375434000057], [85.70063292700007, 24.989271485000074], [85.70058470000004, 24.991514878000032], [85.70105615400007, 24.992918403000033], [85.70126518700005, 24.994633519000047], [85.70181536500007, 24.995314879000034], [85.70212290200004, 24.996086542000057], [85.70189528000003, 24.996294310000053], [85.70171733500007, 24.996948917000054], [85.70220807800007, 24.997630165000032], [85.70239174700004, 24.998239458000057], [85.70152075400006, 24.99938645800006], [85.70528853300004, 25.000478800000053], [85.70464525700004, 24.998179591000053], [85.70900871700007, 24.998096016000034], [85.71044494900008, 24.997905581000055], [85.71185610500004, 24.997363110000038], [85.71424334800008, 24.997257897000054], [85.71622417100008, 24.996904651000023]]]]}}, {"type": "Feature", "properties": {"OBJECTID": 5055, "GPCODE": "95842", "GPNAME_1": "DHORAH", "DIST_CEN_C": "36", "BLK_NAME": "PAKRIBARAWAN", "ST_NAME": "BIHAR", "ST_CODE_1": "10", "GPCODE2011": "98396", "REMARKS": "FINALIZED", "MAP_STATUS": "COMPLETED", "BLK_C_2001": "360005", "BLK_C_2011": "01515", "DIST_NAME": "NAWADA", "code2011": 0.0, "Shape_Leng": 0.17609033703, "Shape_Area": 0.00109718515, "Area": 12.266}, "geometry": {"type": "MultiPolygon", "coordinates": [[[[85.82646254900004, 24.997666766000066], [85.82802534800004, 24.996112510000046], [85.82847795700008, 24.995456218000072], [85.82853924400007, 24.993740873000036], [85.82806628900005, 24.99112020000007], [85.82845624100008, 24.990820799000062], [85.83159638500007, 24.990867234000063], [85.83354970100004, 24.989194061000035], [85.83399602000009, 24.987224345000072], [85.83404618700007, 24.986717731000056], [85.83418515000005, 24.985314367000058], [85.83470633500008, 24.98453596400003], [85.83776264500005, 24.981558466000024], [85.83860597900008, 24.979767760000072], [85.84036464500008, 24.978867106000052], [85.84062198200007, 24.97779184500007], [85.84113479400008, 24.976300244000072], [85.84263218800004, 24.97462427000005], [85.84522370200006, 24.971887692000053], [85.84717162100003, 24.969198735000077], [85.84978006500006, 24.967933465000044], [85.84992425700005, 24.966010124000036], [85.85014623100005, 24.96482211400007], [85.85022213800005, 24.964350142000058], [85.84766406700004, 24.964525166000044], [85.84450573300006, 24.964700340000036], [85.84207398700005, 24.965617206000047], [85.83963596900008, 24.96628587300006], [85.83828181800004, 24.96579475200008], [85.83700722600008, 24.96431928800007], [85.83696750100006, 24.96430586300005], [85.83538077300005, 24.963829217000068], [85.83294698800006, 24.964335187000074], [85.83041442800004, 24.96384859500006], [85.82985331800006, 24.968788734000043], [85.82827337800006, 24.96871364900005], [85.82546038900006, 24.966503772000067], [85.82310223100006, 24.964125141000068], [85.82182170400006, 24.96026184300007], [85.81927649200009, 24.95698111300004], [85.81737263800005, 24.954271193000068], [85.81511264800008, 24.95378782000006], [85.81529921300006, 24.95559704300007], [85.81413285700006, 24.957163192000053], [85.81278833100004, 24.95873456100003], [85.80782849100007, 24.960152400000027], [85.80801790500004, 24.96262073400004], [85.80948203400004, 24.966645921000065], [85.80930844200003, 24.968786083000055], [85.80788057200004, 24.97167112900007], [85.80680321700004, 24.97324141200005], [85.80807372500004, 24.97496538000007], [85.80939640400004, 24.978345683000043], [85.80637812600008, 24.978907652000032], [85.80475999600003, 24.981387136000023], [85.80380317500004, 24.983372248000023], [85.80223454100008, 24.98365339000003], [85.80209773800004, 24.985179549000065], [85.80132006400004, 24.986252155000045], [85.80053631700008, 24.98709004600005], [85.80158678200007, 24.987208061000047], [85.80178427000004, 24.988159747000054], [85.80270360400004, 24.988869472000033], [85.80374375900004, 24.98779584600004], [85.80459590400005, 24.987851361000025], [85.80538288400004, 24.988859486000024], [85.80656269000008, 24.989094316000035], [85.80643752800006, 24.991004049000026], [85.80684239200008, 24.992907314000036], [85.80795742000004, 24.99415793600008], [85.81077222300007, 24.99450392700004], [85.81122163100008, 24.993130095000026], [85.81246144900007, 24.99241227300007], [85.81187969500007, 24.994080017000044], [85.81295275100007, 24.994603201000075], [85.81311068900004, 24.994680206000055], [85.81409621600005, 24.99574614000005], [85.81507685500009, 24.995742406000033], [85.81652392500007, 24.996991713000057], [85.81783202500003, 24.997104068000056], [85.81940067600004, 24.99680020200003], [85.82077859800006, 24.998108460000026], [85.82273770900008, 24.997622445000047], [85.82346036600006, 24.998572006000074], [85.82646254900004, 24.997666766000066]]]]}}, {"type": "Feature", "properties": {"OBJECTID": 5060, "GPCODE": "95843", "GPNAME_1": "DUMRAWAN", "DIST_CEN_C": "36", "BLK_NAME": "PAKRIBARAWAN", "ST_NAME": "BIHAR", "ST_CODE_1": "10", "GPCODE2011": "98397", "REMARKS": "FINALIZED", "MAP_STATUS": "COMPLETED", "BLK_C_2001": "360005", "BLK_C_2011": "01515", "DIST_NAME": "NAWADA", "code2011": 0.0, "Shape_Leng": 0.20719038677, "Shape_Area": 0.00121790179, "Area": 13.6212}, "geometry": {"type": "MultiPolygon", "coordinates": [[[[85.71577822600005, 24.956573984000045], [85.71613322900004, 24.954560667000067], [85.71700478700006, 24.954745199000058], [85.71761901500008, 24.955119461000038], [85.72018794100006, 24.95421958000003], [85.72280222700005, 24.954258551000066], [85.72556958100006, 24.953872971000067], [85.72572224000004, 24.95289338400005], [85.72643408800008, 24.951534304000063], [85.72607195300003, 24.950690439000027], [85.72651707300008, 24.950148415000058], [85.72625867900007, 24.948965987000065], [85.72515285600008, 24.946791105000045], [85.72448772300004, 24.944701688000066], [85.72359048400006, 24.94326680900008], [85.72269384600008, 24.942500047000067], [85.72249027500004, 24.941805079000062], [85.72253954300004, 24.941502626000045], [85.72063363100006, 24.941266090000056], [85.71819906500008, 24.941087370000048], [85.71594495800008, 24.941023762000043], [85.71539035700005, 24.940906824000024], [85.71266270900009, 24.94109802400004], [85.71038610600004, 24.942024667000055], [85.70999490800006, 24.941844270000047], [85.70979652200003, 24.94128020000005], [85.70991807500008, 24.938192687000026], [85.70973716900005, 24.934216125000034], [85.71106847700008, 24.933800030000043], [85.71256864300005, 24.934029423000027], [85.71530092600005, 24.93369376800007], [85.71572120800005, 24.93303899800003], [85.71548213300008, 24.931080077000047], [85.71458134800008, 24.931243133000066], [85.71326499200006, 24.931799117000025], [85.71233435000005, 24.931759099000033], [85.71129965800003, 24.93164230600007], [85.71033914400005, 24.931484898000065], [85.70887403200004, 24.93172037900007], [85.70773539300006, 24.931563090000054], [85.70733446000008, 24.931612917000052], [85.70495849200006, 24.931848943000034], [85.70533334700008, 24.929686660000073], [85.70562373200005, 24.927176745000054], [85.70612312400004, 24.926296301000036], [85.70647336600007, 24.924522152000065], [85.70528011500005, 24.924112026000046], [85.70343822600006, 24.92319672900004], [85.70308095500008, 24.921815679000076], [85.70282840400006, 24.92174807500004], [85.70219493300004, 24.921798093000064], [85.70113577300003, 24.921983690000047], [85.69926409000004, 24.92092838900004], [85.69903568000007, 24.919822659000033], [85.69720853100006, 24.918676967000067], [85.69625340800008, 24.918961789000036], [85.69552055500003, 24.918474720000063], [85.69441584400005, 24.91671933400005], [85.69208382400006, 24.91542488700003], [85.69172711100003, 24.914716360000057], [85.69090047200007, 24.914631016000044], [85.69002429300008, 24.914401187000067], [85.68574286500007, 24.91428110800007], [85.68374327700008, 24.914331503000028], [85.68284250200009, 24.91442666000006], [85.68196616600005, 24.91394858600006], [85.68088722300007, 24.91397151500007], [85.68018450100004, 24.914364513000066], [85.67961594400003, 24.915691770000024], [85.67974505500007, 24.916648698000074], [85.67920143600008, 24.918544689000043], [85.67704307600007, 24.917845810000074], [85.67572561200006, 24.91790986700005], [85.67461281600004, 24.917963970000073], [85.67263842200003, 24.91940909300007], [85.67013889300006, 24.919414377000066], [85.67029808300003, 24.921811148000074], [85.67009060700008, 24.92291706900005], [85.67103640800008, 24.923675134000064], [85.67526367200009, 24.92381374400003], [85.67488325600004, 24.925650921000056], [85.67464296500003, 24.93123012600006], [85.67421367900005, 24.934561528000074], [85.67328351800006, 24.935762450000027], [85.67376926200006, 24.93727444800004], [85.67354676900004, 24.938150222000047], [85.67436051000004, 24.942677324000044], [85.67526732700009, 24.94477592100003], [85.67537190000007, 24.946057860000053], [85.67578817000003, 24.94705075400003], [85.67841194300007, 24.946815110000045], [85.67969401600004, 24.946313581000027], [85.68019945200007, 24.94730198800005], [85.68336752500005, 24.946357377000027], [85.68443271500007, 24.94792771300007], [85.68494287900006, 24.948220986000024], [85.68596752700006, 24.948012920000053], [85.68798746200008, 24.947917268000026], [85.68971548900004, 24.948205382000026], [85.69093372400005, 24.948728493000033], [85.69147800100006, 24.948227237000026], [85.69208144600003, 24.94712107400005], [85.69313041800007, 24.94597858700007], [85.69434793000005, 24.945300948000067], [85.69685343400005, 24.94602198900003], [85.69810103700007, 24.946138765000057], [85.69887438200004, 24.947682092000036], [85.69943384700008, 24.947812730000066], [85.70022552900008, 24.947112705000052], [85.70137899300005, 24.946872880000058], [85.70337353800005, 24.94588327100007], [85.70450193500005, 24.945318476000068], [85.70535345700006, 24.94534055400004], [85.70694251300006, 24.94510044200007], [85.70771016100008, 24.94547017900004], [85.70853192700008, 24.94532980500003], [85.71014105100005, 24.94555003800008], [85.71020699100006, 24.94779340900004], [85.70975366600004, 24.950930764000077], [85.70996772100006, 24.95256915300007], [85.71083987300005, 24.953782901000068], [85.71069816300007, 24.956355848000044], [85.71264908600006, 24.956634549000057], [85.71480298100005, 24.956764203000034], [85.71577822600005, 24.956573984000045]]]]}}, {"type": "Feature", "properties": {"OBJECTID": 5065, "GPCODE": "95844", "GPNAME_1": "GULANI", "DIST_CEN_C": "36", "BLK_NAME": "PAKRIBARAWAN", "ST_NAME": "BIHAR", "ST_CODE_1": "10", "GPCODE2011": "98398", "REMARKS": "FINALIZED", "MAP_STATUS": "COMPLETED", "BLK_C_2001": "360005", "BLK_C_2011": "01515", "DIST_NAME": "NAWADA", "code2011": 0.0, "Shape_Leng": 0.18151813856, "Shape_Area": 0.00126853001, "Area": 14.1869}, "geometry": {"type": "MultiPolygon", "coordinates": [[[[85.81312042800005, 24.952296799000067], [85.81371873900008, 24.951870849000045], [85.81419137500006, 24.94937240300004], [85.81340240600008, 24.947890354000037], [85.81242726300007, 24.946846866000044], [85.81362626900005, 24.944860831000028], [85.81542558100006, 24.942100637000067], [85.81524335900008, 24.941221159000065], [85.81397303300008, 24.940562493000073], [85.81366797900006, 24.939904616000035], [85.81371907700003, 24.93808542100004], [85.81631108600004, 24.937633294000022], [85.81690622800005, 24.935703681000064], [85.81846414100005, 24.93321971900008], [85.82123078300003, 24.930952304000073], [85.82225708400006, 24.930230707000078], [85.82237184100006, 24.929350079000073], [85.82199964600005, 24.92808766400003], [85.82160362700006, 24.927014932000077], [85.82218910400007, 24.926236333000077], [85.82289945600007, 24.924626750000073], [85.82250317900008, 24.921369394000067], [85.82207818200004, 24.921519937000028], [85.82168783400004, 24.921670369000026], [85.82119687100004, 24.921464618000073], [85.82064110800007, 24.92116889700003], [85.82050975100003, 24.92057358200003], [85.82070152900008, 24.92030201600005], [85.82118591500006, 24.91908147500004], [85.82079419100006, 24.918933990000028], [85.81987342000008, 24.917831645000035], [85.81931456400008, 24.916849806000073], [85.82009259300008, 24.91598471800006], [85.81983245400005, 24.915389925000056], [85.81920454900006, 24.914466983000068], [85.81838452700003, 24.91372532300005], [85.81839905600003, 24.912592330000052], [85.81855561800006, 24.911115753000047], [85.81672914800004, 24.91108662700003], [85.81522263900007, 24.91175589100004], [85.81330508100007, 24.91457061500006], [85.81288719700007, 24.915177030000052], [85.81222047600005, 24.915509031000056], [85.81198164600005, 24.915234610000027], [85.81155279600006, 24.914523062000058], [85.80926283200006, 24.914915304000033], [85.80756791500005, 24.91442513900006], [85.80671681700005, 24.91338569900006], [85.80725833100007, 24.91272010700004], [85.80501270800005, 24.913058011000032], [85.80329308700004, 24.912572414000067], [85.80148044800006, 24.912330859000065], [85.80038943300008, 24.911838380000063], [85.79851497800007, 24.91104639100007], [85.79721423100005, 24.910143839000057], [85.79524390300008, 24.90890984300006], [85.79349874700006, 24.909363038000038], [85.79052412400006, 24.910484239000027], [85.78784679400007, 24.910548040000037], [85.78687968700007, 24.912384151000026], [85.78641080100005, 24.91610509700007], [85.78726812400004, 24.917492219000053], [85.78594174900007, 24.918670577000057], [85.78818530700005, 24.92124883300005], [85.78903871400007, 24.922843670000077], [85.78965865800006, 24.926533651000057], [85.79099698400006, 24.929209925000066], [85.79202792000007, 24.930637035000075], [85.79275833900004, 24.93239917300008], [85.79282839400008, 24.934822819000033], [85.79163147800006, 24.936203844000033], [85.78813288200007, 24.937647363000053], [85.78517584400004, 24.938429814000074], [85.78113363500006, 24.938994946000037], [85.77910918100008, 24.939056337000068], [85.77802768600003, 24.939692078000064], [85.77727580000004, 24.940985665000028], [85.77806637000003, 24.941781796000043], [85.77911998100006, 24.942739450000033], [85.78022019200006, 24.945321885000055], [85.78068511400005, 24.948678426000072], [85.78154324100007, 24.952512053000078], [85.78184697600005, 24.95289916200005], [85.78388507300008, 24.95135719700005], [85.78593551200004, 24.950361370000053], [85.78744382300005, 24.949967746000027], [85.78756743300005, 24.951068629000076], [85.78817656800004, 24.95222640700007], [85.79457377400007, 24.95121023300004], [85.800613, 24.950966789000063], [85.80260621600007, 24.95162300900006], [85.80508351400005, 24.95199741500005], [85.80822764900006, 24.95203981000003], [85.80937428500005, 24.95269902900003], [85.81058483800007, 24.953245183000035], [85.81312042800005, 24.952296799000067]]]]}}, {"type": "Feature", "properties": {"OBJECTID": 5070, "GPCODE": "95845", "GPNAME_1": "IRURI", "DIST_CEN_C": "36", "BLK_NAME": "PAKRIBARAWAN", "ST_NAME": "BIHAR", "ST_CODE_1": "10", "GPCODE2011": "98399", "REMARKS": "FINALIZED", "MAP_STATUS": "COMPLETED", "BLK_C_2001": "360005", "BLK_C_2011": "01515", "DIST_NAME": "NAWADA", "code2011": 0.0, "Shape_Leng": 0.24994041836, "Shape_Area": 0.00154787853, "Area": 17.3141}, "geometry": {"type": "MultiPolygon", "coordinates": [[[[85.72722244400006, 24.941052654000032], [85.72711182700004, 24.938962765000042], [85.72710543100004, 24.93727015500008], [85.72699490900004, 24.93525249100003], [85.72711791500006, 24.93436769300007], [85.72720942600006, 24.931374955000024], [85.72260042100004, 24.93085443900003], [85.72544976600005, 24.928451221000046], [85.72645414700008, 24.927872792000073], [85.72642402600007, 24.927340182000023], [85.72655239700003, 24.926974444000052], [85.72695799900004, 24.926649191000024], [85.72725452200007, 24.926071207000064], [85.72747636700007, 24.92491546100007], [85.72676809900008, 24.924505200000056], [85.72605978000007, 24.923837701000025], [85.72603460000005, 24.92335465900004], [85.72683598000003, 24.922708663000037], [85.72790048300004, 24.92304647000003], [85.72853473600009, 24.923831413000073], [85.72916386700007, 24.92447650200006], [85.73022927500006, 24.925757704000034], [85.73069036800007, 24.926655570000037], [85.73139873900004, 24.92725090600004], [85.73192844400006, 24.927363365000076], [85.73422444200008, 24.926368683000078], [85.73472940200008, 24.92643156300005], [85.73662601900008, 24.927301252000063], [85.73751778400003, 24.928058905000057], [85.73822572600005, 24.928171263000024], [85.73882428200005, 24.927755520000062], [85.74046131900008, 24.92627370300005], [85.74093648300004, 24.92616049800006], [85.74248096700006, 24.92631728500004], [85.74354020200008, 24.926217179000048], [85.74447022300006, 24.92562057200007], [85.74563291200008, 24.92501475100005], [85.74671658500006, 24.924670848000062], [85.74719719100005, 24.925076686000068], [85.74775188800004, 24.925424485000065], [85.74834760600004, 24.924610053000038], [85.75003593800005, 24.923503046000064], [85.75141663600004, 24.92217594400006], [85.75092866800009, 24.920250182000075], [85.74947461800008, 24.91932070200005], [85.74820322700003, 24.918277811000053], [85.74775946700004, 24.916230065000036], [85.74702952000007, 24.91580089300004], [85.74642499700008, 24.915047621000042], [85.74641924600007, 24.914316382000038], [85.74483896400005, 24.91290481300007], [85.74431959800006, 24.913225689000058], [85.74380964200003, 24.913022984000065], [85.74313584700008, 24.912296784000034], [85.74183417600005, 24.912392640000064], [85.74130898800007, 24.91182426100005], [85.74085358800005, 24.911707229000058], [85.74010032500007, 24.91077344400003], [85.73894707800008, 24.910711185000025], [85.73804030200006, 24.909551840000063], [85.73784146500003, 24.90861310300005], [85.73746499500004, 24.908270349000077], [85.73693535700005, 24.908180388000062], [85.73590569700008, 24.90793293300004], [85.73518356400007, 24.90848418300004], [85.73462889900009, 24.908168587000034], [85.73380183000006, 24.907483051000042], [85.73417180200005, 24.906115125000042], [85.73419619000003, 24.905699800000036], [85.73374530600006, 24.90519911800004], [85.73376484600004, 24.90481096800005], [85.73421499000005, 24.90465264200003], [85.73418951700006, 24.90383110600004], [85.73303517500005, 24.902391992000048], [85.73295004200008, 24.90134491400005], [85.73239966000006, 24.900135540000065], [85.73204303600005, 24.899725055000033], [85.73119163300004, 24.899504489000037], [85.73136946400007, 24.899111661000063], [85.73131960800004, 24.898768652000058], [85.73083960300005, 24.898750906000032], [85.73013642700005, 24.89827293700006], [85.72963531700003, 24.896810843000026], [85.72972874800007, 24.89610208700003], [85.72935234400006, 24.89569610700005], [85.72953017600008, 24.895303280000064], [85.72929694500004, 24.894603790000076], [85.72884613000008, 24.894030858000065], [85.72824709900004, 24.893733378000036], [85.72676768500008, 24.89408189200003], [85.72546577600008, 24.893631454000058], [85.72438610400008, 24.892535287000044], [85.72412783400006, 24.891416032000052], [85.72375089000008, 24.890283302000057], [85.72374544200005, 24.889710059000038], [85.72410078200005, 24.888558748000037], [85.72451601200004, 24.887967142000036], [85.72388700100004, 24.88724085800004], [85.72317904000005, 24.886898289000044], [85.72195665100008, 24.886700457000074], [85.72130299400004, 24.886082504000058], [85.72089645600005, 24.88514840000005], [85.72037124900004, 24.884214361000033], [85.71914393100008, 24.884057136000024], [85.71821270100008, 24.882784795000077], [85.71721311500005, 24.88278993800003], [85.71664431500005, 24.883092657000077], [85.71469007300004, 24.883531705000053], [85.71384440500003, 24.884308651000026], [85.71545414300004, 24.88631176900003], [85.71586069600005, 24.88745355700007], [85.71574389500006, 24.89005809500003], [85.71637913700005, 24.892450059000055], [85.71616294600005, 24.894666518000065], [85.71604015000008, 24.895786071000032], [85.71549144500005, 24.896675576000064], [85.71476974800004, 24.897795460000054], [85.71447375400004, 24.899100159000056], [85.71443069500003, 24.901153942000064], [85.71393649400005, 24.902088594000077], [85.71353610200003, 24.902752401000043], [85.71129009000003, 24.904017569000075], [85.70994488000008, 24.905345398000065], [85.70944524300006, 24.905715823000037], [85.70831707100007, 24.906104694000078], [85.70651566700008, 24.906313349000072], [85.70533780900007, 24.90629588200005], [85.70431301200006, 24.905930845000057], [85.70454226900006, 24.900658515000032], [85.70326543200008, 24.900753962000067], [85.70266675700003, 24.900961908000056], [85.70201833200008, 24.90073654200006], [85.70093949100004, 24.900804848000064], [85.69968772300007, 24.90138322400003], [85.69898508900008, 24.901609274000066], [85.69844109400003, 24.902232456000036], [85.69669570400004, 24.904955182000037], [85.69523220000008, 24.907628052000064], [85.69434290800007, 24.910372876000054], [85.69414647600007, 24.913158018000047], [85.69433063600007, 24.91487318800006], [85.69473739900008, 24.916493452000054], [85.69441584400005, 24.91671933400005], [85.69552055500003, 24.918474720000063], [85.69625340800008, 24.918961789000036], [85.69720853100006, 24.918676967000067], [85.69903568000007, 24.919822659000033], [85.69926409000004, 24.92092838900004], [85.70113577300003, 24.921983690000047], [85.70219493300004, 24.921798093000064], [85.70282840400006, 24.92174807500004], [85.70308095500008, 24.921815679000076], [85.70343822600006, 24.92319672900004], [85.70528011500005, 24.924112026000046], [85.70647336600007, 24.924522152000065], [85.70612312400004, 24.926296301000036], [85.70562373200005, 24.927176745000054], [85.70533334700008, 24.929686660000073], [85.70495849200006, 24.931848943000034], [85.70733446000008, 24.931612917000052], [85.70773539300006, 24.931563090000054], [85.70887403200004, 24.93172037900007], [85.71033914400005, 24.931484898000065], [85.71129965800003, 24.93164230600007], [85.71233435000005, 24.931759099000033], [85.71326499200006, 24.931799117000025], [85.71458134800008, 24.931243133000066], [85.71548213300008, 24.931080077000047], [85.71572120800005, 24.93303899800003], [85.71530092600005, 24.93369376800007], [85.71256864300005, 24.934029423000027], [85.71106847700008, 24.933800030000043], [85.70973716900005, 24.934216125000034], [85.70991807500008, 24.938192687000026], [85.70979652200003, 24.94128020000005], [85.70999490800006, 24.941844270000047], [85.71038610600004, 24.942024667000055], [85.71266270900009, 24.94109802400004], [85.71539035700005, 24.940906824000024], [85.71594495800008, 24.941023762000043], [85.71819906500008, 24.941087370000048], [85.72063363100006, 24.941266090000056], [85.72253954300004, 24.941502626000045], [85.72439654600004, 24.942079200000023], [85.72544148100008, 24.942520848000072], [85.72671895800005, 24.94279079300003], [85.72722884900008, 24.942722780000054], [85.72722244400006, 24.941052654000032]]]]}}, {"type": "Feature", "properties": {"OBJECTID": 5072, "GPCODE": "95846", "GPNAME_1": "JIURI", "DIST_CEN_C": "36", "BLK_NAME": "PAKRIBARAWAN", "ST_NAME": "BIHAR", "ST_CODE_1": "10", "GPCODE2011": "98400", "REMARKS": "FINALIZED", "MAP_STATUS": "COMPLETED", "BLK_C_2001": "360005", "BLK_C_2011": "01515", "DIST_NAME": "NAWADA", "code2011": 0.0, "Shape_Leng": 0.22147743292, "Shape_Area": 0.00120408842, "Area": 13.4697}, "geometry": {"type": "MultiPolygon", "coordinates": [[[[85.79349874700006, 24.909363038000038], [85.79524390300008, 24.90890984300006], [85.79721423100005, 24.910143839000057], [85.79851497800007, 24.91104639100007], [85.80038943300008, 24.911838380000063], [85.80148044800006, 24.912330859000065], [85.80329308700004, 24.912572414000067], [85.80501270800005, 24.913058011000032], [85.80725833100007, 24.91272010700004], [85.80671681700005, 24.91338569900006], [85.80756791500005, 24.91442513900006], [85.80926283200006, 24.914915304000033], [85.81155279600006, 24.914523062000058], [85.81198164600005, 24.915234610000027], [85.81222047600005, 24.915509031000056], [85.81288719700007, 24.915177030000052], [85.81330508100007, 24.91457061500006], [85.81522263900007, 24.91175589100004], [85.81672914800004, 24.91108662700003], [85.81855561800006, 24.911115753000047], [85.81915923600008, 24.909994097000038], [85.81953552000004, 24.907871192000073], [85.82184362500004, 24.907158208000055], [85.82243822800007, 24.90624869800007], [85.82265699000004, 24.904311478000068], [85.82271969200008, 24.902884958000072], [85.82428352100004, 24.902878954000073], [85.82516422800006, 24.902812376000043], [85.82578951400006, 24.902110289000063], [85.82544766200004, 24.898834641000064], [85.82929753400003, 24.898761109000077], [85.83158396200008, 24.89875216100006], [85.83135870800004, 24.897155273000067], [85.83141812200006, 24.896112341000048], [85.83153952400005, 24.894568143000072], [85.83166221300007, 24.89329035700007], [85.83165715400008, 24.892197985000053], [85.83155421600009, 24.890298132000055], [85.83154648500005, 24.88866418300006], [85.83143892600003, 24.887879273000067], [85.82967687500008, 24.887795822000044], [85.82772411100007, 24.887148942000067], [85.82544190100003, 24.886950096000078], [85.82491560700004, 24.88656390500006], [85.82422471800004, 24.884842311000057], [85.82395735800003, 24.883742050000023], [85.82303681400003, 24.882644223000057], [85.82175264300008, 24.882089433000033], [85.82084305800004, 24.882273456000064], [85.82031979400006, 24.882541772000025], [85.82021875800007, 24.882095306000053], [85.81989055300005, 24.881739959000072], [85.81846197500005, 24.882065891000025], [85.81867368500008, 24.885071260000075], [85.81884111200003, 24.885964301000058], [85.81858400800007, 24.887093734000075], [85.81705374300003, 24.88793456700006], [85.81572709500006, 24.88999331900004], [85.81524118400006, 24.890884435000032], [85.81397083700006, 24.89118713000005], [85.81249971000005, 24.89089470700003], [85.81184330400004, 24.890184075000036], [85.81154453200008, 24.88869561100006], [85.81196557100003, 24.88768302400007], [85.81173015000007, 24.887060933000043], [85.81078316100007, 24.886649255000066], [85.81094012000005, 24.88524940800005], [85.81136365000003, 24.88480097400003], [85.80986495000008, 24.88495560100006], [85.80891720600005, 24.88546466500003], [85.80866530800006, 24.886684269000057], [85.80869793700003, 24.887338687000067], [85.80818013500004, 24.887728743000025], [85.80635894500006, 24.88880531700005], [85.80449441600007, 24.890152813000043], [85.80430544800004, 24.89104277100006], [85.80378234300008, 24.89137422700003], [85.80223663200007, 24.892106581000064], [85.80180160400005, 24.888871892000054], [85.80126962900005, 24.88607987300003], [85.80073796000005, 24.884470414000077], [85.80135957500005, 24.884052894000035], [85.80197711800008, 24.883815837000043], [85.80210277400005, 24.883160905000068], [85.80158163000004, 24.882806231000075], [85.80060084500008, 24.88257063800006], [85.80057026100008, 24.882363097000052], [85.80098185500003, 24.880339417000073], [85.80140395700005, 24.879561582000065], [85.80156501600004, 24.879055410000035], [85.80172184100007, 24.87760139900007], [85.80077551900007, 24.87733410800007], [85.79946753100006, 24.876955185000043], [85.79829525900004, 24.87704529000007], [85.79669117200007, 24.87685252500006], [85.79503936100008, 24.877030083000022], [85.79367433200008, 24.877184053000065], [85.79309165900008, 24.87747053700008], [85.79156650100003, 24.87833368400004], [85.78997492300005, 24.878727660000038], [85.78858148100005, 24.879174999000043], [85.78890146200007, 24.882211614000028], [85.79029891900007, 24.884955455000068], [85.79141713600006, 24.88605268500004], [85.79283802400005, 24.886214606000067], [85.79422998500007, 24.88653902300007], [85.79495665900004, 24.887497792000033], [85.79520387500008, 24.888571116000037], [85.79523731800003, 24.889424149000035], [85.79493941800007, 24.89033246300005], [85.79329733300006, 24.890514513000028], [85.79116499400004, 24.89063053900003], [85.78855525100005, 24.891362215000072], [85.78686114100003, 24.893254993000028], [85.78455809200005, 24.896260441000038], [85.78365894300003, 24.898931237000056], [85.78178079600008, 24.900657626000054], [85.77807455300007, 24.901948247000064], [85.77802812600004, 24.903826046000063], [85.77863171100006, 24.903769736000072], [85.77923669100005, 24.904042940000068], [85.77972309300003, 24.90552626400006], [85.78027599200004, 24.907510340000044], [85.78083341800004, 24.910537030000057], [85.77951704600008, 24.912906914000075], [85.77970798900003, 24.915880796000067], [85.77893462000003, 24.917923718000054], [85.78050561600008, 24.91835599700005], [85.78376482400006, 24.918895029000055], [85.78594174900007, 24.918670577000057], [85.78726812400004, 24.917492219000053], [85.78641080100005, 24.91610509700007], [85.78687968700007, 24.912384151000026], [85.78784679400007, 24.910548040000037], [85.79052412400006, 24.910484239000027], [85.79349874700006, 24.909363038000038]]]]}}, {"type": "Feature", "properties": {"OBJECTID": 5073, "GPCODE": "95847", "GPNAME_1": "KABLA", "DIST_CEN_C": "36", "BLK_NAME": "PAKRIBARAWAN", "ST_NAME": "BIHAR", "ST_CODE_1": "10", "GPCODE2011": "98401", "REMARKS": "FINALIZED", "MAP_STATUS": "COMPLETED", "BLK_C_2001": "360005", "BLK_C_2011": "01515", "DIST_NAME": "NAWADA", "code2011": 0.0, "Shape_Leng": 0.16304015209, "Shape_Area": 0.00119329895, "Area": 13.3501}, "geometry": {"type": "MultiPolygon", "coordinates": [[[[85.78890146200007, 24.882211614000028], [85.78858148100005, 24.879174999000043], [85.78701739800005, 24.879063280000025], [85.78652850500004, 24.879304300000058], [85.78549045000005, 24.879542683000068], [85.78445023100005, 24.879280101000063], [85.78285194400007, 24.87926774700003], [85.78056660900006, 24.87945644100006], [85.77864162400004, 24.879404587000067], [85.77671750200005, 24.87958744100007], [85.77661693600004, 24.87919962500007], [85.77651961700008, 24.87842812400004], [85.77618887700004, 24.877445243000068], [85.77604782200007, 24.875689888000068], [85.77538786800005, 24.87409436200005], [85.77499862300004, 24.87330134800004], [85.77486646700004, 24.872471260000054], [85.77459997500006, 24.87147012300005], [85.77414391600007, 24.871268636000025], [85.77366028800003, 24.871563688000037], [85.77288430800007, 24.871774035000044], [85.77139592000003, 24.87198687500006], [85.77026188800005, 24.871751663000055], [85.76877255300008, 24.871756838000067], [85.76799150500005, 24.871908474000065], [85.76670082100009, 24.872089005000078], [85.76563320400004, 24.872358949000045], [85.76430344700003, 24.872661433000076], [85.76284977600005, 24.872901179000053], [85.76109880300004, 24.87305609400005], [85.75944585700006, 24.872971463000056], [85.75844193000006, 24.873092300000053], [85.75717647200008, 24.873380989000054], [85.75603540200007, 24.875054901000055], [85.75471173400007, 24.876864875000024], [85.75381816000004, 24.877359875000025], [85.75220133000005, 24.877658762000067], [85.75076574600007, 24.877501073000076], [85.74986375800006, 24.87714300400006], [85.74907022900004, 24.876685253000062], [85.74777654000007, 24.876134362000073], [85.74868035400004, 24.879408374000036], [85.74986004200008, 24.884834429000023], [85.74956337200007, 24.88733607900008], [85.74993696600006, 24.889167357000076], [85.74969985600006, 24.89049971000003], [85.74964049100004, 24.891723171000024], [85.75031473500007, 24.89205038500006], [85.75055945700007, 24.892595739000058], [85.75080732900005, 24.893926426000064], [85.75142213500004, 24.89542292400006], [85.75185649500008, 24.89758813000003], [85.75143800400008, 24.89936340400004], [85.75187095200005, 24.901176520000035], [85.75199986900003, 24.902453405000074], [85.75225113800008, 24.904614646000027], [85.75244190700005, 24.906500813000036], [85.75080462900007, 24.907950637000056], [85.75081296100007, 24.91000437300005], [85.75051937300003, 24.91205460900005], [85.75082485200005, 24.912942832000056], [85.75162268000008, 24.914416104000054], [85.75805407100006, 24.91364959400005], [85.76176292900004, 24.912860503000047], [85.76328192000005, 24.912746969000068], [85.76302774500004, 24.90991327100005], [85.76235199000007, 24.908082988000046], [85.76204056400007, 24.90697821200007], [85.76757423500004, 24.90590287200007], [85.77037763000004, 24.905229657000064], [85.77389293600004, 24.904382261000023], [85.77802812600004, 24.903826046000063], [85.77807455300007, 24.901948247000064], [85.78178079600008, 24.900657626000054], [85.78365894300003, 24.898931237000056], [85.78455809200005, 24.896260441000038], [85.78686114100003, 24.893254993000028], [85.78855525100005, 24.891362215000072], [85.79116499400004, 24.89063053900003], [85.79329733300006, 24.890514513000028], [85.79493941800007, 24.89033246300005], [85.79523731800003, 24.889424149000035], [85.79520387500008, 24.888571116000037], [85.79495665900004, 24.887497792000033], [85.79422998500007, 24.88653902300007], [85.79283802400005, 24.886214606000067], [85.79141713600006, 24.88605268500004], [85.79029891900007, 24.884955455000068], [85.78890146200007, 24.882211614000028]]]]}}, {"type": "Feature", "properties": {"OBJECTID": 5086, "GPCODE": "95848", "GPNAME_1": "KONANDPUR", "DIST_CEN_C": "36", "BLK_NAME": "PAKRIBARAWAN", "ST_NAME": "BIHAR", "ST_CODE_1": "10", "GPCODE2011": "98402", "REMARKS": "FINALIZED", "MAP_STATUS": "COMPLETED", "BLK_C_2001": "360005", "BLK_C_2011": "01515", "DIST_NAME": "NAWADA", "code2011": 0.0, "Shape_Leng": 0.16625419525, "Shape_Area": 0.00096721597, "Area": 10.8109}, "geometry": {"type": "MultiPolygon", "coordinates": [[[[85.70487677300008, 25.028045303000056], [85.70616958100004, 25.02799177600008], [85.70781458700003, 25.02804988300005], [85.70974635800007, 25.027980745000036], [85.71262986000005, 25.02803947700005], [85.71353181600006, 25.026786353000034], [85.71470135400006, 25.02558662200005], [85.71768893100005, 25.02567199600003], [85.71876355000006, 25.025542229000052], [85.72061020100006, 25.025233987000036], [85.72037037900003, 25.023397702000068], [85.72080040200007, 25.02315266000005], [85.72130626200004, 25.02330446600007], [85.72164879100006, 25.02477036700003], [85.72228307500006, 25.024831552000023], [85.72271641400005, 25.024157613000057], [85.72274801600008, 25.023331518000077], [85.72240687200008, 25.02094482700005], [85.72232896200006, 25.01871081200005], [85.72525208500008, 25.018823388000044], [85.72770472000008, 25.018937409000046], [85.72871186500004, 25.019331339000075], [85.72867300200005, 25.018261773000063], [85.72839898500007, 25.01657904800004], [85.72866365000004, 25.015846942000053], [85.72970317800008, 25.014403704000074], [85.72979902700007, 25.013577431000044], [85.72957956700003, 25.01063971600007], [85.72947708900006, 25.009750868000026], [85.72960877600008, 25.00923134800007], [85.73138141700008, 25.007785785000067], [85.73359543300006, 25.00649665900005], [85.73560444100008, 25.005998216000023], [85.73631273800004, 25.005995880000057], [85.73748791800006, 25.006303453000044], [85.73892443000005, 25.00633035800007], [85.74100910400006, 25.00616098000006], [85.74165091500004, 25.00563530100004], [85.74245166700007, 25.003985156000056], [85.74320968400008, 25.00401419900004], [85.74496761600005, 25.003909055000065], [85.74640188300003, 25.003380701000026], [85.74774321500007, 25.00332141900003], [85.75162314200008, 25.003389326000047], [85.75117011100008, 25.002010959000074], [85.75110290400005, 25.001269411000067], [85.75066206700006, 25.000541768000062], [85.75021797500006, 25.000118093000026], [85.74981577500006, 24.999993020000034], [85.74937413200007, 24.99968708700004], [85.74888916300006, 24.999127101000056], [85.74852810900006, 24.997582599000054], [85.74788205500005, 24.996306267000023], [85.74770927700007, 24.995964928000035], [85.74676683100006, 24.994263681000064], [85.74490395000004, 24.99467254700005], [85.74394777800006, 24.994384438000054], [85.74175379400003, 24.994435852000038], [85.74091689000005, 24.99458091400004], [85.73997615900004, 24.994861483000022], [85.73951532200005, 24.994604604000074], [85.73661292400004, 24.994548115000043], [85.73640497900004, 24.994615904000057], [85.73586985700007, 24.994313956000042], [85.73475043100007, 24.99424706800005], [85.73232833200007, 24.99395542800005], [85.73072332400005, 24.993636029000072], [85.72991170300008, 24.994404002000067], [85.72960470300006, 24.994404238000072], [85.72960939400008, 24.994101784000065], [85.72637540000005, 24.99434779300003], [85.72578631800008, 24.994650621000062], [85.72399384700003, 24.99519343700007], [85.72332549400005, 24.995545993000064], [85.72193908200006, 24.99602076900004], [85.71809046900006, 24.995562822000068], [85.71744668900004, 24.99580250500003], [85.71622417100008, 24.996904651000023], [85.71424334800008, 24.997257897000054], [85.71185610500004, 24.997363110000038], [85.71044494900008, 24.997905581000055], [85.70900871700007, 24.998096016000034], [85.70464525700004, 24.998179591000053], [85.70528853300004, 25.000478800000053], [85.70561030000005, 25.001344639000024], [85.70549021500005, 25.00504623300003], [85.70596967800003, 25.007464064000033], [85.70621336000005, 25.010397218000037], [85.70668390900005, 25.01171378300006], [85.70685800600006, 25.01324342500004], [85.70662658400005, 25.013641308000047], [85.70575140600005, 25.014072817000056], [85.70384076600004, 25.014444239000056], [85.70223190300004, 25.014724442000045], [85.69910909800006, 25.015528386000028], [85.69898230500007, 25.017456068000058], [85.69854923200006, 25.018224729000053], [85.69865792500008, 25.019506286000023], [85.69906311100004, 25.020579293000026], [85.69967012200004, 25.02130867900007], [85.69990670800007, 25.022350681000034], [85.69974012000006, 25.02283865800007], [85.69930583000007, 25.023300299000027], [85.70015560400003, 25.025378613000044], [85.70086761200008, 25.027700985000024], [85.70082220900008, 25.028838603000054], [85.70183273800006, 25.028803908000043], [85.70395616100006, 25.028291912000043], [85.70487677300008, 25.028045303000056]]]]}}, {"type": "Feature", "properties": {"OBJECTID": 5120, "GPCODE": "95850", "GPNAME_1": "PAKRI BARAWAN NORTH", "DIST_CEN_C": "36", "BLK_NAME": "PAKRIBARAWAN", "ST_NAME": "BIHAR", "ST_CODE_1": "10", "GPCODE2011": "98404", "REMARKS": "FINALIZED", "MAP_STATUS": "COMPLETED", "BLK_C_2001": "360005", "BLK_C_2011": "01515", "DIST_NAME": "NAWADA", "code2011": 0.0, "Shape_Leng": 0.1752202997, "Shape_Area": 0.00077025951, "Area": 8.61206}, "geometry": {"type": "MultiPolygon", "coordinates": [[[[85.77698816400004, 24.958301234000032], [85.77412862200003, 24.958156982000048], [85.77308165900007, 24.958918410000024], [85.77174916100006, 24.95948948000006], [85.77051184100003, 24.960060551000026], [85.76727577400004, 24.960250908000035], [85.76508667000007, 24.960250908000035], [85.76270720900004, 24.95929912300005], [85.75785310800006, 24.95929912300005], [85.75254532400004, 24.96004786000003], [85.75035622000007, 24.959524379000072], [85.74954720300008, 24.958953308000048], [85.74750086700004, 24.958049113000072], [85.74645390400008, 24.95719250700006], [85.74336060500008, 24.95685938300005], [85.74061437400007, 24.956767842000033], [85.74050525100006, 24.956764204000024], [85.73784025500004, 24.95685938300005], [85.73636498900004, 24.954527511000038], [85.73497835600006, 24.95425290000003], [85.73394204700008, 24.954047668000044], [85.73374615300008, 24.956390492000025], [85.73326735700005, 24.958106075000046], [85.73360497600004, 24.959198207000043], [85.73429418700005, 24.960258401000033], [85.73567053100004, 24.96014456200004], [85.73717039300004, 24.959696567000037], [85.73900259100003, 24.959830647000047], [85.74012161900004, 24.95987042200005], [85.74122112400005, 24.960262215000057], [85.74193973300004, 24.96088457700006], [85.74246492800006, 24.961281400000075], [85.74341202300008, 24.962688981000042], [85.74397792500008, 24.964223224000023], [85.74448857900006, 24.96482308700007], [85.74513393700005, 24.966515233000052], [85.74549713600004, 24.968302447000042], [85.74541849700006, 24.968934449000074], [85.74506272700006, 24.96967948400004], [85.74521654400007, 24.970026906000044], [85.74484106400007, 24.970844259000046], [85.74515534100004, 24.973182119000057], [85.74495783800006, 24.973787123000022], [85.74508858600007, 24.975876968000023], [85.74545161200007, 24.97739783000003], [85.74774231000004, 24.977138129000025], [85.74878657800008, 24.97697664900005], [85.74884417900006, 24.97653863000005], [85.74896352100006, 24.975436899000044], [85.75011268100008, 24.97548727800006], [85.75119848000008, 24.975813087000063], [85.75253147500007, 24.97602972100003], [85.75385563900005, 24.97530757100003], [85.75445394200005, 24.973874746000035], [85.75560165000007, 24.973595490000037], [85.75825967800006, 24.97331116400005], [85.76091046000005, 24.972476112000038], [85.76127119100005, 24.97109818100006], [85.76386613100004, 24.971143364000056], [85.76725241900004, 24.970964656000035], [85.76761599800005, 24.971459930000037], [85.76798346500004, 24.972889466000026], [85.76823335400007, 24.974599327000078], [85.76833858100008, 24.977275528000064], [85.77322915600007, 24.976761915000054], [85.77473307800005, 24.97642710100007], [85.77552257600007, 24.976920901000028], [85.77594562500008, 24.977415869000026], [85.77817855800004, 24.977295151000078], [85.78065220200006, 24.976735689000066], [85.78258132600007, 24.97623683000006], [85.78361349500005, 24.976725101000056], [85.78404079900008, 24.978213078000067], [85.78344236900006, 24.979533169000035], [85.78296439300004, 24.98008561300003], [85.78308540000006, 24.980581640000025], [85.78393437800008, 24.981075108000027], [85.78476109400003, 24.982141916000046], [85.78600355600008, 24.982015605000072], [85.78783347800004, 24.981476359000055], [85.79057052400003, 24.979972462000035], [85.79415938000005, 24.978528519000065], [85.79500671900007, 24.977514325000072], [85.79624317500009, 24.977153215000044], [85.79424938400007, 24.975350517000038], [85.79394126400007, 24.97397500900007], [85.79188074100006, 24.972718645000043], [85.78812866300007, 24.970804976000068], [85.78636277000004, 24.966681282000025], [85.78604878300007, 24.963929045000043], [85.78206831000006, 24.96290974200008], [85.77982929800004, 24.96154105200003], [85.77897135500007, 24.958908103000056], [85.77698816400004, 24.958301234000032]]]]}}, {"type": "Feature", "properties": {"OBJECTID": 5121, "GPCODE": "95849", "GPNAME_1": "PAKRI BARAWAN SOUTH", "DIST_CEN_C": "36", "BLK_NAME": "PAKRIBARAWAN", "ST_NAME": "BIHAR", "ST_CODE_1": "10", "GPCODE2011": "98403", "REMARKS": "FINALIZED", "MAP_STATUS": "COMPLETED", "BLK_C_2001": "360005", "BLK_C_2011": "01515", "DIST_NAME": "NAWADA", "code2011": 0.0, "Shape_Leng": 0.22587533358, "Shape_Area": 0.00148767487, "Area": 16.6371}, "geometry": {"type": "MultiPolygon", "coordinates": [[[[85.77174916100006, 24.95948948000006], [85.77308165900007, 24.958918410000024], [85.77412862200003, 24.958156982000048], [85.77698816400004, 24.958301234000032], [85.77583509100003, 24.957258102000026], [85.77471596200007, 24.95607945300003], [85.77371157100004, 24.955062902000066], [85.77247187700004, 24.95462940400006], [85.77147838400003, 24.955016541000077], [85.77060202900003, 24.955019616000072], [85.76951414500007, 24.95417033800004], [85.76775924100008, 24.953652857000066], [85.76661027000006, 24.953575613000055], [85.76545952300006, 24.953083091000053], [85.76479294500007, 24.95234059200004], [85.76423977900004, 24.950279763000026], [85.76423289800005, 24.94862327900006], [85.76688986400006, 24.94823038100003], [85.76691433100007, 24.946966503000056], [85.76633134300005, 24.944874174000063], [85.76605047600003, 24.942839479000043], [85.76634744000006, 24.94162420600003], [85.76742848700007, 24.94088021700003], [85.77029520500008, 24.939768884000046], [85.77331092400004, 24.938792431000024], [85.77886480400008, 24.937472850000063], [85.77870695200005, 24.936457818000065], [85.77724946200004, 24.933655448000025], [85.77700081200004, 24.93222552000003], [85.77682247100006, 24.929865445000075], [85.77675246500007, 24.928543171000058], [85.77608850700005, 24.928383091000057], [85.77295224000005, 24.928890641000066], [85.76915146600004, 24.92912056700004], [85.76854596800007, 24.928738993000024], [85.76782060400006, 24.929292171000043], [85.76570897200008, 24.929796035000038], [85.76287323900004, 24.929968307000024], [85.76154658500008, 24.929972844000076], [85.76177866300003, 24.927439806000052], [85.76285587500007, 24.925784133000036], [85.76212288900007, 24.92330856600006], [85.76217159200007, 24.920717500000023], [85.76101535300006, 24.918794124000044], [85.75768819200005, 24.917374687000063], [85.75454928900007, 24.915963460000057], [85.75279292600004, 24.914922185000023], [85.75162268000008, 24.914416104000054], [85.75187284500004, 24.91628392900003], [85.75235531100003, 24.916860131000078], [85.75341566700007, 24.917131857000072], [85.75341822200005, 24.91776831800007], [85.75290487600006, 24.918126589000053], [85.75191272800004, 24.918788954000036], [85.75092866800009, 24.920250182000075], [85.75141663600004, 24.92217594400006], [85.75003593800005, 24.923503046000064], [85.74834760600004, 24.924610053000038], [85.74775188800004, 24.925424485000065], [85.74719719100005, 24.925076686000068], [85.74671658500006, 24.924670848000062], [85.74563291200008, 24.92501475100005], [85.74447022300006, 24.92562057200007], [85.74354020200008, 24.926217179000048], [85.74248096700006, 24.92631728500004], [85.74093648300004, 24.92616049800006], [85.74046131900008, 24.92627370300005], [85.73882428200005, 24.927755520000062], [85.73822572600005, 24.928171263000024], [85.73751778400003, 24.928058905000057], [85.73662601900008, 24.927301252000063], [85.73472940200008, 24.92643156300005], [85.73422444200008, 24.926368683000078], [85.73192844400006, 24.927363365000076], [85.73139873900004, 24.92725090600004], [85.73069036800007, 24.926655570000037], [85.73022927500006, 24.925757704000034], [85.72916386700007, 24.92447650200006], [85.72853473600009, 24.923831413000073], [85.72790048300004, 24.92304647000003], [85.72683598000003, 24.922708663000037], [85.72603460000005, 24.92335465900004], [85.72605978000007, 24.923837701000025], [85.72676809900008, 24.924505200000056], [85.72747636700007, 24.92491546100007], [85.72725452200007, 24.926071207000064], [85.72695799900004, 24.926649191000024], [85.72655239700003, 24.926974444000052], [85.72642402600007, 24.927340182000023], [85.72645414700008, 24.927872792000073], [85.72544976600005, 24.928451221000046], [85.72260042100004, 24.93085443900003], [85.72720942600006, 24.931374955000024], [85.72711791500006, 24.93436769300007], [85.72699490900004, 24.93525249100003], [85.72710543100004, 24.93727015500008], [85.72711182700004, 24.938962765000042], [85.72722244400006, 24.941052654000032], [85.72722884900008, 24.942722780000054], [85.72671895800005, 24.94279079300003], [85.72544148100008, 24.942520848000072], [85.72439654600004, 24.942079200000023], [85.72253954300004, 24.941502626000045], [85.72249027500004, 24.941805079000062], [85.72269384600008, 24.942500047000067], [85.72359048400006, 24.94326680900008], [85.72448772300004, 24.944701688000066], [85.72515285600008, 24.946791105000045], [85.72625867900007, 24.948965987000065], [85.72651707300008, 24.950148415000058], [85.72722966300006, 24.949701135000055], [85.72773975200005, 24.949818116000074], [85.72845301500007, 24.95021031500005], [85.72909773700007, 24.951550514000076], [85.72940577500003, 24.95275993300004], [85.72986653200007, 24.95312979700003], [85.73299593300004, 24.953488625000034], [85.73394204700008, 24.954047668000044], [85.73497835600006, 24.95425290000003], [85.73636498900004, 24.954527511000038], [85.73784025500004, 24.95685938300005], [85.74050525100006, 24.956764204000024], [85.74061437400007, 24.956767842000033], [85.74336060500008, 24.95685938300005], [85.74645390400008, 24.95719250700006], [85.74750086700004, 24.958049113000072], [85.74954720300008, 24.958953308000048], [85.75035622000007, 24.959524379000072], [85.75254532400004, 24.96004786000003], [85.75785310800006, 24.95929912300005], [85.76270720900004, 24.95929912300005], [85.76508667000007, 24.960250908000035], [85.76727577400004, 24.960250908000035], [85.77051184100003, 24.960060551000026], [85.77174916100006, 24.95948948000006]]]]}}, {"type": "Feature", "properties": {"OBJECTID": 5131, "GPCODE": "95851", "GPNAME_1": "POKSI", "DIST_CEN_C": "36", "BLK_NAME": "PAKRIBARAWAN", "ST_NAME": "BIHAR", "ST_CODE_1": "10", "GPCODE2011": "98405", "REMARKS": "FINALIZED", "MAP_STATUS": "COMPLETED", "BLK_C_2001": "360005", "BLK_C_2011": "01515", "DIST_NAME": "NAWADA", "code2011": 0.0, "Shape_Leng": 0.1935011321, "Shape_Area": 0.00132520499, "Area": 14.8164}, "geometry": {"type": "MultiPolygon", "coordinates": [[[[85.69719932200007, 25.00662856400004], [85.69854174100004, 25.005279493000046], [85.70038154500008, 25.004511087000026], [85.70189195300009, 25.004443295000044], [85.70360387400007, 25.00391901200004], [85.70414634800005, 25.00462146900003], [85.70447913400005, 25.004864199000053], [85.70549021500005, 25.00504623300003], [85.70561030000005, 25.001344639000024], [85.70528853300004, 25.000478800000053], [85.70152075400006, 24.99938645800006], [85.70239174700004, 24.998239458000057], [85.70220807800007, 24.997630165000032], [85.70171733500007, 24.996948917000054], [85.70189528000003, 24.996294310000053], [85.70212290200004, 24.996086542000057], [85.70181536500007, 24.995314879000034], [85.70126518700005, 24.994633519000047], [85.70105615400007, 24.992918403000033], [85.70058470000004, 24.991514878000032], [85.70063292700007, 24.989271485000074], [85.70103784000008, 24.987375434000057], [85.70117999700005, 24.98503726900003], [85.70163453800006, 24.983375972000033], [85.70189122100004, 24.982107447000033], [85.70149992200004, 24.981899945000066], [85.70065803800009, 24.981950081000036], [85.69657211500004, 24.981423993000078], [85.69589770200008, 24.97974067000007], [85.69614900700003, 24.97763709900005], [85.69583030400008, 24.974667141000054], [85.69597773900006, 24.972721621000062], [85.69514980600007, 24.970921049000026], [85.69488197800007, 24.97017185800007], [85.69483197100004, 24.969377416000043], [85.69496043700008, 24.968862830000035], [85.69459356900006, 24.968118210000057], [85.69408340400008, 24.967838603000075], [85.69446428800006, 24.96717937300008], [85.69476535400008, 24.965472977000047], [85.69422515100007, 24.964538875000073], [85.69337289700007, 24.963555281000026], [85.69342226300006, 24.96320318000005], [85.69416465600005, 24.962737919000062], [85.69462431600004, 24.961193998000056], [85.69485083900008, 24.959103947000074], [85.69484002200005, 24.95739780200006], [85.69479014500007, 24.95679295700006], [85.69509671800006, 24.956133788000045], [85.69506635600004, 24.955009894000057], [85.69482823600003, 24.954102704000036], [85.69510969600003, 24.952811610000026], [85.69631238800008, 24.952179097000055], [85.69792611600008, 24.951636626000038], [85.69851990200004, 24.951117304000036], [85.69915793900003, 24.950060694000058], [85.69940979800003, 24.948891557000024], [85.69943384700008, 24.947812730000066], [85.69887438200004, 24.947682092000036], [85.69810103700007, 24.946138765000057], [85.69685343400005, 24.94602198900003], [85.69434793000005, 24.945300948000067], [85.69313041800007, 24.94597858700007], [85.69208144600003, 24.94712107400005], [85.69147800100006, 24.948227237000026], [85.69093372400005, 24.948728493000033], [85.68971548900004, 24.948205382000026], [85.68798746200008, 24.947917268000026], [85.68596752700006, 24.948012920000053], [85.68494287900006, 24.948220986000024], [85.68443271500007, 24.94792771300007], [85.68336752500005, 24.946357377000027], [85.68019945200007, 24.94730198800005], [85.68036887200003, 24.94969420600006], [85.68005234200007, 24.95033980000005], [85.68057327200006, 24.952844755000058], [85.68037569700004, 24.95384242800003], [85.67932625900005, 24.954194906000055], [85.67839546100004, 24.954344196000022], [85.67808439500004, 24.95624458800006], [85.67750543300008, 24.95699858300003], [85.67705499500005, 24.957233487000053], [85.67609946400006, 24.957473039000035], [85.67225231500004, 24.957451742000046], [85.67161874400006, 24.95786269000007], [85.67165420300006, 24.95993450700007], [85.67198158100007, 24.961572911000076], [85.67220537600008, 24.963911068000073], [85.67221642800007, 24.967062076000047], [85.67221645900008, 24.967070727000078], [85.67230752300009, 24.971891405000065], [85.67244695100004, 24.973877490000064], [85.67263127400008, 24.97687000800005], [85.67261210800007, 24.97836864900006], [85.67295403100007, 24.97890564900007], [85.67328598300008, 24.979393079000033], [85.67318216300004, 24.979767713000058], [85.67154316700004, 24.98021510700005], [85.67136509400007, 24.980689109000025], [85.67133558200004, 24.981370754000068], [85.67162325800007, 24.982372698000063], [85.67242073000006, 24.982936644000063], [85.67322336800004, 24.983843671000045], [85.67559131100006, 24.985684518000028], [85.67581953100006, 24.986623317000067], [85.67573572700007, 24.98754418900006], [85.67553829900004, 24.989015746000064], [85.67590599700009, 24.991985662000047], [85.67619387600007, 24.993461593000063], [85.67591201000005, 24.994441237000046], [85.67516944200008, 24.995308084000044], [85.67540810400004, 24.997483698000053], [85.67525989400008, 24.998585108000043], [85.67548825200004, 24.999848838000048], [85.67708830900006, 25.000241034000055], [85.67845693400005, 25.00036738700004], [85.67854951100009, 25.000375934000033], [85.68080797900006, 25.000208074000057], [85.68263080900005, 25.000505330000067], [85.68419595200004, 25.000617560000023], [85.68591953600009, 25.000463403000026], [85.68647016800008, 25.000909960000058], [85.68657716100006, 25.003143931000068], [85.68653404000008, 25.004976675000023], [85.68650752700006, 25.005879409000045], [85.68763270100004, 25.006092830000057], [85.69013367500008, 25.005990629000053], [85.69120814900003, 25.005879109000034], [85.69283260000003, 25.005815591000044], [85.69719932200007, 25.00662856400004]]]]}}]}