{"type": "FeatureCollection", "features": [{"type": "Feature", "properties": {"OBJECTID": 5010, "GPCODE": "95788", "GPNAME_1": "ANKRI  PANDEYBIGHA", "DIST_CEN_C": "36", "BLK_NAME": "MESKAUR", "ST_NAME": "BIHAR", "ST_CODE_1": "10", "GPCODE2011": "98342", "REMARKS": "FINALIZED", "MAP_STATUS": "COMPLETED", "BLK_C_2001": "360012", "BLK_C_2011": "01522", "DIST_NAME": "NAWADA", "code2011": 0.0, "Shape_Leng": 0.21064684555, "Shape_Area": 0.00090077799, "Area": 10.0915}, "geometry": {"type": "MultiPolygon", "coordinates": [[[[85.41156687600005, 24.761898218000056], [85.41234301500003, 24.75811922500003], [85.41220284100007, 24.75681938400004], [85.40976542900006, 24.756524119000062], [85.40934819800003, 24.75497169600004], [85.40934624000005, 24.75337835700003], [85.40925588400006, 24.752367346000028], [85.40966498100005, 24.751405427000066], [85.41012308000006, 24.750609248000046], [85.41048894500005, 24.750913840000067], [85.41066692100009, 24.750949976000072], [85.41081521900009, 24.750837072000024], [85.41081536900003, 24.750835835000032], [85.41085460900007, 24.750512033000064], [85.41078516700009, 24.749676995000073], [85.41252513200004, 24.74973073600006], [85.41267285300006, 24.74770842600003], [85.41334977900004, 24.74690025900003], [85.41593964600008, 24.746258658000045], [85.41846049200007, 24.746321112000032], [85.42031915500007, 24.746731288000035], [85.42054515800004, 24.743074928000055], [85.42081605500005, 24.740524502000028], [85.42116638400006, 24.738985100000036], [85.42365694900008, 24.737598555000034], [85.42463420600006, 24.734285014000022], [85.42377347400009, 24.732308191000072], [85.42337254300008, 24.730931557000076], [85.42103506200004, 24.731352061000052], [85.42015028700007, 24.731122153000058], [85.41703177200003, 24.73133068900006], [85.41481273700003, 24.731380896000076], [85.41430841400006, 24.730898052000043], [85.41337925100004, 24.730830619000074], [85.41320694500007, 24.732852884000067], [85.41227805200003, 24.733566345000042], [85.41170008700004, 24.734667889000036], [85.41119146000005, 24.736098948000063], [85.41048955800005, 24.736099070000023], [85.40970875700003, 24.736374666000074], [85.40847322400003, 24.736447119000047], [85.40683715600005, 24.736122515000034], [85.40425226000008, 24.736434426000073], [85.40392603300006, 24.736091429000055], [85.40387163100007, 24.735838683000054], [85.40323854700006, 24.73424985400004], [85.40318885400006, 24.73303112700006], [85.40104381100008, 24.732525937000048], [85.39679344100006, 24.732987078000065], [85.39276552500007, 24.733244910000053], [85.39109990500003, 24.733199872000057], [85.39115444800007, 24.73412075300007], [85.39143134100004, 24.735362031000022], [85.39170829500006, 24.73625578800005], [85.39223723800006, 24.737334576000023], [85.39218803800009, 24.73834568600006], [85.39165932300006, 24.739406545000065], [85.39163487100006, 24.741315989000043], [85.39206498200008, 24.742462448000026], [85.39269294600007, 24.743640497000058], [85.39319224000008, 24.74432655000004], [85.39383990200008, 24.74557687300006], [85.39341507400007, 24.74715224600004], [85.39314334400007, 24.74760821500007], [85.39351904600005, 24.748339402000056], [85.39444358700007, 24.74925113200004], [85.39564484200008, 24.74977009400004], [85.39676703400005, 24.750501136000025], [85.39683702500008, 24.750822619000076], [85.39559648000005, 24.750995377000038], [85.39403425700004, 24.75078477900007], [85.39293214200006, 24.750912136000068], [85.39136579500007, 24.75150052200007], [85.39030807500006, 24.751587245000053], [85.38966514200007, 24.751294443000063], [85.38916117200006, 24.751421322000056], [85.38824155000003, 24.751295726000023], [85.38750507500004, 24.751337025000055], [85.38635912000007, 24.752091894000046], [85.38525166500006, 24.75192594600003], [85.38290809800003, 24.751426970000068], [85.38047148500004, 24.75172251300006], [85.37872714800005, 24.75222503200007], [85.37748691600007, 24.75273169600007], [85.37463509800006, 24.753068064000047], [85.37159994500007, 24.753029991000062], [85.36971656000009, 24.752905050000038], [85.36760043500004, 24.752473379000037], [85.36682267200007, 24.755958732000067], [85.36604376300005, 24.758184700000072], [85.36554161100008, 24.760365379000064], [85.36540456400007, 24.761837037000078], [85.36760913600006, 24.761681838000072], [85.36903281200006, 24.761554344000047], [85.37096572200005, 24.761552736000056], [85.37294265700007, 24.761090763000027], [85.37445981900004, 24.760624517000053], [85.37537837400004, 24.75974362000005], [85.37611476200004, 24.75957598100007], [85.37785990900005, 24.759741505000022], [85.37969865100007, 24.759532276000073], [85.38195317600008, 24.759778566000023], [85.38347048800006, 24.759529007000026], [85.38379123700008, 24.75902307100006], [85.38401670600007, 24.757176739000045], [85.38420404600004, 24.756716088000076], [85.38539548500006, 24.756882060000066], [85.38728413500007, 24.757133123000074], [85.38650571000005, 24.759526220000055], [85.38618303800007, 24.762799087000076], [85.38650963200007, 24.763051635000068], [85.39096949200007, 24.76380127500005], [85.39354517900006, 24.76382141700003], [85.39418688800004, 24.763044428000057], [85.39505588400004, 24.762163393000037], [85.39551400500005, 24.760777202000043], [85.39565049100008, 24.759052718000078], [85.39864102400009, 24.75893240700003], [85.39891963100007, 24.76043977100005], [85.39924161100004, 24.76098561400005], [85.40135744500003, 24.760942949000025], [85.40319746800003, 24.761866418000068], [85.40521920400005, 24.761737906000064], [85.40678142400003, 24.761817569000073], [85.40779895600008, 24.765053], [85.41065148100006, 24.765090606000058], [85.41156687600005, 24.761898218000056]]]]}}, {"type": "Feature", "properties": {"OBJECTID": 5021, "GPCODE": "95789", "GPNAME_1": "BARAT", "DIST_CEN_C": "36", "BLK_NAME": "MESKAUR", "ST_NAME": "BIHAR", "ST_CODE_1": "10", "GPCODE2011": "98343", "REMARKS": "FINALIZED", "MAP_STATUS": "COMPLETED", "BLK_C_2001": "360012", "BLK_C_2011": "01522", "DIST_NAME": "NAWADA", "code2011": 0.0, "Shape_Leng": 0.19692359272, "Shape_Area": 0.00121963626, "Area": 13.6571}, "geometry": {"type": "MultiPolygon", "coordinates": [[[[85.39064265000007, 24.824251919000062], [85.39055223700007, 24.823078415000055], [85.39031856300005, 24.821986198000047], [85.39077748800008, 24.821060491000026], [85.39080528600005, 24.819372188000045], [85.39072932900007, 24.81782855800003], [85.39091126200003, 24.816903036000042], [85.39128645600005, 24.816351989000054], [85.39156229000008, 24.815304523000066], [85.39174388000004, 24.814171353000063], [85.39110002500007, 24.813332354000067], [85.39114279900008, 24.81177499100005], [85.39178366400006, 24.81000952200003], [85.39169334900004, 24.808872031000078], [85.39196420500008, 24.807865179000032], [85.39187449000008, 24.807278505000056], [85.39127511500004, 24.80635374700006], [85.39095266600003, 24.805473758000062], [85.39104046600005, 24.80442198700007], [85.39071802700005, 24.803542089000075], [85.39002995100003, 24.802910722000036], [85.38975194400007, 24.801990208000063], [85.38947313800008, 24.800306800000044], [85.38919546600005, 24.799593839000067], [85.38813674400006, 24.799174962000052], [85.38767670300007, 24.799008427000047], [85.38735399900008, 24.797875729000054], [85.38689366000006, 24.79745630900004], [85.38647693800004, 24.796278615000062], [85.38693970200006, 24.794391314000052], [85.38560397700007, 24.793805758000076], [85.38458933000004, 24.792881280000074], [85.38362354900005, 24.79145575000007], [85.38344001600007, 24.790909748000047], [85.38295526900004, 24.790783770000075], [85.38221878500008, 24.79099658000007], [85.38145777700004, 24.79145770100007], [85.38082580800005, 24.792388138000035], [85.38082671700005, 24.79320059300005], [85.38105517000008, 24.79413031400003], [85.38125964300008, 24.79575515600004], [85.38113306600007, 24.797709757000064], [85.38086225800004, 24.798748190000026], [85.38040315400008, 24.799493402000053], [85.37984498200007, 24.800116770000045], [85.37908381800008, 24.800469538000073], [85.37804051200004, 24.800560725000025], [85.37623558400009, 24.800494557000036], [85.37465818300007, 24.800586090000024], [85.37374360200005, 24.800799072000075], [85.37333841900005, 24.801101823000067], [85.37310649300008, 24.80165723600004], [85.37280618600005, 24.802957494000054], [85.37245047300007, 24.803354977000026], [85.37183734800004, 24.803355504000024], [85.37117919500008, 24.802981344000045], [85.37089694500008, 24.80258884400007], [85.37023388800003, 24.802169615000025], [85.36896268100008, 24.801777904000062], [85.36845325800005, 24.801728652000065], [85.36761781500007, 24.80203170900006], [85.36718273000008, 24.802032104000034], [85.36682621600005, 24.801639693000027], [85.36692974800008, 24.80126942100003], [85.36659772800004, 24.800547443000028], [85.36636996700008, 24.800200118000078], [85.36519258600003, 24.79972698800003], [85.36343702700003, 24.79959289800007], [85.36221577300006, 24.799824026000067], [85.36132596900006, 24.800082045000067], [85.36099488400004, 24.800335018000055], [85.36054018800007, 24.800615225000058], [85.36012966600003, 24.800570433000075], [85.35979816900004, 24.800290824000058], [85.35982730800004, 24.799731053000073], [85.35959440100004, 24.79922110700005], [85.35929248100007, 24.798873768000078], [85.35896115300005, 24.798874037000076], [85.35872879300007, 24.798919328000068], [85.35855099800006, 24.79910902200004], [85.35850190600007, 24.79952438400005], [85.35865554900005, 24.800011750000067], [85.35860680000008, 24.800779121000062], [85.35835003900007, 24.801149457000065], [85.35812264000003, 24.801221845000043], [85.35771712800005, 24.80122219900005], [85.35738561000005, 24.801082437000048], [85.35682668100003, 24.80092035100006], [85.35618890600006, 24.80096598600005], [85.35598603400007, 24.800871319000066], [85.35565426900007, 24.800384053000073], [85.35511964600005, 24.799666690000038], [85.35428371800003, 24.799364869000044], [85.35382388700003, 24.799505107000073], [85.35351760000003, 24.79983035300006], [85.35278111300005, 24.80027315500007], [85.35227237100008, 24.800991254000053], [85.35156059200006, 24.801339314000074], [85.35100187500007, 24.80133971400005], [85.35021537200004, 24.801109952000047], [85.34939952400003, 24.801200795000057], [85.34886578500004, 24.80157583500005], [85.34828249200007, 24.801851527000053], [85.34792642200006, 24.801919514000076], [85.34774355500008, 24.80204598800003], [85.34590415300005, 24.802254832000074], [85.34489644000007, 24.80360063200004], [85.34457517200008, 24.80376782600007], [85.34411488000006, 24.80330774500004], [85.34121732000006, 24.803684185000066], [85.33960990000008, 24.80338715700003], [85.33942348700003, 24.805486288000054], [85.33937117000005, 24.80829393700003], [85.33946845400004, 24.812907077000034], [85.33928824000003, 24.816640231000065], [85.33905739100004, 24.818865720000076], [85.33951810900004, 24.819998420000047], [85.34043863900007, 24.820837443000073], [85.34181848400004, 24.820710270000063], [85.34237299100005, 24.821463745000074], [85.34319904900008, 24.821634692000032], [85.34697275800005, 24.821713569000053], [85.34775407900008, 24.82150546400004], [85.34821325400009, 24.82049853700005], [85.34867287400004, 24.820159701000023], [85.35400326700005, 24.818774889000053], [85.35855289000006, 24.818225425000037], [85.36549588400004, 24.81734000800003], [85.36568057800008, 24.81918157800004], [85.36649174700005, 24.81923960200004], [85.36872732500007, 24.819377786000075], [85.37063670000003, 24.819611036000026], [85.37063809800009, 24.821096089000036], [85.37127119500008, 24.82116323400004], [85.37127161600006, 24.821605617000046], [85.37289933700004, 24.822069198000065], [85.37335456800008, 24.82228099500003], [85.37382960600007, 24.82251983200007], [85.37443840900005, 24.82299787100004], [85.37564535100006, 24.823141285000077], [85.37609578400009, 24.82347945600003], [85.37630367900005, 24.82366881400003], [85.37727813200007, 24.823717685000076], [85.37878156900007, 24.823644192000074], [85.37922779500008, 24.824677422000036], [85.37930823900007, 24.825878085000056], [85.37986396900004, 24.827628950000076], [85.38052314200007, 24.828901379000058], [85.38089606600005, 24.830729090000034], [85.38104665100008, 24.832827945000076], [85.38118730200006, 24.83480037700008], [85.38348823100006, 24.835633485000074], [85.38546751700005, 24.83626358600003], [85.38836627700005, 24.836468638000042], [85.39047719900003, 24.835333610000077], [85.39070907400009, 24.834791722000034], [85.39121316500007, 24.834412143000065], [85.39263767400007, 24.834410741000056], [85.39397137500004, 24.832816105000063], [85.39290555900004, 24.83080396500003], [85.39281545200004, 24.829838018000032], [85.39295317400007, 24.82920599700003], [85.39267563200008, 24.828745843000036], [85.39184366200004, 24.827861923000057], [85.39092182100006, 24.826228728000046], [85.39064265000007, 24.824251919000062]]]]}}, {"type": "Feature", "properties": {"OBJECTID": 5024, "GPCODE": "95790", "GPNAME_1": "BAROSAR", "DIST_CEN_C": "36", "BLK_NAME": "MESKAUR", "ST_NAME": "BIHAR", "ST_CODE_1": "10", "GPCODE2011": "98344", "REMARKS": "FINALIZED", "MAP_STATUS": "COMPLETED", "BLK_C_2001": "360012", "BLK_C_2011": "01522", "DIST_NAME": "NAWADA", "code2011": 0.0, "Shape_Leng": 0.1903160665, "Shape_Area": 0.00110436466, "Area": 12.3699}, "geometry": {"type": "MultiPolygon", "coordinates": [[[[85.32369449100008, 24.799956206000047], [85.32415916900004, 24.799703220000026], [85.32636475700008, 24.799914255000033], [85.33032079400004, 24.79999348800004], [85.33404436600006, 24.79999147700005], [85.33380928200006, 24.79605091600007], [85.33417939700007, 24.795003525000027], [85.33380673600004, 24.79235851900006], [85.33297886500003, 24.789212776000056], [85.33224033900007, 24.78656806400005], [85.33141231200005, 24.783088258000078], [85.33619365100003, 24.783333834000075], [85.33651483700004, 24.78308540100005], [85.33619283800004, 24.78220086700003], [85.33481192900007, 24.78002142500003], [85.33439519500007, 24.777882058000046], [85.33407291500004, 24.77662284300004], [85.33351842000008, 24.77540896800008], [85.33279036700003, 24.773603729000058], [85.33200737300007, 24.770792037000035], [85.33329270200005, 24.77071001400003], [85.33715273600006, 24.769195676000038], [85.33686267500008, 24.76445176900006], [85.33658366400005, 24.761305635000042], [85.33667568900006, 24.758619835000047], [85.33653648000006, 24.757446319000053], [85.33566187000008, 24.757947819000037], [85.33240040900006, 24.75962883400007], [85.33001321300009, 24.760343352000064], [85.32794198500005, 24.760470836000025], [85.32494275300007, 24.762774446000037], [85.32273258400005, 24.762188696000067], [85.31979067100008, 24.761264707000066], [85.31771929200005, 24.761098721000053], [85.31716585000004, 24.761473601000034], [85.31601956800006, 24.762566511000045], [85.31445759200005, 24.762905660000058], [85.31256915300008, 24.76290650100003], [85.31146784400005, 24.765091666000046], [85.31229366300005, 24.76563304000007], [85.31238778900007, 24.766052759000047], [85.31215576600005, 24.76651779900004], [85.31160711300004, 24.766897191000055], [85.31225525400004, 24.767858432000025], [85.31311638000005, 24.769690685000057], [85.31336944000003, 24.771392328000047], [85.31336991500007, 24.77228744100006], [85.31337022100007, 24.772863864000044], [85.31287149100007, 24.774168624000026], [85.31247666000007, 24.77550941900006], [85.31262067900008, 24.77672358800004], [85.31254678900007, 24.777179587000035], [85.31229961800005, 24.77737373700006], [85.31169156200008, 24.77737403900005], [85.31158302600005, 24.77789765400007], [85.31093560700003, 24.77855240200006], [85.31058000400003, 24.779238744000054], [85.30982857700008, 24.77943762700005], [85.30842920700007, 24.779108617000077], [85.30710394200008, 24.778653225000028], [85.30546235200006, 24.778342379000037], [85.30417201500006, 24.778415127000073], [85.30304467900004, 24.77827101200006], [85.30244139700005, 24.77808621300005], [85.30264430000005, 24.778528453000035], [85.30272407800004, 24.78014448500005], [85.30216101900004, 24.781395032000034], [85.30167663200007, 24.78183749300007], [85.30058897300006, 24.782059124000057], [85.30014400900006, 24.781986983000024], [85.29970303100004, 24.779815948000078], [85.29893612300003, 24.778344667000056], [85.29712094400008, 24.77658030300006], [85.29647812400003, 24.77625100100005], [85.29483210300003, 24.777357394000035], [85.29473345200006, 24.777948738000077], [85.29289481400008, 24.77958334400006], [85.29248960600006, 24.78032210400005], [85.29138107400007, 24.781365425000047], [85.29138103200006, 24.781462436000027], [85.29140539700006, 24.781904825000026], [85.29134062900005, 24.782667649000075], [85.29158689000008, 24.78416640300003], [85.29178893400007, 24.78507383500005], [85.29197167600006, 24.785448605000056], [85.29233721400004, 24.78592728700005], [85.29266838000007, 24.786166696000066], [85.29339987400004, 24.786523742000043], [85.29410656200008, 24.787133512000025], [85.29458581400007, 24.787707047000026], [85.29466479400008, 24.787946262000048], [85.29466444900004, 24.788388669000028], [85.29460977500008, 24.78882646900007], [85.29617642500006, 24.78921059700008], [85.29821861700003, 24.789390509000043], [85.29950880700005, 24.788437637000072], [85.30055133200005, 24.786527860000035], [85.30129761700005, 24.785936278000065], [85.30155964600004, 24.785773697000025], [85.30199498000007, 24.786211450000053], [85.30209443100006, 24.78770998500005], [85.30214439500008, 24.788843], [85.30334130800009, 24.789524137000058], [85.30418710500004, 24.790160311000022], [85.30523119900005, 24.791884226000036], [85.30647166100005, 24.790475409000067], [85.30716862100007, 24.79002378000007], [85.30726777400008, 24.790596994000055], [85.30732237800004, 24.791066439000076], [85.30696160900004, 24.791536077000046], [85.30685810700004, 24.792289922000066], [85.30706113500008, 24.79285403600005], [85.30881719300004, 24.794306902000073], [85.30975221200003, 24.795164122000074], [85.31117204600008, 24.796621532000074], [85.31163706500007, 24.797045707000052], [85.31181542100006, 24.79763240500006], [85.31207287900008, 24.79819657200005], [85.31287425700003, 24.798805578000042], [85.31472932600008, 24.800240229000053], [85.31730147300004, 24.80162490500004], [85.31910687700008, 24.802423051000062], [85.32015069600004, 24.80304549600004], [85.32120881200007, 24.80295013800003], [85.32242509100007, 24.802516276000063], [85.32337388400003, 24.80135572100005], [85.32358592100007, 24.80043929200008], [85.32369449100008, 24.799956206000047]]]]}}, {"type": "Feature", "properties": {"OBJECTID": 5033, "GPCODE": "95791", "GPNAME_1": "BIJU BIGHA", "DIST_CEN_C": "36", "BLK_NAME": "MESKAUR", "ST_NAME": "BIHAR", "ST_CODE_1": "10", "GPCODE2011": "98345", "REMARKS": "FINALIZED", "MAP_STATUS": "COMPLETED", "BLK_C_2001": "360012", "BLK_C_2011": "01522", "DIST_NAME": "NAWADA", "code2011": 0.0, "Shape_Leng": 0.1452840745, "Shape_Area": 0.00065671157, "Area": 7.3579}, "geometry": {"type": "MultiPolygon", "coordinates": [[[[85.38047148500004, 24.75172251300006], [85.38290809800003, 24.751426970000068], [85.38525166500006, 24.75192594600003], [85.38635912000007, 24.752091894000046], [85.38750507500004, 24.751337025000055], [85.38824155000003, 24.751295726000023], [85.38916117200006, 24.751421322000056], [85.38966514200007, 24.751294443000063], [85.39030807500006, 24.751587245000053], [85.39136579500007, 24.75150052200007], [85.39293214200006, 24.750912136000068], [85.39403425700004, 24.75078477900007], [85.39559648000005, 24.750995377000038], [85.39683702500008, 24.750822619000076], [85.39676703400005, 24.750501136000025], [85.39564484200008, 24.74977009400004], [85.39444358700007, 24.74925113200004], [85.39351904600005, 24.748339402000056], [85.39314334400007, 24.74760821500007], [85.39341507400007, 24.74715224600004], [85.39383990200008, 24.74557687300006], [85.39319224000008, 24.74432655000004], [85.39269294600007, 24.743640497000058], [85.39206498200008, 24.742462448000026], [85.39163487100006, 24.741315989000043], [85.39165932300006, 24.739406545000065], [85.39218803800009, 24.73834568600006], [85.39223723800006, 24.737334576000023], [85.39170829500006, 24.73625578800005], [85.39143134100004, 24.735362031000022], [85.39115444800007, 24.73412075300007], [85.39109990500003, 24.733199872000057], [85.39276552500007, 24.733244910000053], [85.39679344100006, 24.732987078000065], [85.40104381100008, 24.732525937000048], [85.40318885400006, 24.73303112700006], [85.40310924400006, 24.73074260100003], [85.40300520200003, 24.729478697000047], [85.40267888600005, 24.72895060700006], [85.40141850400005, 24.728350486000068], [85.40002961200008, 24.727641993000077], [85.39907570400004, 24.727114038000025], [85.39869508000004, 24.726721432000033], [85.39889744700008, 24.725597433000075], [85.39962844300004, 24.723620114000028], [85.39955425900007, 24.723340328000063], [85.39912918300007, 24.723087570000075], [85.39791848200008, 24.723087763000024], [85.39537822500006, 24.722952700000064], [85.39507178200006, 24.72270001800007], [85.39524953900008, 24.721436014000062], [85.39454281000008, 24.721093044000042], [85.39416705200006, 24.720262539000032], [85.39426566000003, 24.71913858100004], [85.39277842300004, 24.720127311000056], [85.39235346500004, 24.720863105000035], [85.39152334500005, 24.721228876000055], [85.39106860700008, 24.721206357000028], [85.39041636600007, 24.72162164300005], [85.38961089600008, 24.721969313000045], [85.38827662000006, 24.72233960500006], [85.38799981700004, 24.722131939000064], [85.38744627300008, 24.721373690000064], [85.38689270000003, 24.720340059000023], [85.38565709100004, 24.71891372300007], [85.38555812300007, 24.718060539000078], [85.38456981500008, 24.71790268600006], [85.38397186800006, 24.71809226000005], [85.38333929600003, 24.718114901000035], [85.38359145100009, 24.718755809000072], [85.38346793800008, 24.720272554000076], [85.38369544900007, 24.721996869000066], [85.38389823900008, 24.72383407700005], [85.38105661200007, 24.724822709000023], [85.38100719000005, 24.725210925000056], [85.38103200700004, 24.72733248800006], [85.38088883500006, 24.729679738000073], [85.38106191800006, 24.731489881000073], [85.38156111700005, 24.73255960700004], [85.38228774500004, 24.733471405000046], [85.38071610900005, 24.734040252000057], [85.37919390000008, 24.73456838800007], [85.37834382600005, 24.734708412000032], [85.37639650000006, 24.73502885000005], [85.37524494400003, 24.735119206000036], [85.37449854700003, 24.73536744200004], [85.37404885600006, 24.73577817100005], [85.37407353600008, 24.73655461900006], [85.37367319800006, 24.73706018100006], [85.37297630400008, 24.73710528500004], [85.37194825900008, 24.737312925000026], [85.37030729000008, 24.738134397000067], [85.36888388800008, 24.738685059000034], [85.36868108700008, 24.740716321000036], [85.36789019600008, 24.742864974000042], [85.36776650900003, 24.74430034100004], [85.36751432000005, 24.747058381000045], [85.36764771500003, 24.748791777000065], [85.36767235400004, 24.749978939000073], [85.36777720400005, 24.750491956000076], [85.36777655800006, 24.750500638000062], [85.36760043500004, 24.752473379000037], [85.36971656000009, 24.752905050000038], [85.37159994500007, 24.753029991000062], [85.37463509800006, 24.753068064000047], [85.37748691600007, 24.75273169600007], [85.37872714800005, 24.75222503200007], [85.38047148500004, 24.75172251300006]]]]}}, {"type": "Feature", "properties": {"OBJECTID": 5037, "GPCODE": "95792", "GPNAME_1": "BISIAIT", "DIST_CEN_C": "36", "BLK_NAME": "MESKAUR", "ST_NAME": "BIHAR", "ST_CODE_1": "10", "GPCODE2011": "98346", "REMARKS": "FINALIZED", "MAP_STATUS": "COMPLETED", "BLK_C_2001": "360012", "BLK_C_2011": "01522", "DIST_NAME": "NAWADA", "code2011": 0.0, "Shape_Leng": 0.18655444588, "Shape_Area": 0.0013510992, "Area": 15.1375}, "geometry": {"type": "MultiPolygon", "coordinates": [[[[85.29403767700006, 24.768031861000054], [85.29747354800008, 24.76777801000003], [85.29999981900005, 24.767840383000078], [85.30424644400006, 24.767775759000074], [85.30641656100005, 24.767422891000024], [85.30803288100003, 24.766939250000064], [85.30859134900004, 24.76655538800003], [85.30947114800006, 24.766266133000045], [85.31038089600008, 24.766396685000075], [85.31160711300004, 24.766897191000055], [85.31215576600005, 24.76651779900004], [85.31238778900007, 24.766052759000047], [85.31229366300005, 24.76563304000007], [85.31146784400005, 24.765091666000046], [85.31256915300008, 24.76290650100003], [85.31445759200005, 24.762905660000058], [85.31601956800006, 24.762566511000045], [85.31716585000004, 24.761473601000034], [85.31771929200005, 24.761098721000053], [85.31979067100008, 24.761264707000066], [85.32273258400005, 24.762188696000067], [85.32494275300007, 24.762774446000037], [85.32794198500005, 24.760470836000025], [85.33001321300009, 24.760343352000064], [85.33240040900006, 24.75962883400007], [85.33566187000008, 24.757947819000037], [85.33653648000006, 24.757446319000053], [85.33791478800003, 24.756226739000056], [85.33897172400003, 24.75488542000005], [85.33902249500005, 24.75047121500006], [85.33857290200007, 24.74972182700003], [85.33747564700008, 24.749310767000054], [85.33700134700007, 24.74878251100006], [85.33577551500008, 24.748673835000034], [85.33540478800006, 24.748538332000066], [85.33509876500005, 24.747102854000048], [85.33477324500006, 24.74504893900007], [85.33527258400005, 24.74443061100004], [85.33627129200005, 24.743812508000076], [85.33642466300006, 24.743266307000056], [85.33616795400008, 24.742151300000046], [85.33604468300007, 24.741329715000063], [85.33569884100007, 24.740801524000062], [85.33507594300005, 24.741072194000026], [85.33363763100004, 24.741026684000076], [85.33311877800008, 24.740845997000065], [85.33294603700006, 24.74007402700005], [85.33210586300004, 24.739712634000057], [85.33066765800004, 24.73957680600006], [85.33076704300004, 24.73801499700005], [85.33091061300007, 24.73729280400005], [85.33086149300004, 24.736295263000045], [85.33105962200005, 24.735234541000068], [85.32981896600006, 24.735351499000046], [85.32820763000007, 24.735734704000038], [85.32692242400003, 24.736208246000047], [85.32536041800006, 24.73652375100005], [85.32347716400005, 24.737006122000025], [85.32179163500007, 24.737298861000056], [85.32070924400006, 24.737321102000067], [85.31956916800004, 24.733610209000062], [85.31921929800006, 24.731168038000078], [85.31881930600008, 24.730359854000028], [85.31870613600006, 24.729389302000072], [85.31809382400007, 24.728188413000055], [85.31703124900008, 24.72818792700008], [85.31543492600008, 24.72829114700005], [85.31173843900007, 24.727806601000054], [85.30927728200004, 24.727575358000024], [85.30819047400007, 24.72681650000004], [85.30799287600007, 24.72660882400004], [85.30704474900006, 24.725299316000076], [85.30645686200006, 24.724865719000036], [85.30500398200007, 24.724711553000077], [85.30293326200007, 24.72476923800008], [85.30310074200008, 24.72566312200007], [85.30281804000003, 24.72737373800004], [85.30285185000008, 24.728827297000066], [85.30369107300004, 24.730588139000076], [85.30391274100003, 24.731888197000046], [85.30434209700007, 24.73298985100007], [85.30434161600004, 24.73386104100007], [85.30408916500005, 24.734551573000033], [85.30411349800005, 24.735187993000068], [85.30431452800008, 24.737973235000027], [85.30409141200005, 24.739223546000062], [85.30369581700006, 24.739557300000058], [85.30204979000007, 24.73984090700003], [85.30009241800008, 24.740043069000023], [85.29919736000005, 24.740810030000034], [85.29765518800008, 24.740840812000044], [85.29670626600006, 24.74073650300005], [85.29463619600006, 24.739304508000032], [85.29399314100004, 24.74017527500007], [85.29399274100007, 24.740861463000044], [85.29461015900006, 24.741426021000052], [85.29435777800006, 24.741963044000045], [85.29500458700005, 24.743064807000053], [85.29508820300003, 24.743728395000062], [85.29634719700005, 24.745949960000075], [85.29603552600008, 24.746333416000027], [85.29564485700007, 24.74668982600008], [85.29380062200005, 24.747532917000058], [85.29201596100006, 24.747843466000063], [85.29078524100004, 24.747788589000038], [85.28972239700005, 24.748045234000074], [85.29011235000007, 24.748718030000077], [85.29020588300006, 24.749282333000053], [85.29007652400009, 24.750564221000047], [85.28979559600003, 24.751656456000035], [85.29005309400003, 24.752893198000038], [85.29079576000004, 24.756544742000074], [85.29098893600008, 24.757632597000054], [85.29076653700008, 24.75789901400003], [85.28837909500004, 24.758341942000072], [85.28815174200008, 24.758694111000068], [85.28805337800009, 24.760048356000027], [85.28821711400008, 24.762196877000065], [85.28860335600007, 24.76416935700007], [85.28789642600003, 24.764128920000076], [85.28715999400004, 24.764833331000034], [85.28709095800008, 24.76537501300004], [85.28768952600007, 24.766404014000045], [85.28877764100008, 24.768259012000044], [85.29122980700004, 24.768420803000026], [85.29403767700006, 24.768031861000054]]]]}}, {"type": "Feature", "properties": {"OBJECTID": 5102, "GPCODE": "95793", "GPNAME_1": "MESKAUR", "DIST_CEN_C": "36", "BLK_NAME": "MESKAUR", "ST_NAME": "BIHAR", "ST_CODE_1": "10", "GPCODE2011": "98347", "REMARKS": "FINALIZED", "MAP_STATUS": "COMPLETED", "BLK_C_2001": "360012", "BLK_C_2011": "01522", "DIST_NAME": "NAWADA", "code2011": 0.0, "Shape_Leng": 0.20618964998, "Shape_Area": 0.00126120676, "Area": 14.1321}, "geometry": {"type": "MultiPolygon", "coordinates": [[[[85.36554161100008, 24.760365379000064], [85.36604376300005, 24.758184700000072], [85.36682267200007, 24.755958732000067], [85.36760043500004, 24.752473379000037], [85.36777655800006, 24.750500638000062], [85.36777720400005, 24.750491956000076], [85.36767235400004, 24.749978939000073], [85.36764771500003, 24.748791777000065], [85.36751432000005, 24.747058381000045], [85.36776650900003, 24.74430034100004], [85.36789019600008, 24.742864974000042], [85.36868108700008, 24.740716321000036], [85.36888388800008, 24.738685059000034], [85.37030729000008, 24.738134397000067], [85.37194825900008, 24.737312925000026], [85.37297630400008, 24.73710528500004], [85.37367319800006, 24.73706018100006], [85.37407353600008, 24.73655461900006], [85.37404885600006, 24.73577817100005], [85.37449854700003, 24.73536744200004], [85.37524494400003, 24.735119206000036], [85.37639650000006, 24.73502885000005], [85.37834382600005, 24.734708412000032], [85.37919390000008, 24.73456838800007], [85.38071610900005, 24.734040252000057], [85.38228774500004, 24.733471405000046], [85.38156111700005, 24.73255960700004], [85.38106191800006, 24.731489881000073], [85.38088883500006, 24.729679738000073], [85.38103200700004, 24.72733248800006], [85.38100719000005, 24.725210925000056], [85.38105661200007, 24.724822709000023], [85.38389823900008, 24.72383407700005], [85.38369544900007, 24.721996869000066], [85.38346793800008, 24.720272554000076], [85.38359145100009, 24.718755809000072], [85.38333929600003, 24.718114901000035], [85.38397186800006, 24.71809226000005], [85.38456981500008, 24.71790268600006], [85.38555812300007, 24.718060539000078], [85.38565709100004, 24.71891372300007], [85.38689270000003, 24.720340059000023], [85.38744627300008, 24.721373690000064], [85.38799981700004, 24.722131939000064], [85.38827662000006, 24.72233960500006], [85.38961089600008, 24.721969313000045], [85.39041636600007, 24.72162164300005], [85.39106860700008, 24.721206357000028], [85.39096969000008, 24.720357689000025], [85.39096949600008, 24.718791363000037], [85.39086057700007, 24.71736952300006], [85.39073672700005, 24.71518470700005], [85.39078602600006, 24.71453925700007], [85.39154218700008, 24.714606883000044], [85.39202146600007, 24.714426219000075], [85.39274792800006, 24.71458415400008], [85.39400304200007, 24.714579497000045], [85.39397289000004, 24.71113084900003], [85.39377019200003, 24.710535028000038], [85.39356207600008, 24.707108909000056], [85.39343821700004, 24.704879033000054], [85.39351725700004, 24.704414132000068], [85.39116515000006, 24.704427949000035], [85.38849690800004, 24.704572644000052], [85.38759274000006, 24.70487059800007], [85.38593242500008, 24.704685659000063], [85.38243410400008, 24.70492060600003], [85.38239471700007, 24.706893238000077], [85.37984990300004, 24.70677596300004], [85.37836751300006, 24.706297466000024], [85.37726065500004, 24.706645086000037], [85.37544724200006, 24.706527747000052], [85.37353493600006, 24.706049268000072], [85.37232429400007, 24.706049264000058], [85.37235400600008, 24.70664957300005], [85.37384127300004, 24.70818434000006], [85.37462199700008, 24.708599634000052], [85.37563006800008, 24.710021552000057], [85.37298148100007, 24.71019301900003], [85.37124702000006, 24.70996278100006], [85.37034270500004, 24.71042324800004], [85.36963607700005, 24.710328366000056], [85.36830188700003, 24.710793289000037], [85.36651307500006, 24.71086542300003], [85.36525295300004, 24.711853903000076], [85.36455114300009, 24.712815301000035], [85.36397790600006, 24.713781250000068], [85.36359728400004, 24.714449269000056], [85.36216430700006, 24.714571067000065], [85.36163547400008, 24.714981753000075], [85.36144764700003, 24.715762647000076], [85.36087438300007, 24.715920593000078], [85.36009847900004, 24.71611460300005], [85.35827499100003, 24.716254363000076], [85.35659976100004, 24.716096157000038], [85.35440088200005, 24.715504585000076], [85.35235515700003, 24.714705254000023], [85.35115929500006, 24.714366539000025], [85.34878248200005, 24.713797371000055], [85.34877243800008, 24.715052267000033], [85.34915260600008, 24.716379490000065], [85.34928566200006, 24.718130888000076], [85.34944372500007, 24.71884411600007], [85.34974005400005, 24.719661169000062], [85.34996212600004, 24.721074120000026], [85.35020390900007, 24.72302866800004], [85.35022848900007, 24.723692262000043], [85.35026786300006, 24.724464148000038], [85.35047534400007, 24.72538055800004], [85.35027742000005, 24.72662630600007], [85.35029184300004, 24.72842290400007], [85.35029625800007, 24.731140323000034], [85.35025651500007, 24.732575712000028], [85.35095307800003, 24.734300176000033], [85.35132340800004, 24.73573570600007], [85.35172354200006, 24.737126070000045], [85.35188158600005, 24.73785735000007], [85.35232605400006, 24.73956365400005], [85.35220730700007, 24.74045287000007], [85.35220713300004, 24.741658122000047], [85.35163353600007, 24.742669164000063], [85.35163844800007, 24.74317018100004], [85.35143547600006, 24.744741040000065], [85.35198394600008, 24.74606369600008], [85.35171667400004, 24.747842142000025], [85.35169159300006, 24.749828319000073], [85.35186117800004, 24.750478281000028], [85.35736215200006, 24.75113592400004], [85.35834659100004, 24.752033435000044], [85.35841245100005, 24.75390672700007], [85.35758473300007, 24.75701289400007], [85.35620688400007, 24.758571216000064], [85.35924190000009, 24.758397519000027], [85.36002328700005, 24.758735477000073], [85.36149766200003, 24.760160795000047], [85.36250641100008, 24.760453432000077], [85.36554161100008, 24.760365379000064]]]]}}, {"type": "Feature", "properties": {"OBJECTID": 5103, "GPCODE": "95794", "GPNAME_1": "MIRZAPUR", "DIST_CEN_C": "36", "BLK_NAME": "MESKAUR", "ST_NAME": "BIHAR", "ST_CODE_1": "10", "GPCODE2011": "98348", "REMARKS": "FINALIZED", "MAP_STATUS": "COMPLETED", "BLK_C_2001": "360012", "BLK_C_2011": "01522", "DIST_NAME": "NAWADA", "code2011": 0.0, "Shape_Leng": 0.17341396411, "Shape_Area": 0.00084994237, "Area": 9.52159}, "geometry": {"type": "MultiPolygon", "coordinates": [[[[85.28650097200006, 24.781581472000028], [85.28747009300008, 24.781509842000048], [85.28804852400003, 24.781510191000052], [85.28924983500008, 24.781723001000046], [85.28972945500004, 24.781700752000063], [85.29019931400006, 24.781556583000054], [85.29097081400005, 24.78112365900006], [85.29127249300006, 24.781137357000034], [85.29138111500004, 24.781268321000027], [85.29138107400007, 24.781365425000047], [85.29248960600006, 24.78032210400005], [85.29289481400008, 24.77958334400006], [85.29473345200006, 24.777948738000077], [85.29483210300003, 24.777357394000035], [85.29647812400003, 24.77625100100005], [85.29712094400008, 24.77658030300006], [85.29893612300003, 24.778344667000056], [85.29970303100004, 24.779815948000078], [85.30014400900006, 24.781986983000024], [85.30058897300006, 24.782059124000057], [85.30167663200007, 24.78183749300007], [85.30216101900004, 24.781395032000034], [85.30272407800004, 24.78014448500005], [85.30264430000005, 24.778528453000035], [85.30244139700005, 24.77808621300005], [85.30304467900004, 24.77827101200006], [85.30417201500006, 24.778415127000073], [85.30546235200006, 24.778342379000037], [85.30710394200008, 24.778653225000028], [85.30842920700007, 24.779108617000077], [85.30982857700008, 24.77943762700005], [85.31058000400003, 24.779238744000054], [85.31093560700003, 24.77855240200006], [85.31158302600005, 24.77789765400007], [85.31169156200008, 24.77737403900005], [85.31229961800005, 24.77737373700006], [85.31254678900007, 24.777179587000035], [85.31262067900008, 24.77672358800004], [85.31247666000007, 24.77550941900006], [85.31287149100007, 24.774168624000026], [85.31337022100007, 24.772863864000044], [85.31336991500007, 24.77228744100006], [85.31336944000003, 24.771392328000047], [85.31311638000005, 24.769690685000057], [85.31225525400004, 24.767858432000025], [85.31160711300004, 24.766897191000055], [85.31038089600008, 24.766396685000075], [85.30947114800006, 24.766266133000045], [85.30859134900004, 24.76655538800003], [85.30803288100003, 24.766939250000064], [85.30641656100005, 24.767422891000024], [85.30424644400006, 24.767775759000074], [85.29999981900005, 24.767840383000078], [85.29747354800008, 24.76777801000003], [85.29403767700006, 24.768031861000054], [85.29122980700004, 24.768420803000026], [85.28877764100008, 24.768259012000044], [85.28768952600007, 24.766404014000045], [85.28709095800008, 24.76537501300004], [85.28715999400004, 24.764833331000034], [85.28789642600003, 24.764128920000076], [85.28860335600007, 24.76416935700007], [85.28821711400008, 24.762196877000065], [85.28805337800009, 24.760048356000027], [85.28815174200008, 24.758694111000068], [85.28837909500004, 24.758341942000072], [85.29076653700008, 24.75789901400003], [85.29098893600008, 24.757632597000054], [85.29079576000004, 24.756544742000074], [85.29005309400003, 24.752893198000038], [85.28979559600003, 24.751656456000035], [85.29007652400009, 24.750564221000047], [85.29020588300006, 24.749282333000053], [85.29011235000007, 24.748718030000077], [85.28972239700005, 24.748045234000074], [85.28726089200006, 24.74781364100005], [85.28541735000005, 24.747686127000065], [85.28474025200006, 24.74753226000007], [85.28409823200008, 24.746687792000046], [85.28376273300006, 24.745947244000035], [85.28292312800005, 24.744953659000032], [85.28261687000008, 24.744696241000042], [85.27978928200008, 24.745032973000036], [85.27900885700006, 24.744364397000027], [85.27741251500004, 24.744160244000057], [85.27657726200005, 24.744033312000056], [85.27316162400007, 24.744315417000053], [85.27226730000007, 24.743931141000076], [85.27179313600004, 24.743497397000056], [85.26975152600005, 24.743807444000026], [85.26686421400007, 24.744626978000042], [85.26781681200004, 24.74623459600008], [85.26790384600008, 24.748460012000066], [85.26832331300005, 24.749277321000022], [85.26927174300005, 24.750067990000048], [85.26969184000006, 24.750095370000054], [85.27016601800005, 24.750529028000074], [85.27186925900008, 24.75364406600005], [85.27202226700007, 24.75387440700007], [85.27224430100006, 24.754359797000063], [85.27246633200008, 24.75484517800004], [85.27281161700006, 24.755766351000034], [85.27293727600005, 24.75621551000006], [85.27306295200003, 24.756664756000077], [85.27337357200008, 24.757658051000078], [85.27366954300004, 24.75852038000005], [85.27407413400005, 24.759369321000065], [85.27453337200006, 24.760064750000026], [85.27508126900005, 24.76104467600004], [85.27548109900005, 24.76184844900007], [85.27579198200004, 24.76250316100004], [85.27586095000004, 24.762873365000075], [85.27586959500007, 24.764394555000024], [85.27572064500004, 24.76519793500006], [85.27565121100008, 24.765504883000062], [85.27558572300006, 24.76698991300003], [85.27552566500003, 24.767874548000066], [85.27547046600006, 24.768975975000046], [85.27553902100004, 24.769788497000036], [85.27568647900006, 24.770795195000062], [85.27576438300008, 24.772361642000078], [85.27572838800006, 24.774085927000044], [85.27576611600006, 24.77634285700003], [85.27592782700003, 24.778198200000077], [85.27612485600008, 24.779092095000067], [85.27656399200004, 24.78025703700007], [85.27715161300006, 24.781191833000037], [85.27759619900007, 24.78167060900006], [85.27886101600006, 24.782867638000027], [85.28043258700006, 24.783884276000038], [85.28269617100005, 24.785176707000062], [85.28342307100007, 24.78509137900005], [85.28426387300004, 24.784735346000048], [85.28490707500004, 24.784126280000066], [85.28494178500006, 24.783932269000047], [85.28479859200007, 24.783706488000064], [85.28449737600005, 24.783142026000064], [85.28436888200008, 24.783011093000027], [85.28431467500008, 24.782762733000027], [85.28438408900007, 24.78248747400005], [85.28472051400007, 24.782212282000046], [85.28543774300005, 24.78186517300003], [85.28650097200006, 24.781581472000028]]]]}}, {"type": "Feature", "properties": {"OBJECTID": 5135, "GPCODE": "95795", "GPNAME_1": "RASALPURA", "DIST_CEN_C": "36", "BLK_NAME": "MESKAUR", "ST_NAME": "BIHAR", "ST_CODE_1": "10", "GPCODE2011": "98349", "REMARKS": "FINALIZED", "MAP_STATUS": "COMPLETED", "BLK_C_2001": "360012", "BLK_C_2011": "01522", "DIST_NAME": "NAWADA", "code2011": 0.0, "Shape_Leng": 0.15966961734, "Shape_Area": 0.00099404598, "Area": 11.1341}, "geometry": {"type": "MultiPolygon", "coordinates": [[[[85.39719582200007, 24.794927806000032], [85.39852929100005, 24.793581388000064], [85.39976917100006, 24.792573493000077], [85.40147362200008, 24.791353085000026], [85.40169969400006, 24.79021980500005], [85.40119354100005, 24.788708173000032], [85.40063794400004, 24.78723724100007], [85.40022023700004, 24.78530571300007], [85.39999083400005, 24.783712526000045], [85.39949039200008, 24.782828275000043], [85.39902975600006, 24.782115558000044], [85.39751003900005, 24.78060483300004], [85.39594548800005, 24.778715074000047], [85.39433206500007, 24.777330866000057], [85.39295112700006, 24.77603221100003], [85.39198500300006, 24.774268160000076], [85.39142873400004, 24.772043316000065], [85.39211930000005, 24.770656849000034], [85.39313107500004, 24.76910317100004], [85.39331197200005, 24.767423761000032], [85.39312750900007, 24.76607884300006], [85.39354517900006, 24.76382141700003], [85.39096949200007, 24.76380127500005], [85.38650963200007, 24.763051635000068], [85.38618303800007, 24.762799087000076], [85.38650571000005, 24.759526220000055], [85.38728413500007, 24.757133123000074], [85.38539548500006, 24.756882060000066], [85.38420404600004, 24.756716088000076], [85.38401670600007, 24.757176739000045], [85.38379123700008, 24.75902307100006], [85.38347048800006, 24.759529007000026], [85.38195317600008, 24.759778566000023], [85.37969865100007, 24.759532276000073], [85.37785990900005, 24.759741505000022], [85.37611476200004, 24.75957598100007], [85.37537837400004, 24.75974362000005], [85.37445981900004, 24.760624517000053], [85.37294265700007, 24.761090763000027], [85.37096572200005, 24.761552736000056], [85.36903281200006, 24.761554344000047], [85.36760913600006, 24.761681838000072], [85.36540456400007, 24.761837037000078], [85.36518064000006, 24.765615327000035], [85.36481153300008, 24.76742119200003], [85.36168735700005, 24.767716937000046], [85.35934440400007, 24.76805273100007], [85.35663043300008, 24.76822162900004], [85.35544411900008, 24.768470758000035], [85.35604511800005, 24.77170233000004], [85.35664032000005, 24.773963426000023], [85.35678042700005, 24.77593583500004], [85.35613937500005, 24.77782767000008], [85.35678210000003, 24.777908445000037], [85.35719342900006, 24.778959909000037], [85.35692246000008, 24.78013373700003], [85.35747159400006, 24.780467336000072], [85.35751677700006, 24.781306904000076], [85.35784345700006, 24.78172644500006], [85.35866978700005, 24.782398476000026], [85.35903667700006, 24.783571798000025], [85.36023342300007, 24.783823743000028], [85.36083213000006, 24.784324296000023], [85.36092218700009, 24.78541657900007], [85.36129391700007, 24.786468117000027], [85.36221374000007, 24.786634410000033], [85.36395889700003, 24.786339733000034], [85.36368639000005, 24.78571250500005], [85.36382427000007, 24.785125548000053], [85.36399214700003, 24.784868107000023], [85.36435291500004, 24.784696363000023], [85.36469413800006, 24.784750278000047], [85.36556945200005, 24.78491662400006], [85.36612310400005, 24.784830388000046], [85.36658269800006, 24.784577261000038], [85.36690382800003, 24.784328765000055], [85.36740773800005, 24.783863393000047], [85.36795659400008, 24.783862998000075], [85.36864902200006, 24.78407456900004], [85.36938573600008, 24.78415524600007], [85.36961299200004, 24.783947415000057], [85.37016619300005, 24.78336018300007], [85.37223180800004, 24.782225551000067], [85.37315127500005, 24.782057730000076], [85.37429861900006, 24.78226448500004], [85.37489748300004, 24.782936525000025], [85.37554110900004, 24.783730456000058], [85.37609494400004, 24.783856352000043], [85.37664448000004, 24.784528446000024], [85.37738100800004, 24.784360803000027], [85.37816295300007, 24.785032713000078], [85.38023502800007, 24.78536500100006], [85.38064606700004, 24.785992070000077], [85.38131851900005, 24.78603660600004], [85.38210035000003, 24.786582100000032], [85.38278828000006, 24.787254043000075], [85.38435619900008, 24.787672504000057], [85.38344001600007, 24.790909748000047], [85.38362354900005, 24.79145575000007], [85.38458933000004, 24.792881280000074], [85.38560397700007, 24.793805758000076], [85.38693970200006, 24.794391314000052], [85.38794862900005, 24.79455747700007], [85.38928383800004, 24.794682570000077], [85.39015894500005, 24.79459598400007], [85.39066280300005, 24.79413514500004], [85.39135486000004, 24.793967425000062], [85.39241340600006, 24.79421925500003], [85.39323958000006, 24.794638217000056], [85.39351714000009, 24.79513900300003], [85.39411633600008, 24.795896823000078], [85.39526884800006, 24.796189111000047], [85.39646060700005, 24.79622859600005], [85.39719582200007, 24.794927806000032]]]]}}, {"type": "Feature", "properties": {"OBJECTID": 5143, "GPCODE": "95796", "GPNAME_1": "SATIWAZPUR SARAI", "DIST_CEN_C": "36", "BLK_NAME": "MESKAUR", "ST_NAME": "BIHAR", "ST_CODE_1": "10", "GPCODE2011": "98350", "REMARKS": "FINALIZED", "MAP_STATUS": "COMPLETED", "BLK_C_2001": "360012", "BLK_C_2011": "01522", "DIST_NAME": "NAWADA", "code2011": 0.0, "Shape_Leng": 0.18309507034, "Shape_Area": 0.00113697074, "Area": 12.7341}, "geometry": {"type": "MultiPolygon", "coordinates": [[[[85.34489644000007, 24.80360063200004], [85.34590415300005, 24.802254832000074], [85.34774355500008, 24.80204598800003], [85.34792642200006, 24.801919514000076], [85.34828249200007, 24.801851527000053], [85.34886578500004, 24.80157583500005], [85.34939952400003, 24.801200795000057], [85.35021537200004, 24.801109952000047], [85.35100187500007, 24.80133971400005], [85.35156059200006, 24.801339314000074], [85.35227237100008, 24.800991254000053], [85.35278111300005, 24.80027315500007], [85.35351760000003, 24.79983035300006], [85.35382388700003, 24.799505107000073], [85.35428371800003, 24.799364869000044], [85.35511964600005, 24.799666690000038], [85.35565426900007, 24.800384053000073], [85.35598603400007, 24.800871319000066], [85.35618890600006, 24.80096598600005], [85.35682668100003, 24.80092035100006], [85.35738561000005, 24.801082437000048], [85.35771712800005, 24.80122219900005], [85.35812264000003, 24.801221845000043], [85.35835003900007, 24.801149457000065], [85.35860680000008, 24.800779121000062], [85.35865554900005, 24.800011750000067], [85.35850190600007, 24.79952438400005], [85.35855099800006, 24.79910902200004], [85.35872879300007, 24.798919328000068], [85.35896115300005, 24.798874037000076], [85.35929248100007, 24.798873768000078], [85.35959440100004, 24.79922110700005], [85.35982730800004, 24.799731053000073], [85.35979816900004, 24.800290824000058], [85.36012966600003, 24.800570433000075], [85.36054018800007, 24.800615225000058], [85.36099488400004, 24.800335018000055], [85.36132596900006, 24.800082045000067], [85.36221577300006, 24.799824026000067], [85.36343702700003, 24.79959289800007], [85.36519258600003, 24.79972698800003], [85.36636996700008, 24.800200118000078], [85.36659772800004, 24.800547443000028], [85.36692974800008, 24.80126942100003], [85.36682621600005, 24.801639693000027], [85.36718273000008, 24.802032104000034], [85.36761781500007, 24.80203170900006], [85.36845325800005, 24.801728652000065], [85.36896268100008, 24.801777904000062], [85.37023388800003, 24.802169615000025], [85.37089694500008, 24.80258884400007], [85.37117919500008, 24.802981344000045], [85.37183734800004, 24.803355504000024], [85.37245047300007, 24.803354977000026], [85.37280618600005, 24.802957494000054], [85.37310649300008, 24.80165723600004], [85.37333841900005, 24.801101823000067], [85.37374360200005, 24.800799072000075], [85.37465818300007, 24.800586090000024], [85.37623558400009, 24.800494557000036], [85.37804051200004, 24.800560725000025], [85.37908381800008, 24.800469538000073], [85.37984498200007, 24.800116770000045], [85.38040315400008, 24.799493402000053], [85.38086225800004, 24.798748190000026], [85.38113306600007, 24.797709757000064], [85.38125964300008, 24.79575515600004], [85.38105517000008, 24.79413031400003], [85.38082671700005, 24.79320059300005], [85.38082580800005, 24.792388138000035], [85.38145777700004, 24.79145770100007], [85.38221878500008, 24.79099658000007], [85.38295526900004, 24.790783770000075], [85.38344001600007, 24.790909748000047], [85.38435619900008, 24.787672504000057], [85.38278828000006, 24.787254043000075], [85.38210035000003, 24.786582100000032], [85.38131851900005, 24.78603660600004], [85.38064606700004, 24.785992070000077], [85.38023502800007, 24.78536500100006], [85.37816295300007, 24.785032713000078], [85.37738100800004, 24.784360803000027], [85.37664448000004, 24.784528446000024], [85.37609494400004, 24.783856352000043], [85.37554110900004, 24.783730456000058], [85.37489748300004, 24.782936525000025], [85.37429861900006, 24.78226448500004], [85.37315127500005, 24.782057730000076], [85.37223180800004, 24.782225551000067], [85.37016619300005, 24.78336018300007], [85.36961299200004, 24.783947415000057], [85.36938573600008, 24.78415524600007], [85.36864902200006, 24.78407456900004], [85.36795659400008, 24.783862998000075], [85.36740773800005, 24.783863393000047], [85.36690382800003, 24.784328765000055], [85.36658269800006, 24.784577261000038], [85.36612310400005, 24.784830388000046], [85.36556945200005, 24.78491662400006], [85.36469413800006, 24.784750278000047], [85.36435291500004, 24.784696363000023], [85.36399214700003, 24.784868107000023], [85.36382427000007, 24.785125548000053], [85.36368639000005, 24.78571250500005], [85.36395889700003, 24.786339733000034], [85.36221374000007, 24.786634410000033], [85.36129391700007, 24.786468117000027], [85.36092218700009, 24.78541657900007], [85.36083213000006, 24.784324296000023], [85.36023342300007, 24.783823743000028], [85.35903667700006, 24.783571798000025], [85.35866978700005, 24.782398476000026], [85.35784345700006, 24.78172644500006], [85.35751677700006, 24.781306904000076], [85.35747159400006, 24.780467336000072], [85.35692246000008, 24.78013373700003], [85.35719342900006, 24.778959909000037], [85.35678210000003, 24.777908445000037], [85.35613937500005, 24.77782767000008], [85.35678042700005, 24.77593583500004], [85.35664032000005, 24.773963426000023], [85.35604511800005, 24.77170233000004], [85.35544411900008, 24.768470758000035], [85.35424813400004, 24.768977163000045], [85.35084727300006, 24.769521181000073], [85.34786131200008, 24.76956825900004], [85.34625409800003, 24.768982478000055], [85.34399959500007, 24.768731150000065], [85.34073672800008, 24.768859544000065], [85.33715273600006, 24.769195676000038], [85.33329270200005, 24.77071001400003], [85.33200737300007, 24.770792037000035], [85.33279036700003, 24.773603729000058], [85.33351842000008, 24.77540896800008], [85.33407291500004, 24.77662284300004], [85.33439519500007, 24.777882058000046], [85.33481192900007, 24.78002142500003], [85.33619283800004, 24.78220086700003], [85.33651483700004, 24.78308540100005], [85.33619365100003, 24.783333834000075], [85.33141231200005, 24.783088258000078], [85.33224033900007, 24.78656806400005], [85.33297886500003, 24.789212776000056], [85.33380673600004, 24.79235851900006], [85.33417939700007, 24.795003525000027], [85.33380928200006, 24.79605091600007], [85.33550986800003, 24.795458602000053], [85.33688937400007, 24.795290846000057], [85.33928289400006, 24.79566857900005], [85.33919082500006, 24.79818741100007], [85.33955822300004, 24.80024103200003], [85.33979163300006, 24.801712434000024], [85.33960990000008, 24.80338715700003], [85.34121732000006, 24.803684185000066], [85.34411488000006, 24.80330774500004], [85.34457517200008, 24.80376782600007], [85.34489644000007, 24.80360063200004]]]]}}, {"type": "Feature", "properties": {"OBJECTID": 5151, "GPCODE": "95797", "GPNAME_1": "TETARIA", "DIST_CEN_C": "36", "BLK_NAME": "MESKAUR", "ST_NAME": "BIHAR", "ST_CODE_1": "10", "GPCODE2011": "98351", "REMARKS": "FINALIZED", "MAP_STATUS": "COMPLETED", "BLK_C_2001": "360012", "BLK_C_2011": "01522", "DIST_NAME": "NAWADA", "code2011": 0.0, "Shape_Leng": 0.20362747707, "Shape_Area": 0.00128229516, "Area": 14.3672}, "geometry": {"type": "MultiPolygon", "coordinates": [[[[85.35424813400004, 24.768977163000045], [85.35544411900008, 24.768470758000035], [85.35663043300008, 24.76822162900004], [85.35934440400007, 24.76805273100007], [85.36168735700005, 24.767716937000046], [85.36481153300008, 24.76742119200003], [85.36518064000006, 24.765615327000035], [85.36540456400007, 24.761837037000078], [85.36554161100008, 24.760365379000064], [85.36250641100008, 24.760453432000077], [85.36149766200003, 24.760160795000047], [85.36002328700005, 24.758735477000073], [85.35924190000009, 24.758397519000027], [85.35620688400007, 24.758571216000064], [85.35758473300007, 24.75701289400007], [85.35841245100005, 24.75390672700007], [85.35834659100004, 24.752033435000044], [85.35736215200006, 24.75113592400004], [85.35186117800004, 24.750478281000028], [85.35169159300006, 24.749828319000073], [85.35171667400004, 24.747842142000025], [85.35198394600008, 24.74606369600008], [85.35143547600006, 24.744741040000065], [85.35163844800007, 24.74317018100004], [85.35163353600007, 24.742669164000063], [85.35220713300004, 24.741658122000047], [85.35220730700007, 24.74045287000007], [85.35232605400006, 24.73956365400005], [85.35188158600005, 24.73785735000007], [85.35172354200006, 24.737126070000045], [85.35132340800004, 24.73573570600007], [85.35095307800003, 24.734300176000033], [85.35025651500007, 24.732575712000028], [85.35029625800007, 24.731140323000034], [85.35029184300004, 24.72842290400007], [85.35027742000005, 24.72662630600007], [85.35047534400007, 24.72538055800004], [85.35026786300006, 24.724464148000038], [85.35022848900007, 24.723692262000043], [85.35020390900007, 24.72302866800004], [85.34996212600004, 24.721074120000026], [85.34974005400005, 24.719661169000062], [85.34944372500007, 24.71884411600007], [85.34928566200006, 24.718130888000076], [85.34915260600008, 24.716379490000065], [85.34877243800008, 24.715052267000033], [85.34878248200005, 24.713797371000055], [85.34770527600006, 24.71377466900003], [85.34636599900006, 24.71408580800005], [85.34455727900007, 24.714505247000034], [85.34303512600007, 24.714978950000045], [85.34200737600008, 24.714685287000066], [85.34073245100006, 24.714734707000048], [85.34017401900007, 24.71488349300006], [85.33825673500007, 24.714418110000054], [85.33740200500006, 24.714147079000043], [85.33554400100007, 24.71394798600005], [85.33383415200007, 24.714128023000058], [85.33346344500006, 24.71436269800006], [85.33305365700005, 24.713265686000057], [85.33275246300008, 24.712430530000063], [85.33239187500004, 24.712091800000053], [85.33158645900005, 24.711987815000043], [85.33113177100006, 24.712055315000043], [85.32984696000005, 24.712267137000026], [85.32914993700007, 24.712853780000046], [85.32837389200006, 24.713390636000042], [85.32742001700007, 24.71405386300006], [85.32677720000004, 24.714897784000073], [85.32613425600005, 24.716454887000054], [85.32473990400007, 24.71855340600007], [85.32373108300004, 24.720110416000068], [85.32378972100008, 24.72187544600007], [85.32401648100006, 24.723279326000068], [85.32432259500007, 24.724019707000025], [85.32502405500009, 24.72480991300006], [85.32541410300007, 24.725703831000033], [85.32538367000006, 24.72756802600003], [85.32307024000005, 24.72890335900007], [85.32150330300004, 24.72966573700006], [85.31881930600008, 24.730359854000028], [85.31921929800006, 24.731168038000078], [85.31956916800004, 24.733610209000062], [85.32070924400006, 24.737321102000067], [85.32179163500007, 24.737298861000056], [85.32347716400005, 24.737006122000025], [85.32536041800006, 24.73652375100005], [85.32692242400003, 24.736208246000047], [85.32820763000007, 24.735734704000038], [85.32981896600006, 24.735351499000046], [85.33105962200005, 24.735234541000068], [85.33086149300004, 24.736295263000045], [85.33091061300007, 24.73729280400005], [85.33076704300004, 24.73801499700005], [85.33066765800004, 24.73957680600006], [85.33210586300004, 24.739712634000057], [85.33294603700006, 24.74007402700005], [85.33311877800008, 24.740845997000065], [85.33363763100004, 24.741026684000076], [85.33507594300005, 24.741072194000026], [85.33569884100007, 24.740801524000062], [85.33604468300007, 24.741329715000063], [85.33616795400008, 24.742151300000046], [85.33642466300006, 24.743266307000056], [85.33627129200005, 24.743812508000076], [85.33527258400005, 24.74443061100004], [85.33477324500006, 24.74504893900007], [85.33509876500005, 24.747102854000048], [85.33540478800006, 24.748538332000066], [85.33577551500008, 24.748673835000034], [85.33700134700007, 24.74878251100006], [85.33747564700008, 24.749310767000054], [85.33857290200007, 24.74972182700003], [85.33902249500005, 24.75047121500006], [85.33897172400003, 24.75488542000005], [85.33791478800003, 24.756226739000056], [85.33653648000006, 24.757446319000053], [85.33667568900006, 24.758619835000047], [85.33658366400005, 24.761305635000042], [85.33686267500008, 24.76445176900006], [85.33715273600006, 24.769195676000038], [85.34073672800008, 24.768859544000065], [85.34399959500007, 24.768731150000065], [85.34625409800003, 24.768982478000055], [85.34786131200008, 24.76956825900004], [85.35084727300006, 24.769521181000073], [85.35424813400004, 24.768977163000045]]]]}}]}