{"type": "FeatureCollection", "features": [{"type": "Feature", "properties": {"OBJECTID": 840, "GPCODE": "96367", "GPNAME_1": "SINGHARA KOPA", "DIST_CEN_C": "28", "BLK_NAME": "DULHIN BAZAR", "ST_NAME": "BIHAR", "ST_CODE_1": "10", "GPCODE2011": "98921", "REMARKS": "FINALIZED", "MAP_STATUS": "COMPLETED", "BLK_C_2001": "280009", "BLK_C_2011": "01406", "DIST_NAME": "PATNA", "code2011": 0.0, "Shape_Leng": 0.11733645632, "Shape_Area": 0.00047621205, "Area": 5.30981}, "geometry": {"type": "MultiPolygon", "coordinates": [[[[84.88830181500003, 25.40334891400005], [84.88923163300007, 25.403157153000052], [84.89086063200006, 25.40386844300008], [84.89174206300004, 25.40421270400003], [84.89286003700005, 25.404480412000055], [84.89455249000008, 25.405282371000055], [84.89613253300007, 25.405376524000076], [84.89813829600007, 25.406031218000066], [84.89898174900009, 25.406493671000078], [84.89948649500008, 25.407235082000057], [84.89999124600007, 25.407976490000067], [84.90057755200007, 25.408009443000026], [84.90119859600009, 25.40806514700006], [84.90150264800008, 25.40773635000005], [84.90253230900004, 25.407413808000058], [84.90331249000008, 25.40740212600008], [84.90440460300005, 25.40781994400004], [84.90526898900004, 25.40792576900003], [84.90634226000003, 25.40798694700004], [84.90704813600007, 25.40792538200003], [84.90803178400006, 25.40626672600007], [84.90862048600007, 25.40543759700006], [84.90966520300003, 25.405024833000027], [84.91108419800008, 25.40406672200004], [84.91125188800004, 25.402735663000044], [84.91122256600005, 25.400781211000037], [84.91122849400006, 25.39864633800005], [84.91089152100005, 25.396524256000077], [84.91086462400006, 25.39547249800006], [84.91068841100008, 25.394524283000067], [84.90974990500007, 25.39429190800007], [84.90922961100006, 25.393771669000046], [84.90888881100005, 25.393030620000047], [84.90849841000005, 25.392262407000032], [84.90840549000006, 25.39174318700003], [84.90787589700005, 25.391019807000077], [84.90592279200007, 25.391128028000026], [84.90457144800007, 25.391066162000072], [84.90145584800007, 25.391103990000033], [84.89881701500008, 25.391260227000032], [84.89768365400005, 25.391429010000024], [84.89646112000008, 25.391498287000047], [84.89447375500004, 25.39143477400006], [84.89349443800006, 25.39156781300005], [84.89341287100007, 25.392289808000044], [84.89341143600006, 25.39276375600008], [84.89306785600007, 25.393015603000038], [84.89173140400004, 25.39295370600007], [84.89159463500005, 25.392163547000052], [84.89122258900005, 25.391941462000034], [84.89072998600005, 25.39217498100004], [84.89048462100004, 25.39281078500005], [84.88898372000006, 25.392928933000064], [84.88873652100006, 25.394169556000065], [84.88787087300005, 25.39452395400008], [84.88604634000006, 25.39481739400003], [84.88380471700003, 25.39504198800006], [84.88233786800004, 25.395367769000075], [84.88092261400004, 25.397353408000072], [84.88026678900007, 25.399526055000024], [84.87978165800007, 25.401455476000024], [84.87891727000004, 25.40219167500004], [84.87836371700007, 25.40108170700006], [84.87711650500006, 25.400464707000026], [84.87570937100008, 25.400570817000073], [84.87443756600004, 25.40005537600007], [84.87404495700008, 25.400054364000027], [84.87370333200005, 25.39966984700004], [84.87354099000004, 25.399150400000053], [84.87326893100004, 25.39872096600004], [84.87281274600008, 25.398408287000052], [84.87209285500006, 25.398225913000033], [84.87141217100003, 25.398197108000033], [84.87065119700009, 25.398402799000053], [84.87082742500007, 25.399247262000074], [84.87118160300008, 25.400403572000073], [84.87135894600004, 25.400923102000036], [84.87240573700007, 25.403083263000042], [84.87357380400005, 25.404580235000026], [84.87395251300006, 25.40586303400005], [84.87495623700005, 25.40749491500003], [84.87570199500004, 25.408995291000053], [84.87637529600005, 25.409850085000073], [84.87706089100004, 25.40989694900003], [84.87773897000005, 25.410796895000033], [84.87953026200006, 25.410088268000038], [84.88118282900007, 25.40921232900007], [84.88197359200007, 25.409002152000028], [84.88283100200005, 25.408142199000054], [84.88368156400009, 25.407859957000028], [84.88469060900007, 25.407790328000033], [84.88501932300005, 25.407569915000067], [84.88493566600005, 25.40729894900005], [84.88456425800007, 25.406842182000048], [84.88455121500004, 25.406219231000023], [84.88502539500007, 25.40553884700006], [84.88560441900006, 25.404678251000064], [84.88593461100004, 25.403920807000077], [84.88624335900005, 25.403727450000076], [84.88742129000008, 25.40364465300007], [84.88830181500003, 25.40334891400005]]]]}}, {"type": "Feature", "properties": {"OBJECTID": 866, "GPCODE": "96358", "GPNAME_1": "BHARATPURA", "DIST_CEN_C": "28", "BLK_NAME": "DULHIN BAZAR", "ST_NAME": "BIHAR", "ST_CODE_1": "10", "GPCODE2011": "98912", "REMARKS": "FINALIZED", "MAP_STATUS": "COMPLETED", "BLK_C_2001": "280009", "BLK_C_2011": "01406", "DIST_NAME": "PATNA", "code2011": 0.0, "Shape_Leng": 0.14323568843, "Shape_Area": 0.00059458975, "Area": 6.63316}, "geometry": {"type": "MultiPolygon", "coordinates": [[[[84.86302756400005, 25.35339681000005], [84.86356613600003, 25.352730197000028], [84.86429338700003, 25.352100207000035], [84.86487996300008, 25.351952777000065], [84.86556503000008, 25.352090043000032], [84.86595639300003, 25.35239796600007], [84.86593434600007, 25.353097460000072], [84.86572287900003, 25.353999610000074], [84.86615881900008, 25.35437087400004], [84.86780734300004, 25.354582777000076], [84.86912342400007, 25.35465840100005], [84.86945244600008, 25.354289179000034], [84.86977270700004, 25.353540716000055], [84.87033169400007, 25.352671108000038], [84.87044766700006, 25.35212070700004], [84.86963426400007, 25.35174851200003], [84.86974462200004, 25.349798930000077], [84.86974440200004, 25.34668010300004], [84.86992614600007, 25.345746275000067], [84.87020160100008, 25.34342708500003], [84.87024085100006, 25.341987348000032], [84.87048782800008, 25.34080539300004], [84.87190520300004, 25.340231307000067], [84.87358486600004, 25.339924230000065], [84.87547880500006, 25.33941902300006], [84.87772984300005, 25.339054601000043], [84.87960304900008, 25.338793031000023], [84.88090006400006, 25.338548111000023], [84.88070346500007, 25.337870503000033], [84.88044692400007, 25.337305756000035], [84.88017061900007, 25.336695675000044], [84.88018798700006, 25.335896856000033], [84.88008495300005, 25.335472322000044], [84.88000936100008, 25.334212827000044], [84.87958935600005, 25.333498690000056], [84.87949359100008, 25.332315898000047], [84.87915353700004, 25.33143936600004], [84.87738427800008, 25.331841147000034], [84.87617726700006, 25.331914769000036], [84.87485516500004, 25.332236419000026], [84.87369764300007, 25.332364365000046], [84.87252518800005, 25.332496733000028], [84.87208443900005, 25.332066879000024], [84.87203211400004, 25.331344571000045], [84.87159408700006, 25.33005704800007], [84.87132330100007, 25.32927096900005], [84.87002195700006, 25.32933083900008], [84.86865060600007, 25.32953490700004], [84.86739367100006, 25.329694111000038], [84.86671224800006, 25.330017304000023], [84.86609110000006, 25.330137559000036], [84.86553711000005, 25.329422988000033], [84.86515111000006, 25.328979700000048], [84.86472511500006, 25.328649100000064], [84.86427374300007, 25.328471896000053], [84.86365324900004, 25.328379936000033], [84.86329653100006, 25.328085654000063], [84.86284157600005, 25.32748870100005], [84.86206876100005, 25.326899877000074], [84.86094570600005, 25.327104560000066], [84.85977717700007, 25.32755277600006], [84.85897551200009, 25.32821870400005], [84.85827306300007, 25.328911908000066], [84.85755622200008, 25.329429015000073], [84.85675675400006, 25.329381777000037], [84.85569843900004, 25.329554922000057], [84.85470425400007, 25.32981860500007], [84.85468828500007, 25.33016160300008], [84.85531214000008, 25.33074545900007], [84.85545890200007, 25.331427421000058], [84.85454329200007, 25.331989143000044], [84.85359863700006, 25.33231158800004], [84.85193245000005, 25.333047371000077], [84.85066884600008, 25.33371638500006], [84.85045780300004, 25.334460568000054], [84.85053063400005, 25.336478361000047], [84.85060764400004, 25.337218777000032], [84.85015036000004, 25.337348389000056], [84.84957393400003, 25.337428036000063], [84.84906441500004, 25.33832936500005], [84.84903290600005, 25.338848376000044], [84.84890186500007, 25.339425756000026], [84.84859653400008, 25.340142585000024], [84.84738326400003, 25.340545500000076], [84.84624398500006, 25.34113359400004], [84.84432037700003, 25.341557127000044], [84.84427382200005, 25.340627152000025], [84.84308294700008, 25.340267354000048], [84.84152754600007, 25.340533840000035], [84.84028451200004, 25.340914053000063], [84.83956720000003, 25.341534872000068], [84.83891542000003, 25.341889612000045], [84.83790048000003, 25.342374300000074], [84.83656172600007, 25.34316940100007], [84.83562538100006, 25.343929556000035], [84.83572634700005, 25.344895775000055], [84.83610943100007, 25.346183160000066], [84.83643146800006, 25.347903717000065], [84.83697235200003, 25.348040635000075], [84.83799554400008, 25.34805705100007], [84.83913901300008, 25.34773531600007], [84.84098239300005, 25.34756439000006], [84.84265290200005, 25.347099632000038], [84.84349869300007, 25.34667315400003], [84.84394223600003, 25.346241100000043], [84.84446651300004, 25.345398549000038], [84.84493906700004, 25.34519222600005], [84.84551115400006, 25.34492744100004], [84.84643309200004, 25.344018300000073], [84.84669856700003, 25.34335098100007], [84.84738658200007, 25.342553949000035], [84.84825089300006, 25.34252921800004], [84.84860932300006, 25.34227745900006], [84.84914000600008, 25.34250914100005], [84.85046122200004, 25.342512741000064], [84.85094735800004, 25.342694607000055], [84.85086480900009, 25.34364215900007], [84.85129929500005, 25.344442296000068], [84.85145042300007, 25.345295689000068], [84.85162783500004, 25.345725], [84.85173854700008, 25.346822047000046], [84.85201422800003, 25.347563054000034], [84.85237658900007, 25.349157260000027], [84.85245847800007, 25.349956365000025], [84.85344954000004, 25.350672210000027], [84.85442585500004, 25.351338320000025], [84.85559479000005, 25.352379563000056], [84.85598007000004, 25.353048612000066], [84.85660007200005, 25.353343593000034], [84.85779205100005, 25.353378444000043], [84.86003306000003, 25.353158731000065], [84.86078291900003, 25.35321939100004], [84.86108949700008, 25.353635431000043], [84.86149543400006, 25.35409237400006], [84.86162827700008, 25.354494430000045], [84.86175566100007, 25.355040873000064], [84.86227275300007, 25.354888818000063], [84.86251652300007, 25.354772041000047], [84.86281173300006, 25.354091331000063], [84.86302756400005, 25.35339681000005]]]]}}, {"type": "Feature", "properties": {"OBJECTID": 868, "GPCODE": "96357", "GPNAME_1": "ACHHUA RAKASIA", "DIST_CEN_C": "28", "BLK_NAME": "DULHIN BAZAR", "ST_NAME": "BIHAR", "ST_CODE_1": "10", "GPCODE2011": "98911", "REMARKS": "FINALIZED", "MAP_STATUS": "COMPLETED", "BLK_C_2001": "280009", "BLK_C_2011": "01406", "DIST_NAME": "PATNA", "code2011": 0.0, "Shape_Leng": 0.14146792503, "Shape_Area": 0.00062129704, "Area": 6.93079}, "geometry": {"type": "MultiPolygon", "coordinates": [[[[84.82712182900008, 25.362582287000066], [84.82830982100006, 25.362378052000054], [84.82910948000006, 25.36241189900005], [84.83000994000008, 25.362044395000055], [84.83188009800006, 25.361377205000053], [84.83364015600006, 25.360908290000054], [84.83499224800005, 25.360645841000064], [84.83687624900006, 25.36026290500007], [84.83765682900008, 25.360084569000037], [84.83840671300004, 25.360131801000023], [84.83885050700007, 25.35965914600007], [84.83849727500007, 25.35834017700006], [84.83830080500007, 25.357658104000052], [84.83873416800003, 25.35731184900004], [84.83946968300006, 25.35721005700003], [84.83990531800004, 25.35765811500005], [84.84051116200004, 25.357732027000054], [84.84282309700006, 25.35711555200004], [84.84336489900005, 25.356999718000054], [84.84577108700006, 25.356410551000067], [84.84836176900006, 25.355614262000074], [84.85018099800004, 25.355244605000053], [84.85148344600003, 25.35495022400005], [84.85207013800004, 25.354775764000067], [84.85233454700005, 25.354419930000063], [84.85235091600003, 25.353977649000058], [84.85217434500004, 25.353295612000068], [84.85221124500003, 25.35262770500003], [84.85243374500004, 25.35143679600003], [84.85235576600007, 25.350962656000036], [84.85245847800007, 25.349956365000025], [84.85237658900007, 25.349157260000027], [84.85201422800003, 25.347563054000034], [84.85173854700008, 25.346822047000046], [84.85162783500004, 25.345725], [84.85145042300007, 25.345295689000068], [84.85129929500005, 25.344442296000068], [84.85086480900009, 25.34364215900007], [84.85094735800004, 25.342694607000055], [84.85046122200004, 25.342512741000064], [84.84914000600008, 25.34250914100005], [84.84860932300006, 25.34227745900006], [84.84825089300006, 25.34252921800004], [84.84738658200007, 25.342553949000035], [84.84669856700003, 25.34335098100007], [84.84643309200004, 25.344018300000073], [84.84551115400006, 25.34492744100004], [84.84493906700004, 25.34519222600005], [84.84446651300004, 25.345398549000038], [84.84394223600003, 25.346241100000043], [84.84349869300007, 25.34667315400003], [84.84265290200005, 25.347099632000038], [84.84098239300005, 25.34756439000006], [84.83913901300008, 25.34773531600007], [84.83799554400008, 25.34805705100007], [84.83697235200003, 25.348040635000075], [84.83643146800006, 25.347903717000065], [84.83610943100007, 25.346183160000066], [84.83572634700005, 25.344895775000055], [84.83562538100006, 25.343929556000035], [84.83482430400005, 25.344338021000056], [84.83412193900006, 25.34493182400007], [84.83387527600007, 25.345878954000057], [84.83369603300008, 25.346027379000077], [84.83261770400009, 25.346155214000078], [84.83106732900006, 25.34637198100006], [84.83005815900003, 25.34662187500004], [84.82836662500006, 25.347397870000066], [84.82681916500007, 25.34817875300007], [84.82541594000008, 25.34891497800004], [84.82470713400005, 25.348479619000045], [84.82423728400005, 25.347882474000073], [84.82375283400006, 25.347244708000062], [84.82357745500008, 25.346251239000026], [84.82349662800004, 25.345217346000027], [84.82282352600004, 25.34452936300005], [84.82266067400008, 25.344230985000024], [84.82196237400007, 25.343651254000065], [84.82075650900003, 25.343336326000042], [84.82015546600007, 25.343366161000063], [84.81964937400005, 25.343202134000023], [84.81912943400005, 25.34275378700005], [84.81869595200004, 25.34173251200008], [84.81812107900004, 25.341383302000054], [84.81758299800003, 25.34043388500004], [84.81664082900005, 25.340015873000027], [84.81605689700007, 25.339422892000073], [84.81571538100008, 25.339083367000057], [84.81524314900008, 25.339185711000027], [84.81489841200005, 25.339762422000035], [84.81461938600006, 25.34002793600007], [84.81424705000006, 25.339968129000056], [84.81349860400007, 25.339532662000067], [84.81278851100006, 25.339494393000052], [84.81224986000007, 25.340129242000046], [84.81144973100004, 25.340262291000045], [84.81072079700004, 25.339917008000043], [84.81042895900003, 25.339591218000066], [84.80868588200008, 25.33951379900003], [84.80783635100005, 25.339583437000044], [84.80652419100005, 25.33985482500003], [84.80502409500008, 25.339895443000046], [84.80442263500004, 25.340010969000048], [84.80369567900004, 25.340500685000052], [84.80404928300004, 25.34296617800004], [84.80488574200007, 25.34513066200003], [84.80529819400004, 25.34779941100004], [84.80588176900005, 25.34984574200007], [84.80637950200008, 25.352293581000026], [84.80746303800004, 25.35211631800007], [84.80889549300008, 25.35158803400003], [84.80997415100006, 25.351397182000028], [84.81058849000004, 25.35182780300005], [84.81131932800008, 25.353017049000073], [84.81200295500008, 25.353538065000066], [84.81307688100009, 25.353274954000028], [84.81549481700006, 25.353589039000042], [84.81750050000005, 25.35390641400005], [84.81883628800006, 25.35402771300005], [84.81897116900006, 25.35519253500007], [84.81922368900007, 25.356854309000028], [84.81939942200006, 25.357712391000064], [84.82023585400003, 25.358599474000073], [84.82207545100005, 25.35955260000003], [84.82363636700006, 25.360653987000035], [84.82454271800003, 25.361410312000032], [84.82550791700004, 25.362428642000054], [84.82592874300008, 25.362831612000036], [84.82712182900008, 25.362582287000066]]]]}}, {"type": "Feature", "properties": {"OBJECTID": 871, "GPCODE": "96368", "GPNAME_1": "SONIYAWA", "DIST_CEN_C": "28", "BLK_NAME": "DULHIN BAZAR", "ST_NAME": "BIHAR", "ST_CODE_1": "10", "GPCODE2011": "98922", "REMARKS": "FINALIZED", "MAP_STATUS": "COMPLETED", "BLK_C_2001": "280009", "BLK_C_2011": "01406", "DIST_NAME": "PATNA", "code2011": 0.0, "Shape_Leng": 0.17942117696, "Shape_Area": 0.00097502496, "Area": 10.875}, "geometry": {"type": "MultiPolygon", "coordinates": [[[[84.93596408700006, 25.381613109000057], [84.93535593300004, 25.38043829700007], [84.93396319900006, 25.379166980000036], [84.93288652300004, 25.37860954100006], [84.93174645500005, 25.377596039000025], [84.93049482000004, 25.375544225000056], [84.93019342800005, 25.374907130000054], [84.92990788500003, 25.37393154700004], [84.93002105600004, 25.372433363000027], [84.92973509100005, 25.371620246000077], [84.92873462700004, 25.370444617000032], [84.92812374800008, 25.370380047000026], [84.92787799900003, 25.369368475000044], [84.92802486700003, 25.368326187000036], [84.92861823300007, 25.367496992000042], [84.92815479300003, 25.366159973000038], [84.92776586700006, 25.364791481000054], [84.92730232000008, 25.363522243000034], [84.92676750900006, 25.362871099000074], [84.92601838800005, 25.362508387000048], [84.92472730300005, 25.362311438000063], [84.92444096100007, 25.361660865000033], [84.92349712000004, 25.35978560500007], [84.92330314300006, 25.358872483000027], [84.92310957600006, 25.357961282000076], [84.92318250800008, 25.356693132000032], [84.92375687400005, 25.35555253700005], [84.92451312300005, 25.355066753000074], [84.92478382000007, 25.35417367900004], [84.92507518900004, 25.352933028000052], [84.92522072900005, 25.352382745000057], [84.92608104800007, 25.35199190900005], [84.92708493200007, 25.351800035000053], [84.92762122200008, 25.351864398000032], [84.92883866800008, 25.35170458700003], [84.93037808200006, 25.351870486000053], [84.93145083800005, 25.35194051900004], [84.93271403600005, 25.351342877000036], [84.93310486900003, 25.35002131300007], [84.93310774000008, 25.34891544000004], [84.93268350000005, 25.34780870000003], [84.93224069700005, 25.346196488000032], [84.93216953500007, 25.34489192600006], [84.93206887400004, 25.343492430000026], [84.93257432500008, 25.342026677000035], [84.93343547300003, 25.341315370000075], [84.93285583200003, 25.340758961000063], [84.93233078000009, 25.340193629000055], [84.93107217100004, 25.33905347700005], [84.93002076100004, 25.33848250400007], [84.92907752500008, 25.338304461000064], [84.92855043400004, 25.338569604000043], [84.92752667300005, 25.338779439000064], [84.92579403500008, 25.338504814000032], [84.92482155900007, 25.33814615600005], [84.92427249100007, 25.337318905000075], [84.92256906400007, 25.33726554200007], [84.92188862000006, 25.33726403600008], [84.92110696700007, 25.336124867000024], [84.92007264900008, 25.33660547200003], [84.91902808400005, 25.337180884000077], [84.91866865700007, 25.33786163700006], [84.91765421000008, 25.338306138000064], [84.91615275600003, 25.338862410000047], [84.91539162300006, 25.339298491000022], [84.91398054100006, 25.339498416000026], [84.91223732700007, 25.339480920000028], [84.91087164100009, 25.339400975000046], [84.90914506000007, 25.33874709500003], [84.90785003200006, 25.338310782000065], [84.90744309300004, 25.338174382000034], [84.90707036600008, 25.338277357000038], [84.90674132700008, 25.33871896200003], [84.90688782000007, 25.339608471000076], [84.90684945500004, 25.340867606000074], [84.90699595200005, 25.341757114000075], [84.90761991900007, 25.34243110700004], [84.90776110400003, 25.343451464000054], [84.90763076300004, 25.34388447500004], [84.90761429900004, 25.34441702600003], [84.90758530900007, 25.345901952000077], [84.90710955500003, 25.347290970000074], [84.90686632900008, 25.349001032000047], [84.90684921800005, 25.349786400000028], [84.90647371900008, 25.35260641800005], [84.90609172000006, 25.354176278000068], [84.90617257300005, 25.355462849000048], [84.90579268500005, 25.356292389000032], [84.90536847100003, 25.35701806700007], [84.90537660200005, 25.357631982000044], [84.90603891800004, 25.358820581000032], [84.90642926600003, 25.359548199000074], [84.90644159600004, 25.36046441600007], [84.90651985700003, 25.360911448000024], [84.90626028100007, 25.361339610000073], [84.90585253300009, 25.361501154000052], [84.90464517900006, 25.361557040000037], [84.90348760500007, 25.361626537000063], [84.90332203400004, 25.36218580800005], [84.90344866400005, 25.363075293000065], [84.90343217300006, 25.363639426000077], [84.90223904200008, 25.363948008000023], [84.90111593000006, 25.36407625700008], [84.89900336100004, 25.36452254900007], [84.89681774700006, 25.364472250000063], [84.89468551100003, 25.364823603000048], [84.89332913000004, 25.364906115000053], [84.89316090700004, 25.366372573000035], [84.89380649000003, 25.366441893000058], [84.89455625500005, 25.36656105900005], [84.89548490900006, 25.366685164000046], [84.89690008300005, 25.36689621100004], [84.89809183800008, 25.367106660000047], [84.89940222100006, 25.36749790600004], [84.90034646800007, 25.367351288000066], [84.90269587300008, 25.367505765000033], [84.90363956700008, 25.367580168000075], [84.90399617600008, 25.36793762800005], [84.90381558700005, 25.368560089000027], [84.90454807100008, 25.369536680000067], [84.90533569900003, 25.370346492000067], [84.90502651300005, 25.370760932000053], [84.90441872500008, 25.371368911000047], [84.90445091300006, 25.372285230000045], [84.90482077700005, 25.37323387400005], [84.90531616200008, 25.37374957700007], [84.90732265600008, 25.373961897000072], [84.90991083900008, 25.374053639000067], [84.91159982300007, 25.374111757000037], [84.91216311500006, 25.37520980100004], [84.91324061900008, 25.375419889000057], [84.91377620900005, 25.375777733000064], [84.91370929600004, 25.376603533000036], [84.91360876000005, 25.377050147000034], [84.91428249200004, 25.377742237000064], [84.91439468200008, 25.378496236000046], [84.91669470800008, 25.378623340000047], [84.91807537800008, 25.378802507000046], [84.91952614000007, 25.378819288000045], [84.92065630500008, 25.379751596000062], [84.92127562000007, 25.380416466000042], [84.92200532900006, 25.380643795000026], [84.92259207100005, 25.38046455700004], [84.92332721700006, 25.380556515000023], [84.92422989700003, 25.381145240000023], [84.92587698200003, 25.382060632000048], [84.92788329400008, 25.38239002200004], [84.93078434800003, 25.382590461000063], [84.93271623500004, 25.382924090000074], [84.93517019100005, 25.383109938000075], [84.93617504900004, 25.382656163000036], [84.93596408700006, 25.381613109000057]]]]}}, {"type": "Feature", "properties": {"OBJECTID": 874, "GPCODE": "96366", "GPNAME_1": "SIHI", "DIST_CEN_C": "28", "BLK_NAME": "DULHIN BAZAR", "ST_NAME": "BIHAR", "ST_CODE_1": "10", "GPCODE2011": "98920", "REMARKS": "FINALIZED", "MAP_STATUS": "COMPLETED", "BLK_C_2001": "280009", "BLK_C_2011": "01406", "DIST_NAME": "PATNA", "code2011": 0.0, "Shape_Leng": 0.22630108483, "Shape_Area": 0.00117281867, "Area": 13.0825}, "geometry": {"type": "MultiPolygon", "coordinates": [[[[84.93547850800007, 25.338742479000075], [84.93515954100008, 25.33724337700005], [84.93455644700003, 25.336136253000063], [84.93355611500004, 25.335023721000027], [84.93262431900007, 25.334277015000055], [84.93040383300007, 25.334466289000034], [84.92850407100008, 25.33540548800005], [84.92635121700005, 25.33628087200003], [84.92427249100007, 25.337318905000075], [84.92482155900007, 25.33814615600005], [84.92579403500008, 25.338504814000032], [84.92752667300005, 25.338779439000064], [84.92855043400004, 25.338569604000043], [84.92907752500008, 25.338304461000064], [84.93002076100004, 25.33848250400007], [84.93107217100004, 25.33905347700005], [84.93233078000009, 25.340193629000055], [84.93285583200003, 25.340758961000063], [84.93343547300003, 25.341315370000075], [84.93454591800008, 25.340207387000078], [84.93547850800007, 25.338742479000075]]], [[[84.88950464600003, 25.36635467600007], [84.89200862800004, 25.366279548000023], [84.89316090700004, 25.366372573000035], [84.89332913000004, 25.364906115000053], [84.89468551100003, 25.364823603000048], [84.89681774700006, 25.364472250000063], [84.89900336100004, 25.36452254900007], [84.90111593000006, 25.36407625700008], [84.90223904200008, 25.363948008000023], [84.90343217300006, 25.363639426000077], [84.90344866400005, 25.363075293000065], [84.90332203400004, 25.36218580800005], [84.90348760500007, 25.361626537000063], [84.90464517900006, 25.361557040000037], [84.90585253300009, 25.361501154000052], [84.90626028100007, 25.361339610000073], [84.90651985700003, 25.360911448000024], [84.90644159600004, 25.36046441600007], [84.90642926600003, 25.359548199000074], [84.90603891800004, 25.358820581000032], [84.90537660200005, 25.357631982000044], [84.90536847100003, 25.35701806700007], [84.90579268500005, 25.356292389000032], [84.90617257300005, 25.355462849000048], [84.90609172000006, 25.354176278000068], [84.90647371900008, 25.35260641800005], [84.90684921800005, 25.349786400000028], [84.90686632900008, 25.349001032000047], [84.90710955500003, 25.347290970000074], [84.90758530900007, 25.345901952000077], [84.90761429900004, 25.34441702600003], [84.90763076300004, 25.34388447500004], [84.90776110400003, 25.343451464000054], [84.90761991900007, 25.34243110700004], [84.90699595200005, 25.341757114000075], [84.90684945500004, 25.340867606000074], [84.90688782000007, 25.339608471000076], [84.90674132700008, 25.33871896200003], [84.90707036600008, 25.338277357000038], [84.90744309300004, 25.338174382000034], [84.90785003200006, 25.338310782000065], [84.90914506000007, 25.33874709500003], [84.91087164100009, 25.339400975000046], [84.91223732700007, 25.339480920000028], [84.91398054100006, 25.339498416000026], [84.91539162300006, 25.339298491000022], [84.91615275600003, 25.338862410000047], [84.91765421000008, 25.338306138000064], [84.91866865700007, 25.33786163700006], [84.91902808400005, 25.337180884000077], [84.92007264900008, 25.33660547200003], [84.92110696700007, 25.336124867000024], [84.92114317900007, 25.335601353000072], [84.92229415600008, 25.334204740000075], [84.92383750800008, 25.332808913000065], [84.92480825600006, 25.331962564000037], [84.92494913800004, 25.331281278000063], [84.92488182400007, 25.330432639000037], [84.92397109200004, 25.329275110000026], [84.92189688100007, 25.32865221700007], [84.92129527200007, 25.328894561000027], [84.92147289200005, 25.329323704000046], [84.92131829800007, 25.32956714000005], [84.92121737100007, 25.330162703000042], [84.92115069100004, 25.33094790800004], [84.92129161800005, 25.33211718900003], [84.92103190200004, 25.332662812000024], [84.92048472000005, 25.33296393100005], [84.91901940300005, 25.333037430000047], [84.91769785100007, 25.333210421000047], [84.91553271500004, 25.333146859000067], [84.91430041300003, 25.333356222000077], [84.91287032700006, 25.333262682000054], [84.91161419700006, 25.333115359000033], [84.90988636200007, 25.33294438200005], [84.90926198600005, 25.332446403000063], [84.90818432000003, 25.332425923000073], [84.90698302300007, 25.33223354100005], [84.90587565000004, 25.33219934400006], [84.90483170300007, 25.332521840000027], [84.90339469400004, 25.333127801000046], [84.90284644300004, 25.333830608000028], [84.90271025200008, 25.334566057000075], [84.90212341200004, 25.33484902400005], [84.90135771300004, 25.335113516000035], [84.90032928600004, 25.33525995800005], [84.89969365500008, 25.335226915000078], [84.89919066800007, 25.33568606800003], [84.89922788400008, 25.33657084200007], [84.89921062800005, 25.337401252000063], [84.89927369600008, 25.337902463000034], [84.89862170900005, 25.338392845000044], [84.89713665600004, 25.338389307000057], [84.89702441500003, 25.337693948000037], [84.89616641700007, 25.337263069000073], [84.89489551000008, 25.337079515000028], [84.89347482000005, 25.337152743000047], [84.89248152000005, 25.337150395000037], [84.89183915600006, 25.336029436000047], [84.89076445100005, 25.33501577900006], [84.88949470100005, 25.33442140300008], [84.88727932600005, 25.334533366000073], [84.88437734200005, 25.335063311000056], [84.88209619700007, 25.335531466000077], [84.88018798700006, 25.335896856000033], [84.88017061900007, 25.336695675000044], [84.88044692400007, 25.337305756000035], [84.88070346500007, 25.337870503000033], [84.88090006400006, 25.338548111000023], [84.87960304900008, 25.338793031000023], [84.87772984300005, 25.339054601000043], [84.87547880500006, 25.33941902300006], [84.87358486600004, 25.339924230000065], [84.87190520300004, 25.340231307000067], [84.87048782800008, 25.34080539300004], [84.87024085100006, 25.341987348000032], [84.87020160100008, 25.34342708500003], [84.86992614600007, 25.345746275000067], [84.86974440200004, 25.34668010300004], [84.86974462200004, 25.349798930000077], [84.86963426400007, 25.35174851200003], [84.87044766700006, 25.35212070700004], [84.87033169400007, 25.352671108000038], [84.86977270700004, 25.353540716000055], [84.86945244600008, 25.354289179000034], [84.86912342400007, 25.35465840100005], [84.86780734300004, 25.354582777000076], [84.86615881900008, 25.35437087400004], [84.86572287900003, 25.353999610000074], [84.86593434600007, 25.353097460000072], [84.86595639300003, 25.35239796600007], [84.86556503000008, 25.352090043000032], [84.86487996300008, 25.351952777000065], [84.86429338700003, 25.352100207000035], [84.86356613600003, 25.352730197000028], [84.86302756400005, 25.35339681000005], [84.86281173300006, 25.354091331000063], [84.86251652300007, 25.354772041000047], [84.86227275300007, 25.354888818000063], [84.86175566100007, 25.355040873000064], [84.86160103700007, 25.35679171000004], [84.86193052400006, 25.35783970600005], [84.86247252300006, 25.357678673000066], [84.86333230900004, 25.35754551800005], [84.86427930000008, 25.358098660000053], [84.86514076300006, 25.359017142000027], [84.86648846200006, 25.360117434000074], [84.86738929000006, 25.36115337500007], [84.86978275400008, 25.36143939300007], [84.87221109400008, 25.361712030000035], [84.87460154100006, 25.361402136000038], [84.87704577000005, 25.361336125000037], [84.87723940000006, 25.36136373900007], [84.88115867400006, 25.36144132800007], [84.88231526800007, 25.361728520000042], [84.88366096200008, 25.361889934000033], [84.88384927100003, 25.36371379600007], [84.88403654300004, 25.36585817300005], [84.88531868800004, 25.365707907000058], [84.88663567100008, 25.365517117000024], [84.88764904200008, 25.365537663000055], [84.88812055600005, 25.36568322200003], [84.88841224300006, 25.366175931000043], [84.88854549400008, 25.366456112000037], [84.88950464600003, 25.36635467600007]]]]}}, {"type": "Feature", "properties": {"OBJECTID": 876, "GPCODE": "96369", "GPNAME_1": "ULAR SORAMPUR", "DIST_CEN_C": "28", "BLK_NAME": "DULHIN BAZAR", "ST_NAME": "BIHAR", "ST_CODE_1": "10", "GPCODE2011": "98923", "REMARKS": "FINALIZED", "MAP_STATUS": "COMPLETED", "BLK_C_2001": "280009", "BLK_C_2011": "01406", "DIST_NAME": "PATNA", "code2011": 0.0, "Shape_Leng": 0.14199657131, "Shape_Area": 0.00067851799, "Area": 7.5678}, "geometry": {"type": "MultiPolygon", "coordinates": [[[[84.88178570500008, 25.380796829000076], [84.88166669900005, 25.379054327000063], [84.88165722600007, 25.37727595800004], [84.88255237600004, 25.376966797000023], [84.88266758800006, 25.37666018500005], [84.88274965300008, 25.375811826000074], [84.88309366200008, 25.37540195500003], [84.88390853400006, 25.375404008000032], [84.88443004800007, 25.375445873000047], [84.88491234100007, 25.375320719000058], [84.88493367000007, 25.374833339000077], [84.88455994100008, 25.373546059000034], [84.88441013600004, 25.372141948000035], [84.88418116400004, 25.36897740200004], [84.88402144700007, 25.367586861000063], [84.88403654300004, 25.36585817300005], [84.88384927100003, 25.36371379600007], [84.88366096200008, 25.361889934000033], [84.88231526800007, 25.361728520000042], [84.88115867400006, 25.36144132800007], [84.87723940000006, 25.36136373900007], [84.87704577000005, 25.361336125000037], [84.87460154100006, 25.361402136000038], [84.87221109400008, 25.361712030000035], [84.86978275400008, 25.36143939300007], [84.86738929000006, 25.36115337500007], [84.86648846200006, 25.360117434000074], [84.86514076300006, 25.359017142000027], [84.86427930000008, 25.358098660000053], [84.86333230900004, 25.35754551800005], [84.86247252300006, 25.357678673000066], [84.86193052400006, 25.35783970600005], [84.86160103700007, 25.35679171000004], [84.86175566100007, 25.355040873000064], [84.86162827700008, 25.354494430000045], [84.86149543400006, 25.35409237400006], [84.86108949700008, 25.353635431000043], [84.86078291900003, 25.35321939100004], [84.86003306000003, 25.353158731000065], [84.85779205100005, 25.353378444000043], [84.85660007200005, 25.353343593000034], [84.85598007000004, 25.353048612000066], [84.85559479000005, 25.352379563000056], [84.85442585500004, 25.351338320000025], [84.85344954000004, 25.350672210000027], [84.85245847800007, 25.349956365000025], [84.85235576600007, 25.350962656000036], [84.85243374500004, 25.35143679600003], [84.85221124500003, 25.35262770500003], [84.85217434500004, 25.353295612000068], [84.85235091600003, 25.353977649000058], [84.85233454700005, 25.354419930000063], [84.85207013800004, 25.354775764000067], [84.85148344600003, 25.35495022400005], [84.85018099800004, 25.355244605000053], [84.84836176900006, 25.355614262000074], [84.84577108700006, 25.356410551000067], [84.84336489900005, 25.356999718000054], [84.84282309700006, 25.35711555200004], [84.84051116200004, 25.357732027000054], [84.83990531800004, 25.35765811500005], [84.83946968300006, 25.35721005700003], [84.83873416800003, 25.35731184900004], [84.83830080500007, 25.357658104000052], [84.83849727500007, 25.35834017700006], [84.83885050700007, 25.35965914600007], [84.84062755000008, 25.36003419700006], [84.84139544500005, 25.360659190000035], [84.84184471200007, 25.361504469000067], [84.84262871800007, 25.361759388000053], [84.84405538600004, 25.361456404000023], [84.84508634100007, 25.36067391000006], [84.84622407700004, 25.36061836300007], [84.84720191900004, 25.360842241000057], [84.84774148400004, 25.361421390000032], [84.84922204700007, 25.361366795000038], [84.84965294600005, 25.36177417700003], [84.85025064900003, 25.362782306000042], [84.85054147100004, 25.363478172000043], [84.85158933300005, 25.365101383000024], [84.85254342200005, 25.366525748000072], [84.85371575700003, 25.368099553000036], [84.85400575400007, 25.36903469300006], [84.85317988800006, 25.369393553000066], [84.85232983800006, 25.36958528200006], [84.85226326000009, 25.370176385000036], [84.85258897600005, 25.37085881400003], [84.85299492400009, 25.371288700000036], [84.85330076800005, 25.371957474000055], [84.85343833300004, 25.372422744000062], [84.85510439100005, 25.371894648000023], [84.85678460500003, 25.371574217000045], [84.85816531900008, 25.371695249000027], [84.85903723000007, 25.37247391300008], [84.85933276000009, 25.373246510000058], [84.85975185900008, 25.374240582000027], [84.86030836800006, 25.37578565900003], [84.86109901600008, 25.37710568600005], [84.86147355200006, 25.378068089000067], [84.86192714400005, 25.37916605600003], [84.86238817600008, 25.379496758000073], [84.86333264300004, 25.37933673300006], [84.86437647000008, 25.379190531000063], [84.86534058100005, 25.379107327000042], [84.86595672100003, 25.379086333000032], [84.86838591500003, 25.379178419000027], [84.86877784600006, 25.37938704000004], [84.87010395900006, 25.379530403000047], [84.87174887400005, 25.379399250000063], [84.87347762800005, 25.379475874000036], [84.87548777900008, 25.380140018000077], [84.87825796500005, 25.38084211100005], [84.87954340900006, 25.381305772000076], [84.88066481300007, 25.381755431000045], [84.88155244400008, 25.382353436000074], [84.88173435300007, 25.381329264000044], [84.88178570500008, 25.380796829000076]]]]}}, {"type": "Feature", "properties": {"OBJECTID": 880, "GPCODE": "96363", "GPNAME_1": "RAJIPUR", "DIST_CEN_C": "28", "BLK_NAME": "DULHIN BAZAR", "ST_NAME": "BIHAR", "ST_CODE_1": "10", "GPCODE2011": "98917", "REMARKS": "FINALIZED", "MAP_STATUS": "COMPLETED", "BLK_C_2001": "280009", "BLK_C_2011": "01406", "DIST_NAME": "PATNA", "code2011": 0.0, "Shape_Leng": 0.15338729662, "Shape_Area": 0.00048066179, "Area": 5.36131}, "geometry": {"type": "MultiPolygon", "coordinates": [[[[84.80843513800005, 25.394974744000024], [84.80981713100005, 25.394825428000047], [84.81106910200003, 25.394860813000037], [84.81102728900004, 25.39407529600004], [84.81094569700008, 25.39326716200003], [84.81077542200006, 25.392260194000073], [84.81094646300005, 25.390306358000032], [84.81192297900003, 25.389582619000066], [84.81288387000006, 25.389052841000023], [84.81279563000004, 25.38869606000003], [84.81168506100005, 25.386648094000066], [84.81100354500006, 25.385495185000025], [84.80970467400005, 25.383320251000043], [84.80916329600007, 25.38190596100003], [84.80813693900006, 25.379948549000062], [84.80726671700006, 25.37879493500003], [84.80687781700004, 25.377800812000032], [84.80666928500005, 25.376392031000023], [84.80653897000008, 25.375362538000047], [84.80587517800006, 25.374818877000052], [84.80519139500007, 25.37433384900004], [84.80505413300006, 25.373823409000067], [84.80488948700008, 25.372653987000035], [84.80486778100004, 25.37178725800004], [84.80430333500004, 25.37127559700008], [84.80389696100008, 25.371008049000068], [84.80403369700008, 25.370295358000078], [84.80355122100008, 25.369102261000023], [84.80333567700006, 25.368266676000076], [84.80290949400006, 25.366631453000025], [84.80283970800008, 25.36533135600007], [84.80276110500006, 25.363742366000054], [84.80189275300006, 25.362123874000076], [84.80043367900004, 25.36172232800004], [84.79901852000006, 25.361564464000026], [84.79809523100005, 25.361390167000025], [84.79634653100004, 25.36141637700007], [84.79509905600008, 25.361570451000034], [84.79395215700004, 25.361408939000057], [84.79260081300004, 25.36144989400003], [84.79158732100007, 25.361464831000035], [84.79024107300006, 25.361474112000053], [84.78904339800005, 25.361596761000044], [84.78827206700004, 25.36195091700006], [84.78732661700008, 25.36236772700005], [84.78688608100003, 25.361946570000043], [84.78666501100008, 25.361309497000036], [84.78665285600005, 25.36057821000003], [84.78613313100004, 25.360080114000027], [84.78539969800005, 25.35962646200005], [84.78495257900005, 25.35962506800007], [84.78408600300008, 25.358909193000045], [84.78285689300003, 25.35817410900006], [84.78200194900006, 25.35831127000006], [84.78093802300003, 25.358538122000027], [84.77999325800005, 25.358796839000036], [84.77929087000007, 25.359309155000062], [84.77804177600007, 25.359864841000046], [84.77737979800008, 25.360205719000078], [84.77642439100003, 25.360622400000068], [84.77535831600005, 25.361395284000025], [84.77498315700007, 25.362062064000042], [84.77482761800007, 25.362467817000038], [84.77492445600006, 25.363104495000073], [84.77493258200008, 25.363569394000024], [84.77433035800004, 25.363847269000075], [84.77378301100003, 25.364093798000056], [84.77366268700007, 25.36437322200004], [84.77394795700008, 25.365091767000024], [84.77430703900006, 25.366009164000047], [84.77431926100007, 25.366695229000072], [84.77379524200006, 25.367298349000066], [84.77276470600003, 25.367854717000057], [84.77151514500008, 25.368536706000043], [84.77053922800008, 25.369093219000035], [84.76997145500007, 25.369461460000025], [84.76969586900003, 25.37005176300005], [84.76951494400004, 25.370565758000055], [84.76828056000005, 25.371152953000035], [84.76737443400003, 25.371646517000045], [84.76651243700007, 25.372293615000046], [84.76589919200006, 25.37283774800005], [84.76705584000007, 25.37430389600007], [84.76807969200007, 25.37545364700003], [84.76868304600004, 25.376177794000057], [84.76959378300006, 25.375774514000057], [84.77053428500005, 25.375389467000048], [84.77199107900003, 25.37510078200006], [84.77316986600005, 25.374761612000043], [84.77430813800004, 25.374629870000035], [84.77549104900004, 25.374507335000033], [84.77661969800005, 25.374280835000036], [84.77704468100006, 25.374868905000028], [84.77741941000005, 25.375601353000036], [84.77771897300005, 25.376486960000022], [84.77814955700006, 25.376926128000036], [84.77859204500004, 25.37685079000005], [84.77897043900003, 25.37663082000006], [84.77957747500005, 25.376407116000053], [84.78015021800007, 25.376052409000067], [84.78090799000006, 25.375373271000058], [84.78239610700007, 25.37467841700004], [84.78347643500007, 25.37410866500005], [84.78471094600008, 25.373458079000045], [84.78591159300004, 25.372590828000057], [84.78676730300003, 25.37226852400005], [84.78706173300003, 25.371939972000064], [84.78792696600004, 25.371726034000062], [84.78937415200005, 25.37134244200007], [84.79055876600006, 25.370754865000038], [84.79163798200005, 25.370433270000035], [84.79303949600006, 25.37029767200005], [84.79415173600006, 25.370454555000038], [84.79481665700007, 25.370659798000077], [84.79530375000007, 25.370593530000065], [84.79635672400008, 25.370664559000033], [84.79820499500005, 25.37062504900007], [84.80027186300003, 25.370581788000038], [84.80165675600006, 25.370883873000025], [84.80180742600004, 25.37181411100005], [84.80189805800006, 25.372816381000064], [84.80220196500005, 25.37393213100006], [84.80249185900004, 25.374804089000065], [84.80285250200006, 25.376723410000068], [84.80307063500004, 25.37820004500003], [84.80328432700009, 25.37953665400005], [84.80306457100005, 25.379847452000035], [84.80286451900008, 25.38020792100008], [84.80345838400007, 25.38085966400007], [84.80354645900007, 25.381234505000066], [84.80323508100008, 25.382118180000077], [84.80426380400007, 25.383416734000036], [84.80540164200005, 25.384769732000052], [84.80623746800006, 25.385832883000035], [84.80628717800005, 25.385814950000054], [84.80687264200003, 25.387423571000056], [84.80714185000005, 25.388539183000034], [84.80729283600004, 25.389365613000052], [84.80772499400007, 25.390770582000073], [84.80816151400006, 25.392342557000063], [84.80848458500003, 25.393679535000047], [84.80843513800005, 25.394974744000024]]]]}}, {"type": "Feature", "properties": {"OBJECTID": 884, "GPCODE": "96364", "GPNAME_1": "SADAWAH DORWA", "DIST_CEN_C": "28", "BLK_NAME": "DULHIN BAZAR", "ST_NAME": "BIHAR", "ST_CODE_1": "10", "GPCODE2011": "98918", "REMARKS": "FINALIZED", "MAP_STATUS": "COMPLETED", "BLK_C_2001": "280009", "BLK_C_2011": "01406", "DIST_NAME": "PATNA", "code2011": 0.0, "Shape_Leng": 0.14452225819, "Shape_Area": 0.00090658363, "Area": 10.1103}, "geometry": {"type": "MultiPolygon", "coordinates": [[[[84.83919105400008, 25.402998696000054], [84.84041405500005, 25.402812538000035], [84.84235718500008, 25.40278631600006], [84.84313361300008, 25.402427414000044], [84.84355950100007, 25.401363366000055], [84.84343433500004, 25.400162460000047], [84.84327579400008, 25.398532627000066], [84.84335391700006, 25.397463138000035], [84.84315964300004, 25.396113084000035], [84.84314876000008, 25.394926011000052], [84.84328042400006, 25.39418618800005], [84.84338206500007, 25.393504951000068], [84.84164487600003, 25.391441950000058], [84.84053167900004, 25.390026095000053], [84.83933544500007, 25.38819933600007], [84.83874284900008, 25.38710997900006], [84.83888316000008, 25.386753722000037], [84.83912801500009, 25.38633922300005], [84.83945799100007, 25.38574433200006], [84.84012532100007, 25.385272257000054], [84.84081117800008, 25.38523362500007], [84.84086163200004, 25.384981010000047], [84.84077359600008, 25.38456999500005], [84.84038354500007, 25.383842222000055], [84.84020995400004, 25.38228458100008], [84.83946177800004, 25.38167766500004], [84.83864863100007, 25.381169929000066], [84.83698021800006, 25.38088990700004], [84.83627888300003, 25.38112718600007], [84.83535018100008, 25.381002728000055], [84.83437032800003, 25.381297768000024], [84.83358868000005, 25.381792077000057], [84.83214767600003, 25.381824101000063], [84.83179645600006, 25.379927476000034], [84.83159733900004, 25.378608953000025], [84.83147168400006, 25.377565979000053], [84.83128528300006, 25.376865817000066], [84.83084452400004, 25.376462839000055], [84.83034792200004, 25.37639828500005], [84.82993722300006, 25.375932206000073], [84.82932154800005, 25.37580403900006], [84.82834757100005, 25.375878026000066], [84.82773100200006, 25.376016207000077], [84.82751193200005, 25.37615545600005], [84.82698806900004, 25.375341474000038], [84.82695516700005, 25.374813343000028], [84.82700751200008, 25.374032623000062], [84.82665349600006, 25.372975479000047], [84.82647778700004, 25.372090336000042], [84.82616020100005, 25.370550327000046], [84.82537273300005, 25.36843574200003], [84.82520230900008, 25.367437711000036], [84.82477991200005, 25.366055396000036], [84.82441728400005, 25.364623608000045], [84.82378648800005, 25.364576655000064], [84.82248387800007, 25.364884247000077], [84.81879102500005, 25.366814290000036], [84.81702340600003, 25.367928457000062], [84.81538019800007, 25.368993336000074], [84.81288806300006, 25.369888584000023], [84.81107206400003, 25.370632408000063], [84.80924088800003, 25.37146647000003], [84.80807534600007, 25.372284472000047], [84.80703511500008, 25.372822951000046], [84.80625254200004, 25.37216611100007], [84.80551873600007, 25.37174415100003], [84.80486778100004, 25.37178725800004], [84.80488948700008, 25.372653987000035], [84.80505413300006, 25.373823409000067], [84.80519139500007, 25.37433384900004], [84.80587517800006, 25.374818877000052], [84.80653897000008, 25.375362538000047], [84.80666928500005, 25.376392031000023], [84.80687781700004, 25.377800812000032], [84.80726671700006, 25.37879493500003], [84.80813693900006, 25.379948549000062], [84.80916329600007, 25.38190596100003], [84.80970467400005, 25.383320251000043], [84.81100354500006, 25.385495185000025], [84.81168506100005, 25.386648094000066], [84.81279563000004, 25.38869606000003], [84.81288387000006, 25.389052841000023], [84.81192297900003, 25.389582619000066], [84.81094646300005, 25.390306358000032], [84.81077542200006, 25.392260194000073], [84.81094569700008, 25.39326716200003], [84.81102728900004, 25.39407529600004], [84.81106910200003, 25.394860813000037], [84.81142276100007, 25.396012748000032], [84.81160791900004, 25.397024317000046], [84.81180953400008, 25.397629720000054], [84.81224485500007, 25.398154659000056], [84.81305047600006, 25.39798553600008], [84.81342230400008, 25.39822134700006], [84.81357375900006, 25.398948389000054], [84.81360709700004, 25.399341221000043], [84.81492370500007, 25.399403763000066], [84.81654909200006, 25.39926865600006], [84.81897902600008, 25.39929390900005], [84.82028597900006, 25.39926157600007], [84.82100574700007, 25.39948038400007], [84.82113759300006, 25.400135186000057], [84.82161658000007, 25.40100767000007], [84.82183893200005, 25.401346829000033], [84.82265449800008, 25.401177716000063], [84.82469175600005, 25.401215183000033], [84.82605839300004, 25.401205626000035], [84.82686403900004, 25.401004844000056], [84.82725664700007, 25.40099243900005], [84.82749287500008, 25.401674653000043], [84.82790160100006, 25.402749968000023], [84.82843063600006, 25.403509813000028], [84.82897579100006, 25.40393109200005], [84.82941161200006, 25.404370141000072], [84.83046975600007, 25.40446795200006], [84.83113997000004, 25.404645896000034], [84.83175722800007, 25.404345239000065], [84.83266689500005, 25.40426210000004], [84.83337837200008, 25.404029410000078], [84.83408389200008, 25.40406304100003], [84.83395666600006, 25.403489420000028], [84.83420674600006, 25.403002666000077], [84.83562311300005, 25.402975083000058], [84.83591394600006, 25.403670961000046], [84.83581116200008, 25.404677208000066], [84.83822621500008, 25.404670486000043], [84.83923602000004, 25.404393467000034], [84.83933780500007, 25.403667017000032], [84.83919105400008, 25.402998696000054]]]]}}, {"type": "Feature", "properties": {"OBJECTID": 889, "GPCODE": "96362", "GPNAME_1": "NARAHI PIRAHI", "DIST_CEN_C": "28", "BLK_NAME": "DULHIN BAZAR", "ST_NAME": "BIHAR", "ST_CODE_1": "10", "GPCODE2011": "98916", "REMARKS": "FINALIZED", "MAP_STATUS": "COMPLETED", "BLK_C_2001": "280009", "BLK_C_2011": "01406", "DIST_NAME": "PATNA", "code2011": 0.0, "Shape_Leng": 0.15365364449, "Shape_Area": 0.00091989405, "Area": 10.2583}, "geometry": {"type": "MultiPolygon", "coordinates": [[[[84.91122849400006, 25.39864633800005], [84.91305760300008, 25.398474479000072], [84.91430975200007, 25.398490885000058], [84.91568613800007, 25.39853465400006], [84.91632233000007, 25.398468439000055], [84.91675330900006, 25.39713344000006], [84.91710127200008, 25.395261135000055], [84.91778547400008, 25.39399435200005], [84.91839414800006, 25.39311555000006], [84.92001145200004, 25.392239096000026], [84.92144390200008, 25.39169164200007], [84.92244901300006, 25.391170358000068], [84.92280991000007, 25.389997615000027], [84.92354979800007, 25.388320234000048], [84.92323104800005, 25.386757874000068], [84.92255384400005, 25.38545646500006], [84.92191156100006, 25.384087452000074], [84.92173602500003, 25.382881912000073], [84.92164871400007, 25.382082832000037], [84.92265415400004, 25.381403500000033], [84.92422989700003, 25.381145240000023], [84.92332721700006, 25.380556515000023], [84.92259207100005, 25.38046455700004], [84.92200532900006, 25.380643795000026], [84.92127562000007, 25.380416466000042], [84.92065630500008, 25.379751596000062], [84.91952614000007, 25.378819288000045], [84.91807537800008, 25.378802507000046], [84.91669470800008, 25.378623340000047], [84.91439468200008, 25.378496236000046], [84.91428249200004, 25.377742237000064], [84.91360876000005, 25.377050147000034], [84.91370929600004, 25.376603533000036], [84.91377620900005, 25.375777733000064], [84.91324061900008, 25.375419889000057], [84.91216311500006, 25.37520980100004], [84.91159982300007, 25.374111757000037], [84.90991083900008, 25.374053639000067], [84.90732265600008, 25.373961897000072], [84.90531616200008, 25.37374957700007], [84.90482077700005, 25.37323387400005], [84.90445091300006, 25.372285230000045], [84.90441872500008, 25.371368911000047], [84.90502651300005, 25.370760932000053], [84.90533569900003, 25.370346492000067], [84.90454807100008, 25.369536680000067], [84.90381558700005, 25.368560089000027], [84.90399617600008, 25.36793762800005], [84.90363956700008, 25.367580168000075], [84.90269587300008, 25.367505765000033], [84.90034646800007, 25.367351288000066], [84.89940222100006, 25.36749790600004], [84.89809183800008, 25.367106660000047], [84.89690008300005, 25.36689621100004], [84.89548490900006, 25.366685164000046], [84.89455625500005, 25.36656105900005], [84.89380649000003, 25.366441893000058], [84.89316090700004, 25.366372573000035], [84.89200862800004, 25.366279548000023], [84.88950464600003, 25.36635467600007], [84.88854549400008, 25.366456112000037], [84.88841224300006, 25.366175931000043], [84.88812055600005, 25.36568322200003], [84.88764904200008, 25.365537663000055], [84.88663567100008, 25.365517117000024], [84.88531868800004, 25.365707907000058], [84.88403654300004, 25.36585817300005], [84.88402144700007, 25.367586861000063], [84.88418116400004, 25.36897740200004], [84.88441013600004, 25.372141948000035], [84.88455994100008, 25.373546059000034], [84.88493367000007, 25.374833339000077], [84.88491234100007, 25.375320719000058], [84.88443004800007, 25.375445873000047], [84.88390853400006, 25.375404008000032], [84.88309366200008, 25.37540195500003], [84.88274965300008, 25.375811826000074], [84.88266758800006, 25.37666018500005], [84.88255237600004, 25.376966797000023], [84.88165722600007, 25.37727595800004], [84.88166669900005, 25.379054327000063], [84.88178570500008, 25.380796829000076], [84.88173435300007, 25.381329264000044], [84.88155244400008, 25.382353436000074], [84.88117176700007, 25.383354488000066], [84.88081160000007, 25.38417052400007], [84.88023732700003, 25.38511688600005], [84.87949202500005, 25.386748908000072], [84.87932523000006, 25.387678296000047], [84.87938594100007, 25.388937671000065], [84.87950702000006, 25.38996703500004], [84.87960450400004, 25.39060372700004], [84.87941840500008, 25.39134346000003], [84.87885064200003, 25.39175722600004], [84.87843208600003, 25.392162428000063], [84.87844531200005, 25.39270857400004], [84.87852837200006, 25.39316918000003], [84.87878521500005, 25.393675336000058], [84.87886839000004, 25.394104351000067], [84.87856201400007, 25.395159686000056], [84.87941130900003, 25.395292742000038], [84.88078807900007, 25.395183383000074], [84.88233786800004, 25.395367769000075], [84.88380471700003, 25.39504198800006], [84.88604634000006, 25.39481739400003], [84.88787087300005, 25.39452395400008], [84.88873652100006, 25.394169556000065], [84.88898372000006, 25.392928933000064], [84.89048462100004, 25.39281078500005], [84.89072998600005, 25.39217498100004], [84.89122258900005, 25.391941462000034], [84.89159463500005, 25.392163547000052], [84.89173140400004, 25.39295370600007], [84.89306785600007, 25.393015603000038], [84.89341143600006, 25.39276375600008], [84.89341287100007, 25.392289808000044], [84.89349443800006, 25.39156781300005], [84.89447375500004, 25.39143477400006], [84.89646112000008, 25.391498287000047], [84.89768365400005, 25.391429010000024], [84.89881701500008, 25.391260227000032], [84.90145584800007, 25.391103990000033], [84.90457144800007, 25.391066162000072], [84.90592279200007, 25.391128028000026], [84.90787589700005, 25.391019807000077], [84.90840549000006, 25.39174318700003], [84.90849841000005, 25.392262407000032], [84.90888881100005, 25.393030620000047], [84.90922961100006, 25.393771669000046], [84.90974990500007, 25.39429190800007], [84.91068841100008, 25.394524283000067], [84.91086462400006, 25.39547249800006], [84.91089152100005, 25.396524256000077], [84.91122849400006, 25.39864633800005]]]]}}, {"type": "Feature", "properties": {"OBJECTID": 892, "GPCODE": "96365", "GPNAME_1": "SELHAURI BELHAURI", "DIST_CEN_C": "28", "BLK_NAME": "DULHIN BAZAR", "ST_NAME": "BIHAR", "ST_CODE_1": "10", "GPCODE2011": "98919", "REMARKS": "FINALIZED", "MAP_STATUS": "COMPLETED", "BLK_C_2001": "280009", "BLK_C_2011": "01406", "DIST_NAME": "PATNA", "code2011": 0.0, "Shape_Leng": 0.08985866345, "Shape_Area": 0.000362267, "Area": 4.03998}, "geometry": {"type": "MultiPolygon", "coordinates": [[[[84.84966554000005, 25.395702177000032], [84.85001876100006, 25.395563216000028], [84.85208522900007, 25.395776498000032], [84.85374979700003, 25.395767410000076], [84.85513740300007, 25.39538747100005], [84.85639111500006, 25.394912438000063], [84.85742569200005, 25.394599249000066], [84.85786860400003, 25.394406349000064], [84.85919098600004, 25.394202284000073], [84.85921160600003, 25.39396312200006], [84.85898516400005, 25.393294456000035], [84.85855697000005, 25.39202504700006], [84.85865483600008, 25.39095566000003], [84.85989830100004, 25.390575311000077], [84.85986478500007, 25.390173463000053], [84.85962488400008, 25.389048999000067], [84.85926055800007, 25.388000909000027], [84.85911948900008, 25.387070789000063], [84.85895993100007, 25.385707222000065], [84.85914211600004, 25.384656093000046], [84.85959096300007, 25.384142707000024], [84.86006464800005, 25.383629461000055], [84.86093061300005, 25.383171419000064], [84.86220362400007, 25.38283174600008], [84.86285490100005, 25.38270256100003], [84.86337672600007, 25.382658751000065], [84.86336305900005, 25.382288603000063], [84.86319646700008, 25.381557005000047], [84.86292189400007, 25.380400843000075], [84.86269525100005, 25.379777400000023], [84.86238817600008, 25.379496758000073], [84.86192714400005, 25.37916605600003], [84.86147355200006, 25.378068089000067], [84.86109901600008, 25.37710568600005], [84.86030836800006, 25.37578565900003], [84.85975185900008, 25.374240582000027], [84.85933276000009, 25.373246510000058], [84.85903723000007, 25.37247391300008], [84.85816531900008, 25.371695249000027], [84.85678460500003, 25.371574217000045], [84.85510439100005, 25.371894648000023], [84.85343833300004, 25.372422744000062], [84.85299479700006, 25.37284588400007], [84.85242767800008, 25.373065500000052], [84.85110424000004, 25.37365320400005], [84.85063092200005, 25.374085189000027], [84.85041425000009, 25.375000820000025], [84.85020904900006, 25.37546511900007], [84.84945684700006, 25.376067904000024], [84.84926205200009, 25.376392357000043], [84.84950310500005, 25.377119708000066], [84.85006002100005, 25.378475278000053], [84.85108139000005, 25.38062644200005], [84.85123278400005, 25.381448316000046], [84.84927519500008, 25.38144297300005], [84.84621821400003, 25.381867963000047], [84.84414591300003, 25.38199764600006], [84.84188010200006, 25.382050002000028], [84.84020995400004, 25.38228458100008], [84.84038354500007, 25.383842222000055], [84.84077359600008, 25.38456999500005], [84.84086163200004, 25.384981010000047], [84.84081117800008, 25.38523362500007], [84.84012532100007, 25.385272257000054], [84.83945799100007, 25.38574433200006], [84.83912801500009, 25.38633922300005], [84.83888316000008, 25.386753722000037], [84.83874284900008, 25.38710997900006], [84.83933544500007, 25.38819933600007], [84.84053167900004, 25.390026095000053], [84.84164487600003, 25.391441950000058], [84.84338206500007, 25.393504951000068], [84.84328042400006, 25.39418618800005], [84.84314876000008, 25.394926011000052], [84.84315964300004, 25.396113084000035], [84.84335391700006, 25.397463138000035], [84.84514955200007, 25.39693102800004], [84.84813392000007, 25.396054522000043], [84.84966554000005, 25.395702177000032]]]]}}, {"type": "Feature", "properties": {"OBJECTID": 899, "GPCODE": "96356", "GPNAME_1": "AAINKHA BHIMANICHAK", "DIST_CEN_C": "28", "BLK_NAME": "DULHIN BAZAR", "ST_NAME": "BIHAR", "ST_CODE_1": "10", "GPCODE2011": "98910", "REMARKS": "FINALIZED", "MAP_STATUS": "COMPLETED", "BLK_C_2001": "280009", "BLK_C_2011": "01406", "DIST_NAME": "PATNA", "code2011": 0.0, "Shape_Leng": 0.08713500113, "Shape_Area": 0.00036868478, "Area": 4.11133}, "geometry": {"type": "MultiPolygon", "coordinates": [[[[84.87978165800007, 25.401455476000024], [84.88026678900007, 25.399526055000024], [84.88092261400004, 25.397353408000072], [84.88233786800004, 25.395367769000075], [84.88078807900007, 25.395183383000074], [84.87941130900003, 25.395292742000038], [84.87856201400007, 25.395159686000056], [84.87886839000004, 25.394104351000067], [84.87878521500005, 25.393675336000058], [84.87852837200006, 25.39316918000003], [84.87844531200005, 25.39270857400004], [84.87843208600003, 25.392162428000063], [84.87885064200003, 25.39175722600004], [84.87941840500008, 25.39134346000003], [84.87960450400004, 25.39060372700004], [84.87950702000006, 25.38996703500004], [84.87938594100007, 25.388937671000065], [84.87932523000006, 25.387678296000047], [84.87949202500005, 25.386748908000072], [84.88023732700003, 25.38511688600005], [84.88081160000007, 25.38417052400007], [84.88117176700007, 25.383354488000066], [84.88155244400008, 25.382353436000074], [84.88066481300007, 25.381755431000045], [84.87954340900006, 25.381305772000076], [84.87825796500005, 25.38084211100005], [84.87548777900008, 25.380140018000077], [84.87347762800005, 25.379475874000036], [84.87174887400005, 25.379399250000063], [84.87010395900006, 25.379530403000047], [84.86877784600006, 25.37938704000004], [84.86838591500003, 25.379178419000027], [84.86595672100003, 25.379086333000032], [84.86534058100005, 25.379107327000042], [84.86437647000008, 25.379190531000063], [84.86333264300004, 25.37933673300006], [84.86238817600008, 25.379496758000073], [84.86269525100005, 25.379777400000023], [84.86292189400007, 25.380400843000075], [84.86319646700008, 25.381557005000047], [84.86336305900005, 25.382288603000063], [84.86337672600007, 25.382658751000065], [84.86285490100005, 25.38270256100003], [84.86220362400007, 25.38283174600008], [84.86093061300005, 25.383171419000064], [84.86006464800005, 25.383629461000055], [84.85959096300007, 25.384142707000024], [84.85914211600004, 25.384656093000046], [84.85895993100007, 25.385707222000065], [84.85911948900008, 25.387070789000063], [84.85926055800007, 25.388000909000027], [84.85962488400008, 25.389048999000067], [84.85986478500007, 25.390173463000053], [84.85989830100004, 25.390575311000077], [84.85865483600008, 25.39095566000003], [84.85855697000005, 25.39202504700006], [84.85898516400005, 25.393294456000035], [84.85921160600003, 25.39396312200006], [84.85919098600004, 25.394202284000073], [84.85943336800005, 25.394545922000077], [84.86075377600008, 25.394978252000044], [84.86213402100003, 25.395306842000025], [84.86452130600009, 25.396197726000025], [84.86652117500006, 25.397047043000043], [84.86772683400005, 25.397614330000067], [84.86862958100005, 25.398144796000054], [84.86906994200007, 25.398737203000053], [84.87065119700009, 25.398402799000053], [84.87141217100003, 25.398197108000033], [84.87209285500006, 25.398225913000033], [84.87281274600008, 25.398408287000052], [84.87326893100004, 25.39872096600004], [84.87354099000004, 25.399150400000053], [84.87370333200005, 25.39966984700004], [84.87404495700008, 25.400054364000027], [84.87443756600004, 25.40005537600007], [84.87570937100008, 25.400570817000073], [84.87711650500006, 25.400464707000026], [84.87836371700007, 25.40108170700006], [84.87891727000004, 25.40219167500004], [84.87978165800007, 25.401455476000024]]]]}}, {"type": "Feature", "properties": {"OBJECTID": 900, "GPCODE": "96359", "GPNAME_1": "DHANA NISARPURA", "DIST_CEN_C": "28", "BLK_NAME": "DULHIN BAZAR", "ST_NAME": "BIHAR", "ST_CODE_1": "10", "GPCODE2011": "98913", "REMARKS": "FINALIZED", "MAP_STATUS": "COMPLETED", "BLK_C_2001": "280009", "BLK_C_2011": "01406", "DIST_NAME": "PATNA", "code2011": 0.0, "Shape_Leng": 0.12909359856, "Shape_Area": 0.00095027851, "Area": 10.5979}, "geometry": {"type": "MultiPolygon", "coordinates": [[[[84.77123577400005, 25.405442313000037], [84.77303133800007, 25.40501493100004], [84.77405615000004, 25.40601118400008], [84.77538809800006, 25.405970359000037], [84.77714434900008, 25.40545693200005], [84.77868718200006, 25.40485714500005], [84.77889255100007, 25.404438076000076], [84.77888043600007, 25.40370680600006], [84.77934327000008, 25.40355487000005], [84.77943148900005, 25.402589274000036], [84.77997104900004, 25.401823687000046], [84.77987442900007, 25.401110215000074], [84.78028455900005, 25.400443560000042], [84.78051133700006, 25.39960482300006], [84.78063277500007, 25.399059045000058], [84.78114030700004, 25.398866588000033], [84.78279632000005, 25.398533361000034], [84.78399516600007, 25.398207682000077], [84.78466749600005, 25.397808085000065], [84.78456524000006, 25.397261653000044], [84.78436471000003, 25.39642154200004], [84.78376682200008, 25.395566616000053], [84.78381477700003, 25.394704656000044], [84.78405608100007, 25.39399227000007], [84.78351552100008, 25.39240631900003], [84.78276647600006, 25.38950632700005], [84.78234542000007, 25.387875611000027], [84.78175252200003, 25.384416414000043], [84.78157508700008, 25.38405481700005], [84.78090795800006, 25.38439116400008], [84.77921079500004, 25.385148522000065], [84.77843946900003, 25.385439446000078], [84.77866643400006, 25.384573533000037], [84.77888753500008, 25.38391978900006], [84.77935171200005, 25.383393280000064], [84.77950901800006, 25.382554284000037], [84.77934569100006, 25.381091318000074], [84.77948170300004, 25.37931347700004], [84.77948635000007, 25.378135505000046], [84.77957747500005, 25.376407116000053], [84.77897043900003, 25.37663082000006], [84.77859204500004, 25.37685079000005], [84.77814955700006, 25.376926128000036], [84.77771897300005, 25.376486960000022], [84.77741941000005, 25.375601353000036], [84.77704468100006, 25.374868905000028], [84.77661969800005, 25.374280835000036], [84.77549104900004, 25.374507335000033], [84.77430813800004, 25.374629870000035], [84.77316986600005, 25.374761612000043], [84.77199107900003, 25.37510078200006], [84.77053428500005, 25.375389467000048], [84.76959378300006, 25.375774514000057], [84.76868304600004, 25.376177794000057], [84.76807969200007, 25.37545364700003], [84.76705584000007, 25.37430389600007], [84.76589919200006, 25.37283774800005], [84.76440104200003, 25.373509820000038], [84.76238079400008, 25.374311001000024], [84.76100710800006, 25.374942840000074], [84.75984305200006, 25.375300066000023], [84.75739842700006, 25.376605321000056], [84.75606357300006, 25.377426824000054], [84.75424616200007, 25.378400141000043], [84.75154937800005, 25.379379390000054], [84.74986647700007, 25.380231301000038], [84.74841234400003, 25.38104773200007], [84.74786598300005, 25.38161082700003], [84.74842967100005, 25.385285960000033], [84.74864579700005, 25.38711015800004], [84.74890376400003, 25.388392788000033], [84.74923352600007, 25.38884964700003], [84.74948183500004, 25.389193658000067], [84.75014517300008, 25.389800738000076], [84.75121207000007, 25.391356947000077], [84.75148388400004, 25.39292406900006], [84.75148952900008, 25.393971217000058], [84.75179928100005, 25.395980764000058], [84.75191472400007, 25.398138537000023], [84.75241049400006, 25.400848324000037], [84.75255109900007, 25.402410298000063], [84.75258159100008, 25.402749027000027], [84.75315739900003, 25.404114080000056], [84.75349061800006, 25.405275132000043], [84.75427803900004, 25.407141834000072], [84.75498854300008, 25.408389941000053], [84.75593756000006, 25.40965237000006], [84.75742534300008, 25.40920155200007], [84.75948448700007, 25.408770665000077], [84.76124417200003, 25.408654676000026], [84.76326907800006, 25.408083619000024], [84.76726915300009, 25.406941386000028], [84.76959776300004, 25.406204265000042], [84.77123577400005, 25.405442313000037]]]]}}, {"type": "Feature", "properties": {"OBJECTID": 904, "GPCODE": "96360", "GPNAME_1": "KAB", "DIST_CEN_C": "28", "BLK_NAME": "DULHIN BAZAR", "ST_NAME": "BIHAR", "ST_CODE_1": "10", "GPCODE2011": "98914", "REMARKS": "FINALIZED", "MAP_STATUS": "COMPLETED", "BLK_C_2001": "280009", "BLK_C_2011": "01406", "DIST_NAME": "PATNA", "code2011": 0.0, "Shape_Leng": 0.18714745161, "Shape_Area": 0.00091913371, "Area": 10.2502}, "geometry": {"type": "MultiPolygon", "coordinates": [[[[84.78451379400008, 25.409416271000055], [84.78569714900004, 25.409261978000075], [84.78711829400004, 25.40929804900003], [84.78931504800005, 25.409232804000055], [84.79028900200007, 25.40926746100007], [84.79189906100004, 25.409290471000077], [84.79306236800005, 25.409185824000076], [84.79323254600007, 25.408856873000047], [84.79325389400003, 25.40846879700007], [84.79303274100005, 25.407786533000035], [84.79291526500003, 25.40731673600004], [84.79288286500008, 25.406698349000067], [84.79344979900003, 25.406591777000074], [84.79415065500007, 25.406544328000052], [84.79410460800005, 25.405551193000065], [84.79404305600008, 25.404761132000033], [84.79394316000008, 25.403564764000066], [84.79404224000007, 25.40231030500007], [84.79387128300004, 25.401533479000022], [84.79228159700006, 25.40138867400003], [84.79235611900003, 25.40009804600004], [84.79172559300008, 25.39993804900007], [84.79165321900007, 25.398033214000066], [84.79223263600005, 25.397254193000038], [84.79338602600006, 25.397090724000066], [84.79419139700008, 25.396984881000037], [84.79693041400003, 25.39672704800006], [84.79926645600005, 25.396553744000073], [84.80003717300008, 25.39641615900007], [84.80039631200003, 25.396060719000047], [84.80031386200005, 25.395514327000058], [84.80038539500003, 25.394972929000062], [84.80084784100006, 25.394893137000054], [84.80142922400006, 25.39488130600006], [84.80177068500006, 25.395256956000026], [84.80197212200005, 25.395894055000042], [84.80227831500008, 25.396391433000076], [84.80272608800004, 25.396239339000033], [84.80339236700007, 25.396115009000027], [84.80400853400005, 25.396116825000036], [84.80484919400004, 25.395884683000077], [84.80653563400006, 25.395357236000052], [84.80843513800005, 25.394974744000024], [84.80848458500003, 25.393679535000047], [84.80816151400006, 25.392342557000063], [84.80772499400007, 25.390770582000073], [84.80729283600004, 25.389365613000052], [84.80714185000005, 25.388539183000034], [84.80687264200003, 25.387423571000056], [84.80628717800005, 25.385814950000054], [84.80623746800006, 25.385832883000035], [84.80540164200005, 25.384769732000052], [84.80426380400007, 25.383416734000036], [84.80323508100008, 25.382118180000077], [84.80354645900007, 25.381234505000066], [84.80345838400007, 25.38085966400007], [84.80286451900008, 25.38020792100008], [84.80306457100005, 25.379847452000035], [84.80328432700009, 25.37953665400005], [84.80307063500004, 25.37820004500003], [84.80285250200006, 25.376723410000068], [84.80249185900004, 25.374804089000065], [84.80220196500005, 25.37393213100006], [84.80189805800006, 25.372816381000064], [84.80180742600004, 25.37181411100005], [84.80165675600006, 25.370883873000025], [84.80027186300003, 25.370581788000038], [84.79820499500005, 25.37062504900007], [84.79635672400008, 25.370664559000033], [84.79530375000007, 25.370593530000065], [84.79481665700007, 25.370659798000077], [84.79415173600006, 25.370454555000038], [84.79303949600006, 25.37029767200005], [84.79163798200005, 25.370433270000035], [84.79055876600006, 25.370754865000038], [84.78937415200005, 25.37134244200007], [84.78792696600004, 25.371726034000062], [84.78706173300003, 25.371939972000064], [84.78676730300003, 25.37226852400005], [84.78591159300004, 25.372590828000057], [84.78471094600008, 25.373458079000045], [84.78347643500007, 25.37410866500005], [84.78239610700007, 25.37467841700004], [84.78090799000006, 25.375373271000058], [84.78015021800007, 25.376052409000067], [84.77957747500005, 25.376407116000053], [84.77948635000007, 25.378135505000046], [84.77948170300004, 25.37931347700004], [84.77934569100006, 25.381091318000074], [84.77950901800006, 25.382554284000037], [84.77935171200005, 25.383393280000064], [84.77888753500008, 25.38391978900006], [84.77866643400006, 25.384573533000037], [84.77843946900003, 25.385439446000078], [84.77921079500004, 25.385148522000065], [84.78090795800006, 25.38439116400008], [84.78157508700008, 25.38405481700005], [84.78175252200003, 25.384416414000043], [84.78234542000007, 25.387875611000027], [84.78276647600006, 25.38950632700005], [84.78351552100008, 25.39240631900003], [84.78405608100007, 25.39399227000007], [84.78381477700003, 25.394704656000044], [84.78376682200008, 25.395566616000053], [84.78436471000003, 25.39642154200004], [84.78456524000006, 25.397261653000044], [84.78466749600005, 25.397808085000065], [84.78399516600007, 25.398207682000077], [84.78279632000005, 25.398533361000034], [84.78114030700004, 25.398866588000033], [84.78063277500007, 25.399059045000058], [84.78051133700006, 25.39960482300006], [84.78028455900005, 25.400443560000042], [84.77987442900007, 25.401110215000074], [84.77997104900004, 25.401823687000046], [84.77943148900005, 25.402589274000036], [84.77934327000008, 25.40355487000005], [84.77888043600007, 25.40370680600006], [84.77889255100007, 25.404438076000076], [84.77868718200006, 25.40485714500005], [84.77714434900008, 25.40545693200005], [84.77538809800006, 25.405970359000037], [84.77405615000004, 25.40601118400008], [84.77303133800007, 25.40501493100004], [84.77123577400005, 25.405442313000037], [84.76959776300004, 25.406204265000042], [84.76726915300009, 25.406941386000028], [84.76326907800006, 25.408083619000024], [84.76124417200003, 25.408654676000026], [84.75948448700007, 25.408770665000077], [84.75742534300008, 25.40920155200007], [84.75593756000006, 25.40965237000006], [84.75751612200008, 25.41133667500003], [84.75883497000007, 25.412627804000067], [84.76126340300004, 25.415005097000062], [84.76306546600006, 25.416735249000055], [84.76561256100007, 25.41609821800006], [84.76676231400006, 25.415682288000028], [84.76956796900004, 25.414991844000042], [84.77166834800005, 25.414213372000063], [84.77246961300006, 25.41391816400005], [84.77493675200003, 25.41336640700007], [84.77758347800005, 25.412666342000023], [84.77828603100005, 25.41219926800005], [84.77971040800008, 25.41139592600007], [84.78104295600008, 25.411215063000043], [84.78181566600006, 25.41061274200007], [84.78338420100005, 25.40978272600006], [84.78451379400008, 25.409416271000055]]]]}}, {"type": "Feature", "properties": {"OBJECTID": 981, "GPCODE": "96361", "GPNAME_1": "LALA BHADASARA", "DIST_CEN_C": "28", "BLK_NAME": "DULHIN BAZAR", "ST_NAME": "BIHAR", "ST_CODE_1": "10", "GPCODE2011": "98915", "REMARKS": "FINALIZED", "MAP_STATUS": "COMPLETED", "BLK_C_2001": "280009", "BLK_C_2011": "01406", "DIST_NAME": "PATNA", "code2011": 0.0, "Shape_Leng": 0.09536157891, "Shape_Area": 0.00048932062, "Area": 5.45759}, "geometry": {"type": "MultiPolygon", "coordinates": [[[[84.83214767600003, 25.381824101000063], [84.83358868000005, 25.381792077000057], [84.83437032800003, 25.381297768000024], [84.83535018100008, 25.381002728000055], [84.83627888300003, 25.38112718600007], [84.83698021800006, 25.38088990700004], [84.83864863100007, 25.381169929000066], [84.83946177800004, 25.38167766500004], [84.84020995400004, 25.38228458100008], [84.84188010200006, 25.382050002000028], [84.84414591300003, 25.38199764600006], [84.84621821400003, 25.381867963000047], [84.84927519500008, 25.38144297300005], [84.85123278400005, 25.381448316000046], [84.85108139000005, 25.38062644200005], [84.85006002100005, 25.378475278000053], [84.84950310500005, 25.377119708000066], [84.84926205200009, 25.376392357000043], [84.84945684700006, 25.376067904000024], [84.85020904900006, 25.37546511900007], [84.85041425000009, 25.375000820000025], [84.85063092200005, 25.374085189000027], [84.85110424000004, 25.37365320400005], [84.85242767800008, 25.373065500000052], [84.85299479700006, 25.37284588400007], [84.85343833300004, 25.372422744000062], [84.85330076800005, 25.371957474000055], [84.85299492400009, 25.371288700000036], [84.85258897600005, 25.37085881400003], [84.85226326000009, 25.370176385000036], [84.85232983800006, 25.36958528200006], [84.85317988800006, 25.369393553000066], [84.85400575400007, 25.36903469300006], [84.85371575700003, 25.368099553000036], [84.85254342200005, 25.366525748000072], [84.85158933300005, 25.365101383000024], [84.85054147100004, 25.363478172000043], [84.85025064900003, 25.362782306000042], [84.84965294600005, 25.36177417700003], [84.84922204700007, 25.361366795000038], [84.84774148400004, 25.361421390000032], [84.84720191900004, 25.360842241000057], [84.84622407700004, 25.36061836300007], [84.84508634100007, 25.36067391000006], [84.84405538600004, 25.361456404000023], [84.84262871800007, 25.361759388000053], [84.84184471200007, 25.361504469000067], [84.84139544500005, 25.360659190000035], [84.84062755000008, 25.36003419700006], [84.83885050700007, 25.35965914600007], [84.83840671300004, 25.360131801000023], [84.83765682900008, 25.360084569000037], [84.83687624900006, 25.36026290500007], [84.83499224800005, 25.360645841000064], [84.83364015600006, 25.360908290000054], [84.83188009800006, 25.361377205000053], [84.83000994000008, 25.362044395000055], [84.82910948000006, 25.36241189900005], [84.82830982100006, 25.362378052000054], [84.82712182900008, 25.362582287000066], [84.82592874300008, 25.362831612000036], [84.82658178200006, 25.363618833000032], [84.82571550900008, 25.364148898000053], [84.82490015100007, 25.36432254400006], [84.82441728400005, 25.364623608000045], [84.82477991200005, 25.366055396000036], [84.82520230900008, 25.367437711000036], [84.82537273300005, 25.36843574200003], [84.82616020100005, 25.370550327000046], [84.82647778700004, 25.372090336000042], [84.82665349600006, 25.372975479000047], [84.82700751200008, 25.374032623000062], [84.82695516700005, 25.374813343000028], [84.82698806900004, 25.375341474000038], [84.82751193200005, 25.37615545600005], [84.82773100200006, 25.376016207000077], [84.82834757100005, 25.375878026000066], [84.82932154800005, 25.37580403900006], [84.82993722300006, 25.375932206000073], [84.83034792200004, 25.37639828500005], [84.83084452400004, 25.376462839000055], [84.83128528300006, 25.376865817000066], [84.83147168400006, 25.377565979000053], [84.83159733900004, 25.378608953000025], [84.83179645600006, 25.379927476000034], [84.83214767600003, 25.381824101000063]]]]}}]}