{"type": "FeatureCollection", "features": [{"type": "Feature", "properties": {"OBJECTID": 881, "GPCODE": "96270", "GPNAME_1": "KORARI", "DIST_CEN_C": "28", "BLK_NAME": "BELCHCHI", "ST_NAME": "BIHAR", "ST_CODE_1": "10", "GPCODE2011": "98824", "REMARKS": "FINALIZED", "MAP_STATUS": "COMPLETED", "BLK_C_2001": "280019", "BLK_C_2011": "01416", "DIST_NAME": "PATNA", "code2011": 0.0, "Shape_Leng": 0.17488044275, "Shape_Area": 0.00093742129, "Area": 10.4511}, "geometry": {"type": "MultiPolygon", "coordinates": [[[[85.66773713300006, 25.354939100000024], [85.66796667300008, 25.352370250000035], [85.66804113100005, 25.34946781700006], [85.66812107000004, 25.346718916000043], [85.66817462300008, 25.343523213000026], [85.66738624900006, 25.342487310000024], [85.66726327600009, 25.339937509000038], [85.66783829700006, 25.338175628000045], [85.66801842900009, 25.337123460000043], [85.66602498900005, 25.33659651800008], [85.66440993300006, 25.336307651000027], [85.66324576000005, 25.335724198000037], [85.66195027400005, 25.334495584000024], [85.66078494800007, 25.333560098000078], [85.65891194200003, 25.333389199000067], [85.65559693200004, 25.332662689000074], [85.65548050200005, 25.330519131000074], [85.65689636600007, 25.32916560800004], [85.65844072000004, 25.32763577000003], [85.65953560100007, 25.32537602600007], [85.65884159100005, 25.321333808000077], [85.65811036500008, 25.31651991600006], [85.65764862300006, 25.31358737000005], [85.65663662500003, 25.31092269900006], [85.65579543900003, 25.310333756000034], [85.65479283500008, 25.310467349000078], [85.64827970500005, 25.310972530000072], [85.64722122000006, 25.313764777000074], [85.64567202400008, 25.313768916000072], [85.64391768100006, 25.31334481300007], [85.64121720900005, 25.31360482300005], [85.64148303600007, 25.314407496000058], [85.64265068300006, 25.317712853000046], [85.64349598400008, 25.319588176000025], [85.64369401600004, 25.32093724400005], [85.64369638400007, 25.321641274000058], [85.64305192100005, 25.321995066000056], [85.64227737700008, 25.322055789000046], [85.64098587200004, 25.32194189200004], [85.63995103400003, 25.32135789000006], [85.63852763400007, 25.320364115000075], [85.63768616100003, 25.319662248000043], [85.63545581700004, 25.319465019000063], [85.63248643000009, 25.319531357000074], [85.63029147800006, 25.319537075000028], [85.62767563300008, 25.319931937000035], [85.62791786000008, 25.32435912400007], [85.62790142100005, 25.328637999000023], [85.62845454200004, 25.330816640000023], [85.63142473900007, 25.33092629600003], [85.63432912600007, 25.330625345000044], [85.63671793400005, 25.330619157000058], [85.63846927400004, 25.331612068000027], [85.64109079800005, 25.33292755000008], [85.64328685900006, 25.333215119000045], [85.64561214100007, 25.333502279000072], [85.64697201300004, 25.334730798000066], [85.64743514600008, 25.33813729800005], [85.64738172300008, 25.34154511500003], [85.647385, 25.34254257500004], [85.64782075300008, 25.343660785000054], [85.64725988400005, 25.34377960100005], [85.64635617600004, 25.343858770000054], [85.64639704900009, 25.344210717000067], [85.64644395700003, 25.344878574000063], [85.64707437000004, 25.34630315100003], [85.64755508700006, 25.347479871000075], [85.64747204700006, 25.347913431000052], [85.64708314000006, 25.348970682000072], [85.64691860800008, 25.35030705500003], [85.64722690100007, 25.35191303600004], [85.64774737400006, 25.353089686000033], [85.64878372600003, 25.35406634700007], [85.64964975700008, 25.354574005000075], [85.65094747400008, 25.354963121000026], [85.65168330700004, 25.355155241000034], [85.65207171700007, 25.355429480000055], [85.65272005100007, 25.35621310500005], [85.65315306400004, 25.356487188000074], [85.65350083600003, 25.356486293000046], [85.65401680800005, 25.356286287000046], [85.65453210000004, 25.35589664400004], [85.65496303800006, 25.355538909000074], [85.65547967200007, 25.355537467000033], [85.65587270800006, 25.355734983000048], [85.65651964700004, 25.35608525600003], [85.65708098600004, 25.356083743000056], [85.65755696400004, 25.35580707300005], [85.65776886000003, 25.35529649700004], [85.65811357500007, 25.354433440000037], [85.65836958900007, 25.353728645000047], [85.65849872000007, 25.353728260000025], [85.65862810500005, 25.353804687000036], [85.65923219400008, 25.354705688000024], [85.66014447800006, 25.355682569000066], [85.66116464700008, 25.35768826800006], [85.66284638000008, 25.35701557400006], [85.66504350800005, 25.35602990800004], [85.66773713300006, 25.354939100000024]]]]}}, {"type": "Feature", "properties": {"OBJECTID": 890, "GPCODE": "96266", "GPNAME_1": "AUNDOULI DARWESHPURA", "DIST_CEN_C": "28", "BLK_NAME": "BELCHCHI", "ST_NAME": "BIHAR", "ST_CODE_1": "10", "GPCODE2011": "98820", "REMARKS": "FINALIZED", "MAP_STATUS": "COMPLETED", "BLK_C_2001": "280019", "BLK_C_2011": "01416", "DIST_NAME": "PATNA", "code2011": 0.0, "Shape_Leng": 0.18787828679, "Shape_Area": 0.00110079741, "Area": 12.2693}, "geometry": {"type": "MultiPolygon", "coordinates": [[[[85.74894217900004, 25.369102413000064], [85.74906462800004, 25.368673225000066], [85.75077962400007, 25.368924728000025], [85.75127562200004, 25.36872891300004], [85.75163182700004, 25.368371189000072], [85.75128721100003, 25.366738449000025], [85.75113683200004, 25.365213459000074], [85.75098675800007, 25.363756069000033], [85.75099644800008, 25.362478728000042], [85.75146027000005, 25.361732431000064], [85.75316374700003, 25.360426768000025], [85.75343525600005, 25.357609404000073], [85.75349939300008, 25.355113293000045], [85.75386387800006, 25.353184785000053], [85.75385997500007, 25.352246002000072], [85.75335962900004, 25.351372076000075], [85.75288151400008, 25.35105323600004], [85.75385748000008, 25.34925355300004], [85.75410158700004, 25.34822818300006], [85.75353361100008, 25.346596171000044], [85.75299740300005, 25.34547421700006], [85.75200349100004, 25.344128092000062], [85.75070693400005, 25.341681635000043], [85.75045475100006, 25.340752706000046], [85.75026801800004, 25.33882613000003], [85.74889070800003, 25.338447146000078], [85.74853608900008, 25.33796536500006], [85.74774031700008, 25.33770177100007], [85.74668094700007, 25.337348742000074], [85.74621475900005, 25.33751737500006], [85.74582862600005, 25.33783005600003], [85.74544320300004, 25.338300779000065], [85.74492997200008, 25.339119461000053], [85.74424748700005, 25.339821348000044], [85.74334994100008, 25.340176375000055], [85.74287937400004, 25.340489413000057], [85.74210828000008, 25.34143075700007], [85.74151069200008, 25.342249695000078], [85.74086996200003, 25.34225187800007], [85.74035257900005, 25.342059456000072], [85.73914778300008, 25.34135942200004], [85.73819963700004, 25.340234159000033], [85.73708296300003, 25.339222352000036], [85.73626754000009, 25.33899028700006], [85.73510559000005, 25.33907539100005], [85.73386517100005, 25.339390915000024], [85.73241048000006, 25.340758755000024], [85.73172869900003, 25.341695267000034], [85.73134242100008, 25.341971804000025], [85.73017381000005, 25.34162362400008], [85.72987270800007, 25.344598920000067], [85.72966386600007, 25.345813805000034], [85.72915099700003, 25.346731712000064], [85.72794330000005, 25.346550582000077], [85.72667951100004, 25.346008492000067], [85.72492300400006, 25.345206224000037], [85.72406229100005, 25.344843491000063], [85.72334179500007, 25.34476453900004], [85.72245341300004, 25.34495246700004], [85.72148176100006, 25.345424966000053], [85.72070942500005, 25.346077369000056], [85.72032628300008, 25.34718887100007], [85.72035810300008, 25.347712380000075], [85.72084856600009, 25.348649592000072], [85.72191640000005, 25.34989645400003], [85.72298860200004, 25.352267032000043], [85.72296708100004, 25.35248373400003], [85.72294554900003, 25.35270054500006], [85.72246056200004, 25.353171470000063], [85.72111702700005, 25.353825709000034], [85.72014081400005, 25.354429073000063], [85.71957320500007, 25.355369687000064], [85.71940417200005, 25.356624989000068], [85.71941041400004, 25.358240803000058], [85.71939983800007, 25.359351163000042], [85.71946433900007, 25.360605674000055], [85.71943790000006, 25.361490480000043], [85.71998256600006, 25.362301152000043], [85.72127599500004, 25.362770907000026], [85.72235421200008, 25.362844219000067], [85.72403820300008, 25.36283877900007], [85.72554884100003, 25.362951274000068], [85.72667206000006, 25.363064989000065], [85.72770694500008, 25.36349496300005], [85.72801706400008, 25.365294826000024], [85.72837395000005, 25.36760907000007], [85.72842190300008, 25.369685101000073], [85.72838871800008, 25.37133257800008], [85.72867715800004, 25.373944935000054], [85.72859398900005, 25.37425668000003], [85.72946047300007, 25.37476388600004], [85.73032336800009, 25.37562309200007], [85.73106110700007, 25.376248071000077], [85.73162351700006, 25.376485470000034], [85.73226977800005, 25.376600664000023], [85.73305006900006, 25.376674881000042], [85.73396493000007, 25.37933931300006], [85.73631271000005, 25.37876286900007], [85.73855665000008, 25.378322140000023], [85.73993682500009, 25.378082852000034], [85.74209213000006, 25.377841002000025], [85.74299997700007, 25.377526516000046], [85.74312329600008, 25.37607281800007], [85.74471663400004, 25.375715421000052], [85.74779085700004, 25.37545223400008], [85.74931990600004, 25.375158244000033], [85.75021169000007, 25.374572943000032], [85.75063888600005, 25.374535448000074], [85.75034720500008, 25.37369688800004], [85.74995223600007, 25.373084429000073], [85.74977552400009, 25.372403447000067], [85.74934000800005, 25.371592511000074], [85.74937567500007, 25.370622058000038], [85.74894217900004, 25.369102413000064]]], [[[85.72665845500006, 25.374768408000023], [85.72406935700008, 25.374618833000056], [85.72232208400004, 25.374999109000044], [85.72089709900007, 25.375238328000023], [85.71882615200008, 25.37543900600008], [85.71697367200005, 25.375602860000072], [85.71585312200006, 25.376193176000072], [85.71553347800005, 25.37703821300005], [85.71575691500004, 25.37829228700008], [85.71532540100003, 25.378492238000035], [85.71411884500003, 25.378690086000063], [85.71338487600008, 25.37904450800005], [85.71330848700006, 25.381166003000033], [85.71352837200004, 25.38277216800003], [85.71370793700004, 25.384260993000055], [85.71446532700008, 25.384827292000068], [85.71507226100005, 25.385019448000037], [85.71545918000004, 25.384864804000074], [85.71601892100006, 25.384429753000063], [85.71666406700007, 25.384233621000078], [85.71761282600005, 25.384149351000076], [85.71921216500004, 25.38402688900004], [85.72180028600008, 25.38390126300004], [85.72352372000006, 25.383737791000044], [85.72395397900004, 25.383226431000026], [85.72399412900006, 25.38205272400006], [85.72399044500008, 25.381109441000035], [85.72407247200005, 25.380481796000026], [85.72480778000005, 25.380479421000075], [85.72567225000006, 25.38047669300005], [85.72631726600008, 25.380239903000074], [85.72700581400005, 25.379727650000063], [85.72745279300005, 25.37841280400005], [85.72748833300005, 25.37735200700007], [85.72735497800005, 25.376296253000078], [85.72665845500006, 25.374768408000023]]]]}}, {"type": "Feature", "properties": {"OBJECTID": 901, "GPCODE": "96268", "GPNAME_1": "BELCHHI", "DIST_CEN_C": "28", "BLK_NAME": "BELCHCHI", "ST_NAME": "BIHAR", "ST_CODE_1": "10", "GPCODE2011": "98822", "REMARKS": "FINALIZED", "MAP_STATUS": "COMPLETED", "BLK_C_2001": "280019", "BLK_C_2011": "01416", "DIST_NAME": "PATNA", "code2011": 0.0, "Shape_Leng": 0.1664266477, "Shape_Area": 0.00093535977, "Area": 10.4245}, "geometry": {"type": "MultiPolygon", "coordinates": [[[[85.67403198600005, 25.392202503000078], [85.67446369000004, 25.392043286000046], [85.67486629400008, 25.392069262000064], [85.67538899600004, 25.392356581000058], [85.67579396000008, 25.39305948300006], [85.67643001500005, 25.39447036100006], [85.67676464600004, 25.39495688900007], [85.67696407100004, 25.395163928000045], [85.67736676800007, 25.395216884000035], [85.67788827000004, 25.39513413700007], [85.67900366100008, 25.394399690000057], [85.68037970500006, 25.392906269000036], [85.68092292700004, 25.391961294000055], [85.68137831700005, 25.39007788400005], [85.68123061000006, 25.389058284000043], [85.68074888900009, 25.387741706000043], [85.68066266600005, 25.38724553000003], [85.68068991300004, 25.386509760000024], [85.68091692400003, 25.386093849000076], [85.68094593700005, 25.38585900700008], [85.68068672300006, 25.385620634000077], [85.68022390800007, 25.385414315000048], [85.67956202400006, 25.385127414000067], [85.67960488400007, 25.384590124000056], [85.67951237200003, 25.383728403000077], [85.67972893000007, 25.383136483000044], [85.68043588100005, 25.38213244800005], [85.68081972800007, 25.38111123400006], [85.68090091100004, 25.380172221000066], [85.68089656900008, 25.378953559000024], [85.68059115500006, 25.376914344000056], [85.68036851500005, 25.375777645000028], [85.67954781300006, 25.375504670000055], [85.67816595600004, 25.375314606000074], [85.67673984300006, 25.375237514000048], [85.67628376100004, 25.374119491000044], [85.67523828300006, 25.37066967900006], [85.67461995700006, 25.367178059000025], [85.67418074400007, 25.365175316000034], [85.67352865900006, 25.363376285000072], [85.67255086100005, 25.362183019000042], [85.67143163500003, 25.361757520000026], [85.67211970700004, 25.361046841000075], [85.67284715100004, 25.360259462000045], [85.67310265400005, 25.35943721800004], [85.67293169300007, 25.358846494000034], [85.67232398900006, 25.358378790000074], [85.67154786000003, 25.35802897900004], [85.67033551300005, 25.357951197000034], [85.66843903600005, 25.358272588000034], [85.66714388200006, 25.358668872000067], [85.66568079500007, 25.359341080000036], [85.66520507200005, 25.35969440300005], [85.66486279400004, 25.35981275100005], [85.66425674000004, 25.359814452000023], [85.66412666400004, 25.359539460000065], [85.66412522000007, 25.359110731000044], [85.66507210200007, 25.358557440000027], [85.66739735500005, 25.357255442000053], [85.66791482500008, 25.356075994000037], [85.66773713300006, 25.354939100000024], [85.66504350800005, 25.35602990800004], [85.66284638000008, 25.35701557400006], [85.66116464700008, 25.35768826800006], [85.66014447800006, 25.355682569000066], [85.65923219400008, 25.354705688000024], [85.65862810500005, 25.353804687000036], [85.65849872000007, 25.353728260000025], [85.65836958900007, 25.353728645000047], [85.65811357500007, 25.354433440000037], [85.65776886000003, 25.35529649700004], [85.65755696400004, 25.35580707300005], [85.65708098600004, 25.356083743000056], [85.65651964700004, 25.35608525600003], [85.65587270800006, 25.355734983000048], [85.65547967200007, 25.355537467000033], [85.65496303800006, 25.355538909000074], [85.65453210000004, 25.35589664400004], [85.65401680800005, 25.356286287000046], [85.65350083600003, 25.356486293000046], [85.65315306400004, 25.356487188000074], [85.65272005100007, 25.35621310500005], [85.65207171700007, 25.355429480000055], [85.65168330700004, 25.355155241000034], [85.65094747400008, 25.354963121000026], [85.65067379900006, 25.35631793600004], [85.65045750000007, 25.356986541000026], [85.64985310100008, 25.357498242000077], [85.64907982300008, 25.358010292000074], [85.64860440500007, 25.358444887000076], [85.64847780900004, 25.359230609000065], [85.64848069500005, 25.36009267000003], [85.64887662200005, 25.361152264000054], [85.64887843500009, 25.36169842000004], [85.64883585600006, 25.362366493000025], [85.64844975700004, 25.36276024800003], [85.64764964600005, 25.36266763200007], [85.64752040500008, 25.36266801200003], [85.64713454200006, 25.363138392000053], [85.64666072800009, 25.364083034000032], [85.64662532200003, 25.36541459800003], [85.64667128700006, 25.367301115000032], [85.64650770200006, 25.36894895900008], [85.64937714900003, 25.36982585000004], [85.65143138600007, 25.370587614000044], [85.65229729200007, 25.37101853200005], [85.65294528600003, 25.37168021000008], [85.65292368400009, 25.372659681000073], [85.65335827000007, 25.373362668000027], [85.65331556400008, 25.37395401300006], [85.65345112000006, 25.375876404000053], [85.65371425600006, 25.377324557000065], [85.65377042500006, 25.379265129000032], [85.65403740600004, 25.38185512900003], [85.65404290700008, 25.383502606000036], [85.65406115400003, 25.384486512000024], [85.65420995400007, 25.385925841000073], [85.65519057900008, 25.386442183000042], [85.65662749100005, 25.386754241000062], [85.65784120200004, 25.387143515000048], [85.65818483900006, 25.38737727700004], [85.65850430100005, 25.387823223000055], [85.65870539200006, 25.388499712000055], [85.65868248400005, 25.389077437000026], [85.65841050400007, 25.38946188600005], [85.65803990200004, 25.39009025000007], [85.65746503100007, 25.390534201000037], [85.65685976100008, 25.390797616000043], [85.65597104700004, 25.39100772300003], [85.65499240700007, 25.39106460800008], [85.65398410500006, 25.39119828400004], [85.65346816900006, 25.39143438700006], [85.65294750700008, 25.391751718000023], [85.65277991100004, 25.39216744400005], [85.65272195400007, 25.392668610000044], [85.65304157700007, 25.39316420700004], [85.65364407700008, 25.393528179000043], [85.65413660200005, 25.393707333000066], [85.65511509500004, 25.393600812000045], [85.65617798300008, 25.393439900000033], [85.65704204100007, 25.393284117000064], [85.65805067100007, 25.393281299000023], [85.65882640400008, 25.39343260100003], [85.65972245900008, 25.393926580000027], [85.66026769900003, 25.393536943000072], [85.66063744400003, 25.392669304000037], [85.66121103900008, 25.391859801000066], [85.66161286600004, 25.391673618000027], [85.66241789200006, 25.391671298000063], [85.66339704200004, 25.391772409000055], [85.66489452700006, 25.392291731000057], [85.66743216400005, 25.393331670000066], [85.67015420400008, 25.394488436000074], [85.67151245300005, 25.394981010000038], [85.67251717800008, 25.395267008000076], [85.67309410700005, 25.39542330300003], [85.67344190000006, 25.395395286000053], [85.67358475100008, 25.395056342000032], [85.67372369300006, 25.393566432000057], [85.67371994900003, 25.392492282000035], [85.67403198600005, 25.392202503000078]]]]}}, {"type": "Feature", "properties": {"OBJECTID": 903, "GPCODE": "96267", "GPNAME_1": "BARAH", "DIST_CEN_C": "28", "BLK_NAME": "BELCHCHI", "ST_NAME": "BIHAR", "ST_CODE_1": "10", "GPCODE2011": "98821", "REMARKS": "FINALIZED", "MAP_STATUS": "COMPLETED", "BLK_C_2001": "280019", "BLK_C_2011": "01416", "DIST_NAME": "PATNA", "code2011": 0.0, "Shape_Leng": 0.19727089423, "Shape_Area": 0.00104309281, "Area": 11.6256}, "geometry": {"type": "MultiPolygon", "coordinates": [[[[85.63507903900006, 25.394755900000064], [85.63544073700007, 25.39285026600004], [85.63600031000004, 25.392262068000036], [85.63729437400008, 25.391392018000033], [85.63901955000006, 25.390132769000047], [85.63983630500007, 25.38919181400007], [85.64047951300006, 25.388323487000036], [85.64099385300005, 25.38757737900005], [85.64198534500008, 25.386906751000026], [85.64435640100004, 25.385686287000055], [85.64623242200008, 25.385031320000053], [85.64720980600003, 25.384581867000065], [85.64844582700005, 25.384239964000074], [85.64988660600005, 25.384209015000067], [85.65100952500006, 25.38420594300004], [85.65236153500007, 25.384387298000036], [85.65406115400003, 25.384486512000024], [85.65404290700008, 25.383502606000036], [85.65403740600004, 25.38185512900003], [85.65377042500006, 25.379265129000032], [85.65371425600006, 25.377324557000065], [85.65345112000006, 25.375876404000053], [85.65331556400008, 25.37395401300006], [85.65335827000007, 25.373362668000027], [85.65292368400009, 25.372659681000073], [85.65294528600003, 25.37168021000008], [85.65229729200007, 25.37101853200005], [85.65143138600007, 25.370587614000044], [85.64937714900003, 25.36982585000004], [85.64650770200006, 25.36894895900008], [85.64667128700006, 25.367301115000032], [85.64662532200003, 25.36541459800003], [85.64666072800009, 25.364083034000032], [85.64713454200006, 25.363138392000053], [85.64752040500008, 25.36266801200003], [85.64764964600005, 25.36266763200007], [85.64844975700004, 25.36276024800003], [85.64883585600006, 25.362366493000025], [85.64887843500009, 25.36169842000004], [85.64887662200005, 25.361152264000054], [85.64848069500005, 25.36009267000003], [85.64847780900004, 25.359230609000065], [85.64860440500007, 25.358444887000076], [85.64907982300008, 25.358010292000074], [85.64985310100008, 25.357498242000077], [85.65045750000007, 25.356986541000026], [85.65067379900006, 25.35631793600004], [85.65094747400008, 25.354963121000026], [85.64964975700008, 25.354574005000075], [85.64878372600003, 25.35406634700007], [85.64774737400006, 25.353089686000033], [85.64722690100007, 25.35191303600004], [85.64691860800008, 25.35030705500003], [85.64708314000006, 25.348970682000072], [85.64747204700006, 25.347913431000052], [85.64755508700006, 25.347479871000075], [85.64707437000004, 25.34630315100003], [85.64644395700003, 25.344878574000063], [85.64639704900009, 25.344210717000067], [85.64635617600004, 25.343858770000054], [85.64725988400005, 25.34377960100005], [85.64782075300008, 25.343660785000054], [85.647385, 25.34254257500004], [85.64196026900004, 25.342263761000027], [85.64235354300007, 25.344081653000046], [85.64136003700008, 25.347108341000023], [85.64097634900008, 25.348287343000038], [85.64085311700006, 25.350106622000055], [85.64059855100004, 25.35128082800003], [85.63989243500004, 25.352573618000065], [85.63873117900005, 25.352928684000062], [85.63718140700007, 25.352932742000064], [85.63621156000005, 25.35252458900004], [85.63536756100007, 25.35111861100006], [85.63458839500004, 25.349771065000027], [85.63323039400007, 25.349129224000023], [85.63206734500005, 25.348897462000025], [85.63135704700005, 25.34889932300007], [85.63148837700004, 25.34960307700004], [85.63233659100007, 25.352358636000076], [85.63311851100008, 25.354590823000024], [85.63487488200008, 25.358634878000032], [85.63594803000007, 25.360247878000052], [85.63614548900006, 25.361420922000036], [85.63540468400004, 25.362303392000058], [85.63540466800004, 25.362303412000074], [85.63466076500004, 25.363189555000076], [85.63053324200007, 25.364960522000047], [85.62814777100004, 25.366257589000043], [85.62692258200008, 25.36684746000003], [85.62576007500007, 25.36685041800007], [85.62517892400007, 25.366851890000078], [85.62557055500008, 25.368200456000068], [85.62570755000007, 25.37072770000003], [85.62601694500006, 25.375985101000026], [85.62537217600004, 25.377923013000043], [85.62388899000007, 25.378689578000035], [85.62143524800007, 25.37887188600007], [85.61665761000006, 25.379529286000036], [85.61421027900008, 25.379752305000068], [85.61421006400008, 25.379752325000027], [85.61401024400004, 25.379770533000055], [85.61039592100008, 25.380664051000053], [85.61201238600006, 25.38455981000004], [85.61656832000006, 25.38448526700006], [85.61964710800004, 25.38879707500007], [85.62077435600008, 25.390206935000037], [85.62207505800006, 25.391458424000064], [85.62365323100005, 25.392451879000077], [85.62447625300007, 25.39346986100003], [85.62517096900007, 25.394763479000062], [85.62547807000004, 25.396057987000063], [85.62582812100004, 25.398372519000077], [85.62613484600007, 25.399549782000065], [85.62635208100005, 25.400686631000042], [85.62670145800007, 25.401155131000053], [85.62747693200004, 25.401270492000037], [85.62801798300006, 25.401052451000055], [85.62853298000005, 25.400500536000038], [85.62870422000003, 25.399637980000023], [85.62887459700005, 25.398500140000067], [85.62921233400004, 25.39685183200004], [85.62976936300004, 25.395437714000025], [85.63011637500006, 25.395161495000025], [85.63102028800006, 25.39504180800003], [85.63274888700005, 25.39484324600005], [85.63507903900006, 25.394755900000064]]]]}}, {"type": "Feature", "properties": {"OBJECTID": 910, "GPCODE": "96272", "GPNAME_1": "SAKSOHRA EAST", "DIST_CEN_C": "28", "BLK_NAME": "BELCHCHI", "ST_NAME": "BIHAR", "ST_CODE_1": "10", "GPCODE2011": "98826", "REMARKS": "FINALIZED", "MAP_STATUS": "COMPLETED", "BLK_C_2001": "280019", "BLK_C_2011": "01416", "DIST_NAME": "PATNA", "code2011": 0.0, "Shape_Leng": 0.09218324027, "Shape_Area": 0.00021791372, "Area": 2.42877}, "geometry": {"type": "MultiPolygon", "coordinates": [[[[85.72837395000005, 25.36760907000007], [85.72801706400008, 25.365294826000024], [85.72770694500008, 25.36349496300005], [85.72667206000006, 25.363064989000065], [85.72554884100003, 25.362951274000068], [85.72403820300008, 25.36283877900007], [85.72235421200008, 25.362844219000067], [85.72127599500004, 25.362770907000026], [85.71998256600006, 25.362301152000043], [85.71943790000006, 25.361490480000043], [85.71803331400008, 25.361806302000048], [85.71585263900005, 25.361840312000027], [85.71237530500008, 25.361851251000076], [85.71209048800006, 25.361409839000032], [85.71219639900005, 25.359215939000023], [85.71222099400006, 25.357861884000044], [85.71207137300007, 25.35639993600006], [85.71229454400003, 25.354991030000065], [85.71232018200004, 25.353894208000042], [85.71202833200005, 25.352906635000068], [85.71123486200008, 25.35196131300006], [85.71066229400003, 25.351597468000023], [85.71014567700007, 25.35159909400005], [85.70902868900004, 25.35308753700008], [85.70748754600004, 25.355362581000065], [85.70626272600003, 25.35724405600007], [85.70524966400006, 25.358664434000048], [85.70504910400007, 25.359477440000035], [85.70447291200009, 25.36083327700004], [85.70318755700004, 25.362480125000047], [85.70112150300008, 25.363957910000067], [85.70209054000009, 25.364036115000033], [85.70338178000009, 25.363955446000034], [85.70480825200008, 25.364145114000053], [85.70644802800007, 25.364261885000076], [85.70804301800007, 25.364333679000026], [85.70921036600004, 25.364330109000036], [85.70998578800004, 25.364444965000075], [85.71050537600007, 25.365228681000076], [85.71077420500006, 25.366676743000028], [85.71099156800005, 25.36765545000003], [85.71099440100005, 25.368400171000076], [85.71120997600008, 25.368909535000057], [85.71147484000005, 25.369342010000025], [85.71181776600008, 25.36938151000004], [85.71203126400007, 25.36934020500007], [85.71233180600007, 25.368671258000063], [85.71258469900005, 25.367257766000023], [85.71500389400006, 25.36721409100005], [85.71556613000007, 25.367446947000076], [85.71590981900005, 25.367680584000027], [85.71656730000007, 25.369402618000038], [85.71691175900008, 25.36983482000005], [85.71859613400005, 25.369906250000042], [85.72139852500004, 25.370014603000072], [85.72305787700003, 25.370031918000052], [85.72340655000005, 25.370265446000076], [85.72375742900005, 25.372345026000062], [85.72406935700008, 25.374618833000056], [85.72665845500006, 25.374768408000023], [85.72730782000008, 25.37441428300008], [85.72769508600004, 25.374331810000058], [85.72859398900005, 25.37425668000003], [85.72867715800004, 25.373944935000054], [85.72838871800008, 25.37133257800008], [85.72842190300008, 25.369685101000073], [85.72837395000005, 25.36760907000007]]]]}}, {"type": "Feature", "properties": {"OBJECTID": 917, "GPCODE": "96271", "GPNAME_1": "SAKSOHARA WEST", "DIST_CEN_C": "28", "BLK_NAME": "BELCHCHI", "ST_NAME": "BIHAR", "ST_CODE_1": "10", "GPCODE2011": "98825", "REMARKS": "FINALIZED", "MAP_STATUS": "COMPLETED", "BLK_C_2001": "280019", "BLK_C_2011": "01416", "DIST_NAME": "PATNA", "code2011": 0.0, "Shape_Leng": 0.19991330237, "Shape_Area": 0.00106048884, "Area": 11.8199}, "geometry": {"type": "MultiPolygon", "coordinates": [[[[85.70264100300005, 25.385080790000075], [85.70397596700008, 25.384643424000046], [85.70509897600004, 25.384680579000076], [85.70661013500006, 25.38486997600006], [85.70816647700008, 25.385181034000027], [85.71045788600009, 25.38540862700006], [85.71149129200006, 25.38540537600005], [85.71248401400004, 25.385126911000043], [85.71370793700004, 25.384260993000055], [85.71352837200004, 25.38277216800003], [85.71330848700006, 25.381166003000033], [85.71338487600008, 25.37904450800005], [85.71411884500003, 25.378690086000063], [85.71532540100003, 25.378492238000035], [85.71575691500004, 25.37829228700008], [85.71553347800005, 25.37703821300005], [85.71585312200006, 25.376193176000072], [85.71697367200005, 25.375602860000072], [85.71882615200008, 25.37543900600008], [85.72089709900007, 25.375238328000023], [85.72232208400004, 25.374999109000044], [85.72406935700008, 25.374618833000056], [85.72375742900005, 25.372345026000062], [85.72340655000005, 25.370265446000076], [85.72305787700003, 25.370031918000052], [85.72139852500004, 25.370014603000072], [85.71859613400005, 25.369906250000042], [85.71691175900008, 25.36983482000005], [85.71656730000007, 25.369402618000038], [85.71590981900005, 25.367680584000027], [85.71556613000007, 25.367446947000076], [85.71500389400006, 25.36721409100005], [85.71258469900005, 25.367257766000023], [85.71233180600007, 25.368671258000063], [85.71203126400007, 25.36934020500007], [85.71181776600008, 25.36938151000004], [85.71147484000005, 25.369342010000025], [85.71120997600008, 25.368909535000057], [85.71099440100005, 25.368400171000076], [85.71099156800005, 25.36765545000003], [85.71077420500006, 25.366676743000028], [85.71050537600007, 25.365228681000076], [85.70998578800004, 25.364444965000075], [85.70921036600004, 25.364330109000036], [85.70804301800007, 25.364333679000026], [85.70644802800007, 25.364261885000076], [85.70480825200008, 25.364145114000053], [85.70338178000009, 25.363955446000034], [85.70209054000009, 25.364036115000033], [85.70112150300008, 25.363957910000067], [85.69937310500006, 25.36402193400005], [85.69879057600008, 25.363671585000077], [85.69755425600005, 25.36249736900004], [85.69664540700006, 25.361209231000032], [85.69560265800004, 25.359975749000057], [85.69430415000005, 25.35809756200007], [85.69118134200005, 25.354460035000045], [85.68886192000008, 25.351808507000044], [85.68782932100004, 25.35196956300007], [85.68731261000005, 25.351943943000038], [85.68690843600007, 25.351426084000025], [85.68647105200006, 25.349992178000036], [85.68652437400004, 25.348245226000074], [85.68640064800007, 25.345609702000047], [85.68597658700008, 25.343697233000057], [85.68580098200005, 25.343196774000035], [85.68270069800008, 25.342948670000055], [85.67925767300005, 25.34266986500006], [85.67604338000007, 25.34244450500006], [85.67386868600005, 25.342671893000045], [85.67193410900006, 25.343381609000062], [85.66999734000007, 25.343477353000026], [85.66883444600006, 25.343304628000055], [85.66738624900006, 25.342487310000024], [85.66817462300008, 25.343523213000026], [85.66812107000004, 25.346718916000043], [85.66804113100005, 25.34946781700006], [85.66796667300008, 25.352370250000035], [85.66773713300006, 25.354939100000024], [85.66791482500008, 25.356075994000037], [85.66739735500005, 25.357255442000053], [85.66507210200007, 25.358557440000027], [85.66412522000007, 25.359110731000044], [85.66412666400004, 25.359539460000065], [85.66425674000004, 25.359814452000023], [85.66486279400004, 25.35981275100005], [85.66520507200005, 25.35969440300005], [85.66568079500007, 25.359341080000036], [85.66714388200006, 25.358668872000067], [85.66843903600005, 25.358272588000034], [85.67033551300005, 25.357951197000034], [85.67154786000003, 25.35802897900004], [85.67232398900006, 25.358378790000074], [85.67293169300007, 25.358846494000034], [85.67310265400005, 25.35943721800004], [85.67284715100004, 25.360259462000045], [85.67211970700004, 25.361046841000075], [85.67143163500003, 25.361757520000026], [85.67255086100005, 25.362183019000042], [85.67352865900006, 25.363376285000072], [85.67418074400007, 25.365175316000034], [85.67461995700006, 25.367178059000025], [85.67523828300006, 25.37066967900006], [85.67628376100004, 25.374119491000044], [85.67870063800007, 25.37336324900008], [85.68008008200007, 25.372889822000047], [85.68121957400007, 25.372001829000055], [85.68229243200005, 25.370545358000072], [85.68306918800005, 25.369640342000025], [85.68362490300007, 25.369444677000047], [85.68431544600008, 25.36944265900007], [85.68501121900005, 25.36951726800004], [85.68540099600006, 25.370143520000056], [85.68557301800007, 25.371005092000075], [85.68600678900003, 25.37143712200003], [85.68652835300009, 25.37143558300005], [85.68691590200007, 25.371434444000045], [85.68760564800004, 25.371197648000077], [85.68868410000005, 25.37131180800003], [85.69006592900007, 25.371501778000038], [85.69080390000005, 25.372248798000044], [85.69114981900003, 25.37310987500007], [85.69107043300005, 25.37452275100003], [85.69137535300007, 25.37503189800003], [85.69176272800007, 25.37499013300004], [85.69223824600004, 25.374596025000073], [85.69275350200007, 25.374201838000033], [85.69322522900006, 25.374123626000028], [85.69374753400007, 25.374316116000045], [85.69420212500006, 25.375000852000028], [85.69459839200005, 25.376019702000065], [85.69494881800006, 25.378099340000063], [85.69508209400004, 25.379195736000042], [85.69594975500007, 25.380059646000063], [85.69595231400007, 25.38076374800005], [85.69720738900008, 25.381585967000035], [85.69794472300003, 25.382129777000046], [85.69816035500008, 25.382679773000064], [85.69796900500006, 25.383325787000047], [85.69745915400006, 25.385173407000025], [85.69750670300004, 25.38595857000007], [85.69797994800007, 25.38626854200004], [85.69845686300005, 25.386267131000068], [85.69906101400005, 25.385719148000078], [85.69983351800005, 25.385008198000037], [85.70034915100007, 25.38473123400007], [85.70091061400007, 25.384729562000075], [85.70156195800007, 25.38484939400007], [85.70264100300005, 25.385080790000075]]]]}}, {"type": "Feature", "properties": {"OBJECTID": 923, "GPCODE": "96269", "GPNAME_1": "FATEHPUR", "DIST_CEN_C": "28", "BLK_NAME": "BELCHCHI", "ST_NAME": "BIHAR", "ST_CODE_1": "10", "GPCODE2011": "98823", "REMARKS": "FINALIZED", "MAP_STATUS": "COMPLETED", "BLK_C_2001": "280019", "BLK_C_2011": "01416", "DIST_NAME": "PATNA", "code2011": 0.0, "Shape_Leng": 0.16330540101, "Shape_Area": 0.00101576365, "Area": 11.318}, "geometry": {"type": "MultiPolygon", "coordinates": [[[[85.66404689300003, 25.423410016000048], [85.66456329100004, 25.423255108000035], [85.66499460500006, 25.422937972000057], [85.66507745400008, 25.422468321000053], [85.66511961200007, 25.421718948000034], [85.66581036400004, 25.421671882000055], [85.66580504100006, 25.420141776000037], [85.66550295100006, 25.41900531700003], [85.66476322800008, 25.41779328800004], [85.66406798700007, 25.41649986400006], [85.66371571800005, 25.415205424000078], [85.66382145400007, 25.41416256800005], [85.66407702400005, 25.413335853000035], [85.66458937100003, 25.41200291900003], [85.66553219100007, 25.410154282000065], [85.66583187300006, 25.409133349000058], [85.66621043900005, 25.406505439000057], [85.66949408900007, 25.40618018600003], [85.67152151100004, 25.40613827800007], [85.67229595800006, 25.404484205000074], [85.67354090500004, 25.40240440100007], [85.67383396000008, 25.40095021600007], [85.67353341900008, 25.400246990000028], [85.67275144300004, 25.399739152000052], [85.67089289000006, 25.399703886000054], [85.66947199100008, 25.399784682000075], [85.66865244200005, 25.399904363000076], [85.66822147100004, 25.40029823200007], [85.66800578200008, 25.401160993000076], [85.66779609800005, 25.402303455000038], [85.66754065300006, 25.403166285000054], [85.66689199500007, 25.403836054000067], [85.66633147100003, 25.40414908100007], [85.66468532500005, 25.40231222600005], [85.66295620700004, 25.400904393000076], [85.66187034200004, 25.40015816700003], [85.66130755000006, 25.399771591000047], [85.66091762900004, 25.39910476700004], [85.66051786200006, 25.39845138000004], [85.66072881000008, 25.397624819000043], [85.66042149200007, 25.396411526000065], [85.66002889700007, 25.39491865800005], [85.65972245900008, 25.393926580000027], [85.65882640400008, 25.39343260100003], [85.65805067100007, 25.393281299000023], [85.65704204100007, 25.393284117000064], [85.65617798300008, 25.393439900000033], [85.65511509500004, 25.393600812000045], [85.65413660200005, 25.393707333000066], [85.65364407700008, 25.393528179000043], [85.65304157700007, 25.39316420700004], [85.65272195400007, 25.392668610000044], [85.65277991100004, 25.39216744400005], [85.65294750700008, 25.391751718000023], [85.65346816900006, 25.39143438700006], [85.65398410500006, 25.39119828400004], [85.65499240700007, 25.39106460800008], [85.65597104700004, 25.39100772300003], [85.65685976100008, 25.390797616000043], [85.65746503100007, 25.390534201000037], [85.65803990200004, 25.39009025000007], [85.65841050400007, 25.38946188600005], [85.65868248400005, 25.389077437000026], [85.65870539200006, 25.388499712000055], [85.65850430100005, 25.387823223000055], [85.65818483900006, 25.38737727700004], [85.65784120200004, 25.387143515000048], [85.65662749100005, 25.386754241000062], [85.65519057900008, 25.386442183000042], [85.65420995400007, 25.385925841000073], [85.65406115400003, 25.384486512000024], [85.65236153500007, 25.384387298000036], [85.65100952500006, 25.38420594300004], [85.64988660600005, 25.384209015000067], [85.64844582700005, 25.384239964000074], [85.64720980600003, 25.384581867000065], [85.64623242200008, 25.385031320000053], [85.64435640100004, 25.385686287000055], [85.64198534500008, 25.386906751000026], [85.64099385300005, 25.38757737900005], [85.64047951300006, 25.388323487000036], [85.63983630500007, 25.38919181400007], [85.63901955000006, 25.390132769000047], [85.63729437400008, 25.391392018000033], [85.63600031000004, 25.392262068000036], [85.63544073700007, 25.39285026600004], [85.63507903900006, 25.394755900000064], [85.63517459900004, 25.396678438000038], [85.63344884900005, 25.39775712100004], [85.63244018300009, 25.39934848300004], [85.63192455100005, 25.401313207000044], [85.63227899800006, 25.403392960000076], [85.63283174500003, 25.406898539000053], [85.63291882400006, 25.407724264000024], [85.63311815200007, 25.409470499000065], [85.63355442700004, 25.410687987000074], [85.63407420700008, 25.411629980000043], [85.63433514300004, 25.412410055000066], [85.63468569100007, 25.41323513800006], [85.63505932000004, 25.41352754500008], [85.63548968500004, 25.414465230000076], [85.63558350900007, 25.41584160700006], [85.63585195600007, 25.418977724000058], [85.63735758500007, 25.418874455000037], [85.63851589900008, 25.418988742000067], [85.63941663900005, 25.419338422000067], [85.63989096400007, 25.420036762000052], [85.64041093800006, 25.420969699000068], [85.64088585200005, 25.42182598000005], [85.64148836200008, 25.422176457000035], [85.64234814500008, 25.422174190000078], [85.64320216000004, 25.421901053000056], [85.64367392800006, 25.421782473000064], [85.64419107200007, 25.421857786000032], [85.64494251100007, 25.422149130000037], [85.64601597000006, 25.422146249000036], [85.64685142300004, 25.42226136000005], [85.64804851100007, 25.420543046000034], [85.64934867600005, 25.41845427900006], [85.65037880900007, 25.417359153000064], [85.65101785100006, 25.416734579000035], [85.65153722700006, 25.41747343000003], [85.65192698300007, 25.418099658000074], [85.65209783500006, 25.418681454000023], [85.65222995000005, 25.419538685000077], [85.65296351000006, 25.42043487600006], [85.65339237200004, 25.420862469000042], [85.65352414400007, 25.421642892000023], [85.65391517200004, 25.422652885000048], [85.65477217300008, 25.42327791100007], [85.65606017000005, 25.42350450200007], [85.65730766900003, 25.42350109000006], [85.65932493000008, 25.423301388000027], [85.66095498100003, 25.423260682000034], [85.66226262400005, 25.42339697500006], [85.66331194300005, 25.423570047000055], [85.66404689300003, 25.423410016000048]]]]}}]}