{"type": "FeatureCollection", "features": [{"type": "Feature", "properties": {"OBJECTID": 3871, "GPCODE": "96624", "GPNAME_1": "KUNAWA", "DIST_CEN_C": "02", "BLK_NAME": "CHAKIA(PIPRA)", "ST_NAME": "BIHAR", "ST_CODE_1": "10", "GPCODE2011": "99176", "REMARKS": "FINALIZED", "MAP_STATUS": "COMPLETED", "BLK_C_2001": "020021", "BLK_C_2011": "01051", "DIST_NAME": "PURBI CHAMPARAN", "code2011": 0.0, "Shape_Leng": 0.07480900526, "Shape_Area": 0.00022896109, "Area": 2.53125}, "geometry": {"type": "MultiPolygon", "coordinates": [[[[85.04035014600004, 26.414665069000023], [85.04251548600007, 26.414600525000026], [85.04405338800007, 26.414995340000075], [85.04496474700005, 26.41542995100008], [85.04578074200003, 26.415995183000064], [85.04670471600008, 26.41497212300004], [85.04761826200007, 26.414188112000033], [85.04849103500004, 26.413756129000035], [85.04964965600004, 26.41323429600004], [85.04982084800008, 26.412823847000027], [85.04965283400009, 26.41143818000006], [85.04926229100005, 26.40900675900008], [85.04891401700007, 26.406838453000034], [85.04841907500008, 26.406106700000066], [85.04733655900003, 26.406105102000026], [85.04530184900005, 26.406138356000042], [85.04460085000005, 26.405803345000038], [85.04373288000005, 26.403518577000057], [85.04352653100005, 26.40116709600005], [85.04336275700007, 26.400268749000077], [85.04157872100006, 26.40030224800006], [85.04029445900005, 26.398283122000066], [85.03959385400003, 26.397758589000034], [85.03739112900007, 26.399285168000063], [85.03630497500006, 26.401341459000037], [85.03551689200003, 26.402062384000033], [85.03393649600008, 26.403030227000045], [85.03198440700004, 26.40444889300005], [85.03264220900007, 26.406467158000055], [85.03322231900006, 26.40710437300004], [85.03318060100008, 26.40800234200003], [85.03417484300007, 26.409646536000025], [85.03446421000007, 26.410355498000058], [85.03413293300008, 26.410616751000077], [85.03242776300004, 26.41125047500003], [85.03080804200005, 26.411771550000026], [85.02943913700005, 26.41210785100003], [85.02877111700008, 26.412851466000063], [85.02847953700007, 26.41337453600005], [85.02773248600005, 26.413522327000067], [85.02706508100005, 26.413936457000034], [85.02664246400008, 26.414766135000036], [85.03015541000008, 26.414997202000052], [85.03280017400004, 26.415782061000073], [85.03433786500005, 26.41630333100005], [85.03481815800006, 26.416777916000058], [85.03659644900006, 26.41730411900005], [85.03726884500009, 26.416871842000035], [85.03741709400003, 26.415265428000055], [85.04035014600004, 26.414665069000023]]]]}}, {"type": "Feature", "properties": {"OBJECTID": 3892, "GPCODE": "96613", "GPNAME_1": "BAISAHA", "DIST_CEN_C": "02", "BLK_NAME": "CHAKIA(PIPRA)", "ST_NAME": "BIHAR", "ST_CODE_1": "10", "GPCODE2011": "99165", "REMARKS": "FINALIZED", "MAP_STATUS": "COMPLETED", "BLK_C_2001": "020021", "BLK_C_2011": "01051", "DIST_NAME": "PURBI CHAMPARAN", "code2011": 0.0, "Shape_Leng": 0.29498583787, "Shape_Area": 0.00068795295, "Area": 7.60458}, "geometry": {"type": "MultiPolygon", "coordinates": [[[[85.08066003300007, 26.387532704000023], [85.07998751500008, 26.384860266000032], [85.07768682400007, 26.385426063000068], [85.07713270900007, 26.387424642000042], [85.07650944700003, 26.38873265600006], [85.07339157200005, 26.392822051000053], [85.07014820000006, 26.396893159000058], [85.07101792400005, 26.398311388000025], [85.07197067500005, 26.401191746000052], [85.07341783200008, 26.405268721000027], [85.07325819900007, 26.408093660000077], [85.07451750000007, 26.407151940000062], [85.07861503200007, 26.405058453000038], [85.08228236800005, 26.402318981000064], [85.08014182600004, 26.39930627600006], [85.07996163900003, 26.39921126400003], [85.07878871000008, 26.39599666400005], [85.07875485000005, 26.395125689000054], [85.07897133600005, 26.394453467000062], [85.07907733300004, 26.393903091000027], [85.07805138600008, 26.389623603000075], [85.07797751200007, 26.388784109000028], [85.07844384600008, 26.38855895300003], [85.08022825700004, 26.38814594200005], [85.08069458900007, 26.387920870000073], [85.08066003300007, 26.387532704000023]]], [[[85.11023860900008, 26.41656021600005], [85.11037041700007, 26.415359903000024], [85.10951462000008, 26.414275967000037], [85.10826725600003, 26.41380990500005], [85.10758661700004, 26.413001386000076], [85.10655381500004, 26.413307238000073], [85.10357053000007, 26.41433317700006], [85.10142427500006, 26.41522003800003], [85.10086192000006, 26.416067832000067], [85.10129213500005, 26.41665042300008], [85.10195332000006, 26.41701666700004], [85.10356778300007, 26.41649934800006], [85.10476567600006, 26.41645998300004], [85.10622877200007, 26.416772888000025], [85.10768663000005, 26.417315839000025], [85.10901418400005, 26.41781812200003], [85.11023860900008, 26.41656021600005]]], [[[85.09357052200005, 26.434007888000053], [85.09441341200005, 26.43345828100007], [85.09674868700006, 26.433943675000023], [85.09703127500006, 26.432490838000035], [85.09639040900004, 26.431934983000076], [85.09472601000004, 26.43211821700004], [85.09367875900006, 26.428082595000035], [85.09260546600007, 26.428519146000042], [85.09211438500006, 26.428383194000048], [85.09245143200008, 26.427481029000035], [85.09278334700008, 26.42674127400005], [85.09247874600004, 26.425842877000036], [85.09176228800004, 26.425607417000037], [85.09307208400008, 26.424412868000047], [85.09371082300004, 26.42279796400004], [85.09425250900006, 26.422568384000044], [85.09437910700007, 26.421598243000062], [85.09312647700006, 26.421299082000075], [85.09330834300005, 26.42021615500005], [85.09479201600004, 26.420145568000066], [85.09530429200004, 26.419387963000077], [85.09536128300005, 26.417975497000043], [85.09633508300004, 26.416825720000077], [85.09705323000009, 26.415738931000078], [85.09782651600005, 26.414679145000036], [85.09764889100006, 26.412467685000024], [85.09713883100005, 26.41161417400008], [85.09668831700003, 26.411171471000046], [85.09486025700005, 26.410293989000024], [85.09263105500008, 26.409578450000026], [85.09004548300004, 26.409182959000077], [85.08825073000008, 26.40966836900003], [85.08732747400006, 26.41044806800005], [85.08704575100006, 26.411187846000075], [85.08776090500004, 26.41227178300005], [85.08919302000004, 26.413243674000057], [85.09006399000003, 26.414025369000058], [85.09001227900006, 26.415135443000054], [85.08929370500005, 26.416493052000078], [85.08683584400006, 26.417938884000023], [85.08393817100006, 26.418468106000034], [85.08156234500007, 26.418551103000027], [85.07902676900005, 26.41818251600006], [85.07718272300008, 26.417900497000062], [85.07605503400003, 26.41789908800007], [85.07533806100008, 26.418105857000057], [85.07530020500008, 26.419938070000057], [85.07484158800008, 26.421584691000078], [85.07388237000004, 26.422851645000037], [85.07205629100008, 26.423896385000035], [85.07018677400004, 26.423894043000075], [85.06815288000007, 26.423182874000076], [85.06711531200006, 26.423217683000075], [85.06624263800006, 26.42355506800004], [85.06587084500006, 26.424078043000065], [85.06532829800005, 26.424840019000044], [85.06607396500004, 26.425626263000026], [85.06822874300008, 26.425926875000073], [85.06897694200006, 26.425106506000077], [85.07246346300008, 26.426419545000044], [85.07348937700004, 26.427512963000027], [85.07602789800006, 26.42937542100003], [85.07773050100008, 26.430501149000065], [85.07747888300008, 26.43117329000006], [85.07801981100005, 26.431471844000043], [85.08030506100005, 26.431808457000045], [85.08254479700008, 26.432447444000047], [85.08347628500007, 26.43303072200007], [85.08509150500004, 26.432224804000043], [85.08647278400008, 26.433814942000026], [85.08854707500006, 26.43453486900006], [85.09016083600005, 26.43474427900003], [85.09239164500008, 26.434651987000052], [85.09357052200005, 26.434007888000053]]], [[[85.07153291600008, 26.438400199000057], [85.07157529800008, 26.436901927000065], [85.07091442400008, 26.436377633000063], [85.06999713200008, 26.436304293000035], [85.06958600600007, 26.436375961000067], [85.06862716200004, 26.43727281100007], [85.06746403300008, 26.43734803600006], [85.06663741000006, 26.437044619000062], [85.06419033400005, 26.434423985000024], [85.06277897600006, 26.433041141000047], [85.06203416000005, 26.431731504000027], [85.06166580700005, 26.430160475000037], [85.06175298200003, 26.428946676000066], [85.06278675500005, 26.428198820000034], [85.06394996300008, 26.42797923300003], [85.06486458200004, 26.42649569100007], [85.06333200500006, 26.425717430000077], [85.05860402300004, 26.42350437700003], [85.05503797400007, 26.421892952000064], [85.05275908800007, 26.420919586000025], [85.05188035700007, 26.421857010000053], [85.05225559300004, 26.42225017900006], [85.05249796600003, 26.424123381000072], [85.05253739600005, 26.427526175000025], [85.05232553100006, 26.428270518000033], [85.05116045700004, 26.42957764500005], [85.04824797400005, 26.432583641000065], [85.04974029900006, 26.433411567000064], [85.05094654200008, 26.434460282000032], [85.05198239400005, 26.43550869300003], [85.05239174300004, 26.43651567200004], [85.05255951300006, 26.43812696300006], [85.05380008300006, 26.439681147000044], [85.05405113000006, 26.43946036600005], [85.05384717500004, 26.43852139100005], [85.05351295400004, 26.43755064000004], [85.05372533000008, 26.436431740000046], [85.05306315300004, 26.433736614000054], [85.05253111500008, 26.43119510300005], [85.05269864200005, 26.42995884000004], [85.05295078000006, 26.429083715000047], [85.05386389700004, 26.428597584000045], [85.05577454100006, 26.428040560000056], [85.05677081400006, 26.42875046100005], [85.05735076300004, 26.429685385000028], [85.05763890900005, 26.43122018100007], [85.05804710000007, 26.432976190000034], [85.05941626800006, 26.435595523000075], [85.06565825500007, 26.441222278000055], [85.06675557200003, 26.441571229000033], [85.06791382000006, 26.441459911000038], [85.07003566600008, 26.44060057100006], [85.07103457600005, 26.439708306000057], [85.07153291600008, 26.438400199000057]]]]}}, {"type": "Feature", "properties": {"OBJECTID": 3899, "GPCODE": "96614", "GPNAME_1": "BARMADIYA", "DIST_CEN_C": "02", "BLK_NAME": "CHAKIA(PIPRA)", "ST_NAME": "BIHAR", "ST_CODE_1": "10", "GPCODE2011": "99166", "REMARKS": "FINALIZED", "MAP_STATUS": "COMPLETED", "BLK_C_2001": "020021", "BLK_C_2011": "01051", "DIST_NAME": "PURBI CHAMPARAN", "code2011": 0.0, "Shape_Leng": 0.26965639755, "Shape_Area": 0.00098531974, "Area": 10.8903}, "geometry": {"type": "MultiPolygon", "coordinates": [[[[85.07062437600007, 26.442438113000037], [85.07129123200008, 26.442321621000076], [85.07200769400004, 26.442624812000076], [85.07269809700006, 26.443546337000043], [85.07187271900005, 26.445643764000067], [85.07166429500006, 26.44751191900008], [85.07207371900006, 26.448618044000057], [85.07332582100008, 26.449427395000043], [85.07548127600006, 26.449660254000037], [85.07655393200008, 26.449778862000073], [85.07804357500004, 26.44932036600005], [85.07934822400006, 26.448536662000038], [85.07989085000008, 26.447684374000062], [85.07984345800008, 26.44583859000005], [85.07925361800005, 26.444637386000068], [85.07802738300006, 26.443322661000025], [85.07460221500008, 26.44078225000004], [85.07406784000005, 26.439468333000036], [85.07437554600006, 26.43815102900004], [85.07534998400007, 26.436906606000036], [85.07727126100008, 26.43596578200004], [85.07857902600006, 26.436337362000074], [85.08032188400006, 26.437490280000077], [85.08219021000008, 26.438485326000034], [85.08466991700004, 26.439711161000048], [85.08638907300008, 26.439893720000043], [85.08751778400006, 26.439299248000054], [85.08772455300004, 26.438396923000028], [85.08695415200003, 26.437312963000068], [85.08539765400008, 26.435537573000033], [85.08409171400007, 26.433848259000058], [85.08347628500007, 26.43303072200007], [85.08254479700008, 26.432447444000047], [85.08030506100005, 26.431808457000045], [85.07801981100005, 26.431471844000043], [85.07747888300008, 26.43117329000006], [85.07407279700004, 26.432811813000058], [85.07070707600008, 26.434301430000062], [85.06858641400004, 26.434497331000046], [85.06708374600004, 26.433723660000055], [85.06545883600006, 26.431095089000053], [85.06394996300008, 26.42797923300003], [85.06278675500005, 26.428198820000034], [85.06175298200003, 26.428946676000066], [85.06166580700005, 26.430160475000037], [85.06203416000005, 26.431731504000027], [85.06277897600006, 26.433041141000047], [85.06419033400005, 26.434423985000024], [85.06663741000006, 26.437044619000062], [85.06746403300008, 26.43734803600006], [85.06862716200004, 26.43727281100007], [85.06958600600007, 26.436375961000067], [85.06999713200008, 26.436304293000035], [85.07091442400008, 26.436377633000063], [85.07157529800008, 26.436901927000065], [85.07153291600008, 26.438400199000057], [85.07103457600005, 26.439708306000057], [85.07003566600008, 26.44060057100006], [85.06791382000006, 26.441459911000038], [85.06675557200003, 26.441571229000033], [85.06565825500007, 26.441222278000055], [85.05941626800006, 26.435595523000075], [85.05804710000007, 26.432976190000034], [85.05763890900005, 26.43122018100007], [85.05735076300004, 26.429685385000028], [85.05677081400006, 26.42875046100005], [85.05577454100006, 26.428040560000056], [85.05386389700004, 26.428597584000045], [85.05295078000006, 26.429083715000047], [85.05269864200005, 26.42995884000004], [85.05253111500008, 26.43119510300005], [85.05306315300004, 26.433736614000054], [85.05372533000008, 26.436431740000046], [85.05351295400004, 26.43755064000004], [85.05384717500004, 26.43852139100005], [85.05405113000006, 26.43946036600005], [85.05380008300006, 26.439681147000044], [85.05255951300006, 26.43812696300006], [85.05239174300004, 26.43651567200004], [85.05198239400005, 26.43550869300003], [85.05094654200008, 26.434460282000032], [85.04974029900006, 26.433411567000064], [85.04824797400005, 26.432583641000065], [85.05116045700004, 26.42957764500005], [85.05232553100006, 26.428270518000033], [85.05253739600005, 26.427526175000025], [85.05249796600003, 26.424123381000072], [85.05225559300004, 26.42225017900006], [85.05188035700007, 26.421857010000053], [85.05096931100007, 26.421147269000073], [85.05067964600005, 26.420546667000053], [85.05088742300006, 26.41920206700007], [85.05138958000003, 26.418679242000053], [85.05139089900007, 26.41789402300003], [85.05122634300005, 26.417406438000057], [85.04886052300003, 26.41747076200005], [85.04895310600006, 26.41898723500003], [85.04957677100003, 26.420675956000025], [85.04981524200008, 26.42189028400003], [85.04933340600007, 26.42228222800003], [85.04774405800003, 26.42258236300006], [85.04615474500008, 26.422837294000033], [85.04249983700004, 26.42337359800007], [85.04013836300004, 26.42375826600005], [85.03965783400008, 26.423410059000048], [85.03633819800007, 26.424231004000035], [85.03388520200008, 26.425310377000073], [85.03244103000003, 26.425610559000063], [85.03186540100006, 26.425217074000045], [85.03066146600008, 26.425693564000028], [85.02637834500007, 26.42704985100005], [85.02229080500007, 26.428293448000034], [85.02228964600005, 26.42885760400003], [85.02175647100006, 26.429808964000074], [85.02137409600005, 26.430521369000076], [85.02180410200003, 26.431086223000023], [85.02228419400006, 26.431651033000037], [85.02276468300005, 26.432039967000037], [85.02339096700007, 26.432171792000076], [85.02482989400005, 26.432002544000056], [85.02569696800003, 26.432089724000036], [85.02646859300006, 26.432262421000075], [85.02743045500006, 26.432525627000075], [85.02795639500005, 26.43274311400006], [85.02843690200007, 26.433131939000077], [85.02920775700005, 26.433697228000028], [85.02982802200006, 26.43439315300003], [85.03006655500008, 26.43547663000004], [85.03030546900004, 26.43638414000003], [85.03117125200004, 26.43714357700003], [85.03194167600003, 26.438011261000042], [85.03333406900003, 26.438622611000028], [85.03429592500004, 26.438971544000026], [85.03545305200004, 26.43944716200008], [85.03612369000007, 26.440012237000076], [85.03650832000005, 26.440793572000075], [85.03669738800005, 26.44157457600005], [85.03746777500004, 26.442442233000065], [85.03741656400007, 26.443046829000025], [85.03780132700007, 26.44369729600004], [85.03837604900008, 26.444695480000064], [85.03847021900003, 26.445300364000047], [85.03870897200005, 26.446361266000054], [85.04014948000008, 26.44818205000007], [85.04106161100003, 26.448314261000064], [85.04231429900005, 26.448704203000034], [85.04288983800006, 26.44926918300007], [85.04317934100004, 26.449960067000063], [85.04312780100008, 26.45075875200007], [85.04740891100005, 26.450981537000075], [85.04764086300008, 26.455964074000065], [85.05230839900008, 26.45607892700008], [85.05471481800004, 26.45616344900003], [85.05577042300007, 26.454549287000077], [85.05766956100007, 26.45210585700005], [85.06038988800003, 26.45029087300003], [85.06297873600005, 26.44907125900005], [85.06605741300007, 26.445636428000057], [85.06867250900007, 26.443586434000053], [85.07062437600007, 26.442438113000037]]]]}}, {"type": "Feature", "properties": {"OBJECTID": 3902, "GPCODE": "96630", "GPNAME_1": "SAGAR", "DIST_CEN_C": "02", "BLK_NAME": "CHAKIA(PIPRA)", "ST_NAME": "BIHAR", "ST_CODE_1": "10", "GPCODE2011": "99182", "REMARKS": "FINALIZED", "MAP_STATUS": "COMPLETED", "BLK_C_2001": "020021", "BLK_C_2011": "01051", "DIST_NAME": "PURBI CHAMPARAN", "code2011": 0.0, "Shape_Leng": 0.1810891326, "Shape_Area": 0.00122816765, "Area": 13.573}, "geometry": {"type": "MultiPolygon", "coordinates": [[[[84.97034319900007, 26.473741417000042], [84.97256491700006, 26.47262033100003], [84.97456560400008, 26.472865756000033], [84.97572577500006, 26.474435377000077], [84.97888251100005, 26.474396821000028], [84.98142212500005, 26.474377753000056], [84.98272372300005, 26.473833607000074], [84.98371481300006, 26.473316177000072], [84.98308614600006, 26.471297096000058], [84.98202423400005, 26.468735624000033], [84.97906845800009, 26.468644362000077], [84.97655054500007, 26.463966566000067], [84.97723688500008, 26.462214542000027], [84.98027387300004, 26.460882153000057], [84.98176595600006, 26.458671951000042], [84.98315482800007, 26.45733012000005], [84.98081220600005, 26.455365577000066], [84.97941668300007, 26.454792059000056], [84.97595401100006, 26.455767222000077], [84.97538922400008, 26.453622560000042], [84.97631033700003, 26.452604577000045], [84.97660463500006, 26.451359351000065], [84.97762826400003, 26.451203204000024], [84.97792012400004, 26.44989630300006], [84.97974454700005, 26.44915856800003], [84.97960330200004, 26.44730925600004], [84.97895059100006, 26.444673038000076], [84.97809955400004, 26.442228365000062], [84.97577114600006, 26.442364179000037], [84.97450252300007, 26.443269632000067], [84.97360154000006, 26.443051100000048], [84.97286754400005, 26.44183855500006], [84.97133519600004, 26.441269314000067], [84.96801063000004, 26.44050989300007], [84.96708722000005, 26.441466072000026], [84.96595313700004, 26.442305344000033], [84.96458841900005, 26.44426420900004], [84.96150335400006, 26.444362068000032], [84.96027754100004, 26.44285614300003], [84.95971701000008, 26.44256499000005], [84.95852412000005, 26.443653244000075], [84.95611394800005, 26.44521264900004], [84.95231815500006, 26.44644502400007], [84.94936911200006, 26.448268545000076], [84.94934628500005, 26.449443289000044], [84.94562613800008, 26.45085852300008], [84.94609279600007, 26.45226496300006], [84.94159422200005, 26.453086862000077], [84.93801941500004, 26.452952546000063], [84.93773627900003, 26.451754338000057], [84.93239617800003, 26.45377294900004], [84.93035599500007, 26.45896706900004], [84.93202877800007, 26.461297886000068], [84.93394492500005, 26.46290582300003], [84.93448022000007, 26.464310116000036], [84.93615449400005, 26.468520816000023], [84.93790369600003, 26.467600640000057], [84.93836569200005, 26.465361553000037], [84.94081485800007, 26.464789910000036], [84.94301149200004, 26.46478237900004], [84.94317751700004, 26.465518640000028], [84.94258691200008, 26.466216961000043], [84.94317629200003, 26.467248762000054], [84.94393422600007, 26.46907857700006], [84.94671687200008, 26.471771140000044], [84.94931669600004, 26.47329552800005], [84.95392208600003, 26.475188898000056], [84.95472220300007, 26.47633756500005], [84.95531087800003, 26.479099502000054], [84.95730197300009, 26.479098194000073], [84.96294295100006, 26.477621842000076], [84.96399665800004, 26.476476266000077], [84.96514052400005, 26.475883809000038], [84.96784471800004, 26.474809325000024], [84.97034319900007, 26.473741417000042]]]]}}, {"type": "Feature", "properties": {"OBJECTID": 3904, "GPCODE": "96618", "GPNAME_1": "CHAK BARA", "DIST_CEN_C": "02", "BLK_NAME": "CHAKIA(PIPRA)", "ST_NAME": "BIHAR", "ST_CODE_1": "10", "GPCODE2011": "99170", "REMARKS": "FINALIZED", "MAP_STATUS": "COMPLETED", "BLK_C_2001": "020021", "BLK_C_2011": "01051", "DIST_NAME": "PURBI CHAMPARAN", "code2011": 0.0, "Shape_Leng": 0.15563833855, "Shape_Area": 0.00099484766, "Area": 10.9934}, "geometry": {"type": "MultiPolygon", "coordinates": [[[[85.05068021400007, 26.47873580600003], [85.05088891200006, 26.476939971000036], [85.04966205000005, 26.473061698000038], [85.04984451000007, 26.471951813000032], [85.05107403600005, 26.47133073400005], [85.05222739600003, 26.47128724600003], [85.05771227700006, 26.47180467000004], [85.05899565200008, 26.47194180500003], [85.06017418600004, 26.47187563600005], [85.06101697600008, 26.471646668000062], [85.06117308000006, 26.47125420200007], [85.06114908200004, 26.47056370000007], [85.06130600300008, 26.469638760000066], [85.06217422600008, 26.469202186000075], [85.06225608000005, 26.468164367000043], [85.06189658200003, 26.467265791000045], [85.06064347200004, 26.46696629300004], [85.05818222600004, 26.46652528900006], [85.05669933500008, 26.465760554000042], [85.05518862000008, 26.463682606000077], [85.05414508100006, 26.461027563000073], [85.05409747900006, 26.459551841000064], [85.05425569000005, 26.457868672000075], [85.05471481800004, 26.45616344900003], [85.05230839900008, 26.45607892700008], [85.04764086300008, 26.455964074000065], [85.04740891100005, 26.450981537000075], [85.04312780100008, 26.45075875200007], [85.04317934100004, 26.449960067000063], [85.04288983800006, 26.44926918300007], [85.04231429900005, 26.448704203000034], [85.04106161100003, 26.448314261000064], [85.04014948000008, 26.44818205000007], [85.03870897200005, 26.446361266000054], [85.03784607700004, 26.446662366000055], [85.03697844000004, 26.446877662000077], [85.03616154900004, 26.446700399000065], [85.03481293700008, 26.446743526000034], [85.03293700800003, 26.447259677000034], [85.03052959900003, 26.44782013300005], [85.02976258300004, 26.44777384100007], [85.02947235300007, 26.44751611600003], [85.02894081300008, 26.447555931000068], [85.02826840200004, 26.447902387000056], [85.02697902600005, 26.44836970700004], [85.02712318700009, 26.449019735000036], [85.02702516800008, 26.45044567000008], [85.02620535000005, 26.451834423000037], [85.02466152800008, 26.454255368000076], [85.02475323700008, 26.456078725000054], [85.02378981400005, 26.456510422000065], [85.02258823500006, 26.455596919000072], [85.02138470200003, 26.455766495000034], [85.02066446900005, 26.454858235000074], [85.01864260900004, 26.455545451000035], [85.01777716900006, 26.454591867000033], [85.01493829900005, 26.455151276000038], [85.01426754200008, 26.454644742000028], [85.01277141600008, 26.45568027300004], [85.01114059800005, 26.45634538300004], [85.01296264200005, 26.460202422000066], [85.01531070900006, 26.464407811000058], [85.01530741800008, 26.466014355000027], [85.01415283800003, 26.469157937000034], [85.01467866700006, 26.469506325000054], [85.01559603800007, 26.469638701000065], [85.01621640400003, 26.47033465900006], [85.01708345000003, 26.47050765700004], [85.01775922800005, 26.471117908000053], [85.01799815000004, 26.47198482500005], [85.01881444400004, 26.47250507700005], [85.01934077200008, 26.47259172200006], [85.02078166500007, 26.47424119300007], [85.02198612400008, 26.47376028900004], [85.02261362100006, 26.473373168000023], [85.02405710500005, 26.473763572000053], [85.02507071400004, 26.473377113000026], [85.02656115100007, 26.472770214000036], [85.02766921000006, 26.47285765400005], [85.02848590300005, 26.47320640600003], [85.03012050400008, 26.47325408900008], [85.03098825900008, 26.473124511000037], [85.03232706800009, 26.47581176700004], [85.03439535500007, 26.47729057500004], [85.03492522600004, 26.478157861000057], [85.03636865200008, 26.47859324600006], [85.04107137800008, 26.479150781000044], [85.04203934000003, 26.47912061200003], [85.04260648500008, 26.47884164100003], [85.04401674800005, 26.47817578300004], [85.04522023300007, 26.478177481000046], [85.04583650500007, 26.47852137800004], [85.04832195900008, 26.479562885000064], [85.04985670300005, 26.479429633000052], [85.05068021400007, 26.47873580600003]]]]}}, {"type": "Feature", "properties": {"OBJECTID": 3906, "GPCODE": "96621", "GPNAME_1": "HARDIA BAD", "DIST_CEN_C": "02", "BLK_NAME": "CHAKIA(PIPRA)", "ST_NAME": "BIHAR", "ST_CODE_1": "10", "GPCODE2011": "99173", "REMARKS": "FINALIZED", "MAP_STATUS": "COMPLETED", "BLK_C_2001": "020021", "BLK_C_2011": "01051", "DIST_NAME": "PURBI CHAMPARAN", "code2011": 0.0, "Shape_Leng": 0.2100790425, "Shape_Area": 0.00092503733, "Area": 10.2213}, "geometry": {"type": "MultiPolygon", "coordinates": [[[[84.97457902700006, 26.486538835000033], [84.97504452100009, 26.485304683000038], [84.97589772800006, 26.48561389400004], [84.97747781900006, 26.485395441000037], [84.97891458800007, 26.485097516000053], [84.98257978700008, 26.484434281000063], [84.98243403700008, 26.481915998000034], [84.98207320400007, 26.47986714500007], [84.98217359400007, 26.47885485000006], [84.98275214000006, 26.478121615000077], [84.98305769500007, 26.476387876000047], [84.98272372300005, 26.473833607000074], [84.98142212500005, 26.474377753000056], [84.97888251100005, 26.474396821000028], [84.97572577500006, 26.474435377000077], [84.97456560400008, 26.472865756000033], [84.97256491700006, 26.47262033100003], [84.97034319900007, 26.473741417000042], [84.96784471800004, 26.474809325000024], [84.96514052400005, 26.475883809000038], [84.96399665800004, 26.476476266000077], [84.96294295100006, 26.477621842000076], [84.95730197300009, 26.479098194000073], [84.95531087800003, 26.479099502000054], [84.95472220300007, 26.47633756500005], [84.95392208600003, 26.475188898000056], [84.94931669600004, 26.47329552800005], [84.94671687200008, 26.471771140000044], [84.94393422600007, 26.46907857700006], [84.94317629200003, 26.467248762000054], [84.94258691200008, 26.466216961000043], [84.94317751700004, 26.465518640000028], [84.94301149200004, 26.46478237900004], [84.94081485800007, 26.464789910000036], [84.93836569200005, 26.465361553000037], [84.93790369600003, 26.467600640000057], [84.93615449400005, 26.468520816000023], [84.93448022000007, 26.464310116000036], [84.93394492500005, 26.46290582300003], [84.93202877800007, 26.461297886000068], [84.93035599500007, 26.45896706900004], [84.92560339300007, 26.459284952000075], [84.92568173400008, 26.461300782000023], [84.92533034900003, 26.46380275100006], [84.92373969000005, 26.464241410000056], [84.92257874300003, 26.467017842000075], [84.92202139000005, 26.46908346600003], [84.92258787500003, 26.470648578000066], [84.92365595100006, 26.474399666000068], [84.92401919200006, 26.475393277000023], [84.93266658400006, 26.475124653000023], [84.93354399500004, 26.478460780000034], [84.93377789500005, 26.479084569000065], [84.93413566100008, 26.479872112000066], [84.93383511900004, 26.480554341000072], [84.93348310300007, 26.48111212500004], [84.93375723700007, 26.482154621000063], [84.93451773200007, 26.483686417000058], [84.93715402700008, 26.48419192700004], [84.93716151200005, 26.480785870000034], [84.94050337700008, 26.480217926000023], [84.94237578600007, 26.481504321000045], [84.94425230000007, 26.48169727900006], [84.94575544400004, 26.481902106000064], [84.94746813600005, 26.482688944000074], [84.94816254700004, 26.483718132000035], [84.94939314000004, 26.485319102000062], [84.95523705500005, 26.484209125000064], [84.95686151700005, 26.485124722000023], [84.95864246000008, 26.486455874000058], [84.96011808900005, 26.488343276000023], [84.96031007800008, 26.490860086000055], [84.96032358700006, 26.49359271700007], [84.96015038600007, 26.496331258000055], [84.95992731300004, 26.498987267000075], [84.95842328500004, 26.49995997700006], [84.95823717900004, 26.500480623000044], [84.95842748100006, 26.501885972000025], [84.95860143100003, 26.504535370000042], [84.96046841500004, 26.504065269000023], [84.96293754300007, 26.501479971000037], [84.96470511700005, 26.500350987000047], [84.96792136700003, 26.49907009800006], [84.96972504400009, 26.498592320000057], [84.97352082300006, 26.497672857000055], [84.97454154900004, 26.49629492100007], [84.97511578000007, 26.494258414000058], [84.97532823100005, 26.492527771000027], [84.97491195100008, 26.491447719000064], [84.97437121500008, 26.489572890000034], [84.97485031500008, 26.487497249000057], [84.97457902700006, 26.486538835000033]]]]}}, {"type": "Feature", "properties": {"OBJECTID": 3917, "GPCODE": "96615", "GPNAME_1": "MADHUBAN VEDIBAN", "DIST_CEN_C": "02", "BLK_NAME": "CHAKIA(PIPRA)", "ST_NAME": "BIHAR", "ST_CODE_1": "10", "GPCODE2011": "99167", "REMARKS": "FINALIZED", "MAP_STATUS": "COMPLETED", "BLK_C_2001": "020021", "BLK_C_2011": "01051", "DIST_NAME": "PURBI CHAMPARAN", "code2011": 0.0, "Shape_Leng": 0.1558585856, "Shape_Area": 0.0007309417, "Area": 8.07454}, "geometry": {"type": "MultiPolygon", "coordinates": [[[[85.00688587400003, 26.517681539000023], [85.00630872000005, 26.51539705700003], [85.00611619400007, 26.513920983000048], [85.00640997900007, 26.512581186000034], [85.00776486400008, 26.509938972000043], [85.00752572400006, 26.50916234500005], [85.00882668100007, 26.508298078000053], [85.00739111000007, 26.503963345000045], [85.00627893000006, 26.500351178000074], [85.00547818500007, 26.497750362000033], [85.00162749500004, 26.499517284000035], [85.00056947900003, 26.497046866000062], [84.99874927200005, 26.494575198000064], [84.99782280400007, 26.495056231000035], [84.99776533600004, 26.495092665000072], [84.99446836100003, 26.495618427000068], [84.99235817700009, 26.495433424000055], [84.98761980000006, 26.49573225900008], [84.98235620800006, 26.49651061700007], [84.97930687100006, 26.496269659000063], [84.97986781900005, 26.49389713200003], [84.97974238500007, 26.490705560000038], [84.97972139100006, 26.488982238000062], [84.98045157700005, 26.488538567000035], [84.98257978700008, 26.484434281000063], [84.97891458800007, 26.485097516000053], [84.97747781900006, 26.485395441000037], [84.97589772800006, 26.48561389400004], [84.97504452100009, 26.485304683000038], [84.97457902700006, 26.486538835000033], [84.97485031500008, 26.487497249000057], [84.97437121500008, 26.489572890000034], [84.97491195100008, 26.491447719000064], [84.97532823100005, 26.492527771000027], [84.97511578000007, 26.494258414000058], [84.97454154900004, 26.49629492100007], [84.97352082300006, 26.497672857000055], [84.97384937800007, 26.500337130000048], [84.97406057400008, 26.50221036100004], [84.97549420300004, 26.502569683000047], [84.97656498100008, 26.503668395000034], [84.97763958100006, 26.505254398000034], [84.97928283900006, 26.508226966000052], [84.97982310200007, 26.508873325000025], [84.97952534400008, 26.511779064000052], [84.98040769000005, 26.51845972800004], [84.98065606600005, 26.51952971700007], [84.98087046300003, 26.520076197000037], [84.98133657300008, 26.520271167000033], [84.98284097400006, 26.520499623000035], [84.98714785500005, 26.519284603000074], [84.99063180000007, 26.518158266000057], [84.99303643800005, 26.517354840000053], [84.99501332800008, 26.517164337000054], [84.99694932800008, 26.517298648000065], [84.99777681400008, 26.517394895000052], [85.00024370900007, 26.517931727000075], [85.00202276800007, 26.518756245000077], [85.00365472900006, 26.520320482000045], [85.00470947700006, 26.52209583800004], [85.00566073700008, 26.525382844000035], [85.00611633500006, 26.527137587000027], [85.00671830500005, 26.527165636000063], [85.00752104300005, 26.527167018000057], [85.00739918200009, 26.526477933000024], [85.00783311100008, 26.525264700000037], [85.00802676600006, 26.523834443000055], [85.00745312100008, 26.522276529000067], [85.00582279500009, 26.519891021000035], [85.00433159900007, 26.518110388000025], [85.00688587400003, 26.517681539000023]]]]}}, {"type": "Feature", "properties": {"OBJECTID": 3920, "GPCODE": "96616", "GPNAME_1": "BHERKHIA", "DIST_CEN_C": "02", "BLK_NAME": "CHAKIA(PIPRA)", "ST_NAME": "BIHAR", "ST_CODE_1": "10", "GPCODE2011": "99168", "REMARKS": "FINALIZED", "MAP_STATUS": "COMPLETED", "BLK_C_2001": "020021", "BLK_C_2011": "01051", "DIST_NAME": "PURBI CHAMPARAN", "code2011": 0.0, "Shape_Leng": 0.17967882634, "Shape_Area": 0.00080502473, "Area": 8.89155}, "geometry": {"type": "MultiPolygon", "coordinates": [[[[85.03696170400008, 26.539497953000023], [85.03765429400005, 26.539377123000065], [85.03837178600008, 26.539378240000076], [85.03896400800005, 26.539257229000043], [85.03979256000008, 26.53887942800003], [85.03965856800005, 26.538080431000026], [85.03949716200003, 26.535787681000045], [85.03905129400005, 26.535385375000033], [85.03888633700006, 26.53504212200005], [85.03844691700004, 26.53390429600006], [85.03685678400007, 26.53107687100004], [85.03728417100007, 26.530531444000076], [85.04051300500004, 26.52889359900007], [85.03876071600007, 26.52879863000004], [85.03776688100004, 26.52847588000003], [85.03522690200003, 26.52656318700008], [85.03390930800003, 26.52559096300007], [85.03139435400004, 26.523723319000055], [85.03005183000005, 26.52273741700003], [85.02824918800007, 26.52097464700006], [85.02727751000003, 26.52019240900006], [85.02565360200003, 26.519467818000066], [85.02429037800005, 26.518829347000064], [85.02350863900006, 26.518381273000045], [85.02290804300003, 26.517721447000042], [85.02232306100007, 26.516709699000046], [85.02157800800006, 26.51549907800006], [85.02052323300006, 26.513660603000062], [85.01991348600006, 26.512531394000064], [85.01919878800004, 26.511244145000035], [85.01891475700006, 26.510291469000038], [85.01868076900007, 26.50942460600004], [85.01844694500005, 26.508422377000045], [85.01851358800008, 26.507713901000045], [85.01867047400003, 26.507001152000043], [85.01936512500004, 26.50577480900006], [85.01967710100007, 26.505269833000057], [85.02029518100005, 26.504733876000046], [85.02131416100008, 26.50431130800007], [85.02209722100008, 26.50402365700006], [85.02267413500005, 26.50394340200006], [85.02236508800007, 26.50298168300003], [85.02193000400007, 26.50233107500003], [85.02068191500007, 26.501895920000038], [85.01822891400008, 26.502063375000034], [85.01649271200006, 26.50249381800006], [85.01482138000006, 26.500351781000063], [85.01390132500006, 26.499172574000056], [85.01250804900008, 26.496182748000024], [85.01116675000003, 26.49479505900007], [85.01024895600005, 26.49479352000003], [85.00909922700004, 26.492968382000072], [85.00732273000006, 26.491106141000046], [85.00428639000006, 26.49209372400003], [85.00135060500008, 26.49300027700008], [84.99874927200005, 26.494575198000064], [85.00056947900003, 26.497046866000062], [85.00162749500004, 26.499517284000035], [85.00547818500007, 26.497750362000033], [85.00627893000006, 26.500351178000074], [85.00739111000007, 26.503963345000045], [85.00882668100007, 26.508298078000053], [85.00752572400006, 26.50916234500005], [85.00776486400008, 26.509938972000043], [85.00640997900007, 26.512581186000034], [85.00611619400007, 26.513920983000048], [85.00630872000005, 26.51539705700003], [85.00688587400003, 26.517681539000023], [85.00433159900007, 26.518110388000025], [85.00582279500009, 26.519891021000035], [85.00745312100008, 26.522276529000067], [85.00802676600006, 26.523834443000055], [85.00783311100008, 26.525264700000037], [85.00739918200009, 26.526477933000024], [85.00752104300005, 26.527167018000057], [85.00833866300007, 26.527195525000025], [85.00894567400007, 26.527219080000066], [85.00966792300005, 26.527269955000065], [85.01097211900003, 26.527362383000025], [85.01175443600005, 26.527499110000065], [85.01243124900003, 26.527712273000077], [85.01368516600007, 26.527885883000067], [85.01485302500004, 26.528402243000073], [85.01528426500005, 26.528484221000042], [85.01597124800008, 26.528638796000052], [85.01729530200004, 26.52883948400006], [85.01792114300008, 26.529436221000026], [85.01808152000007, 26.529549323000026], [85.01871295500007, 26.52986623700008], [85.01920401300004, 26.53016942900007], [85.01989565400004, 26.53054955600004], [85.02093279400003, 26.53119658600008], [85.02158395900005, 26.531752744000073], [85.02215998900004, 26.532209446000024], [85.02250024100005, 26.532679323000025], [85.02291537900004, 26.533311782000055], [85.02343995700005, 26.53445436900006], [85.02374456300004, 26.53516785000005], [85.02394423500004, 26.535678119000067], [85.02398819800004, 26.536296443000026], [85.02427173700005, 26.537551473000065], [85.02435115100008, 26.537998334000065], [85.02435005000007, 26.538589485000045], [85.02434892300005, 26.53916711000005], [85.02449202700006, 26.54038127800004], [85.02467646800005, 26.540981841000075], [85.02472035900007, 26.54163172500006], [85.02489971200004, 26.542281863000028], [85.02531904000006, 26.543374628000038], [85.02595389800007, 26.544621134000067], [85.02633952100007, 26.545000838000078], [85.02680052500006, 26.54531297400007], [85.02733683200006, 26.545589105000033], [85.02801376700006, 26.54582023300003], [85.02870589900004, 26.545970263000072], [85.02942814000005, 26.546133862000033], [85.03020560500005, 26.546265962000064], [85.03226732300004, 26.54652628900004], [85.03282372900009, 26.54681601900006], [85.03420202000007, 26.547657465000043], [85.03527965600006, 26.54829085700004], [85.03560121600003, 26.548056734000056], [85.03570231700007, 26.547632693000025], [85.03534774700006, 26.54676119900006], [85.03518826000004, 26.54613362300006], [85.03494465200004, 26.544923803000074], [85.03491184100005, 26.54372790800005], [85.03498251700006, 26.54349329300004], [85.03509386500008, 26.542956477000075], [85.03514021000007, 26.542315748000078], [85.03541237700006, 26.541670793000037], [85.03585621300005, 26.540403344000026], [85.03623363100007, 26.53981729700007], [85.03696170400008, 26.539497953000023]]]]}}, {"type": "Feature", "properties": {"OBJECTID": 3921, "GPCODE": "96629", "GPNAME_1": "RAMGARH MAHUAWA", "DIST_CEN_C": "02", "BLK_NAME": "CHAKIA(PIPRA)", "ST_NAME": "BIHAR", "ST_CODE_1": "10", "GPCODE2011": "99181", "REMARKS": "FINALIZED", "MAP_STATUS": "COMPLETED", "BLK_C_2001": "020021", "BLK_C_2011": "01051", "DIST_NAME": "PURBI CHAMPARAN", "code2011": 0.0, "Shape_Leng": 0.13137424917, "Shape_Area": 0.00067252962, "Area": 7.42835}, "geometry": {"type": "MultiPolygon", "coordinates": [[[[84.93468076500005, 26.543330756000046], [84.93645645300006, 26.539819282000053], [84.93697521600006, 26.537252557000045], [84.93809948900008, 26.535237866000045], [84.93815356500005, 26.535192728000027], [84.94011083000004, 26.53355891600006], [84.94139686400007, 26.53290284700006], [84.94282334100006, 26.532296716000076], [84.94360615000005, 26.532235197000034], [84.94448851300007, 26.53248080700007], [84.94571465000007, 26.533616108000047], [84.94707153000007, 26.536597509000046], [84.94867130500006, 26.534917647000043], [84.95150031600008, 26.53324030600004], [84.95278099800004, 26.532710465000036], [84.95446719600005, 26.532510908000063], [84.95615239900008, 26.532717430000048], [84.95754120500004, 26.533076770000037], [84.95838689100003, 26.53196384000006], [84.95932260500007, 26.530963900000074], [84.96049336800007, 26.53021718900004], [84.96119585600007, 26.528147207000075], [84.96195312000003, 26.52624884100004], [84.96184496500007, 26.52537314500006], [84.96102887400008, 26.522695377000048], [84.95945968100006, 26.51828770800006], [84.95800339200008, 26.512959573000046], [84.95635754800008, 26.511182658000052], [84.95497199500005, 26.50767335200004], [84.95436146800006, 26.509102660000053], [84.95421524500006, 26.509391162000043], [84.95419441200005, 26.509697963000065], [84.95424785300008, 26.51034794000003], [84.95430016700004, 26.511507820000077], [84.95383028600008, 26.512802097000076], [84.95324213900005, 26.513292755000066], [84.94950593100003, 26.514927543000056], [84.94571286400009, 26.51713085500006], [84.94329908900005, 26.519350427000063], [84.94197028400004, 26.519158102000063], [84.94086735600007, 26.517007612000043], [84.94052772900005, 26.51646080100005], [84.93988147300007, 26.51613447400007], [84.93887380000007, 26.51592463000003], [84.93751262600006, 26.516567051000038], [84.93691441400006, 26.517035048000025], [84.93617627500004, 26.517340261000072], [84.93561920800005, 26.517402267000023], [84.93501239900007, 26.51735578800003], [84.93443601700005, 26.517174003000036], [84.93373950900008, 26.51690168500005], [84.93316332600006, 26.516625112000042], [84.93266159900008, 26.51668720500004], [84.93192356100008, 26.516911143000073], [84.93120525900008, 26.517248005000056], [84.93064826300008, 26.517314500000055], [84.92971485300006, 26.517456797000023], [84.92831374500008, 26.517999727000074], [84.92614506900009, 26.518581427000072], [84.92662711500003, 26.520211690000053], [84.92739417700005, 26.52219000200006], [84.92814168900009, 26.523983328000043], [84.92894129300004, 26.52505912600003], [84.92832704100005, 26.525879089000057], [84.92818520800006, 26.52634813900005], [84.92830891600005, 26.526980165000055], [84.92829222400007, 26.527392459000055], [84.92760272400005, 26.528350508000074], [84.92713422000008, 26.529044416000033], [84.92699272500005, 26.529427695000038], [84.92697040900003, 26.530239879000078], [84.92718479200005, 26.530691645000047], [84.92701147800005, 26.531679636000035], [84.92683382100006, 26.532419321000077], [84.92680813100003, 26.534422926000047], [84.92722305900008, 26.536779525000043], [84.92752506600004, 26.54002494200006], [84.92812938200007, 26.54281521200005], [84.92940267200004, 26.543228766000027], [84.93152539700003, 26.54311169300007], [84.93323180500005, 26.542930415000058], [84.93468076500005, 26.543330756000046]]]]}}, {"type": "Feature", "properties": {"OBJECTID": 3928, "GPCODE": "96623", "GPNAME_1": "JAMUNIA", "DIST_CEN_C": "02", "BLK_NAME": "CHAKIA(PIPRA)", "ST_NAME": "BIHAR", "ST_CODE_1": "10", "GPCODE2011": "99175", "REMARKS": "FINALIZED", "MAP_STATUS": "COMPLETED", "BLK_C_2001": "020021", "BLK_C_2011": "01051", "DIST_NAME": "PURBI CHAMPARAN", "code2011": 0.0, "Shape_Leng": 0.14679410462, "Shape_Area": 0.0008498149, "Area": 9.38464}, "geometry": {"type": "MultiPolygon", "coordinates": [[[[85.00564184100006, 26.557325064000054], [85.00765979600004, 26.556672397000057], [85.00891490900005, 26.55611384900004], [85.01013019200008, 26.555257424000047], [85.01108942700006, 26.55449558400005], [85.01153129300008, 26.55414844200004], [85.01163736000007, 26.55348060700004], [85.01175850100003, 26.55273610000006], [85.01173901800007, 26.552158500000075], [85.01170962200007, 26.551436385000045], [85.01156489300007, 26.550718696000047], [85.01133527900004, 26.549445925000043], [85.01120537400004, 26.548908846000074], [85.01090549600008, 26.547703652000052], [85.01071048200004, 26.54708529000004], [85.01058047600003, 26.546548122000047], [85.01024484900006, 26.54604237600006], [85.00975871200006, 26.54548697000007], [85.00930760300008, 26.545030740000072], [85.00883132700005, 26.544628775000035], [85.00839025800008, 26.544136519000062], [85.00805462600005, 26.543599206000067], [85.00767881500008, 26.54307541600008], [85.00690713700004, 26.54209996900005], [85.00654149100006, 26.541553583000052], [85.00628587400007, 26.541228473000047], [85.00578466600007, 26.54077226900006], [85.00526320800003, 26.540455931000054], [85.00472159600008, 26.540157627000042], [85.00393924600007, 26.539809503000072], [85.00349802100004, 26.539524734000054], [85.00250511200005, 26.53902303900003], [85.00191841600008, 26.538756255000067], [85.00103040500005, 26.538651654000034], [84.99905818800005, 26.538997393000045], [84.99829530100004, 26.539240376000066], [84.99780330300007, 26.539555868000036], [84.99349206100004, 26.54265005600007], [84.99261327400006, 26.543000499000073], [84.99047890000008, 26.54386759500005], [84.98890373800003, 26.543738354000027], [84.98735881300007, 26.54351437100007], [84.98589977700004, 26.543060360000027], [84.98407761000004, 26.54121125200004], [84.98357890200003, 26.53993771000006], [84.98344351600008, 26.535537497000064], [84.98345380700005, 26.535424634000037], [84.98149228300008, 26.535339730000032], [84.98016220400007, 26.53557637600005], [84.97982469600004, 26.533996338000065], [84.97753991900004, 26.53058930000003], [84.97607416000005, 26.530938438000078], [84.97528762500008, 26.530454122000037], [84.97155322400005, 26.531218505000027], [84.96536307700006, 26.53089945000005], [84.96049336800007, 26.53021718900004], [84.95932260500007, 26.530963900000074], [84.95838689100003, 26.53196384000006], [84.95754120500004, 26.533076770000037], [84.95915879000006, 26.534244387000058], [84.96024864400005, 26.535803576000035], [84.96073978300007, 26.537997767000036], [84.96032216000003, 26.542505289000076], [84.96040790400008, 26.54431057200003], [84.96113135200005, 26.545954684000037], [84.96204098200008, 26.547391565000055], [84.96331251900006, 26.54858104500005], [84.96422446300005, 26.54911536000003], [84.96527288500005, 26.549203214000045], [84.96664325400008, 26.548998367000024], [84.96828624100004, 26.54809907400005], [84.97050220700004, 26.546808274000057], [84.97159283200006, 26.54814614600008], [84.97270876400006, 26.549398368000027], [84.97545898000004, 26.551272032000043], [84.98062089800004, 26.554043768000042], [84.98353342200005, 26.555317346000038], [84.98517291700006, 26.55590255100003], [84.98617067800006, 26.556260930000064], [84.98947608500004, 26.556939347000025], [84.99370303100005, 26.557208940000066], [84.99782214300006, 26.557247407000034], [84.99948735800007, 26.557209166000064], [85.00086579800006, 26.557300879000024], [85.00233489800007, 26.557335764000072], [85.00334822600007, 26.55760741100005], [85.00412608900007, 26.55758550400003], [85.00488393800003, 26.557486940000047], [85.00564184100006, 26.557325064000054]]]]}}, {"type": "Feature", "properties": {"OBJECTID": 3961, "GPCODE": "96627", "GPNAME_1": "MADHURAPUR", "DIST_CEN_C": "02", "BLK_NAME": "CHAKIA(PIPRA)", "ST_NAME": "BIHAR", "ST_CODE_1": "10", "GPCODE2011": "99179", "REMARKS": "FINALIZED", "MAP_STATUS": "COMPLETED", "BLK_C_2001": "020021", "BLK_C_2011": "01051", "DIST_NAME": "PURBI CHAMPARAN", "code2011": 0.0, "Shape_Leng": 0.2296111543, "Shape_Area": 0.00110758454, "Area": 12.2419}, "geometry": {"type": "MultiPolygon", "coordinates": [[[[84.99853763400006, 26.45565589200004], [84.99998600100008, 26.45357793100004], [85.00167175100006, 26.45301682300004], [85.00287429800005, 26.453366350000067], [85.00474980700005, 26.453152970000076], [85.00580767500009, 26.453154836000067], [85.00859625200007, 26.452681219000056], [85.00742374500004, 26.449953437000033], [85.00656469700004, 26.448394990000054], [85.00752439100006, 26.447354133000033], [85.00998380300007, 26.44593222000003], [85.01008035700005, 26.445323150000036], [85.00946141000009, 26.44159905300006], [85.01022982000006, 26.44091886600006], [85.00922004400007, 26.439531721000037], [85.00908205400003, 26.438362641000026], [85.00840759700003, 26.437278372000037], [85.00831526500008, 26.435888257000045], [85.00783794700004, 26.434023651000075], [85.00803014100006, 26.43315752500007], [85.00947513700004, 26.432510062000063], [85.00842079600005, 26.43090623100005], [85.00708433300008, 26.42761401200005], [85.00515791100008, 26.428387015000055], [85.00434087200006, 26.428385546000072], [85.00337867500008, 26.428298162000033], [85.00241497700006, 26.428905796000038], [85.00092040200008, 26.429291221000028], [84.99782607900005, 26.430039527000076], [84.99713147100005, 26.43220819900006], [84.99015429100007, 26.432935386000054], [84.98565961300005, 26.432658136000043], [84.98512877300004, 26.42628355900007], [84.97372463800008, 26.427112383000065], [84.97353452300007, 26.43312818100003], [84.96817432200004, 26.434298058000024], [84.96582277100003, 26.436568959000056], [84.96549101400007, 26.436818452000068], [84.95789247800008, 26.44155175900005], [84.95449020400008, 26.440805374000035], [84.95441467200004, 26.44105144400004], [84.95236205900005, 26.441116428000043], [84.95008833900005, 26.441956222000044], [84.94530382700003, 26.442180679000046], [84.94194497700005, 26.442286808000063], [84.93943230500008, 26.442534370000033], [84.93951186300006, 26.444901349000077], [84.94027413700007, 26.449942376000024], [84.93773627900003, 26.451754338000057], [84.93801941500004, 26.452952546000063], [84.94159422200005, 26.453086862000077], [84.94609279600007, 26.45226496300006], [84.94562613800008, 26.45085852300008], [84.94934628500005, 26.449443289000044], [84.94936911200006, 26.448268545000076], [84.95231815500006, 26.44644502400007], [84.95611394800005, 26.44521264900004], [84.95852412000005, 26.443653244000075], [84.95971701000008, 26.44256499000005], [84.96027754100004, 26.44285614300003], [84.96150335400006, 26.444362068000032], [84.96458841900005, 26.44426420900004], [84.96595313700004, 26.442305344000033], [84.96708722000005, 26.441466072000026], [84.96801063000004, 26.44050989300007], [84.97133519600004, 26.441269314000067], [84.97286754400005, 26.44183855500006], [84.97360154000006, 26.443051100000048], [84.97450252300007, 26.443269632000067], [84.97577114600006, 26.442364179000037], [84.97809955400004, 26.442228365000062], [84.97895059100006, 26.444673038000076], [84.97960330200004, 26.44730925600004], [84.97974454700005, 26.44915856800003], [84.97792012400004, 26.44989630300006], [84.97762826400003, 26.451203204000024], [84.97660463500006, 26.451359351000065], [84.97631033700003, 26.452604577000045], [84.97538922400008, 26.453622560000042], [84.97595401100006, 26.455767222000077], [84.97941668300007, 26.454792059000056], [84.98081220600005, 26.455365577000066], [84.98315482800007, 26.45733012000005], [84.98618128400005, 26.45748079300006], [84.99101473900004, 26.45819180600006], [84.99180060700007, 26.45897009600003], [84.99400189500005, 26.459085193000078], [84.99782317700004, 26.45887742700006], [84.99877227100006, 26.45842721200006], [84.99853763400006, 26.45565589200004]]]]}}, {"type": "Feature", "properties": {"OBJECTID": 3965, "GPCODE": "96625", "GPNAME_1": "KURIA", "DIST_CEN_C": "02", "BLK_NAME": "CHAKIA(PIPRA)", "ST_NAME": "BIHAR", "ST_CODE_1": "10", "GPCODE2011": "99177", "REMARKS": "FINALIZED", "MAP_STATUS": "COMPLETED", "BLK_C_2001": "020021", "BLK_C_2011": "01051", "DIST_NAME": "PURBI CHAMPARAN", "code2011": 0.0, "Shape_Leng": 0.16045359837, "Shape_Area": 0.00082294743, "Area": 9.09502}, "geometry": {"type": "MultiPolygon", "coordinates": [[[[85.01277141600008, 26.45568027300004], [85.01426754200008, 26.454644742000028], [85.01493829900005, 26.455151276000038], [85.01777716900006, 26.454591867000033], [85.01864260900004, 26.455545451000035], [85.02066446900005, 26.454858235000074], [85.02138470200003, 26.455766495000034], [85.02258823500006, 26.455596919000072], [85.02378981400005, 26.456510422000065], [85.02475323700008, 26.456078725000054], [85.02466152800008, 26.454255368000076], [85.02620535000005, 26.451834423000037], [85.02702516800008, 26.45044567000008], [85.02712318700009, 26.449019735000036], [85.02697902600005, 26.44836970700004], [85.02826840200004, 26.447902387000056], [85.02894081300008, 26.447555931000068], [85.02947235300007, 26.44751611600003], [85.02976258300004, 26.44777384100007], [85.03052959900003, 26.44782013300005], [85.03293700800003, 26.447259677000034], [85.03481293700008, 26.446743526000034], [85.03616154900004, 26.446700399000065], [85.03697844000004, 26.446877662000077], [85.03784607700004, 26.446662366000055], [85.03870897200005, 26.446361266000054], [85.03847021900003, 26.445300364000047], [85.03837604900008, 26.444695480000064], [85.03780132700007, 26.44369729600004], [85.03741656400007, 26.443046829000025], [85.03746777500004, 26.442442233000065], [85.03669738800005, 26.44157457600005], [85.03650832000005, 26.440793572000075], [85.03612369000007, 26.440012237000076], [85.03545305200004, 26.43944716200008], [85.03429592500004, 26.438971544000026], [85.03333406900003, 26.438622611000028], [85.03194167600003, 26.438011261000042], [85.03117125200004, 26.43714357700003], [85.03030546900004, 26.43638414000003], [85.03006655500008, 26.43547663000004], [85.02982802200006, 26.43439315300003], [85.02920775700005, 26.433697228000028], [85.02843690200007, 26.433131939000077], [85.02795639500005, 26.43274311400006], [85.02743045500006, 26.432525627000075], [85.02646859300006, 26.432262421000075], [85.02569696800003, 26.432089724000036], [85.02482989400005, 26.432002544000056], [85.02339096700007, 26.432171792000076], [85.02276468300005, 26.432039967000037], [85.02228419400006, 26.431651033000037], [85.02180410200003, 26.431086223000023], [85.02137409600005, 26.430521369000076], [85.01983044000008, 26.43043314700003], [85.01906366400004, 26.430346214000053], [85.01829103700004, 26.430692445000034], [85.01785942000004, 26.43094896100007], [85.01348234500006, 26.431487855000057], [85.00947513700004, 26.432510062000063], [85.00803014100006, 26.43315752500007], [85.00783794700004, 26.434023651000075], [85.00831526500008, 26.435888257000045], [85.00840759700003, 26.437278372000037], [85.00908205400003, 26.438362641000026], [85.00922004400007, 26.439531721000037], [85.01022982000006, 26.44091886600006], [85.00946141000009, 26.44159905300006], [85.01008035700005, 26.445323150000036], [85.00998380300007, 26.44593222000003], [85.00752439100006, 26.447354133000033], [85.00656469700004, 26.448394990000054], [85.00742374500004, 26.449953437000033], [85.00859625200007, 26.452681219000056], [85.00580767500009, 26.453154836000067], [85.00474980700005, 26.453152970000076], [85.00287429800005, 26.453366350000067], [85.00167175100006, 26.45301682300004], [84.99998600100008, 26.45357793100004], [84.99853763400006, 26.45565589200004], [84.99877227100006, 26.45842721200006], [84.99781102900005, 26.46341250200004], [84.99667219200006, 26.464128638000034], [84.99690947600004, 26.464924323000048], [84.99725431900004, 26.466705259000037], [84.99774118000005, 26.468605241000034], [84.99635233900005, 26.46994718800005], [84.99783465900003, 26.472334199000045], [84.99913603500005, 26.473419531000047], [85.00245115100006, 26.473145569000053], [85.00317333500004, 26.473101686000064], [85.00413689400006, 26.47271521500005], [85.00553102400005, 26.47263189000006], [85.00630423300004, 26.472199961000058], [85.00779371500005, 26.472071695000068], [85.00890325300008, 26.47142369000005], [85.01078133900006, 26.470081977000063], [85.01270809100004, 26.469480471000054], [85.01415283800003, 26.469157937000034], [85.01530741800008, 26.466014355000027], [85.01531070900006, 26.464407811000058], [85.01296264200005, 26.460202422000066], [85.01114059800005, 26.45634538300004], [85.01277141600008, 26.45568027300004]]]]}}, {"type": "Feature", "properties": {"OBJECTID": 3969, "GPCODE": "96617", "GPNAME_1": "VISHUNPURA", "DIST_CEN_C": "02", "BLK_NAME": "CHAKIA(PIPRA)", "ST_NAME": "BIHAR", "ST_CODE_1": "10", "GPCODE2011": "99169", "REMARKS": "FINALIZED", "MAP_STATUS": "COMPLETED", "BLK_C_2001": "020021", "BLK_C_2011": "01051", "DIST_NAME": "PURBI CHAMPARAN", "code2011": 0.0, "Shape_Leng": 0.12252640462, "Shape_Area": 0.0005761331, "Area": 6.36611}, "geometry": {"type": "MultiPolygon", "coordinates": [[[[84.99781102900005, 26.46341250200004], [84.99877227100006, 26.45842721200006], [84.99782317700004, 26.45887742700006], [84.99400189500005, 26.459085193000078], [84.99180060700007, 26.45897009600003], [84.99101473900004, 26.45819180600006], [84.98618128400005, 26.45748079300006], [84.98315482800007, 26.45733012000005], [84.98176595600006, 26.458671951000042], [84.98027387300004, 26.460882153000057], [84.97723688500008, 26.462214542000027], [84.97655054500007, 26.463966566000067], [84.97906845800009, 26.468644362000077], [84.98202423400005, 26.468735624000033], [84.98308614600006, 26.471297096000058], [84.98371481300006, 26.473316177000072], [84.98272372300005, 26.473833607000074], [84.98305769500007, 26.476387876000047], [84.98275214000006, 26.478121615000077], [84.98217359400007, 26.47885485000006], [84.98207320400007, 26.47986714500007], [84.98243403700008, 26.481915998000034], [84.98257978700008, 26.484434281000063], [84.98045157700005, 26.488538567000035], [84.97972139100006, 26.488982238000062], [84.97974238500007, 26.490705560000038], [84.97986781900005, 26.49389713200003], [84.97930687100006, 26.496269659000063], [84.98235620800006, 26.49651061700007], [84.98761980000006, 26.49573225900008], [84.99235817700009, 26.495433424000055], [84.99172500900005, 26.494780862000027], [84.99139366500003, 26.493487969000057], [84.99088069100003, 26.492327026000055], [84.99037599400003, 26.491375989000062], [84.99032803000006, 26.490158162000057], [84.98970508900004, 26.488580186000036], [84.99782286800007, 26.482361758000025], [84.99858866700004, 26.48071589400007], [84.99979561000004, 26.479138567000064], [85.00075977800003, 26.478535484000076], [84.99913603500005, 26.473419531000047], [84.99783465900003, 26.472334199000045], [84.99635233900005, 26.46994718800005], [84.99774118000005, 26.468605241000034], [84.99725431900004, 26.466705259000037], [84.99690947600004, 26.464924323000048], [84.99667219200006, 26.464128638000034], [84.99781102900005, 26.46341250200004]]]]}}, {"type": "Feature", "properties": {"OBJECTID": 3975, "GPCODE": "96628", "GPNAME_1": "MAHUAWA", "DIST_CEN_C": "02", "BLK_NAME": "CHAKIA(PIPRA)", "ST_NAME": "BIHAR", "ST_CODE_1": "10", "GPCODE2011": "99180", "REMARKS": "FINALIZED", "MAP_STATUS": "COMPLETED", "BLK_C_2001": "020021", "BLK_C_2011": "01051", "DIST_NAME": "PURBI CHAMPARAN", "code2011": 0.0, "Shape_Leng": 0.18300068477, "Shape_Area": 0.00095018644, "Area": 10.498}, "geometry": {"type": "MultiPolygon", "coordinates": [[[[85.03170561300004, 26.502323863000072], [85.03122510500003, 26.501759029000027], [85.03031329600003, 26.50122958700007], [85.02869909200007, 26.500352141000064], [85.02482436400004, 26.498142204000033], [85.02336827700003, 26.497095371000057], [85.02334735900007, 26.49656775400007], [85.02334108400004, 26.49640949700006], [85.02376177600007, 26.495180868000034], [85.02508019800007, 26.492919567000058], [85.02563276100005, 26.492056526000056], [85.02630864200006, 26.49134807300004], [85.02770454700004, 26.49103905100003], [85.02893085700003, 26.490894016000027], [85.03262663500004, 26.49088087100006], [85.03438244600005, 26.49077158800003], [85.03598954900008, 26.489874584000063], [85.03744802000006, 26.488189860000034], [85.03788930400003, 26.48600947500006], [85.03785783600006, 26.485217999000042], [85.03729069700006, 26.48423248200004], [85.03599535700005, 26.48411570500008], [85.03400735300005, 26.484285299000078], [85.03231863600007, 26.484603797000034], [85.03100272200004, 26.48475174200007], [85.02916053600006, 26.484968026000047], [85.02958807300007, 26.48346335800005], [85.03031558800006, 26.48281828000006], [85.03147510700006, 26.481989808000037], [85.03357925400007, 26.481243950000078], [85.04107137800008, 26.479150781000044], [85.03636865200008, 26.47859324600006], [85.03492522600004, 26.478157861000057], [85.03439535500007, 26.47729057500004], [85.03232706800009, 26.47581176700004], [85.03098825900008, 26.473124511000037], [85.03012050400008, 26.47325408900008], [85.02848590300005, 26.47320640600003], [85.02766921000006, 26.47285765400005], [85.02656115100007, 26.472770214000036], [85.02507071400004, 26.473377113000026], [85.02405710500005, 26.473763572000053], [85.02261362100006, 26.473373168000023], [85.02198612400008, 26.47376028900004], [85.02078166500007, 26.47424119300007], [85.01934077200008, 26.47259172200006], [85.01881444400004, 26.47250507700005], [85.01799815000004, 26.47198482500005], [85.01775922800005, 26.471117908000053], [85.01708345000003, 26.47050765700004], [85.01621640400003, 26.47033465900006], [85.01559603800007, 26.469638701000065], [85.01467866700006, 26.469506325000054], [85.01415283800003, 26.469157937000034], [85.01270809100004, 26.469480471000054], [85.01078133900006, 26.470081977000063], [85.00890325300008, 26.47142369000005], [85.00779371500005, 26.472071695000068], [85.00630423300004, 26.472199961000058], [85.00553102400005, 26.47263189000006], [85.00413689400006, 26.47271521500005], [85.00317333500004, 26.473101686000064], [85.00245115100006, 26.473145569000053], [84.99913603500005, 26.473419531000047], [85.00075977800003, 26.478535484000076], [84.99979561000004, 26.479138567000064], [84.99858866700004, 26.48071589400007], [84.99782286800007, 26.482361758000025], [84.98970508900004, 26.488580186000036], [84.99032803000006, 26.490158162000057], [84.99037599400003, 26.491375989000062], [84.99088069100003, 26.492327026000055], [84.99139366500003, 26.493487969000057], [84.99172500900005, 26.494780862000027], [84.99235817700009, 26.495433424000055], [84.99446836100003, 26.495618427000068], [84.99776533600004, 26.495092665000072], [84.99782280400007, 26.495056231000035], [84.99874927200005, 26.494575198000064], [85.00135060500008, 26.49300027700008], [85.00428639000006, 26.49209372400003], [85.00732273000006, 26.491106141000046], [85.00909922700004, 26.492968382000072], [85.01024895600005, 26.49479352000003], [85.01116675000003, 26.49479505900007], [85.01250804900008, 26.496182748000024], [85.01390132500006, 26.499172574000056], [85.01482138000006, 26.500351781000063], [85.01649271200006, 26.50249381800006], [85.01822891400008, 26.502063375000034], [85.02068191500007, 26.501895920000038], [85.02193000400007, 26.50233107500003], [85.02236508800007, 26.50298168300003], [85.02267413500005, 26.50394340200006], [85.02327106300004, 26.50395783600004], [85.02388745400003, 26.50423868300004], [85.02476898100008, 26.50484026400005], [85.02634695400008, 26.505876173000047], [85.02793563300008, 26.506614223000042], [85.02911405700007, 26.506755992000024], [85.03006245900008, 26.506567892000078], [85.03098130700005, 26.506032257000072], [85.03160968800006, 26.505329276000055], [85.03188660600006, 26.50473853400007], [85.03201860000007, 26.503926358000058], [85.03193997200003, 26.50301015900004], [85.03170561300004, 26.502323863000072]]]]}}, {"type": "Feature", "properties": {"OBJECTID": 3978, "GPCODE": "96622", "GPNAME_1": "HARPUR", "DIST_CEN_C": "02", "BLK_NAME": "CHAKIA(PIPRA)", "ST_NAME": "BIHAR", "ST_CODE_1": "10", "GPCODE2011": "99174", "REMARKS": "FINALIZED", "MAP_STATUS": "COMPLETED", "BLK_C_2001": "020021", "BLK_C_2011": "01051", "DIST_NAME": "PURBI CHAMPARAN", "code2011": 0.0, "Shape_Leng": 0.25484070135, "Shape_Area": 0.00121047485, "Area": 13.3717}, "geometry": {"type": "MultiPolygon", "coordinates": [[[[84.91613762500003, 26.54284174000003], [84.91651797700007, 26.541452718000073], [84.91723280600007, 26.54062404700005], [84.91802712700007, 26.54006183300004], [84.92030058400007, 26.539854971000068], [84.92215816400005, 26.53943957900003], [84.92295354600003, 26.53850271400006], [84.92412632300005, 26.53718766800006], [84.92534441000004, 26.53575993900006], [84.92597327600004, 26.535143074000075], [84.92607928700005, 26.534917708000023], [84.92680813100003, 26.534422926000047], [84.92683382100006, 26.532419321000077], [84.92701147800005, 26.531679636000035], [84.92718479200005, 26.530691645000047], [84.92697040900003, 26.530239879000078], [84.92699272500005, 26.529427695000038], [84.92713422000008, 26.529044416000033], [84.92760272400005, 26.528350508000074], [84.92829222400007, 26.527392459000055], [84.92830891600005, 26.526980165000055], [84.92818520800006, 26.52634813900005], [84.92832704100005, 26.525879089000057], [84.92894129300004, 26.52505912600003], [84.92814168900009, 26.523983328000043], [84.92739417700005, 26.52219000200006], [84.92662711500003, 26.520211690000053], [84.92614506900009, 26.518581427000072], [84.92514531000006, 26.51732005300005], [84.92487667700004, 26.516529710000043], [84.92486410500004, 26.515640676000032], [84.92511295000008, 26.514567207000027], [84.92655398600004, 26.514078532000042], [84.92707181100008, 26.513660032000075], [84.92766481600006, 26.513273302000073], [84.92817166100008, 26.51319321300008], [84.92895981700008, 26.512951334000036], [84.92889585000006, 26.51069470500005], [84.92796668800008, 26.507511092000072], [84.92782661800004, 26.505592802000024], [84.92779431100007, 26.50457288700005], [84.92717467700004, 26.500316062000024], [84.92672285900005, 26.498312058000067], [84.92836457100003, 26.498470548000057], [84.92993765900007, 26.496865266000043], [84.93221150000005, 26.49645731100003], [84.93827716100003, 26.496224020000056], [84.93838689700004, 26.49184765800004], [84.93715402700008, 26.48419192700004], [84.93451773200007, 26.483686417000058], [84.93375723700007, 26.482154621000063], [84.93348310300007, 26.48111212500004], [84.93383511900004, 26.480554341000072], [84.93413566100008, 26.479872112000066], [84.93377789500005, 26.479084569000065], [84.93354399500004, 26.478460780000034], [84.92845006400006, 26.47963035400005], [84.92846125100004, 26.482321014000036], [84.92445747000005, 26.48363021700004], [84.92356419400005, 26.48436760100003], [84.92119883000004, 26.484820463000062], [84.92086041100004, 26.48693345500004], [84.91741898800007, 26.489142576000063], [84.91517781600004, 26.49039034300006], [84.91497066300008, 26.494685532000062], [84.91194186800004, 26.49675456700004], [84.91299689900006, 26.500118928000063], [84.91353240200004, 26.50055709000003], [84.91411655500008, 26.500538754000047], [84.91474327100008, 26.50028633100004], [84.91658254200007, 26.499513783000054], [84.91656787700003, 26.499135868000053], [84.91740241800005, 26.497764173000064], [84.91787676000007, 26.496740113000044], [84.92000081800006, 26.496084729000074], [84.92200602800006, 26.49597963900004], [84.92304262900007, 26.496199354000055], [84.92376554200007, 26.49676525600006], [84.92442122000006, 26.49800601100003], [84.92429197900003, 26.498283083000047], [84.92416246700003, 26.49856073600006], [84.92352855000007, 26.499085301000036], [84.92275468900004, 26.499614172000065], [84.92272515100007, 26.500377926000056], [84.92357553600004, 26.50473930800007], [84.92163719900003, 26.505542653000077], [84.91890768300004, 26.505856735000066], [84.91727237400005, 26.505920624000055], [84.91571743100008, 26.504170525000063], [84.91341385800007, 26.504620849000048], [84.91161801200008, 26.504711433000068], [84.91161411700006, 26.506038163000028], [84.91197173100005, 26.507234939000057], [84.91304112700004, 26.508622856000045], [84.91411508400006, 26.510177816000066], [84.91432786500008, 26.511175681000054], [84.91464531700007, 26.51240388800005], [84.91558785000007, 26.514324031000058], [84.91350420700007, 26.514964447000068], [84.90898558600009, 26.514628815000037], [84.90546998900004, 26.514363122000077], [84.90360337200008, 26.514552627000057], [84.90274489900008, 26.514807805000032], [84.90259784500006, 26.515326410000057], [84.90294586300007, 26.518039454000075], [84.89764759200006, 26.518346894000047], [84.89799517400007, 26.519530105000058], [84.89794830500006, 26.52008504400004], [84.89624279100008, 26.520062752000058], [84.89603056200008, 26.52056314300006], [84.89515997400008, 26.523110751000047], [84.89435173400005, 26.524927364000064], [84.89349278900005, 26.52525464000007], [84.89359344300004, 26.52679835400005], [84.89371693900006, 26.529055017000076], [84.89458911400004, 26.529291838000063], [84.89642582500005, 26.529111390000025], [84.89734305400003, 26.52938892900005], [84.89812484300006, 26.529666191000047], [84.89907757200007, 26.529821979000076], [84.89958456200003, 26.52973296400006], [84.90026752800009, 26.52951799300007], [84.90095024900006, 26.529370750000055], [84.90152722600004, 26.529372196000054], [84.90261550800005, 26.529496667000046], [84.90403255000007, 26.530416238000043], [84.90531914700006, 26.531339975000037], [84.90596482900008, 26.531828863000044], [84.90620416700006, 26.53234842300003], [84.90643767800003, 26.53311623700006], [84.90636931200004, 26.534158509000065], [84.90561347500005, 26.535257745000024], [84.90499991200005, 26.535757188000048], [84.90476308900008, 26.536095121000074], [84.90465584100008, 26.536749204000046], [84.90458857800007, 26.537421449000078], [84.90414121000003, 26.537695676000055], [84.90449804400004, 26.539167673000065], [84.90497067800004, 26.540504645000055], [84.90551446300003, 26.541557456000078], [84.90634470500004, 26.54244394600005], [84.90714185500008, 26.54267145400007], [84.90872758900008, 26.542580534000024], [84.91050351900003, 26.54438988100003], [84.91113965400007, 26.546471797000038], [84.91218587200007, 26.552444686000058], [84.91545517900005, 26.54980346700006], [84.91574981900004, 26.546830192000073], [84.91550554700007, 26.54453255100003], [84.91613762500003, 26.54284174000003]]]]}}, {"type": "Feature", "properties": {"OBJECTID": 3981, "GPCODE": "96626", "GPNAME_1": "KUWAR PUR", "DIST_CEN_C": "02", "BLK_NAME": "CHAKIA(PIPRA)", "ST_NAME": "BIHAR", "ST_CODE_1": "10", "GPCODE2011": "99178", "REMARKS": "FINALIZED", "MAP_STATUS": "COMPLETED", "BLK_C_2001": "020021", "BLK_C_2011": "01051", "DIST_NAME": "PURBI CHAMPARAN", "code2011": 0.0, "Shape_Leng": 0.13747263669, "Shape_Area": 0.00087731987, "Area": 9.69243}, "geometry": {"type": "MultiPolygon", "coordinates": [[[[84.94571286400009, 26.51713085500006], [84.94950593100003, 26.514927543000056], [84.95324213900005, 26.513292755000066], [84.95383028600008, 26.512802097000076], [84.95430016700004, 26.511507820000077], [84.95424785300008, 26.51034794000003], [84.95419441200005, 26.509697963000065], [84.95421524500006, 26.509391162000043], [84.95436146800006, 26.509102660000053], [84.95497199500005, 26.50767335200004], [84.95676641000006, 26.50621483900005], [84.95860143100003, 26.504535370000042], [84.95842748100006, 26.501885972000025], [84.95823717900004, 26.500480623000044], [84.95842328500004, 26.49995997700006], [84.95992731300004, 26.498987267000075], [84.96015038600007, 26.496331258000055], [84.96032358700006, 26.49359271700007], [84.96031007800008, 26.490860086000055], [84.96011808900005, 26.488343276000023], [84.95864246000008, 26.486455874000058], [84.95686151700005, 26.485124722000023], [84.95523705500005, 26.484209125000064], [84.94939314000004, 26.485319102000062], [84.94816254700004, 26.483718132000035], [84.94746813600005, 26.482688944000074], [84.94575544400004, 26.481902106000064], [84.94425230000007, 26.48169727900006], [84.94237578600007, 26.481504321000045], [84.94050337700008, 26.480217926000023], [84.93716151200005, 26.480785870000034], [84.93715402700008, 26.48419192700004], [84.93838689700004, 26.49184765800004], [84.93827716100003, 26.496224020000056], [84.93221150000005, 26.49645731100003], [84.92993765900007, 26.496865266000043], [84.92836457100003, 26.498470548000057], [84.92672285900005, 26.498312058000067], [84.92717467700004, 26.500316062000024], [84.92779431100007, 26.50457288700005], [84.92782661800004, 26.505592802000024], [84.92796668800008, 26.507511092000072], [84.92889585000006, 26.51069470500005], [84.92895981700008, 26.512951334000036], [84.92817166100008, 26.51319321300008], [84.92766481600006, 26.513273302000073], [84.92707181100008, 26.513660032000075], [84.92655398600004, 26.514078532000042], [84.92511295000008, 26.514567207000027], [84.92486410500004, 26.515640676000032], [84.92487667700004, 26.516529710000043], [84.92514531000006, 26.51732005300005], [84.92614506900009, 26.518581427000072], [84.92831374500008, 26.517999727000074], [84.92971485300006, 26.517456797000023], [84.93064826300008, 26.517314500000055], [84.93120525900008, 26.517248005000056], [84.93192356100008, 26.516911143000073], [84.93266159900008, 26.51668720500004], [84.93316332600006, 26.516625112000042], [84.93373950900008, 26.51690168500005], [84.93443601700005, 26.517174003000036], [84.93501239900007, 26.51735578800003], [84.93561920800005, 26.517402267000023], [84.93617627500004, 26.517340261000072], [84.93691441400006, 26.517035048000025], [84.93751262600006, 26.516567051000038], [84.93887380000007, 26.51592463000003], [84.93988147300007, 26.51613447400007], [84.94052772900005, 26.51646080100005], [84.94086735600007, 26.517007612000043], [84.94197028400004, 26.519158102000063], [84.94329908900005, 26.519350427000063], [84.94571286400009, 26.51713085500006]]]]}}, {"type": "Feature", "properties": {"OBJECTID": 3983, "GPCODE": "96620", "GPNAME_1": "CHINTAMANPUR", "DIST_CEN_C": "02", "BLK_NAME": "CHAKIA(PIPRA)", "ST_NAME": "BIHAR", "ST_CODE_1": "10", "GPCODE2011": "99172", "REMARKS": "FINALIZED", "MAP_STATUS": "COMPLETED", "BLK_C_2001": "020021", "BLK_C_2011": "01051", "DIST_NAME": "PURBI CHAMPARAN", "code2011": 0.0, "Shape_Leng": 0.15612078099, "Shape_Area": 0.00092732331, "Area": 10.243}, "geometry": {"type": "MultiPolygon", "coordinates": [[[[84.98016220400007, 26.53557637600005], [84.98149228300008, 26.535339730000032], [84.98345380700005, 26.535424634000037], [84.98359303600006, 26.533786733000056], [84.98373549100006, 26.532925068000054], [84.98418908600007, 26.53202341000008], [84.98528944800006, 26.531289792000052], [84.98761340900006, 26.530802262000066], [84.99253942600006, 26.531054932000075], [84.99770579500006, 26.530154812000035], [84.99913170000008, 26.529893790000074], [85.00010200600008, 26.52966699600006], [85.00088283800005, 26.529602860000068], [85.00170873700006, 26.52957648000006], [85.00219121300006, 26.529479540000068], [85.00286868800004, 26.529385938000075], [85.00342361100007, 26.528924501000063], [85.00407632800005, 26.52865482800007], [85.00450348100009, 26.528348746000063], [85.00467517600003, 26.527780389000043], [85.00479701900008, 26.52709464700007], [85.00546445000003, 26.527037149000023], [85.00611633500006, 26.527137587000027], [85.00566073700008, 26.525382844000035], [85.00470947700006, 26.52209583800004], [85.00365472900006, 26.520320482000045], [85.00202276800007, 26.518756245000077], [85.00024370900007, 26.517931727000075], [84.99777681400008, 26.517394895000052], [84.99694932800008, 26.517298648000065], [84.99501332800008, 26.517164337000054], [84.99303643800005, 26.517354840000053], [84.99063180000007, 26.518158266000057], [84.98714785500005, 26.519284603000074], [84.98284097400006, 26.520499623000035], [84.98133657300008, 26.520271167000033], [84.98087046300003, 26.520076197000037], [84.98065606600005, 26.51952971700007], [84.98040769000005, 26.51845972800004], [84.97952534400008, 26.511779064000052], [84.97982310200007, 26.508873325000025], [84.97928283900006, 26.508226966000052], [84.97763958100006, 26.505254398000034], [84.97656498100008, 26.503668395000034], [84.97549420300004, 26.502569683000047], [84.97406057400008, 26.50221036100004], [84.97384937800007, 26.500337130000048], [84.97352082300006, 26.497672857000055], [84.96972504400009, 26.498592320000057], [84.96792136700003, 26.49907009800006], [84.96470511700005, 26.500350987000047], [84.96293754300007, 26.501479971000037], [84.96046841500004, 26.504065269000023], [84.95860143100003, 26.504535370000042], [84.95676641000006, 26.50621483900005], [84.95497199500005, 26.50767335200004], [84.95635754800008, 26.511182658000052], [84.95800339200008, 26.512959573000046], [84.95945968100006, 26.51828770800006], [84.96102887400008, 26.522695377000048], [84.96184496500007, 26.52537314500006], [84.96195312000003, 26.52624884100004], [84.96119585600007, 26.528147207000075], [84.96049336800007, 26.53021718900004], [84.96536307700006, 26.53089945000005], [84.97155322400005, 26.531218505000027], [84.97528762500008, 26.530454122000037], [84.97607416000005, 26.530938438000078], [84.97753991900004, 26.53058930000003], [84.97982469600004, 26.533996338000065], [84.98016220400007, 26.53557637600005]]]]}}, {"type": "Feature", "properties": {"OBJECTID": 4170, "GPCODE": "96619", "GPNAME_1": "CHAKIA", "DIST_CEN_C": "02", "BLK_NAME": "CHAKIA(PIPRA)", "ST_NAME": "BIHAR", "ST_CODE_1": "10", "GPCODE2011": "99171", "REMARKS": "FINALIZED", "MAP_STATUS": "COMPLETED", "BLK_C_2001": "020021", "BLK_C_2011": "01051", "DIST_NAME": "PURBI CHAMPARAN", "code2011": 0.0, "Shape_Leng": 0.04008389734, "Shape_Area": 9.270848e-05, "Area": 1.02497}, "geometry": {"type": "MultiPolygon", "coordinates": [[[[85.05479265300005, 26.397125489000075], [85.05288812900005, 26.397921936000046], [85.04906361600007, 26.398494278000044], [85.04336275700007, 26.400268749000077], [85.04352653100005, 26.40116709600005], [85.04373288000005, 26.403518577000057], [85.04460085000005, 26.405803345000038], [85.04530184900005, 26.406138356000042], [85.04733655900003, 26.406105102000026], [85.04841907500008, 26.406106700000066], [85.04891401700007, 26.406838453000034], [85.04926229100005, 26.40900675900008], [85.05187277200008, 26.40842268600005], [85.05423286200005, 26.407301854000025], [85.05445771800004, 26.405625583000074], [85.05466819400004, 26.403352488000053], [85.05473174100007, 26.400485154000023], [85.05479265300005, 26.397125489000075]]]]}}, {"type": "Feature", "properties": {"OBJECTID": 4207, "GPCODE": "022121", "GPNAME_1": "Chakia (NP)", "DIST_CEN_C": "02", "BLK_NAME": "CHAKIA(PIPRA)", "ST_NAME": "BIHAR", "ST_CODE_1": "10", "GPCODE2011": "801288", "REMARKS": "FINALIZED", "MAP_STATUS": "COMPLETED", "BLK_C_2001": "020021", "BLK_C_2011": "01051", "DIST_NAME": "PURBI CHAMPARAN", "code2011": 0.0, "Shape_Leng": 0.20901650328, "Shape_Area": 0.000854092, "Area": 9.44194}, "geometry": {"type": "MultiPolygon", "coordinates": [[[[85.03066146600008, 26.425693564000028], [85.03186540100006, 26.425217074000045], [85.03244103000003, 26.425610559000063], [85.03388520200008, 26.425310377000073], [85.03633819800007, 26.424231004000035], [85.03965783400008, 26.423410059000048], [85.04013836300004, 26.42375826600005], [85.04249983700004, 26.42337359800007], [85.04615474500008, 26.422837294000033], [85.04774405800003, 26.42258236300006], [85.04933340600007, 26.42228222800003], [85.04981524200008, 26.42189028400003], [85.04957677100003, 26.420675956000025], [85.04895310600006, 26.41898723500003], [85.04886052300003, 26.41747076200005], [85.05122634300005, 26.417406438000057], [85.05139089900007, 26.41789402300003], [85.05138958000003, 26.418679242000053], [85.05088742300006, 26.41920206700007], [85.05067964600005, 26.420546667000053], [85.05096931100007, 26.421147269000073], [85.05188035700007, 26.421857010000053], [85.05275908800007, 26.420919586000025], [85.05503797400007, 26.421892952000064], [85.05860402300004, 26.42350437700003], [85.06333200500006, 26.425717430000077], [85.06486458200004, 26.42649569100007], [85.06532829800005, 26.424840019000044], [85.06587084500006, 26.424078043000065], [85.06624263800006, 26.42355506800004], [85.06711531200006, 26.423217683000075], [85.06815288000007, 26.423182874000076], [85.07018677400004, 26.423894043000075], [85.07205629100008, 26.423896385000035], [85.07388237000004, 26.422851645000037], [85.07484158800008, 26.421584691000078], [85.07530020500008, 26.419938070000057], [85.07533806100008, 26.418105857000057], [85.07385084900005, 26.417183394000062], [85.07116459600007, 26.417040159000067], [85.06942556800004, 26.416947720000053], [85.06873476900006, 26.416459444000054], [85.06845147700005, 26.414915653000037], [85.06874099100008, 26.412424919000046], [85.06961649200008, 26.410192099000028], [85.07072116900008, 26.408853168000064], [85.07325819900007, 26.408093660000077], [85.07341783200008, 26.405268721000027], [85.07197067500005, 26.401191746000052], [85.07101792400005, 26.398311388000025], [85.07014820000006, 26.396893159000058], [85.07339157200005, 26.392822051000053], [85.07650944700003, 26.38873265600006], [85.07713270900007, 26.387424642000042], [85.07768682400007, 26.385426063000068], [85.07675948000008, 26.38568219900003], [85.07643796200006, 26.386196319000078], [85.07611190400007, 26.38648474400003], [85.07175224700006, 26.386736634000044], [85.07132602400003, 26.38693010000003], [85.07096383200007, 26.387863804000062], [85.07064232100004, 26.38840947700004], [85.06738650000005, 26.390851377000047], [85.06645877400007, 26.391301459000033], [85.06720701600005, 26.39348675900004], [85.06436440200008, 26.39431792700003], [85.06206063700006, 26.39356581100003], [85.06088254000008, 26.393875611000055], [85.05818761300003, 26.396340558000077], [85.05593206200007, 26.396648995000078], [85.05479265300005, 26.397125489000075], [85.05473174100007, 26.400485154000023], [85.05466819400004, 26.403352488000053], [85.05445771800004, 26.405625583000074], [85.05423286200005, 26.407301854000025], [85.05187277200008, 26.40842268600005], [85.04926229100005, 26.40900675900008], [85.04965283400009, 26.41143818000006], [85.04982084800008, 26.412823847000027], [85.04964965600004, 26.41323429600004], [85.04849103500004, 26.413756129000035], [85.04761826200007, 26.414188112000033], [85.04670471600008, 26.41497212300004], [85.04578074200003, 26.415995183000064], [85.04496474700005, 26.41542995100008], [85.04405338800007, 26.414995340000075], [85.04251548600007, 26.414600525000026], [85.04035014600004, 26.414665069000023], [85.03741709400003, 26.415265428000055], [85.03726884500009, 26.416871842000035], [85.03659644900006, 26.41730411900005], [85.03481815800006, 26.416777916000058], [85.03433786500005, 26.41630333100005], [85.03280017400004, 26.415782061000073], [85.03015541000008, 26.414997202000052], [85.02664246400008, 26.414766135000036], [85.02626112700005, 26.41498213600005], [85.02601963900008, 26.41550073700006], [85.02639704000006, 26.417320037000025], [85.02658901300003, 26.419143543000075], [85.02629740900005, 26.419576328000062], [85.02317370500003, 26.420221280000078], [85.02264147700004, 26.420671723000055], [85.02278283000004, 26.42270731600007], [85.02273068100004, 26.42379029800003], [85.02196311300008, 26.424136573000055], [85.02167166100008, 26.424483573000032], [85.02167083400008, 26.424916858000074], [85.02176454700003, 26.42569321800005], [85.02205320900003, 26.426736176000077], [85.02229080500007, 26.428293448000034], [85.02637834500007, 26.42704985100005], [85.03066146600008, 26.425693564000028]]]]}}]}