{"type": "FeatureCollection", "features": [{"type": "Feature", "properties": {"OBJECTID": 3833, "GPCODE": "96749", "GPNAME_1": "SOUTH GAWANDARA", "DIST_CEN_C": "02", "BLK_NAME": "KALYANPUR", "ST_NAME": "BIHAR", "ST_CODE_1": "10", "GPCODE2011": "99289", "REMARKS": "FINALIZED", "MAP_STATUS": "COMPLETED", "BLK_C_2001": "020018", "BLK_C_2011": "01048", "DIST_NAME": "PURBI CHAMPARAN", "code2011": 0.0, "Shape_Leng": 0.14066430302, "Shape_Area": 0.00066633053, "Area": 7.37134}, "geometry": {"type": "MultiPolygon", "coordinates": [[[[85.01094335700003, 26.347268003000067], [85.01425923600004, 26.346785820000036], [85.01609068500005, 26.348201697000036], [85.01697442500006, 26.34768370200004], [85.01707354700005, 26.34762560300004], [85.01922858700004, 26.34705595400004], [85.02422977200007, 26.34591764000004], [85.02495065100004, 26.34476317700006], [85.02560640000007, 26.343713018000074], [85.02869890800008, 26.33996299100005], [85.02992856500003, 26.338620055000035], [85.03271861500008, 26.338493439000047], [85.03820103300006, 26.339602812000066], [85.04040577300003, 26.34185806000005], [85.04230660900004, 26.34048436300003], [85.04334033600009, 26.33933952800004], [85.04412563700004, 26.33863139400006], [85.04395625800004, 26.33815276300004], [85.04368719100006, 26.337358084000073], [85.04326312900008, 26.336405322000076], [85.04268921900007, 26.335231081000074], [85.04222413100007, 26.33482880400004], [85.04131294000007, 26.334674035000035], [85.03903926600003, 26.334571380000057], [85.03790282200004, 26.334330531000035], [85.03735217700006, 26.334144699000035], [85.03611519500004, 26.334129246000032], [85.03555459700004, 26.333952471000032], [85.03523470800008, 26.333581941000034], [85.03458654900004, 26.332001433000073], [85.03412260500005, 26.33101688800008], [85.03364835900004, 26.330158668000024], [85.03338438400004, 26.329400158000055], [85.03312119300006, 26.328136080000036], [85.03260878900005, 26.326325610000026], [85.03236038600005, 26.32525119400003], [85.03201637200004, 26.324415738000027], [85.03159298900005, 26.323183132000054], [85.03040456300005, 26.32401619500007], [85.02964440500006, 26.323464432000037], [85.02775452700007, 26.324436285000047], [85.02737892700009, 26.324444777000053], [85.02685331100008, 26.324322067000026], [85.02646305200005, 26.324159017000056], [85.02593799800007, 26.323756502000037], [85.02560284400005, 26.323530383000048], [85.02528288100007, 26.32323649800003], [85.02501835700008, 26.322766793000028], [85.02485969300005, 26.32196318800004], [85.02469549300008, 26.321398867000028], [85.02457176100006, 26.320649451000065], [85.02398269900004, 26.319705339000052], [85.02298757000005, 26.31897721200005], [85.02215658800003, 26.31878634700007], [85.02108477300004, 26.318901959000073], [85.01978202800007, 26.319233807000046], [85.01801724500007, 26.320314086000053], [85.01649246200003, 26.321498552000037], [85.01560434700008, 26.322381592000056], [85.01535256000005, 26.323062625000034], [85.01506539200005, 26.323928676000037], [85.01462656500007, 26.325484876000075], [85.01407131700006, 26.32764118500006], [85.01378436800007, 26.328376259000038], [85.01264733200009, 26.328469237000036], [85.01117969200004, 26.328575107000063], [85.01012767500004, 26.328695160000052], [85.00907575700006, 26.328815201000054], [85.00807883500005, 26.328998634000072], [85.00760250500008, 26.329218945000036], [85.00729582100007, 26.329827631000057], [85.00685289300003, 26.33087388100006], [85.00626191100008, 26.330854801000044], [85.00533923700004, 26.331439954000075], [85.00430187300003, 26.331722488000025], [85.00300403400007, 26.332058723000046], [85.00182157400008, 26.332313948000035], [85.00046836500007, 26.332753815000046], [84.99919193500006, 26.332091512000034], [84.99782450200007, 26.331542917000036], [84.99695164600007, 26.331827688000033], [84.99667972100008, 26.332508681000036], [84.99600721000007, 26.333116794000034], [84.99594549000005, 26.33388383500005], [84.99655291700003, 26.335536654000066], [84.99605911600008, 26.336912218000066], [84.99532365000005, 26.338837941000065], [84.99782437200008, 26.33867287700008], [85.00008796200007, 26.338309297000023], [85.00381483500007, 26.33809460300006], [85.00704665400008, 26.337481899000068], [85.00826433800006, 26.342033014000037], [85.00996748900008, 26.346806081000068], [85.01074558500005, 26.348418484000035], [85.01094335700003, 26.347268003000067]]]]}}, {"type": "Feature", "properties": {"OBJECTID": 3838, "GPCODE": "96740", "GPNAME_1": "PIPRA KHEM", "DIST_CEN_C": "02", "BLK_NAME": "KALYANPUR", "ST_NAME": "BIHAR", "ST_CODE_1": "10", "GPCODE2011": "99282", "REMARKS": "FINALIZED", "MAP_STATUS": "COMPLETED", "BLK_C_2001": "020018", "BLK_C_2011": "01048", "DIST_NAME": "PURBI CHAMPARAN", "code2011": 0.0, "Shape_Leng": 0.26145282342, "Shape_Area": 0.00114004085, "Area": 12.6086}, "geometry": {"type": "MultiPolygon", "coordinates": [[[[84.95367898800004, 26.385353803000044], [84.95307363000006, 26.383041915000035], [84.95212201100009, 26.380941423000024], [84.95138525800007, 26.380994110000074], [84.95092647000007, 26.38212134500003], [84.95070754600005, 26.383470226000043], [84.94975798300004, 26.38446105400004], [84.94859497700008, 26.384679799000025], [84.94737157600008, 26.384979591000047], [84.94685083900004, 26.38486566100005], [84.94654951500007, 26.383186210000076], [84.94640112200005, 26.38244124600004], [84.94661280000008, 26.381976896000026], [84.94768609600004, 26.38159102700007], [84.94903046600007, 26.380962084000032], [84.94955328600008, 26.38029977700006], [84.94992145800006, 26.37936637100006], [84.94998767500005, 26.37892419600007], [84.95019836700004, 26.37884344400004], [84.95169916400005, 26.377799538000033], [84.95272285000004, 26.377151817000026], [84.95394649500008, 26.37671659800003], [84.95602462100004, 26.37715865200005], [84.95748678800004, 26.37749109200007], [84.95809500200005, 26.378706369000042], [84.95943433800005, 26.380085457000064], [84.96090129600003, 26.38052621500003], [84.96187622400004, 26.38135409100005], [84.96285193500006, 26.38190658700006], [84.96358590900007, 26.382955051000067], [84.96412958200006, 26.383944488000054], [84.96479702400006, 26.385597564000022], [84.96528694200003, 26.386040769000033], [84.96644901400003, 26.386205501000063], [84.96724232400004, 26.38554825700004], [84.96857924100004, 26.383853974000033], [84.97035722100009, 26.38209743500005], [84.97268388700007, 26.38133030800003], [84.97586036900003, 26.38139059100007], [84.97940617300003, 26.38205619300004], [84.98087176300004, 26.383164660000034], [84.98190528200007, 26.38475962900003], [84.98385708000006, 26.38795845900006], [84.99028779500009, 26.38257733200004], [84.99011054000005, 26.378939565000053], [84.98975392000006, 26.374863745000027], [84.98972145900007, 26.371451868000065], [84.98813945000006, 26.368696175000025], [84.98697765400004, 26.36847288200005], [84.98465658600009, 26.369127510000055], [84.98355385400004, 26.369346536000023], [84.98270462200009, 26.368302467000035], [84.98019948200005, 26.368351910000058], [84.97622603900004, 26.368619684000066], [84.97244369800006, 26.36855825600003], [84.97238675100004, 26.367235854000057], [84.97202822500003, 26.36421147300007], [84.97173371000008, 26.359585198000048], [84.97191871600006, 26.357604346000073], [84.97302213800003, 26.357055906000028], [84.97522166400006, 26.356893161000073], [84.97589452200003, 26.356181426000035], [84.97711751600008, 26.355908464000038], [84.97827572100005, 26.355468402000042], [84.97852326600008, 26.354534691000026], [84.97828362300004, 26.352056662000052], [84.97816245300004, 26.350296379000042], [84.97786415600007, 26.34721344700006], [84.96836817200005, 26.348833323000065], [84.96702562700006, 26.348884819000034], [84.96494461700007, 26.349814817000038], [84.96432897200003, 26.351686485000073], [84.96242773200004, 26.354819190000057], [84.96016502700007, 26.356249728000023], [84.95979754400008, 26.356962012000054], [84.96057874000007, 26.36109293100003], [84.96033295800004, 26.363240603000065], [84.95947344400008, 26.364394126000036], [84.95727063800007, 26.365820220000046], [84.95556057700009, 26.364494449000063], [84.95489235700006, 26.363283628000033], [84.95410981700007, 26.359757372000047], [84.95368933500004, 26.355681348000076], [84.95326491600008, 26.355129915000077], [84.94831410300003, 26.355728802000044], [84.94208626000005, 26.356207496000025], [84.94092507000005, 26.355821321000064], [84.94146371600004, 26.360502406000023], [84.94413177800004, 26.367006795000066], [84.94498298300005, 26.36909801300004], [84.94571443000007, 26.369099635000055], [84.94620516500004, 26.369213504000072], [84.94699527300008, 26.36976571300005], [84.94809136600009, 26.372132795000027], [84.94809493600007, 26.374628495000024], [84.94852205800004, 26.37605991600003], [84.94869929600009, 26.377274326000077], [84.94869705200006, 26.378154278000068], [84.94790437200004, 26.378540756000064], [84.94649489900007, 26.379142485000045], [84.94606773700008, 26.37963804000003], [84.94587988400008, 26.380571807000024], [84.94557270600006, 26.381175838000047], [84.94520575400009, 26.381617396000024], [84.94538255500004, 26.382994154000073], [84.94476493600007, 26.38541624800007], [84.94469409600003, 26.38759585500003], [84.94139678700003, 26.387697132000028], [84.93516168100007, 26.388342377000072], [84.93473067800005, 26.39021427700004], [84.93545570300006, 26.39263931000005], [84.93569489900005, 26.39500457500003], [84.94046018600005, 26.395069180000064], [84.94241437100004, 26.39512753100007], [84.94498336000004, 26.393869395000024], [84.94730595500005, 26.39288146900003], [84.94797969700005, 26.392002923000064], [84.95196095600005, 26.389037227000074], [84.95300406900003, 26.386728815000026], [84.95367898800004, 26.385353803000044]]]]}}, {"type": "Feature", "properties": {"OBJECTID": 3839, "GPCODE": "96742", "GPNAME_1": "DILAWARPUR", "DIST_CEN_C": "02", "BLK_NAME": "KALYANPUR", "ST_NAME": "BIHAR", "ST_CODE_1": "10", "GPCODE2011": "99284", "REMARKS": "FINALIZED", "MAP_STATUS": "COMPLETED", "BLK_C_2001": "020018", "BLK_C_2011": "01048", "DIST_NAME": "PURBI CHAMPARAN", "code2011": 0.0, "Shape_Leng": 0.1509271226, "Shape_Area": 0.00105638375, "Area": 11.6864}, "geometry": {"type": "MultiPolygon", "coordinates": [[[[84.96016502700007, 26.356249728000023], [84.96242773200004, 26.354819190000057], [84.96432897200003, 26.351686485000073], [84.96494461700007, 26.349814817000038], [84.96702562700006, 26.348884819000034], [84.96836817200005, 26.348833323000065], [84.97786415600007, 26.34721344700006], [84.97805224500007, 26.34385622700006], [84.97831084000006, 26.338188407000075], [84.97819322300006, 26.33494341900007], [84.97862778700005, 26.333292508000056], [84.97948512900007, 26.33291050500003], [84.98088948400004, 26.33202863300005], [84.98272589500004, 26.33054727900003], [84.98316064300008, 26.326585763000026], [84.98016391600004, 26.32306906900004], [84.97771453300004, 26.32326747600007], [84.97059161700008, 26.32395331500004], [84.96803210200005, 26.324151390000054], [84.96324224100005, 26.32504442900006], [84.95923440300004, 26.32563659300007], [84.94932981900007, 26.327024189000042], [84.94476069300003, 26.32771400100006], [84.94378004700008, 26.32925535800007], [84.94437219800005, 26.33646828800005], [84.94453791500007, 26.342028537000033], [84.94380268800006, 26.343511767000052], [84.94343478300004, 26.344395485000064], [84.94300359900006, 26.344557013000042], [84.94208685900009, 26.344609281000032], [84.94123416000008, 26.345049637000045], [84.94067759800004, 26.34713791400003], [84.94051713200008, 26.34910525600003], [84.94092507000005, 26.355821321000064], [84.94208626000005, 26.356207496000025], [84.94831410300003, 26.355728802000044], [84.95326491600008, 26.355129915000077], [84.95368933500004, 26.355681348000076], [84.95410981700007, 26.359757372000047], [84.95489235700006, 26.363283628000033], [84.95556057700009, 26.364494449000063], [84.95727063800007, 26.365820220000046], [84.95947344400008, 26.364394126000036], [84.96033295800004, 26.363240603000065], [84.96057874000007, 26.36109293100003], [84.95979754400008, 26.356962012000054], [84.96016502700007, 26.356249728000023]]]]}}, {"type": "Feature", "properties": {"OBJECTID": 3841, "GPCODE": "96748", "GPNAME_1": "MEDAN SIRSIYA", "DIST_CEN_C": "02", "BLK_NAME": "KALYANPUR", "ST_NAME": "BIHAR", "ST_CODE_1": "10", "GPCODE2011": "99288", "REMARKS": "FINALIZED", "MAP_STATUS": "COMPLETED", "BLK_C_2001": "020018", "BLK_C_2011": "01048", "DIST_NAME": "PURBI CHAMPARAN", "code2011": 0.0, "Shape_Leng": 0.14286369366, "Shape_Area": 0.00076887129, "Area": 8.50509}, "geometry": {"type": "MultiPolygon", "coordinates": [[[[84.98510842100006, 26.35768351300004], [84.98773472600004, 26.35708364100003], [84.98859025200005, 26.357527450000077], [84.98931820700005, 26.35906773000005], [84.99145863200005, 26.358466828000076], [84.99488235200005, 26.35742594800007], [84.99782332100006, 26.354903999000044], [84.99975307300008, 26.35435674000007], [85.00205810700004, 26.354008754000063], [85.00436130500003, 26.354500118000033], [85.00538827000008, 26.354456750000054], [85.00574116400009, 26.353396846000066], [85.00613640800003, 26.351235806000034], [85.00667344500005, 26.350708661000056], [85.00912526300004, 26.34960718800005], [85.01035383800007, 26.348945866000065], [85.01074558500005, 26.348418484000035], [85.00996748900008, 26.346806081000068], [85.00826433800006, 26.342033014000037], [85.00704665400008, 26.337481899000068], [85.00381483500007, 26.33809460300006], [85.00008796200007, 26.338309297000023], [84.99782437200008, 26.33867287700008], [84.99532365000005, 26.338837941000065], [84.99605911600008, 26.336912218000066], [84.99655291700003, 26.335536654000066], [84.99594549000005, 26.33388383500005], [84.99600721000007, 26.333116794000034], [84.99667972100008, 26.332508681000036], [84.99695164600007, 26.331827688000033], [84.99383255900005, 26.33132124100007], [84.98960783700005, 26.33031173100005], [84.98316064300008, 26.326585763000026], [84.98272589500004, 26.33054727900003], [84.98088948400004, 26.33202863300005], [84.97948512900007, 26.33291050500003], [84.97862778700005, 26.333292508000056], [84.97819322300006, 26.33494341900007], [84.97831084000006, 26.338188407000075], [84.97805224500007, 26.34385622700006], [84.97786415600007, 26.34721344700006], [84.97816245300004, 26.350296379000042], [84.97828362300004, 26.352056662000052], [84.97852326600008, 26.354534691000026], [84.97827572100005, 26.355468402000042], [84.97711751600008, 26.355908464000038], [84.97589452200003, 26.356181426000035], [84.97522166400006, 26.356893161000073], [84.97302213800003, 26.357055906000028], [84.97191871600006, 26.357604346000073], [84.97173371000008, 26.359585198000048], [84.97202822500003, 26.36421147300007], [84.97238675100004, 26.367235854000057], [84.97403754100003, 26.36613789100005], [84.97648567400006, 26.364712030000078], [84.97715829800006, 26.364162737000072], [84.97752661300007, 26.363062206000052], [84.97905603000004, 26.36240629400004], [84.98296769500007, 26.360599454000067], [84.98504287700007, 26.360052719000066], [84.98541576400004, 26.359114727000076], [84.98510842100006, 26.35768351300004]]]]}}, {"type": "Feature", "properties": {"OBJECTID": 3848, "GPCODE": "96753", "GPNAME_1": "RAGHUNATHPUR", "DIST_CEN_C": "02", "BLK_NAME": "KALYANPUR", "ST_NAME": "BIHAR", "ST_CODE_1": "10", "GPCODE2011": "99292", "REMARKS": "FINALIZED", "MAP_STATUS": "COMPLETED", "BLK_C_2001": "020018", "BLK_C_2011": "01048", "DIST_NAME": "PURBI CHAMPARAN", "code2011": 0.0, "Shape_Leng": 0.1801182686, "Shape_Area": 0.00112122701, "Area": 12.4038}, "geometry": {"type": "MultiPolygon", "coordinates": [[[[84.94092507000005, 26.355821321000064], [84.94051713200008, 26.34910525600003], [84.94067759800004, 26.34713791400003], [84.94123416000008, 26.345049637000045], [84.94208685900009, 26.344609281000032], [84.94300359900006, 26.344557013000042], [84.94343478300004, 26.344395485000064], [84.94380268800006, 26.343511767000052], [84.94453791500007, 26.342028537000033], [84.94437219800005, 26.33646828800005], [84.94378004700008, 26.32925535800007], [84.94476069300003, 26.32771400100006], [84.94064723800005, 26.326486699000043], [84.93808516500007, 26.327586826000072], [84.93274151900005, 26.327575081000077], [84.92806950800008, 26.32736159800004], [84.92071946100003, 26.328450528000076], [84.91916703400005, 26.326641738000035], [84.91661076800006, 26.325629478000053], [84.91735150800008, 26.329327282000065], [84.91712384400006, 26.331867510000052], [84.91562253400008, 26.334955432000072], [84.91539315500006, 26.338095829000054], [84.91461510000005, 26.33868977800006], [84.91362299600007, 26.33883637200006], [84.90948094600003, 26.33708458500007], [84.90815665400004, 26.336084018000065], [84.90551261000007, 26.332539629000053], [84.90451697900005, 26.332189680000056], [84.90384839800004, 26.333032031000073], [84.90390077800004, 26.333930171000077], [84.90673932000004, 26.337750459000063], [84.90799886300005, 26.342085851000036], [84.90870616200004, 26.34512925300004], [84.90709775400006, 26.34702089500007], [84.90083998200004, 26.35089137500006], [84.89931288700006, 26.352309185000024], [84.89559752100007, 26.355143184000042], [84.89387535900005, 26.35807686000004], [84.89324367200004, 26.359497833000034], [84.90249146200006, 26.359803854000063], [84.91043914400007, 26.358942912000032], [84.91147736700003, 26.35850316500006], [84.91819628800005, 26.358081114000072], [84.91899321700004, 26.357915974000036], [84.92095259900003, 26.355885167000054], [84.92187152400004, 26.355115589000036], [84.92370078100004, 26.354790276000074], [84.92565773800004, 26.355399436000027], [84.92669059800005, 26.35689108200006], [84.92698696500008, 26.360195162000025], [84.92734754200006, 26.36206431900007], [84.92826292800004, 26.362562886000035], [84.92996920000007, 26.363284254000064], [84.93241573100005, 26.362626298000066], [84.93425775700007, 26.359493851000025], [84.93713288800006, 26.35774011500007], [84.94092507000005, 26.355821321000064]]]]}}, {"type": "Feature", "properties": {"OBJECTID": 3851, "GPCODE": "96747", "GPNAME_1": "BANSH GHAT", "DIST_CEN_C": "02", "BLK_NAME": "KALYANPUR", "ST_NAME": "BIHAR", "ST_CODE_1": "10", "GPCODE2011": "99287", "REMARKS": "FINALIZED", "MAP_STATUS": "COMPLETED", "BLK_C_2001": "020018", "BLK_C_2011": "01048", "DIST_NAME": "PURBI CHAMPARAN", "code2011": 0.0, "Shape_Leng": 0.13417831464, "Shape_Area": 0.00084516415, "Area": 9.34765}, "geometry": {"type": "MultiPolygon", "coordinates": [[[[85.04935089200006, 26.374242235000054], [85.05088477400005, 26.37086862900003], [85.05284436000005, 26.370474279000064], [85.05510443000009, 26.367119665000075], [85.05600665300005, 26.36380846000003], [85.05629931200008, 26.362572304000025], [85.05640236900007, 26.36080333800004], [85.05640139800005, 26.358415965000063], [85.05567075400006, 26.357977224000024], [85.05395749500008, 26.357974913000078], [85.05356981800008, 26.356164654000054], [85.05283541200004, 26.354994824000073], [85.05137027500007, 26.353449365000074], [85.05083198700004, 26.351860053000053], [85.05083436600006, 26.35048813800006], [85.05245449200004, 26.349208712000063], [85.05377886800005, 26.348019081000075], [85.05471147900005, 26.347447223000074], [85.05474799500007, 26.346553689000075], [85.05313997500008, 26.346650772000032], [85.05292525000004, 26.34629399800008], [85.05278691300003, 26.345133975000067], [85.05265273300006, 26.344524542000045], [85.05240266700008, 26.344298492000064], [85.05086468000007, 26.344427249000034], [85.05072477300007, 26.34423307000003], [85.05047551100006, 26.343524185000035], [85.04818589500007, 26.343877462000023], [85.04797556100004, 26.34384109100006], [85.04786597200007, 26.34352048900007], [85.04751056900005, 26.343393639000055], [85.04519612500007, 26.34357989800003], [85.04404943600008, 26.343420320000064], [85.04351416000009, 26.34303135600004], [85.04319498100006, 26.342227621000063], [85.04305539900008, 26.341902461000075], [85.04258978700005, 26.34177547400003], [85.04226971300005, 26.34148613900004], [85.04212517200006, 26.341097820000073], [85.04230660900004, 26.34048436300003], [85.04040577300003, 26.34185806000005], [85.03820103300006, 26.339602812000066], [85.03271861500008, 26.338493439000047], [85.02992856500003, 26.338620055000035], [85.02869890800008, 26.33996299100005], [85.02560640000007, 26.343713018000074], [85.02495065100004, 26.34476317700006], [85.02422977200007, 26.34591764000004], [85.02363481100008, 26.347902388000023], [85.02412209800008, 26.349758019000035], [85.02495129100004, 26.350950702000034], [85.02559117500005, 26.351660223000067], [85.02661676700006, 26.35234335100006], [85.02764638300005, 26.35349119700004], [85.02920997000007, 26.355790755000044], [85.02969751700005, 26.357601164000073], [85.03047532800008, 26.35950226800003], [85.03159782400007, 26.361995171000046], [85.03335628900004, 26.364646958000037], [85.03506628100007, 26.366459211000063], [85.03619034200005, 26.368184851000024], [85.03638272100005, 26.369818829000053], [85.03544922500004, 26.37074251300004], [85.03446795400004, 26.373083251000025], [85.03426718700007, 26.375953242000037], [85.03460526600009, 26.377366249000033], [85.03504464700006, 26.378242401000023], [85.03822952000007, 26.379172303000075], [85.04048181100006, 26.38045734700006], [85.04198758700005, 26.381781799000066], [85.04345896100006, 26.382754227000078], [85.04399496500008, 26.38280016300007], [85.04419124100008, 26.38235816200006], [85.04409847700003, 26.380945456000063], [85.04415198500004, 26.379005022000058], [85.04518150200005, 26.377639025000065], [85.04670233700006, 26.376093256000047], [85.04935089200006, 26.374242235000054]]]]}}, {"type": "Feature", "properties": {"OBJECTID": 3854, "GPCODE": "96751", "GPNAME_1": "MANI CHAPRA", "DIST_CEN_C": "02", "BLK_NAME": "KALYANPUR", "ST_NAME": "BIHAR", "ST_CODE_1": "10", "GPCODE2011": "99291", "REMARKS": "FINALIZED", "MAP_STATUS": "COMPLETED", "BLK_C_2001": "020018", "BLK_C_2011": "01048", "DIST_NAME": "PURBI CHAMPARAN", "code2011": 0.0, "Shape_Leng": 0.16251718816, "Shape_Area": 0.00051054277, "Area": 5.64603}, "geometry": {"type": "MultiPolygon", "coordinates": [[[[85.05640139800005, 26.358415965000063], [85.05615461300005, 26.356163725000044], [85.05955153900004, 26.355811783000036], [85.05866870300008, 26.350692501000026], [85.05785457200005, 26.345971230000032], [85.05474799500007, 26.346553689000075], [85.05471147900005, 26.347447223000074], [85.05377886800005, 26.348019081000075], [85.05245449200004, 26.349208712000063], [85.05083436600006, 26.35048813800006], [85.05083198700004, 26.351860053000053], [85.05137027500007, 26.353449365000074], [85.05283541200004, 26.354994824000073], [85.05356981800008, 26.356164654000054], [85.05395749500008, 26.357974913000078], [85.05567075400006, 26.357977224000024], [85.05640139800005, 26.358415965000063]]], [[[85.05640139800005, 26.358415965000063], [85.05640236900007, 26.36080333800004], [85.05629931200008, 26.362572304000025], [85.05600665300005, 26.36380846000003], [85.05510443000009, 26.367119665000075], [85.05284436000005, 26.370474279000064], [85.05088477400005, 26.37086862900003], [85.04935089200006, 26.374242235000054], [85.05003506100007, 26.37556995500006], [85.05111179700003, 26.375833172000057], [85.05307662500007, 26.37535306600006], [85.05424844900006, 26.37566150500004], [85.05508364400004, 26.37654717500004], [85.05634834700004, 26.381332644000054], [85.05835730500007, 26.381452652000064], [85.06139926500003, 26.381109236000043], [85.06107957200004, 26.38049506400006], [85.05857945800005, 26.380428529000028], [85.05847584800006, 26.379462615000023], [85.05808020000006, 26.37933120100007], [85.05826298600005, 26.377914367000074], [85.05908484100007, 26.377757556000063], [85.05947607000007, 26.377532399000074], [85.05951235000003, 26.376792402000035], [85.05972899100004, 26.376048040000057], [85.06598343700006, 26.374964058000046], [85.06644919700005, 26.37509106400006], [85.06669842400004, 26.375930778000054], [85.06705371600003, 26.37615689000006], [85.06751413600006, 26.37650043000008], [85.06833171100004, 26.379141541000024], [85.06868645300005, 26.37981889300005], [85.06911715000007, 26.379914264000035], [85.07251088800007, 26.37879030600004], [85.07737332800008, 26.377189632000068], [85.07848069900007, 26.37706007500003], [85.07933070000007, 26.381691355000044], [85.08099934400008, 26.381571527000062], [85.08185640600004, 26.381382990000077], [85.08346676800005, 26.380030985000076], [85.08514683600004, 26.378904655000042], [85.08425937900006, 26.375821289000044], [85.08390575700008, 26.374304511000048], [85.08340655400008, 26.373022267000067], [85.08308666700003, 26.37250744100004], [85.08248070300004, 26.372344272000078], [85.08187429600008, 26.37244285400004], [85.08162403800003, 26.372311651000075], [85.08037648300007, 26.36887136400003], [85.07959284500004, 26.366875710000045], [85.07835226100008, 26.362203315000045], [85.07828055000004, 26.361968278000063], [85.07820762600005, 26.36172926000006], [85.07721076200005, 26.361696477000066], [85.07252602000005, 26.362205257000028], [85.07206527800008, 26.36214142500006], [85.07160084100008, 26.361175151000054], [85.06944080400007, 26.361781661000066], [85.06854330700008, 26.362295032000077], [85.06818658200007, 26.362939870000048], [85.06818407700007, 26.364582631000076], [85.06796825800006, 26.364839586000073], [85.06193039400006, 26.365508685000066], [85.06132462700003, 26.365282295000043], [85.06054133500004, 26.36328202900006], [85.05986320100004, 26.361317926000027], [85.05954277900008, 26.36119116800006], [85.05904212700005, 26.361027999000044], [85.05875797400006, 26.360125063000055], [85.05840317700006, 26.359610119000024], [85.05758191300004, 26.35941498300008], [85.05729724100007, 26.358931728000073], [85.05690210600005, 26.358547574000056], [85.05640139800005, 26.358415965000063]]]]}}, {"type": "Feature", "properties": {"OBJECTID": 3860, "GPCODE": "96737", "GPNAME_1": "DARMAHA", "DIST_CEN_C": "02", "BLK_NAME": "KALYANPUR", "ST_NAME": "BIHAR", "ST_CODE_1": "10", "GPCODE2011": "99279", "REMARKS": "FINALIZED", "MAP_STATUS": "COMPLETED", "BLK_C_2001": "020018", "BLK_C_2011": "01048", "DIST_NAME": "PURBI CHAMPARAN", "code2011": 0.0, "Shape_Leng": 0.17702789565, "Shape_Area": 0.00109548494, "Area": 12.1164}, "geometry": {"type": "MultiPolygon", "coordinates": [[[[84.94469409600003, 26.38759585500003], [84.94476493600007, 26.38541624800007], [84.94538255500004, 26.382994154000073], [84.94520575400009, 26.381617396000024], [84.94557270600006, 26.381175838000047], [84.94587988400008, 26.380571807000024], [84.94606773700008, 26.37963804000003], [84.94649489900007, 26.379142485000045], [84.94790437200004, 26.378540756000064], [84.94869705200006, 26.378154278000068], [84.94869929600009, 26.377274326000077], [84.94852205800004, 26.37605991600003], [84.94809493600007, 26.374628495000024], [84.94809136600009, 26.372132795000027], [84.94699527300008, 26.36976571300005], [84.94620516500004, 26.369213504000072], [84.94571443000007, 26.369099635000055], [84.94498298300005, 26.36909801300004], [84.94413177800004, 26.367006795000066], [84.94146371600004, 26.360502406000023], [84.94092507000005, 26.355821321000064], [84.93713288800006, 26.35774011500007], [84.93425775700007, 26.359493851000025], [84.93241573100005, 26.362626298000066], [84.92996920000007, 26.363284254000064], [84.92826292800004, 26.362562886000035], [84.92734754200006, 26.36206431900007], [84.92698696500008, 26.360195162000025], [84.92669059800005, 26.35689108200006], [84.92565773800004, 26.355399436000027], [84.92370078100004, 26.354790276000074], [84.92187152400004, 26.355115589000036], [84.92095259900003, 26.355885167000054], [84.91899321700004, 26.357915974000036], [84.91819628800005, 26.358081114000072], [84.91147736700003, 26.35850316500006], [84.91043914400007, 26.358942912000032], [84.90249146200006, 26.359803854000063], [84.89324367200004, 26.359497833000034], [84.89181725100008, 26.36270642100004], [84.89167001600003, 26.36497602000003], [84.89275665200006, 26.37165782900007], [84.89251979500006, 26.37539399900004], [84.89381040000006, 26.374417882000046], [84.89631593800004, 26.374257082000042], [84.89744782500009, 26.37439980100004], [84.89860305300004, 26.375088606000077], [84.89948830100008, 26.375614323000036], [84.90092622800006, 26.37561776000007], [84.90275916300004, 26.375870434000035], [84.90431318800006, 26.37727775700006], [84.91161763800005, 26.375742812000055], [84.92494042100003, 26.373733806000075], [84.92572753200005, 26.377151866000077], [84.92937497400004, 26.382607173000054], [84.93070712600007, 26.386518296000077], [84.93082330800007, 26.38982198800005], [84.93271753400006, 26.389767591000066], [84.93473067800005, 26.39021427700004], [84.93516168100007, 26.388342377000072], [84.94139678700003, 26.387697132000028], [84.94469409600003, 26.38759585500003]]]]}}, {"type": "Feature", "properties": {"OBJECTID": 3861, "GPCODE": "96750", "GPNAME_1": "SAMBHU CHAK", "DIST_CEN_C": "02", "BLK_NAME": "KALYANPUR", "ST_NAME": "BIHAR", "ST_CODE_1": "10", "GPCODE2011": "99290", "REMARKS": "FINALIZED", "MAP_STATUS": "COMPLETED", "BLK_C_2001": "020018", "BLK_C_2011": "01048", "DIST_NAME": "PURBI CHAMPARAN", "code2011": 0.0, "Shape_Leng": 0.20876636789, "Shape_Area": 0.00110911107, "Area": 12.2633}, "geometry": {"type": "MultiPolygon", "coordinates": [[[[84.90280292600005, 26.423377706000053], [84.90433405100003, 26.422555610000074], [84.90586087100007, 26.423218158000054], [84.90714085500008, 26.42426821400005], [84.90811974400003, 26.42377867600004], [84.91007420700004, 26.423891636000064], [84.91227622800005, 26.425052124000047], [84.91435084500006, 26.42522401900004], [84.91655751600007, 26.424786956000048], [84.91869902700006, 26.424354119000043], [84.92163495200003, 26.423038691000045], [84.92170652800007, 26.420777894000025], [84.92213360200003, 26.420395256000063], [84.92556227600005, 26.418476113000054], [84.92820070700003, 26.415896203000045], [84.92893401200007, 26.41534726900005], [84.92851258200005, 26.41369453200008], [84.92808562800008, 26.412204389000067], [84.92827397500008, 26.411157837000076], [84.92815129800005, 26.410223323000025], [84.92827930200008, 26.40923084800005], [84.92852684700006, 26.408513810000045], [84.92962723500005, 26.40746924800004], [84.93323691500007, 26.40698089700004], [84.93547664100004, 26.407166347000043], [84.93426093900007, 26.406396535000056], [84.93365222700004, 26.405402351000077], [84.93175977000004, 26.40468055200006], [84.93158356900005, 26.40132707600003], [84.93034314900007, 26.400439850000055], [84.92896520200009, 26.400409661000026], [84.92679604400007, 26.400156559000038], [84.92462535600004, 26.40042691900004], [84.91881437600006, 26.401433500000053], [84.91759238200007, 26.40118241400006], [84.91731807700006, 26.400712505000058], [84.91674440400004, 26.398066580000034], [84.91729780300005, 26.397296135000033], [84.91723718100008, 26.39569844600004], [84.91715049900006, 26.394461672000034], [84.91770358600007, 26.393831204000037], [84.91920377000008, 26.39317131400003], [84.92156008300003, 26.392734413000028], [84.92247804400006, 26.392407081000044], [84.92284583900005, 26.391694907000044], [84.92370719200005, 26.39009929100007], [84.92361569300004, 26.38877680400003], [84.92230910400008, 26.386567051000043], [84.92081532000003, 26.384993101000077], [84.91931789400007, 26.384741493000035], [84.91745333400007, 26.384958237000035], [84.91660035900009, 26.385339912000063], [84.91513422700007, 26.384677577000048], [84.91339167000007, 26.38428536200007], [84.91155707600007, 26.384529255000075], [84.91027220800004, 26.38524379200004], [84.90974918900008, 26.38593302000004], [84.90956191900005, 26.386564312000075], [84.90976339200006, 26.391330475000075], [84.91034071300004, 26.39270820200005], [84.91147293300008, 26.392796700000076], [84.91189622100006, 26.395415167000067], [84.91057685100003, 26.395935501000054], [84.90993389100004, 26.396457504000068], [84.90843283300006, 26.397361011000044], [84.90610872400003, 26.39870480700006], [84.90540176100006, 26.398838424000076], [84.89977118000007, 26.39984471300005], [84.89874050600008, 26.397635353000055], [84.89751694100005, 26.397907693000036], [84.89617513400003, 26.397520774000043], [84.89360976200004, 26.397406061000027], [84.89147053000005, 26.397233715000027], [84.88993904900008, 26.398218238000027], [84.88933189400007, 26.398491945000046], [84.89024206600004, 26.399099015000047], [84.89139636000004, 26.401796063000063], [84.89230476900008, 26.40460532900005], [84.89412989600004, 26.405932190000044], [84.89595991200008, 26.407313172000045], [84.89729668000007, 26.409405925000044], [84.89723181000005, 26.410949180000046], [84.89692367100008, 26.41177425400008], [84.89631170300004, 26.41193522100008], [84.89295688300007, 26.410938577000024], [84.89014874400004, 26.409830354000064], [84.88770409900008, 26.409494771000027], [84.88507706000007, 26.409758862000047], [84.88489114500004, 26.409925342000065], [84.88317955400004, 26.410746818000064], [84.88195429500007, 26.41151536600006], [84.88182718100006, 26.413663213000063], [84.88157409900003, 26.41602728500004], [84.88199909700006, 26.416357821000076], [84.88676256200006, 26.417308674000026], [84.89103783800005, 26.41891255400003], [84.89280552600007, 26.419413373000054], [84.89335751800007, 26.41919356300008], [84.89607919600007, 26.420825009000055], [84.89558941100006, 26.42198363700004], [84.89435801400003, 26.424733358000026], [84.89386234300008, 26.42621690900006], [84.89410490300008, 26.427210346000038], [84.89446793300004, 26.428149862000055], [84.89538369600007, 26.428644082000062], [84.89636111800007, 26.428646530000037], [84.89979663600008, 26.42634440200004], [84.90280292600005, 26.423377706000053]]]]}}, {"type": "Feature", "properties": {"OBJECTID": 3864, "GPCODE": "96741", "GPNAME_1": "PAKRI DIXIT", "DIST_CEN_C": "02", "BLK_NAME": "KALYANPUR", "ST_NAME": "BIHAR", "ST_CODE_1": "10", "GPCODE2011": "99283", "REMARKS": "FINALIZED", "MAP_STATUS": "COMPLETED", "BLK_C_2001": "020018", "BLK_C_2011": "01048", "DIST_NAME": "PURBI CHAMPARAN", "code2011": 0.0, "Shape_Leng": 0.22745844093, "Shape_Area": 0.00136972322, "Area": 15.1456}, "geometry": {"type": "MultiPolygon", "coordinates": [[[[84.94264330200008, 26.410914166000055], [84.94435812700004, 26.410588403000077], [84.94552047000008, 26.410757794000062], [84.94998202200009, 26.41032494600006], [84.95201087800007, 26.410434636000048], [84.95504513400004, 26.409828359000073], [84.95594005600003, 26.408987952000075], [84.95828200700004, 26.408085714000038], [84.96014599700004, 26.408202292000055], [84.96164388600005, 26.408453593000047], [84.96375395700005, 26.40837661300003], [84.96491988500009, 26.407029524000052], [84.96528617900003, 26.40686329300007], [84.96925700300005, 26.40824761500005], [84.97050981500007, 26.408281613000042], [84.97855974600003, 26.40556231900007], [84.98241740400005, 26.403917910000075], [84.98847671900006, 26.401451516000066], [84.98963975600003, 26.399039192000032], [84.98958285100008, 26.397608508000076], [84.98775259600006, 26.395899315000065], [84.98555218700005, 26.393909621000034], [84.98439750600005, 26.392697978000058], [84.98507414600004, 26.390384088000076], [84.98483267300008, 26.388623650000056], [84.98385708000006, 26.38795845900006], [84.98190528200007, 26.38475962900003], [84.98087176300004, 26.383164660000034], [84.97940617300003, 26.38205619300004], [84.97586036900003, 26.38139059100007], [84.97268388700007, 26.38133030800003], [84.97035722100009, 26.38209743500005], [84.96857924100004, 26.383853974000033], [84.96724232400004, 26.38554825700004], [84.96644901400003, 26.386205501000063], [84.96528694200003, 26.386040769000033], [84.96479702400006, 26.385597564000022], [84.96412958200006, 26.383944488000054], [84.96358590900007, 26.382955051000067], [84.96285193500006, 26.38190658700006], [84.96187622400004, 26.38135409100005], [84.96090129600003, 26.38052621500003], [84.95943433800005, 26.380085457000064], [84.95809500200005, 26.378706369000042], [84.95748678800004, 26.37749109200007], [84.95602462100004, 26.37715865200005], [84.95394649500008, 26.37671659800003], [84.95272285000004, 26.377151817000026], [84.95169916400005, 26.377799538000033], [84.95019836700004, 26.37884344400004], [84.94998767500005, 26.37892419600007], [84.94992145800006, 26.37936637100006], [84.94955328600008, 26.38029977700006], [84.94903046600007, 26.380962084000032], [84.94768609600004, 26.38159102700007], [84.94661280000008, 26.381976896000026], [84.94640112200005, 26.38244124600004], [84.94654951500007, 26.383186210000076], [84.94685083900004, 26.38486566100005], [84.94737157600008, 26.384979591000047], [84.94859497700008, 26.384679799000025], [84.94975798300004, 26.38446105400004], [84.95070754600005, 26.383470226000043], [84.95092647000007, 26.38212134500003], [84.95138525800007, 26.380994110000074], [84.95212201100009, 26.380941423000024], [84.95307363000006, 26.383041915000035], [84.95367898800004, 26.385353803000044], [84.95300406900003, 26.386728815000026], [84.95196095600005, 26.389037227000074], [84.94797969700005, 26.392002923000064], [84.94730595500005, 26.39288146900003], [84.94498336000004, 26.393869395000024], [84.94241437100004, 26.39512753100007], [84.94046018600005, 26.395069180000064], [84.93569489900005, 26.39500457500003], [84.93545570300006, 26.39263931000005], [84.93473067800005, 26.39021427700004], [84.93271753400006, 26.389767591000066], [84.93082330800007, 26.38982198800005], [84.92247804400006, 26.392407081000044], [84.92156008300003, 26.392734413000028], [84.91920377000008, 26.39317131400003], [84.91770358600007, 26.393831204000037], [84.91715049900006, 26.394461672000034], [84.91723718100008, 26.39569844600004], [84.91729780300005, 26.397296135000033], [84.91674440400004, 26.398066580000034], [84.91731807700006, 26.400712505000058], [84.91759238200007, 26.40118241400006], [84.91881437600006, 26.401433500000053], [84.92462535600004, 26.40042691900004], [84.92679604400007, 26.400156559000038], [84.92896520200009, 26.400409661000026], [84.93034314900007, 26.400439850000055], [84.93158356900005, 26.40132707600003], [84.93175977000004, 26.40468055200006], [84.93365222700004, 26.405402351000077], [84.93426093900007, 26.406396535000056], [84.93547664100004, 26.407166347000043], [84.93323691500007, 26.40698089700004], [84.92962723500005, 26.40746924800004], [84.92961924000008, 26.41038909200006], [84.93017007600008, 26.41055734500003], [84.93659078700006, 26.410296217000052], [84.93928131500007, 26.410577448000026], [84.94050093500005, 26.411789554000052], [84.94080560800006, 26.412178308000023], [84.94264330200008, 26.410914166000055]]]]}}, {"type": "Feature", "properties": {"OBJECTID": 3868, "GPCODE": "96730", "GPNAME_1": "PATNA", "DIST_CEN_C": "02", "BLK_NAME": "KALYANPUR", "ST_NAME": "BIHAR", "ST_CODE_1": "10", "GPCODE2011": "99273", "REMARKS": "FINALIZED", "MAP_STATUS": "COMPLETED", "BLK_C_2001": "020018", "BLK_C_2011": "01048", "DIST_NAME": "PURBI CHAMPARAN", "code2011": 0.0, "Shape_Leng": 0.15698424727, "Shape_Area": 0.0009496744, "Area": 10.5018}, "geometry": {"type": "MultiPolygon", "coordinates": [[[[84.87941107600005, 26.404355916000043], [84.87917417800008, 26.403200025000046], [84.87709238600007, 26.403853449000053], [84.87636295700008, 26.403138524000042], [84.87552581300008, 26.39856927900007], [84.87644239600007, 26.397136588000023], [84.88029422400007, 26.396104106000053], [84.88268231300003, 26.395230239000057], [84.88372135500003, 26.394682363000072], [84.88298125600005, 26.391006969000046], [84.88310694700004, 26.38927434200008], [84.88461738700005, 26.38539714500007], [84.88491785900004, 26.383850003000077], [84.88337083900007, 26.38344886300007], [84.88281684900005, 26.382747989000052], [84.88110412200007, 26.382495379000034], [84.87900328000006, 26.382936681000047], [84.87801367900005, 26.38059198800005], [84.87622064700008, 26.378818241000033], [84.87090561600007, 26.38004982800004], [84.86836120300006, 26.379794822000065], [84.86205483800006, 26.379281413000058], [84.85906716600005, 26.37972011000005], [84.85928324200006, 26.381015839000042], [84.85873074100004, 26.38141150900003], [84.85407571700006, 26.38299627300006], [84.84909628600008, 26.384124107000048], [84.84962050000007, 26.38468972800007], [84.85132234200006, 26.386675672000024], [84.85235311600007, 26.388551375000077], [84.85246880400007, 26.39135868900007], [84.85410158600007, 26.39598434900006], [84.85482241700004, 26.400661752000076], [84.85536601500007, 26.401434906000077], [84.85658725000008, 26.401880577000043], [84.85670365300007, 26.403036190000023], [84.85669786300008, 26.404742034000037], [84.85694209700006, 26.405126288000076], [84.85767785800005, 26.40540362100006], [84.85773615200003, 26.40595432200007], [84.85876800600005, 26.40760888400007], [84.86113371500005, 26.412019874000066], [84.86406875800003, 26.412573902000076], [84.86528263900004, 26.413791074000073], [84.86601104300007, 26.41632482400007], [84.86551415100007, 26.41802927200007], [84.86416711400005, 26.419176451000055], [84.86410248400006, 26.420552730000054], [84.86326551700006, 26.423533416000055], [84.86631485400005, 26.424480377000066], [84.86875595700008, 26.425971566000044], [84.86911452200007, 26.428228942000032], [84.86968057200005, 26.428325247000032], [84.87071749400008, 26.428549157000077], [84.87157530400003, 26.42833030500003], [84.87224899200004, 26.427727376000064], [84.87243227900007, 26.42684782200007], [84.87201322200008, 26.424698619000026], [84.87183575100005, 26.42376395100007], [84.87220378400008, 26.423101520000046], [84.87312253100004, 26.422666254000035], [84.87342928500004, 26.422337563000042], [84.87318739800008, 26.421181653000076], [84.87337233900007, 26.419805761000077], [84.87380642900007, 26.41886823300007], [84.87454031900006, 26.41821123400007], [84.87430448100008, 26.41518696600008], [84.87736457900007, 26.41431499500004], [84.87785354600004, 26.413431781000043], [84.87878248800007, 26.40974716200003], [84.87921668300004, 26.407162373000062], [84.87983071500008, 26.406338189000053], [84.87959328500006, 26.40534924900004], [84.87941107600005, 26.404355916000043]]]]}}, {"type": "Feature", "properties": {"OBJECTID": 3874, "GPCODE": "96744", "GPNAME_1": "SHITALPUR", "DIST_CEN_C": "02", "BLK_NAME": "KALYANPUR", "ST_NAME": "BIHAR", "ST_CODE_1": "10", "GPCODE2011": "99286", "REMARKS": "FINALIZED", "MAP_STATUS": "COMPLETED", "BLK_C_2001": "020018", "BLK_C_2011": "01048", "DIST_NAME": "PURBI CHAMPARAN", "code2011": 0.0, "Shape_Leng": 0.15150970789, "Shape_Area": 0.00090748754, "Area": 10.033}, "geometry": {"type": "MultiPolygon", "coordinates": [[[[85.02664246400008, 26.414766135000036], [85.02706508100005, 26.413936457000034], [85.02773248600005, 26.413522327000067], [85.02847953700007, 26.41337453600005], [85.02877111700008, 26.412851466000063], [85.02943913700005, 26.41210785100003], [85.03080804200005, 26.411771550000026], [85.03242776300004, 26.41125047500003], [85.03413293300008, 26.410616751000077], [85.03446421000007, 26.410355498000058], [85.03417484300007, 26.409646536000025], [85.03318060100008, 26.40800234200003], [85.03322231900006, 26.40710437300004], [85.03264220900007, 26.406467158000055], [85.03198440700004, 26.40444889300005], [85.03393649600008, 26.403030227000045], [85.03551689200003, 26.402062384000033], [85.03630497500006, 26.401341459000037], [85.03739112900007, 26.399285168000063], [85.03959385400003, 26.397758589000034], [85.03890837900008, 26.394418036000047], [85.03758526400009, 26.39453336400004], [85.03575091200008, 26.391949277000037], [85.03489584400006, 26.390986759000043], [85.03408430000007, 26.390868123000075], [85.03323196500008, 26.391137686000036], [85.02968058900007, 26.39309537500003], [85.02685644900004, 26.394647960000043], [85.02073692100004, 26.39772051600005], [85.01816905600003, 26.398794993000024], [85.01697803000008, 26.395480617000032], [85.01822234000008, 26.39471091000007], [85.01523271800005, 26.393708636000042], [85.01347830300006, 26.393990081000027], [85.01283552900009, 26.394679455000073], [85.01240618500003, 26.396334999000032], [85.01201922700005, 26.396875918000035], [85.01000966000004, 26.396949325000037], [85.00889772400006, 26.39667664700005], [85.00689544500005, 26.395635320000054], [85.00612502900003, 26.39501569400005], [85.00531293700004, 26.395167765000053], [85.00475141900006, 26.397707578000052], [85.00423767200004, 26.398902617000033], [85.00175529000006, 26.399782850000065], [85.00013116900004, 26.40002822300005], [84.99833590600008, 26.400562126000068], [84.99782378400005, 26.401032739000073], [84.99575109300008, 26.40293729600006], [84.99616732900006, 26.40631970800007], [84.99656641700005, 26.407474321000052], [84.99424735400004, 26.409992341000077], [84.99299440800007, 26.411377954000045], [84.99080199700006, 26.41262530800003], [84.99095470000003, 26.414134268000055], [84.99193714000006, 26.415364413000077], [84.99402250200006, 26.41613887500006], [84.99531460700007, 26.415793011000062], [84.99790440700008, 26.415710285000046], [85.00474004800003, 26.415544090000026], [85.01210465800006, 26.424643425000056], [85.02167166100008, 26.424483573000032], [85.02196311300008, 26.424136573000055], [85.02273068100004, 26.42379029800003], [85.02278283000004, 26.42270731600007], [85.02264147700004, 26.420671723000055], [85.02317370500003, 26.420221280000078], [85.02629740900005, 26.419576328000062], [85.02658901300003, 26.419143543000075], [85.02639704000006, 26.417320037000025], [85.02601963900008, 26.41550073700006], [85.02626112700005, 26.41498213600005], [85.02664246400008, 26.414766135000036]]]]}}, {"type": "Feature", "properties": {"OBJECTID": 3877, "GPCODE": "96732", "GPNAME_1": "BRINDAVAN", "DIST_CEN_C": "02", "BLK_NAME": "KALYANPUR", "ST_NAME": "BIHAR", "ST_CODE_1": "10", "GPCODE2011": "99275", "REMARKS": "FINALIZED", "MAP_STATUS": "COMPLETED", "BLK_C_2001": "020018", "BLK_C_2011": "01048", "DIST_NAME": "PURBI CHAMPARAN", "code2011": 0.0, "Shape_Leng": 0.1873560914, "Shape_Area": 0.0009293282, "Area": 10.2737}, "geometry": {"type": "MultiPolygon", "coordinates": [[[[85.02137409600005, 26.430521369000076], [85.02175647100006, 26.429808964000074], [85.02228964600005, 26.42885760400003], [85.02229080500007, 26.428293448000034], [85.02205320900003, 26.426736176000077], [85.02176454700003, 26.42569321800005], [85.02167083400008, 26.424916858000074], [85.02167166100008, 26.424483573000032], [85.01210465800006, 26.424643425000056], [85.00474004800003, 26.415544090000026], [84.99790440700008, 26.415710285000046], [84.99531460700007, 26.415793011000062], [84.99402250200006, 26.41613887500006], [84.99193714000006, 26.415364413000077], [84.99095470000003, 26.414134268000055], [84.99080199700006, 26.41262530800003], [84.99299440800007, 26.411377954000045], [84.99424735400004, 26.409992341000077], [84.99656641700005, 26.407474321000052], [84.99616732900006, 26.40631970800007], [84.99575109300008, 26.40293729600006], [84.98856688700005, 26.40306040300004], [84.98847671900006, 26.401451516000066], [84.98241740400005, 26.403917910000075], [84.97855974600003, 26.40556231900007], [84.97050981500007, 26.408281613000042], [84.96925700300005, 26.40824761500005], [84.96528617900003, 26.40686329300007], [84.96491988500009, 26.407029524000052], [84.96375395700005, 26.40837661300003], [84.96164388600005, 26.408453593000047], [84.96014599700004, 26.408202292000055], [84.95828200700004, 26.408085714000038], [84.95885834400008, 26.410068086000024], [84.95945685800007, 26.415245520000042], [84.96184285700008, 26.415110496000068], [84.96716149200006, 26.414683379000053], [84.96851037600004, 26.414410751000048], [84.96981840400008, 26.416529867000065], [84.97093944000005, 26.419284918000074], [84.97256208000005, 26.419838688000027], [84.97362232800003, 26.422922980000067], [84.97378460500005, 26.425214949000065], [84.97372463800008, 26.427112383000065], [84.98512877300004, 26.42628355900007], [84.98565961300005, 26.432658136000043], [84.99015429100007, 26.432935386000054], [84.99713147100005, 26.43220819900006], [84.99782607900005, 26.430039527000076], [85.00092040200008, 26.429291221000028], [85.00241497700006, 26.428905796000038], [85.00337867500008, 26.428298162000033], [85.00434087200006, 26.428385546000072], [85.00515791100008, 26.428387015000055], [85.00708433300008, 26.42761401200005], [85.00842079600005, 26.43090623100005], [85.00947513700004, 26.432510062000063], [85.01348234500006, 26.431487855000057], [85.01785942000004, 26.43094896100007], [85.01829103700004, 26.430692445000034], [85.01906366400004, 26.430346214000053], [85.01983044000008, 26.43043314700003], [85.02137409600005, 26.430521369000076]]]]}}, {"type": "Feature", "properties": {"OBJECTID": 3878, "GPCODE": "96734", "GPNAME_1": "RAJPUR", "DIST_CEN_C": "02", "BLK_NAME": "KALYANPUR", "ST_NAME": "BIHAR", "ST_CODE_1": "10", "GPCODE2011": "99276", "REMARKS": "FINALIZED", "MAP_STATUS": "COMPLETED", "BLK_C_2001": "020018", "BLK_C_2011": "01048", "DIST_NAME": "PURBI CHAMPARAN", "code2011": 0.0, "Shape_Leng": 0.14645690409, "Shape_Area": 0.0007720309, "Area": 8.5379}, "geometry": {"type": "MultiPolygon", "coordinates": [[[[84.90610872400003, 26.39870480700006], [84.90843283300006, 26.397361011000044], [84.90993389100004, 26.396457504000068], [84.91057685100003, 26.395935501000054], [84.91189622100006, 26.395415167000067], [84.91147293300008, 26.392796700000076], [84.91034071300004, 26.39270820200005], [84.90976339200006, 26.391330475000075], [84.90956191900005, 26.386564312000075], [84.90974918900008, 26.38593302000004], [84.91027220800004, 26.38524379200004], [84.91155707600007, 26.384529255000075], [84.91339167000007, 26.38428536200007], [84.91513422700007, 26.384677577000048], [84.91660035900009, 26.385339912000063], [84.91745333400007, 26.384958237000035], [84.91931789400007, 26.384741493000035], [84.92081532000003, 26.384993101000077], [84.92230910400008, 26.386567051000043], [84.92361569300004, 26.38877680400003], [84.92370719200005, 26.39009929100007], [84.92284583900005, 26.391694907000044], [84.92247804400006, 26.392407081000044], [84.93082330800007, 26.38982198800005], [84.93070712600007, 26.386518296000077], [84.92937497400004, 26.382607173000054], [84.92572753200005, 26.377151866000077], [84.92494042100003, 26.373733806000075], [84.91161763800005, 26.375742812000055], [84.90431318800006, 26.37727775700006], [84.90275916300004, 26.375870434000035], [84.90092622800006, 26.37561776000007], [84.89948830100008, 26.375614323000036], [84.89860305300004, 26.375088606000077], [84.89744782500009, 26.37439980100004], [84.89631593800004, 26.374257082000042], [84.89381040000006, 26.374417882000046], [84.89251979500006, 26.37539399900004], [84.89080102500003, 26.377086491000057], [84.88730690100004, 26.38096330700006], [84.88552473900006, 26.38365297400003], [84.88491785900004, 26.383850003000077], [84.88461738700005, 26.38539714500007], [84.88310694700004, 26.38927434200008], [84.88298125600005, 26.391006969000046], [84.88372135500003, 26.394682363000072], [84.88603518400004, 26.396669436000025], [84.88933189400007, 26.398491945000046], [84.88993904900008, 26.398218238000027], [84.89147053000005, 26.397233715000027], [84.89360976200004, 26.397406061000027], [84.89617513400003, 26.397520774000043], [84.89751694100005, 26.397907693000036], [84.89874050600008, 26.397635353000055], [84.89977118000007, 26.39984471300005], [84.90540176100006, 26.398838424000076], [84.90610872400003, 26.39870480700006]]]]}}, {"type": "Feature", "properties": {"OBJECTID": 3880, "GPCODE": "96735", "GPNAME_1": "BHUWAN CHHAPRA", "DIST_CEN_C": "02", "BLK_NAME": "KALYANPUR", "ST_NAME": "BIHAR", "ST_CODE_1": "10", "GPCODE2011": "99277", "REMARKS": "FINALIZED", "MAP_STATUS": "COMPLETED", "BLK_C_2001": "020018", "BLK_C_2011": "01048", "DIST_NAME": "PURBI CHAMPARAN", "code2011": 0.0, "Shape_Leng": 0.11848124958, "Shape_Area": 0.00052203661, "Area": 5.77226}, "geometry": {"type": "MultiPolygon", "coordinates": [[[[85.04336275700007, 26.400268749000077], [85.04906361600007, 26.398494278000044], [85.05288812900005, 26.397921936000046], [85.05479265300005, 26.397125489000075], [85.05593206200007, 26.396648995000078], [85.05818761300003, 26.396340558000077], [85.06088254000008, 26.393875611000055], [85.06206063700006, 26.39356581100003], [85.06436440200008, 26.39431792700003], [85.06720701600005, 26.39348675900004], [85.06645877400007, 26.391301459000033], [85.06606289700005, 26.391301032000058], [85.06549227900007, 26.390916701000037], [85.06485180500005, 26.390333638000072], [85.06388840600005, 26.38801724500007], [85.06367305500004, 26.387949306000053], [85.06299658000006, 26.387948385000072], [85.06274635500006, 26.38779009600006], [85.06139926500003, 26.381109236000043], [85.05835730500007, 26.381452652000064], [85.05634834700004, 26.381332644000054], [85.05508364400004, 26.37654717500004], [85.05424844900006, 26.37566150500004], [85.05307662500007, 26.37535306600006], [85.05111179700003, 26.375833172000057], [85.05003506100007, 26.37556995500006], [85.04935089200006, 26.374242235000054], [85.04670233700006, 26.376093256000047], [85.04518150200005, 26.377639025000065], [85.04415198500004, 26.379005022000058], [85.04409847700003, 26.380945456000063], [85.04419124100008, 26.38235816200006], [85.04399496500008, 26.38280016300007], [85.04345896100006, 26.382754227000078], [85.04198758700005, 26.381781799000066], [85.04048181100006, 26.38045734700006], [85.03772902500003, 26.384338882000065], [85.03606338500003, 26.38551879000005], [85.03495015100003, 26.38600006000007], [85.03220999300004, 26.388306535000027], [85.03083857800004, 26.39015470700008], [85.03041131100008, 26.390885173000072], [85.02955873800005, 26.391267459000062], [85.02758945100004, 26.391264336000063], [85.02579427700005, 26.391970104000052], [85.02685644900004, 26.394647960000043], [85.02968058900007, 26.39309537500003], [85.03323196500008, 26.391137686000036], [85.03408430000007, 26.390868123000075], [85.03489584400006, 26.390986759000043], [85.03575091200008, 26.391949277000037], [85.03758526400009, 26.39453336400004], [85.03890837900008, 26.394418036000047], [85.03959385400003, 26.397758589000034], [85.04029445900005, 26.398283122000066], [85.04157872100006, 26.40030224800006], [85.04336275700007, 26.400268749000077]]]]}}, {"type": "Feature", "properties": {"OBJECTID": 3881, "GPCODE": "96743", "GPNAME_1": "KOYLA BELWA", "DIST_CEN_C": "02", "BLK_NAME": "KALYANPUR", "ST_NAME": "BIHAR", "ST_CODE_1": "10", "GPCODE2011": "99285", "REMARKS": "FINALIZED", "MAP_STATUS": "COMPLETED", "BLK_C_2001": "020018", "BLK_C_2011": "01048", "DIST_NAME": "PURBI CHAMPARAN", "code2011": 0.0, "Shape_Leng": 0.17437678596, "Shape_Area": 0.00104830987, "Area": 11.592}, "geometry": {"type": "MultiPolygon", "coordinates": [[[[85.00531293700004, 26.395167765000053], [85.00612502900003, 26.39501569400005], [85.00689544500005, 26.395635320000054], [85.00889772400006, 26.39667664700005], [85.01000966000004, 26.396949325000037], [85.01201922700005, 26.396875918000035], [85.01240618500003, 26.396334999000032], [85.01283552900009, 26.394679455000073], [85.01347830300006, 26.393990081000027], [85.01523271800005, 26.393708636000042], [85.01822234000008, 26.39471091000007], [85.01697803000008, 26.395480617000032], [85.01816905600003, 26.398794993000024], [85.02073692100004, 26.39772051600005], [85.02685644900004, 26.394647960000043], [85.02579427700005, 26.391970104000052], [85.02758945100004, 26.391264336000063], [85.02955873800005, 26.391267459000062], [85.03041131100008, 26.390885173000072], [85.03083857800004, 26.39015470700008], [85.03220999300004, 26.388306535000027], [85.03495015100003, 26.38600006000007], [85.03606338500003, 26.38551879000005], [85.03772902500003, 26.384338882000065], [85.04048181100006, 26.38045734700006], [85.03822952000007, 26.379172303000075], [85.03504464700006, 26.378242401000023], [85.03460526600009, 26.377366249000033], [85.03426718700007, 26.375953242000037], [85.03446795400004, 26.373083251000025], [85.03544922500004, 26.37074251300004], [85.03638272100005, 26.369818829000053], [85.03619034200005, 26.368184851000024], [85.03506628100007, 26.366459211000063], [85.03364167600006, 26.367472419000023], [85.03124012100005, 26.368443611000032], [85.02917961600008, 26.369189548000065], [85.02829636600006, 26.369982453000034], [85.02800465600006, 26.370600340000067], [85.02790296000006, 26.371349334000058], [85.02618740900004, 26.372497443000043], [85.02388190000005, 26.372954105000076], [85.02290155500003, 26.372068058000025], [85.02114260400003, 26.369772624000063], [85.02016678600006, 26.369193427000027], [85.01849861400007, 26.369104975000027], [85.01619329900007, 26.369498388000068], [85.01541088600004, 26.369939372000033], [85.01496824600008, 26.37079831500006], [85.01452560300004, 26.37165734900003], [85.00736262200007, 26.375842436000028], [85.00514329100008, 26.37844190900006], [85.00453360800003, 26.37955473200003], [85.00467990700008, 26.380895701000043], [85.00390686900005, 26.382602548000023], [84.99782401200008, 26.382883399000036], [84.99589665600007, 26.383111005000046], [84.99338195400009, 26.383275438000055], [84.99028779500009, 26.38257733200004], [84.98385708000006, 26.38795845900006], [84.98483267300008, 26.388623650000056], [84.98507414600004, 26.390384088000076], [84.98439750600005, 26.392697978000058], [84.98555218700005, 26.393909621000034], [84.98775259600006, 26.395899315000065], [84.98958285100008, 26.397608508000076], [84.98963975600003, 26.399039192000032], [84.98847671900006, 26.401451516000066], [84.98856688700005, 26.40306040300004], [84.99575109300008, 26.40293729600006], [84.99782378400005, 26.401032739000073], [84.99833590600008, 26.400562126000068], [85.00013116900004, 26.40002822300005], [85.00175529000006, 26.399782850000065], [85.00423767200004, 26.398902617000033], [85.00475141900006, 26.397707578000052], [85.00531293700004, 26.395167765000053]]]]}}, {"type": "Feature", "properties": {"OBJECTID": 3886, "GPCODE": "96739", "GPNAME_1": "BARHARWA MAHANAND", "DIST_CEN_C": "02", "BLK_NAME": "KALYANPUR", "ST_NAME": "BIHAR", "ST_CODE_1": "10", "GPCODE2011": "99281", "REMARKS": "FINALIZED", "MAP_STATUS": "COMPLETED", "BLK_C_2001": "020018", "BLK_C_2011": "01048", "DIST_NAME": "PURBI CHAMPARAN", "code2011": 0.0, "Shape_Leng": 0.17910441354, "Shape_Area": 0.00072539845, "Area": 8.01944}, "geometry": {"type": "MultiPolygon", "coordinates": [[[[84.93933708000003, 26.434712474000037], [84.93879630200007, 26.43261724000007], [84.93983701700006, 26.431459763000078], [84.94081945600004, 26.429589], [84.94228887100007, 26.42931694300006], [84.94320646300008, 26.429210560000058], [84.94345382700004, 26.42854771800006], [84.94657232000003, 26.428279084000053], [84.94895664700005, 26.428893395000046], [84.95060688100006, 26.42845458900007], [84.95054886900004, 26.42762857500003], [84.95061565500004, 26.42503837000004], [84.95044136200005, 26.42266873400007], [84.94989321900005, 26.421403992000023], [84.94891722300008, 26.420905454000035], [84.94628669700006, 26.42057049300007], [84.94665574200008, 26.41935725600007], [84.94843314400003, 26.418147049000027], [84.94965806400006, 26.41737798400004], [84.95009118000007, 26.416552986000056], [84.94990760400003, 26.415835110000046], [84.95021507900003, 26.415176879000057], [84.95143763200008, 26.41528772500004], [84.95339615600005, 26.415734065000038], [84.95779610200003, 26.415964246000044], [84.95945685800007, 26.415245520000042], [84.95885834400008, 26.410068086000024], [84.95828200700004, 26.408085714000038], [84.95594005600003, 26.408987952000075], [84.95504513400004, 26.409828359000073], [84.95201087800007, 26.410434636000048], [84.94998202200009, 26.41032494600006], [84.94552047000008, 26.410757794000062], [84.94435812700004, 26.410588403000077], [84.94264330200008, 26.410914166000055], [84.94080560800006, 26.412178308000023], [84.94050093500005, 26.411789554000052], [84.93928131500007, 26.410577448000026], [84.93659078700006, 26.410296217000052], [84.93017007600008, 26.41055734500003], [84.92961924000008, 26.41038909200006], [84.92962723500005, 26.40746924800004], [84.92852684700006, 26.408513810000045], [84.92827930200008, 26.40923084800005], [84.92815129800005, 26.410223323000025], [84.92827397500008, 26.411157837000076], [84.92808562800008, 26.412204389000067], [84.92851258200005, 26.41369453200008], [84.92893401200007, 26.41534726900005], [84.92820070700003, 26.415896203000045], [84.92556227600005, 26.418476113000054], [84.92213360200003, 26.420395256000063], [84.92170652800007, 26.420777894000025], [84.92163495200003, 26.423038691000045], [84.91869902700006, 26.424354119000043], [84.91655751600007, 26.424786956000048], [84.91435084500006, 26.42522401900004], [84.91227622800005, 26.425052124000047], [84.91007420700004, 26.423891636000064], [84.91000918300006, 26.42554319800007], [84.91043119400007, 26.426920610000025], [84.91092025000006, 26.427693438000063], [84.91091314200008, 26.43011690700007], [84.90950106000008, 26.431327434000025], [84.90778998100006, 26.431928105000054], [84.90632407800007, 26.430985942000063], [84.90698746100009, 26.433799071000067], [84.90864194300008, 26.433694717000037], [84.91084425200006, 26.433090675000074], [84.91120695600006, 26.43421071000006], [84.91340863700003, 26.43382787400003], [84.91781824500003, 26.432628669000053], [84.92087983900007, 26.43125935100005], [84.92443115400005, 26.43043709500006], [84.92534777500003, 26.430660384000078], [84.92613517100006, 26.432313821000037], [84.92619285100005, 26.433198465000032], [84.92692757200007, 26.433971881000048], [84.92765775000004, 26.434578231000046], [84.92851504200007, 26.43452601200005], [84.93053653200008, 26.434034134000058], [84.93237183700006, 26.433817083000065], [84.93426494000005, 26.434426029000065], [84.93346101200007, 26.436960485000043], [84.93290833800006, 26.439269834000072], [84.93363591800005, 26.440868978000026], [84.93394374700006, 26.440097967000042], [84.93443092300004, 26.439769633000026], [84.93828943200003, 26.43845582800003], [84.93933119600007, 26.436914684000044], [84.93939889200004, 26.435976211000025], [84.93933708000003, 26.434712474000037]]]]}}, {"type": "Feature", "properties": {"OBJECTID": 3889, "GPCODE": "96729", "GPNAME_1": "SISWA KHARAR", "DIST_CEN_C": "02", "BLK_NAME": "KALYANPUR", "ST_NAME": "BIHAR", "ST_CODE_1": "10", "GPCODE2011": "99272", "REMARKS": "FINALIZED", "MAP_STATUS": "COMPLETED", "BLK_C_2001": "020018", "BLK_C_2011": "01048", "DIST_NAME": "PURBI CHAMPARAN", "code2011": 0.0, "Shape_Leng": 0.18915218443, "Shape_Area": 0.00125435899, "Area": 13.8695}, "geometry": {"type": "MultiPolygon", "coordinates": [[[[84.85077136100006, 26.437692003000052], [84.85141030400007, 26.43702141800003], [84.85561813800007, 26.43643280300006], [84.86082289300003, 26.43600036600003], [84.86519404200004, 26.436012194000057], [84.86862779800003, 26.434478029000047], [84.87040466400003, 26.433783265000045], [84.87090020300008, 26.43398307700005], [84.87339513000006, 26.43289304800004], [84.87439197500004, 26.43309425600006], [84.87234416300004, 26.430823446000034], [84.87051722800004, 26.42999277900003], [84.86905037700006, 26.42943827000005], [84.86911452200007, 26.428228942000032], [84.86875595700008, 26.425971566000044], [84.86631485400005, 26.424480377000066], [84.86326551700006, 26.423533416000055], [84.86410248400006, 26.420552730000054], [84.86416711400005, 26.419176451000055], [84.86551415100007, 26.41802927200007], [84.86601104300007, 26.41632482400007], [84.86528263900004, 26.413791074000073], [84.86406875800003, 26.412573902000076], [84.86113371500005, 26.412019874000066], [84.85876800600005, 26.40760888400007], [84.85773615200003, 26.40595432200007], [84.85767785800005, 26.40540362100006], [84.85694209700006, 26.405126288000076], [84.85669786300008, 26.404742034000037], [84.85670365300007, 26.403036190000023], [84.85658725000008, 26.401880577000043], [84.85536601500007, 26.401434906000077], [84.85482241700004, 26.400661752000076], [84.85410158600007, 26.39598434900006], [84.85246880400007, 26.39135868900007], [84.85235311600007, 26.388551375000077], [84.85132234200006, 26.386675672000024], [84.84962050000007, 26.38468972800007], [84.84909628600008, 26.384124107000048], [84.84721217200007, 26.385617100000047], [84.84604873700005, 26.38591165500003], [84.84278468000008, 26.38650261600003], [84.83968305200005, 26.38649381600004], [84.83802657000007, 26.385938441000064], [84.83576103900003, 26.38613044500005], [84.83226822600005, 26.387618598000074], [84.83297602700009, 26.390062158000035], [84.83275307100007, 26.39075647100003], [84.83192536600006, 26.391006770000047], [84.83125716100005, 26.391501247000065], [84.83097826500006, 26.39239844900004], [84.83042531900008, 26.39289322700006], [84.82964841600005, 26.392940594000038], [84.82942612100004, 26.393440892000058], [84.82936904900004, 26.393986794000057], [84.82853503000007, 26.394584567000038], [84.82767658900008, 26.395010728000045], [84.82867042400005, 26.39596139200006], [84.82982967200007, 26.396862861000045], [84.83159793000004, 26.397066557000073], [84.83259513900003, 26.39706952100005], [84.83419423500004, 26.398319757000024], [84.83446828600006, 26.39876726500006], [84.83429982000007, 26.399615227000027], [84.83462594900004, 26.40091133100003], [84.83757109400005, 26.405581661000042], [84.83993495800007, 26.410272854000027], [84.84108564600007, 26.413714885000047], [84.84086196500004, 26.41461231200003], [84.84024975700004, 26.414809137000077], [84.83770176600007, 26.41535239600006], [84.83782772300003, 26.419414329000062], [84.83765824900007, 26.420560094000052], [84.83743468400007, 26.42140790600007], [84.84103410900008, 26.421219629000063], [84.84258200200009, 26.421472265000034], [84.84274599600008, 26.421869877000063], [84.84174672500006, 26.422417605000078], [84.84035818900009, 26.423857745000078], [84.83880275600006, 26.42574869400005], [84.83758293100004, 26.42624155900006], [84.83810321400006, 26.427962470000068], [84.83814967900008, 26.430404021000072], [84.83781085500004, 26.432645923000052], [84.83702561300004, 26.434985822000044], [84.83699297900006, 26.437106809000056], [84.83765358300008, 26.43740652500003], [84.83998078700006, 26.437065757000028], [84.84130687500004, 26.437714886000037], [84.84296512500003, 26.438017478000063], [84.84816915700009, 26.437833669000042], [84.85077136100006, 26.437692003000052]]]]}}, {"type": "Feature", "properties": {"OBJECTID": 3890, "GPCODE": "253084", "GPNAME_1": "GARIBA", "DIST_CEN_C": "02", "BLK_NAME": "KALYANPUR", "ST_NAME": "BIHAR", "ST_CODE_1": "10", "GPCODE2011": "244505", "REMARKS": "FINALIZED", "MAP_STATUS": "COMPLETED", "BLK_C_2001": "020018", "BLK_C_2011": "01048", "DIST_NAME": "PURBI CHAMPARAN", "code2011": 0.0, "Shape_Leng": 0.19147899544, "Shape_Area": 0.00072087199, "Area": 7.97003}, "geometry": {"type": "MultiPolygon", "coordinates": [[[[84.90099795200007, 26.433558910000045], [84.90632407800007, 26.430985942000063], [84.90778998100006, 26.431928105000054], [84.90950106000008, 26.431327434000025], [84.91091314200008, 26.43011690700007], [84.91092025000006, 26.427693438000063], [84.91043119400007, 26.426920610000025], [84.91000918300006, 26.42554319800007], [84.91007420700004, 26.423891636000064], [84.90811974400003, 26.42377867600004], [84.90714085500008, 26.42426821400005], [84.90586087100007, 26.423218158000054], [84.90433405100003, 26.422555610000074], [84.90280292600005, 26.423377706000053], [84.89979663600008, 26.42634440200004], [84.89636111800007, 26.428646530000037], [84.89538369600007, 26.428644082000062], [84.89446793300004, 26.428149862000055], [84.89410490300008, 26.427210346000038], [84.89386234300008, 26.42621690900006], [84.89435801400003, 26.424733358000026], [84.89558941100006, 26.42198363700004], [84.89607919600007, 26.420825009000055], [84.89335751800007, 26.41919356300008], [84.89280552600007, 26.419413373000054], [84.89103783800005, 26.41891255400003], [84.88676256200006, 26.417308674000026], [84.88199909700006, 26.416357821000076], [84.88157409900003, 26.41602728500004], [84.88182718100006, 26.413663213000063], [84.88195429500007, 26.41151536600006], [84.88317955400004, 26.410746818000064], [84.88489114500004, 26.409925342000065], [84.88507706000007, 26.409758862000047], [84.88770409900008, 26.409494771000027], [84.89014874400004, 26.409830354000064], [84.89295688300007, 26.410938577000024], [84.89631170300004, 26.41193522100008], [84.89692367100008, 26.41177425400008], [84.89723181000005, 26.410949180000046], [84.89729668000007, 26.409405925000044], [84.89595991200008, 26.407313172000045], [84.89412989600004, 26.405932190000044], [84.89230476900008, 26.40460532900005], [84.89139636000004, 26.401796063000063], [84.89024206600004, 26.399099015000047], [84.88933189400007, 26.398491945000046], [84.88603518400004, 26.396669436000025], [84.88372135500003, 26.394682363000072], [84.88268231300003, 26.395230239000057], [84.88029422400007, 26.396104106000053], [84.87644239600007, 26.397136588000023], [84.87552581300008, 26.39856927900007], [84.87636295700008, 26.403138524000042], [84.87709238600007, 26.403853449000053], [84.87917417800008, 26.403200025000046], [84.87941107600005, 26.404355916000043], [84.87959328500006, 26.40534924900004], [84.87983071500008, 26.406338189000053], [84.87921668300004, 26.407162373000062], [84.87878248800007, 26.40974716200003], [84.87785354600004, 26.413431781000043], [84.87736457900007, 26.41431499500004], [84.87430448100008, 26.41518696600008], [84.87454031900006, 26.41821123400007], [84.87380642900007, 26.41886823300007], [84.87337233900007, 26.419805761000077], [84.87318739800008, 26.421181653000076], [84.87342928500004, 26.422337563000042], [84.87312253100004, 26.422666254000035], [84.87220378400008, 26.423101520000046], [84.87183575100005, 26.42376395100007], [84.87201322200008, 26.424698619000026], [84.87243227900007, 26.42684782200007], [84.87224899200004, 26.427727376000064], [84.87157530400003, 26.42833030500003], [84.87071749400008, 26.428549157000077], [84.86968057200005, 26.428325247000032], [84.86911452200007, 26.428228942000032], [84.86905037700006, 26.42943827000005], [84.87051722800004, 26.42999277900003], [84.87234416300004, 26.430823446000034], [84.87439197500004, 26.43309425600006], [84.87488644100006, 26.433646166000074], [84.87692536600008, 26.432487190000074], [84.88041260700004, 26.431395095000028], [84.88462711400007, 26.431735364000076], [84.88871915500005, 26.432792797000047], [84.89231620000004, 26.43511241400006], [84.89383782100003, 26.437480960000073], [84.89596782600006, 26.437621646000025], [84.89786824500004, 26.43581217700006], [84.90099795200007, 26.433558910000045]]]]}}, {"type": "Feature", "properties": {"OBJECTID": 3893, "GPCODE": "96736", "GPNAME_1": "SISWA SOB", "DIST_CEN_C": "02", "BLK_NAME": "KALYANPUR", "ST_NAME": "BIHAR", "ST_CODE_1": "10", "GPCODE2011": "99278", "REMARKS": "FINALIZED", "MAP_STATUS": "COMPLETED", "BLK_C_2001": "020018", "BLK_C_2011": "01048", "DIST_NAME": "PURBI CHAMPARAN", "code2011": 0.0, "Shape_Leng": 0.13207477598, "Shape_Area": 0.00070450781, "Area": 7.78788}, "geometry": {"type": "MultiPolygon", "coordinates": [[[[84.95441467200004, 26.44105144400004], [84.95449020400008, 26.440805374000035], [84.95789247800008, 26.44155175900005], [84.96549101400007, 26.436818452000068], [84.96582277100003, 26.436568959000056], [84.96817432200004, 26.434298058000024], [84.97353452300007, 26.43312818100003], [84.97372463800008, 26.427112383000065], [84.97378460500005, 26.425214949000065], [84.97362232800003, 26.422922980000067], [84.97256208000005, 26.419838688000027], [84.97093944000005, 26.419284918000074], [84.96981840400008, 26.416529867000065], [84.96851037600004, 26.414410751000048], [84.96716149200006, 26.414683379000053], [84.96184285700008, 26.415110496000068], [84.95945685800007, 26.415245520000042], [84.95779610200003, 26.415964246000044], [84.95339615600005, 26.415734065000038], [84.95143763200008, 26.41528772500004], [84.95021507900003, 26.415176879000057], [84.94990760400003, 26.415835110000046], [84.95009118000007, 26.416552986000056], [84.94965806400006, 26.41737798400004], [84.94843314400003, 26.418147049000027], [84.94665574200008, 26.41935725600007], [84.94628669700006, 26.42057049300007], [84.94891722300008, 26.420905454000035], [84.94989321900005, 26.421403992000023], [84.95044136200005, 26.42266873400007], [84.95061565500004, 26.42503837000004], [84.95054886900004, 26.42762857500003], [84.95060688100006, 26.42845458900007], [84.94895664700005, 26.428893395000046], [84.94657232000003, 26.428279084000053], [84.94345382700004, 26.42854771800006], [84.94320646300008, 26.429210560000058], [84.94228887100007, 26.42931694300006], [84.94081945600004, 26.429589], [84.93983701700006, 26.431459763000078], [84.93879630200007, 26.43261724000007], [84.93933708000003, 26.434712474000037], [84.93939889200004, 26.435976211000025], [84.93933119600007, 26.436914684000044], [84.93828943200003, 26.43845582800003], [84.93443092300004, 26.439769633000026], [84.93394374700006, 26.440097967000042], [84.93363591800005, 26.440868978000026], [84.93368610600004, 26.44450652100005], [84.93951186300006, 26.444901349000077], [84.93943230500008, 26.442534370000033], [84.94194497700005, 26.442286808000063], [84.94530382700003, 26.442180679000046], [84.95008833900005, 26.441956222000044], [84.95236205900005, 26.441116428000043], [84.95441467200004, 26.44105144400004]]]]}}, {"type": "Feature", "properties": {"OBJECTID": 3966, "GPCODE": "96728", "GPNAME_1": "BAKHARI", "DIST_CEN_C": "02", "BLK_NAME": "KALYANPUR", "ST_NAME": "BIHAR", "ST_CODE_1": "10", "GPCODE2011": "99271", "REMARKS": "FINALIZED", "MAP_STATUS": "COMPLETED", "BLK_C_2001": "020018", "BLK_C_2011": "01048", "DIST_NAME": "PURBI CHAMPARAN", "code2011": 0.0, "Shape_Leng": 0.17104618611, "Shape_Area": 0.00106123818, "Area": 11.7301}, "geometry": {"type": "MultiPolygon", "coordinates": [[[[84.92212171400007, 26.466396264000025], [84.91727355800003, 26.46353151200003], [84.91648161800003, 26.461715523000066], [84.91606500900008, 26.458384025000043], [84.91576140300003, 26.457607152000037], [84.91512135300007, 26.457028017000027], [84.91353144700008, 26.45718671700007], [84.91233928500003, 26.45682735200006], [84.91112534100006, 26.453602299000067], [84.91024439400007, 26.451397970000073], [84.90874943300008, 26.450017993000074], [84.90719978000004, 26.446764960000053], [84.90704845000005, 26.44538818500007], [84.90693625500006, 26.44263509700005], [84.90666637300006, 26.440680362000023], [84.90633255000006, 26.439989070000024], [84.90204909900007, 26.44077751900005], [84.89881076400007, 26.44074247700007], [84.89547799800005, 26.440459012000076], [84.89322862300008, 26.43997052800006], [84.89383782100003, 26.437480960000073], [84.89231620000004, 26.43511241400006], [84.88871915500005, 26.432792797000047], [84.88462711400007, 26.431735364000076], [84.88041260700004, 26.431395095000028], [84.87692536600008, 26.432487190000074], [84.87488644100006, 26.433646166000074], [84.87471975400007, 26.434042821000048], [84.87222257100007, 26.43583239800006], [84.86863982000006, 26.43998367200004], [84.86563641100008, 26.444709626000076], [84.86403505800007, 26.447609388000046], [84.86538177200003, 26.44896006600004], [84.86549110300007, 26.45226378600006], [84.86561298300006, 26.45331105100007], [84.86817939500008, 26.453480420000062], [84.87000803300003, 26.453873405000024], [84.87086480800008, 26.454038140000023], [84.87233395600003, 26.453987892000043], [84.87446941100006, 26.454101837000053], [84.87544530400004, 26.454654935000065], [84.87647959000003, 26.457302150000032], [84.87828938200005, 26.457352024000045], [84.87981897900005, 26.45724313900007], [84.88043108700003, 26.457082338000077], [84.88088884500007, 26.456614125000044], [84.88217255300003, 26.45656331300006], [84.88363985300003, 26.457090537000056], [84.88538302000006, 26.457618522000075], [84.88748520500008, 26.458779140000047], [84.88831514000003, 26.457928346000074], [84.88971957300004, 26.457715242000063], [84.89079242900004, 26.457745025000065], [84.89119054200006, 26.457109695000042], [84.89155944700008, 26.456149433000064], [84.89724073300005, 26.455897289000063], [84.89787523700005, 26.45996498100004], [84.89820488200007, 26.462005611000052], [84.89926723000008, 26.46388103700008], [84.90226447600008, 26.464249390000077], [84.90599276600005, 26.46499855500008], [84.90736552800007, 26.465362887000026], [84.90840438000004, 26.465053970000042], [84.90888891500003, 26.465664325000034], [84.90977240200004, 26.46704286000005], [84.91105385400004, 26.467786018000027], [84.91242298400005, 26.471146863000058], [84.92258787500003, 26.470648578000066], [84.92202139000005, 26.46908346600003], [84.92257874300003, 26.467017842000075], [84.92212171400007, 26.466396264000025]]]]}}, {"type": "Feature", "properties": {"OBJECTID": 3967, "GPCODE": "96738", "GPNAME_1": "KALYANPUR", "DIST_CEN_C": "02", "BLK_NAME": "KALYANPUR", "ST_NAME": "BIHAR", "ST_CODE_1": "10", "GPCODE2011": "99280", "REMARKS": "FINALIZED", "MAP_STATUS": "COMPLETED", "BLK_C_2001": "020018", "BLK_C_2011": "01048", "DIST_NAME": "PURBI CHAMPARAN", "code2011": 0.0, "Shape_Leng": 0.14896011815, "Shape_Area": 0.00081272227, "Area": 8.98322}, "geometry": {"type": "MultiPolygon", "coordinates": [[[[84.93035599500007, 26.45896706900004], [84.93239617800003, 26.45377294900004], [84.93773627900003, 26.451754338000057], [84.94027413700007, 26.449942376000024], [84.93951186300006, 26.444901349000077], [84.93368610600004, 26.44450652100005], [84.93363591800005, 26.440868978000026], [84.93290833800006, 26.439269834000072], [84.93346101200007, 26.436960485000043], [84.93426494000005, 26.434426029000065], [84.93237183700006, 26.433817083000065], [84.93053653200008, 26.434034134000058], [84.92851504200007, 26.43452601200005], [84.92765775000004, 26.434578231000046], [84.92692757200007, 26.433971881000048], [84.92619285100005, 26.433198465000032], [84.92613517100006, 26.432313821000037], [84.92534777500003, 26.430660384000078], [84.92443115400005, 26.43043709500006], [84.92087983900007, 26.43125935100005], [84.91781824500003, 26.432628669000053], [84.91340863700003, 26.43382787400003], [84.91120695600006, 26.43421071000006], [84.91084425200006, 26.433090675000074], [84.90864194300008, 26.433694717000037], [84.90698746100009, 26.433799071000067], [84.90632407800007, 26.430985942000063], [84.90099795200007, 26.433558910000045], [84.89786824500004, 26.43581217700006], [84.89596782600006, 26.437621646000025], [84.89383782100003, 26.437480960000073], [84.89322862300008, 26.43997052800006], [84.89547799800005, 26.440459012000076], [84.89881076400007, 26.44074247700007], [84.90204909900007, 26.44077751900005], [84.90633255000006, 26.439989070000024], [84.90666637300006, 26.440680362000023], [84.90693625500006, 26.44263509700005], [84.90704845000005, 26.44538818500007], [84.90719978000004, 26.446764960000053], [84.90874943300008, 26.450017993000074], [84.91024439400007, 26.451397970000073], [84.91112534100006, 26.453602299000067], [84.91233928500003, 26.45682735200006], [84.91353144700008, 26.45718671700007], [84.91512135300007, 26.457028017000027], [84.91576140300003, 26.457607152000037], [84.91606500900008, 26.458384025000043], [84.91648161800003, 26.461715523000066], [84.91727355800003, 26.46353151200003], [84.92212171400007, 26.466396264000025], [84.92257874300003, 26.467017842000075], [84.92373969000005, 26.464241410000056], [84.92533034900003, 26.46380275100006], [84.92568173400008, 26.461300782000023], [84.92560339300007, 26.459284952000075], [84.93035599500007, 26.45896706900004]]]]}}, {"type": "Feature", "properties": {"OBJECTID": 4171, "GPCODE": "96746", "GPNAME_1": "NORTH GAWANDHARA", "DIST_CEN_C": "02", "BLK_NAME": "KALYANPUR", "ST_NAME": "BIHAR", "ST_CODE_1": "10", "GPCODE2011": "99274", "REMARKS": "FINALIZED", "MAP_STATUS": "COMPLETED", "BLK_C_2001": "020018", "BLK_C_2011": "01048", "DIST_NAME": "PURBI CHAMPARAN", "code2011": 0.0, "Shape_Leng": 0.17628973277, "Shape_Area": 0.00112256111, "Area": 12.4154}, "geometry": {"type": "MultiPolygon", "coordinates": [[[[85.02422977200007, 26.34591764000004], [85.01922858700004, 26.34705595400004], [85.01707354700005, 26.34762560300004], [85.01697442500006, 26.34768370200004], [85.01609068500005, 26.348201697000036], [85.01425923600004, 26.346785820000036], [85.01094335700003, 26.347268003000067], [85.01074558500005, 26.348418484000035], [85.01035383800007, 26.348945866000065], [85.00912526300004, 26.34960718800005], [85.00667344500005, 26.350708661000056], [85.00613640800003, 26.351235806000034], [85.00574116400009, 26.353396846000066], [85.00538827000008, 26.354456750000054], [85.00436130500003, 26.354500118000033], [85.00205810700004, 26.354008754000063], [84.99975307300008, 26.35435674000007], [84.99782332100006, 26.354903999000044], [84.99488235200005, 26.35742594800007], [84.99145863200005, 26.358466828000076], [84.98931820700005, 26.35906773000005], [84.98859025200005, 26.357527450000077], [84.98773472600004, 26.35708364100003], [84.98510842100006, 26.35768351300004], [84.98541576400004, 26.359114727000076], [84.98504287700007, 26.360052719000066], [84.98296769500007, 26.360599454000067], [84.97905603000004, 26.36240629400004], [84.97752661300007, 26.363062206000052], [84.97715829800006, 26.364162737000072], [84.97648567400006, 26.364712030000078], [84.97403754100003, 26.36613789100005], [84.97238675100004, 26.367235854000057], [84.97244369800006, 26.36855825600003], [84.97622603900004, 26.368619684000066], [84.98019948200005, 26.368351910000058], [84.98270462200009, 26.368302467000035], [84.98355385400004, 26.369346536000023], [84.98465658600009, 26.369127510000055], [84.98697765400004, 26.36847288200005], [84.98813945000006, 26.368696175000025], [84.98972145900007, 26.371451868000065], [84.98975392000006, 26.374863745000027], [84.99011054000005, 26.378939565000053], [84.99028779500009, 26.38257733200004], [84.99338195400009, 26.383275438000055], [84.99589665600007, 26.383111005000046], [84.99782401200008, 26.382883399000036], [85.00390686900005, 26.382602548000023], [85.00467990700008, 26.380895701000043], [85.00453360800003, 26.37955473200003], [85.00514329100008, 26.37844190900006], [85.00736262200007, 26.375842436000028], [85.01452560300004, 26.37165734900003], [85.01496824600008, 26.37079831500006], [85.01541088600004, 26.369939372000033], [85.01619329900007, 26.369498388000068], [85.01849861400007, 26.369104975000027], [85.02016678600006, 26.369193427000027], [85.02114260400003, 26.369772624000063], [85.02290155500003, 26.372068058000025], [85.02388190000005, 26.372954105000076], [85.02618740900004, 26.372497443000043], [85.02790296000006, 26.371349334000058], [85.02800465600006, 26.370600340000067], [85.02829636600006, 26.369982453000034], [85.02917961600008, 26.369189548000065], [85.03124012100005, 26.368443611000032], [85.03364167600006, 26.367472419000023], [85.03506628100007, 26.366459211000063], [85.03335628900004, 26.364646958000037], [85.03159782400007, 26.361995171000046], [85.03047532800008, 26.35950226800003], [85.02969751700005, 26.357601164000073], [85.02920997000007, 26.355790755000044], [85.02764638300005, 26.35349119700004], [85.02661676700006, 26.35234335100006], [85.02559117500005, 26.351660223000067], [85.02495129100004, 26.350950702000034], [85.02412209800008, 26.349758019000035], [85.02363481100008, 26.347902388000023], [85.02422977200007, 26.34591764000004]]]]}}, {"type": "Feature", "properties": {"OBJECTID": 4174, "GPCODE": "96745", "GPNAME_1": "PARSAUNI WAZID", "DIST_CEN_C": "02", "BLK_NAME": "KALYANPUR", "ST_NAME": "BIHAR", "ST_CODE_1": "10", "GPCODE2011": "99270", "REMARKS": "FINALIZED", "MAP_STATUS": "COMPLETED", "BLK_C_2001": "020018", "BLK_C_2011": "01048", "DIST_NAME": "PURBI CHAMPARAN", "code2011": 0.0, "Shape_Leng": 0.18453860962, "Shape_Area": 0.00142223247, "Area": 15.7162}, "geometry": {"type": "MultiPolygon", "coordinates": [[[[84.93354399500004, 26.478460780000034], [84.93266658400006, 26.475124653000023], [84.92401919200006, 26.475393277000023], [84.92365595100006, 26.474399666000068], [84.92258787500003, 26.470648578000066], [84.91242298400005, 26.471146863000058], [84.91105385400004, 26.467786018000027], [84.90977240200004, 26.46704286000005], [84.90888891500003, 26.465664325000034], [84.90840438000004, 26.465053970000042], [84.90736552800007, 26.465362887000026], [84.90599276600005, 26.46499855500008], [84.90226447600008, 26.464249390000077], [84.89926723000008, 26.46388103700008], [84.89820488200007, 26.462005611000052], [84.89787523700005, 26.45996498100004], [84.89724073300005, 26.455897289000063], [84.89155944700008, 26.456149433000064], [84.89119054200006, 26.457109695000042], [84.89079242900004, 26.457745025000065], [84.88971957300004, 26.457715242000063], [84.88831514000003, 26.457928346000074], [84.88748520500008, 26.458779140000047], [84.88538302000006, 26.457618522000075], [84.88363985300003, 26.457090537000056], [84.88217255300003, 26.45656331300006], [84.88088884500007, 26.456614125000044], [84.88043108700003, 26.457082338000077], [84.87981897900005, 26.45724313900007], [84.87828938200005, 26.457352024000045], [84.87647959000003, 26.457302150000032], [84.87659510000003, 26.458787158000064], [84.87670495400005, 26.463629771000058], [84.87774353900005, 26.464972818000035], [84.87792438900004, 26.466430934000073], [84.87798151000004, 26.467365174000065], [84.87920013000007, 26.46888470300007], [84.87959420200008, 26.469517563000068], [84.87980045300003, 26.472460434000027], [84.87988381000008, 26.474635828000032], [84.88094255700008, 26.477558359000056], [84.88146295500007, 26.479500190000067], [84.88267588700006, 26.48126333700003], [84.88385177300006, 26.486853277000023], [84.88412649900005, 26.48721047500004], [84.88584077300004, 26.487490171000047], [84.89005725300007, 26.487861836000036], [84.89041513300003, 26.492113835000055], [84.89064942100003, 26.495828525000036], [84.88900459300004, 26.497964093000064], [84.88879898300007, 26.499014815000066], [84.88881262400008, 26.50028008000004], [84.88994027200005, 26.501950758000078], [84.89498405400008, 26.502643678000027], [84.89505685800003, 26.502726107000058], [84.89531191400005, 26.502732060000028], [84.89548820900006, 26.502736175000052], [84.89634670900006, 26.502467597000077], [84.89634966700004, 26.501488262000066], [84.89895425200007, 26.50100732800007], [84.90041526800007, 26.50053712500005], [84.90279779500008, 26.50048424000005], [84.90476825500008, 26.499400295000044], [84.90703697500004, 26.498463771000047], [84.90801732600005, 26.49769892200004], [84.90967248900006, 26.49764867400006], [84.91194186800004, 26.49675456700004], [84.91497066300008, 26.494685532000062], [84.91517781600004, 26.49039034300006], [84.91741898800007, 26.489142576000063], [84.92086041100004, 26.48693345500004], [84.92119883000004, 26.484820463000062], [84.92356419400005, 26.48436760100003], [84.92445747000005, 26.48363021700004], [84.92846125100004, 26.482321014000036], [84.92845006400006, 26.47963035400005], [84.93354399500004, 26.478460780000034]]]]}}]}