{"type": "FeatureCollection", "features": [{"type": "Feature", "properties": {"OBJECTID": 3853, "GPCODE": "96962", "GPNAME_1": "MEGHUA", "DIST_CEN_C": "02", "BLK_NAME": "TETARIA", "ST_NAME": "BIHAR", "ST_CODE_1": "10", "GPCODE2011": "99457", "REMARKS": "FINALIZED", "MAP_STATUS": "COMPLETED", "BLK_C_2001": "020026", "BLK_C_2011": "01056", "DIST_NAME": "PURBI CHAMPARAN", "code2011": 0.0, "Shape_Leng": 0.16914132477, "Shape_Area": 0.00065775617, "Area": 7.27323}, "geometry": {"type": "MultiPolygon", "coordinates": [[[[85.26006244400008, 26.37688290600005], [85.26006233900006, 26.37548838500004], [85.25897010500006, 26.37532154300004], [85.25906011800004, 26.373019921000036], [85.25942552300006, 26.370063858000037], [85.25960573100008, 26.368060150000076], [85.25814772000007, 26.366255027000022], [85.25970077900007, 26.366336148000073], [85.26088314300006, 26.36682797000003], [85.26142916100008, 26.366417245000036], [85.26289201500003, 26.366254712000057], [85.26316247400007, 26.365843960000063], [85.26298198700005, 26.36502262700003], [85.26398381400008, 26.363623535000045], [85.26461993600003, 26.36280213200007], [85.26553158600007, 26.36198064900003], [85.26644330700003, 26.362061764000032], [85.26826679500005, 26.36193967500003], [85.26881286200006, 26.36226908100008], [85.26917880500008, 26.36374931100005], [85.27027648500007, 26.366461451000077], [85.27109311700008, 26.366790748000028], [85.27218997500006, 26.36522908300003], [85.27218953200008, 26.362927530000036], [85.27191366600005, 26.36144730500007], [85.27510478000005, 26.361527973000022], [85.27848134900006, 26.36193806600005], [85.27920785600008, 26.362186149000024], [85.28106162300008, 26.36294847100004], [85.28279983400006, 26.362451649000036], [85.28435787700005, 26.36269949600006], [85.28646730200006, 26.363773035000065], [85.28711363500008, 26.364021124000033], [85.28720325800003, 26.362536292000073], [85.28720308800007, 26.361958671000025], [85.28811978300007, 26.361710182000024], [85.29096031900008, 26.362038829000028], [85.29215270600008, 26.362205463000066], [85.29306911400005, 26.36146059500004], [85.29297834600004, 26.35989010000003], [85.29370933200005, 26.35873457300005], [85.29572765900008, 26.357659873000046], [85.29508597100005, 26.356418939000037], [85.29416925000004, 26.35625679800006], [85.29086836700003, 26.35708368300004], [85.29013699600006, 26.357083860000046], [85.28784251900004, 26.356669268000076], [85.28564397600007, 26.358240335000062], [85.28454186500005, 26.358407643000078], [85.28279827100005, 26.357166907000078], [85.28087417400008, 26.355596864000063], [85.28014252400004, 26.354360475000078], [85.27960082400006, 26.35174758900007], [85.28071868900008, 26.348637135000047], [85.27973191600006, 26.34882232800004], [85.27879787000006, 26.34910231400005], [85.27786370800004, 26.349382330000026], [85.27359624600007, 26.35041654500003], [85.26996986000006, 26.351256552000052], [85.26649866600007, 26.352213653000035], [85.26540165700004, 26.352525247000074], [85.26520631300008, 26.352502651000066], [85.26342803100005, 26.351943213000027], [85.26111366400005, 26.351352190000057], [85.25984132700006, 26.35086496100007], [85.25973118600007, 26.350815285000067], [85.25771740500005, 26.349475036000058], [85.25715633800007, 26.349484149000034], [85.25625477400007, 26.349655652000024], [85.25432130800004, 26.34999418700005], [85.25399564900005, 26.350070940000023], [85.25327435400004, 26.350540274000025], [85.25286364200008, 26.350869765000027], [85.25272846500008, 26.351113420000047], [85.25263829500005, 26.351474476000078], [85.25255317000006, 26.35177231600005], [85.25213739000003, 26.35232746500003], [85.25128581300004, 26.353063012000064], [85.25087506500006, 26.353609153000036], [85.25006358800005, 26.354773434000037], [85.24979810900004, 26.354949489000035], [85.24923204300006, 26.35508032200005], [85.24877117700004, 26.35513896200007], [85.24859457100007, 26.35517879500003], [85.24859091300004, 26.355179620000058], [85.24844057900003, 26.35535107000004], [85.24833038500003, 26.355603822000035], [85.24819513600005, 26.35591521400005], [85.24775933000006, 26.35635744700005], [85.24682262700009, 26.355468426000073], [85.24637176500005, 26.354953884000054], [85.24608620900005, 26.354881738000074], [85.24610123400004, 26.35516599700003], [85.24647189500007, 26.355811346000053], [85.24690770700005, 26.356700430000046], [85.24719321700007, 26.357544397000026], [85.24717819200004, 26.35832960700003], [85.24690770700005, 26.35915551200003], [85.24624139000008, 26.360044490000064], [85.24538978100009, 26.360897437000062], [85.24469340500008, 26.361502194000025], [85.24392192700003, 26.362314432000062], [85.24320548500003, 26.362977837000074], [85.24442101500006, 26.363127674000054], [85.24529267400004, 26.364278522000063], [85.24529264500006, 26.36524876900006], [85.24576351400003, 26.36676509600005], [85.24596888800005, 26.367491732000076], [85.24677542100005, 26.36803777700004], [85.24636963600005, 26.368525195000075], [85.24596887700005, 26.369554166000057], [85.24636954100004, 26.373011113000075], [85.24664008700006, 26.374892997000075], [85.24709089200007, 26.376693635000038], [85.24779232700007, 26.37666871400006], [85.25140478300005, 26.37654025200004], [85.25778281700008, 26.376391166000076], [85.26006244400008, 26.37688290600005]]]]}}, {"type": "Feature", "properties": {"OBJECTID": 3862, "GPCODE": "253059", "GPNAME_1": "PUNAS LAHLADPUR", "DIST_CEN_C": "02", "BLK_NAME": "TETARIA", "ST_NAME": "BIHAR", "ST_CODE_1": "10", "GPCODE2011": "244480", "REMARKS": "FINALIZED", "MAP_STATUS": "COMPLETED", "BLK_C_2001": "020026", "BLK_C_2011": "01056", "DIST_NAME": "PURBI CHAMPARAN", "code2011": 0.0, "Shape_Leng": 0.16395747881, "Shape_Area": 0.00078272788, "Area": 8.65434}, "geometry": {"type": "MultiPolygon", "coordinates": [[[[85.16762285900006, 26.363361240000074], [85.16697703100004, 26.362783165000053], [85.16612032800003, 26.362814236000077], [85.16519332800004, 26.36307090100007], [85.16472710600004, 26.363616697000055], [85.16447601900006, 26.364325097000062], [85.16394791000005, 26.36721308600005], [85.16333438700008, 26.370430422000027], [85.16304801100006, 26.371522380000044], [85.16204968900007, 26.373326989000077], [85.16335116400006, 26.374830639000038], [85.16403732000003, 26.375178506000054], [85.16536509700006, 26.375066452000056], [85.16884354700005, 26.37301962500004], [85.16927541200005, 26.371625394000034], [85.16983188000006, 26.37100739500005], [85.17136016700005, 26.370602064000025], [85.17096971900008, 26.370182142000033], [85.16890400600005, 26.365261920000023], [85.16762285900006, 26.363361240000074]]], [[[85.13554762600006, 26.402615199000024], [85.13958343600007, 26.400876415000027], [85.14114291400006, 26.399853221000058], [85.14204537000006, 26.399429659000077], [85.14320308300006, 26.399313181000025], [85.14388978800008, 26.39904294100006], [85.14479309200004, 26.397612975000072], [85.14586678700005, 26.39610643900005], [85.14668418400004, 26.39552937700006], [85.14711577700007, 26.394717353000033], [85.14775767900005, 26.39425300100004], [85.14827404700003, 26.393905886000027], [85.14939772000008, 26.392557348000025], [85.14978451800005, 26.391397804000064], [85.15017139400004, 26.390197577000038], [85.14948503500005, 26.390079738000054], [85.14961119800006, 26.388996786000064], [85.15107549900006, 26.38764842200004], [85.15345138400005, 26.38662561700005], [85.15443842000008, 26.386707482000077], [85.15520977500006, 26.38709159800004], [85.15765526300004, 26.38678630900006], [85.15984565100007, 26.38582198000006], [85.16254715200006, 26.384740521000026], [85.16495369300003, 26.38281045800005], [85.16791684500004, 26.379910335000034], [85.16649896100006, 26.37987344000004], [85.16551230900006, 26.379290703000038], [85.16491147300007, 26.378712703000076], [85.16400968000005, 26.378748193000035], [85.16276688900007, 26.379058889000078], [85.16195008300008, 26.379211849000058], [85.16062272700003, 26.378710089000037], [85.15997766100008, 26.37704431900005], [85.15946717700007, 26.376312934000055], [85.15794453700005, 26.375603434000027], [85.15587120200007, 26.374559593000072], [85.15447466000006, 26.372997170000076], [85.15396008000005, 26.371178158000077], [85.15362046500007, 26.369900699000027], [85.15254904500006, 26.36901098100003], [85.15220875200004, 26.368563959000028], [85.14656767700006, 26.368523895000067], [85.14506951900006, 26.36868069600007], [85.14503351600007, 26.369772846000046], [85.14464245900007, 26.370129090000034], [85.14415624300005, 26.370340842000076], [85.14051324500008, 26.371145935000072], [85.13708034300004, 26.37229855000004], [85.13593766300005, 26.37265415400003], [85.13572201800008, 26.372879632000036], [85.13572166200004, 26.373231669000063], [85.13618668100008, 26.374166174000038], [85.13636643600006, 26.374780110000074], [85.13636596900005, 26.37532615600003], [85.13629535300004, 26.37577741100006], [85.13611465600007, 26.376129298000023], [85.13589910100006, 26.376291545000072], [85.13500710500006, 26.37641719900006], [85.13529247600007, 26.376611495000077], [85.13495147900005, 26.37695870500005], [85.13421953000005, 26.377459101000056], [85.13310149800003, 26.37811702600004], [85.13228926100004, 26.378694041000074], [85.13224279700006, 26.380088476000026], [85.13254069000004, 26.38275591400003], [85.13420932700006, 26.387780193000026], [85.13301149700004, 26.388013886000067], [85.13159288900005, 26.38855419400005], [85.13137656700007, 26.389443138000047], [85.13125021900004, 26.39049], [85.13084401400005, 26.39078752100005], [85.13122908900004, 26.39152347000004], [85.12890787500004, 26.392721936000044], [85.12612024700007, 26.394145669000068], [85.12635309400008, 26.396677629000067], [85.12681998200009, 26.400617802000056], [85.12752092300008, 26.40125468100007], [85.12790493300008, 26.402992509000057], [85.12880710200005, 26.40291654400005], [85.13138326200004, 26.402611814000068], [85.13344246600008, 26.403078384000025], [85.13554762600006, 26.402615199000024]]]]}}, {"type": "Feature", "properties": {"OBJECTID": 3863, "GPCODE": "96960", "GPNAME_1": "MADHUBAN VRIT", "DIST_CEN_C": "02", "BLK_NAME": "TETARIA", "ST_NAME": "BIHAR", "ST_CODE_1": "10", "GPCODE2011": "99456", "REMARKS": "FINALIZED", "MAP_STATUS": "COMPLETED", "BLK_C_2001": "020026", "BLK_C_2011": "01056", "DIST_NAME": "PURBI CHAMPARAN", "code2011": 0.0, "Shape_Leng": 0.11837409913, "Shape_Area": 0.00063409314, "Area": 7.01085}, "geometry": {"type": "MultiPolygon", "coordinates": [[[[85.20684363100008, 26.390772003000052], [85.21256634900004, 26.389437840000028], [85.21404413300007, 26.39101774900007], [85.21444998700008, 26.39107655500004], [85.21485600800008, 26.390652363000072], [85.21619880600008, 26.390715902000068], [85.21680518500006, 26.39059416200007], [85.21714118100004, 26.389682681000068], [85.21754730000004, 26.388590590000035], [85.21821883400008, 26.38822977500007], [85.21909587500005, 26.387864399000023], [85.21768366300006, 26.384953190000033], [85.21714298700005, 26.383012562000033], [85.21697300500006, 26.381744389000062], [85.21629652600006, 26.38185254900003], [85.21554503800007, 26.38183877800003], [85.21522438200003, 26.381644605000076], [85.21466834500006, 26.381048821000036], [85.21434776000007, 26.380985516000067], [85.21302491500006, 26.38111153400007], [85.21183242700005, 26.381291729000054], [85.21167206400008, 26.38122850800005], [85.20929914600003, 26.375347532000035], [85.20915915700004, 26.374620889000028], [85.20935470600006, 26.373993693000045], [85.21094348600008, 26.372346895000078], [85.21115900400008, 26.372022008000044], [85.21062335600004, 26.370866507000073], [85.21030277300008, 26.370591146000038], [85.20969661300006, 26.370609044000048], [85.20941100900006, 26.370446455000035], [85.20759344800007, 26.367620878000025], [85.20716763500008, 26.367395033000037], [85.20575483300007, 26.367733094000073], [85.20534397600005, 26.36776453600004], [85.20513374200004, 26.36729967200006], [85.20440280000008, 26.36598167300008], [85.20395192300003, 26.365886699000043], [85.20290485700008, 26.36601726300006], [85.19928244700003, 26.366738111000075], [85.19856603000005, 26.36678751900007], [85.19832066700008, 26.366561725000054], [85.19692906000006, 26.364133258000038], [85.19681378800004, 26.364027082000064], [85.19669866700008, 26.36392104400005], [85.19491520700007, 26.36402421500003], [85.19149256400004, 26.366008512000064], [85.18692269400003, 26.367843407000066], [85.18656697200004, 26.367811584000037], [85.18654132500006, 26.368953386000044], [85.18671096200006, 26.37034346100006], [85.18851256500005, 26.374058379000076], [85.18868171500003, 26.37645485300004], [85.18859426500006, 26.380706032000035], [85.18361776000006, 26.38279329200003], [85.18095601300007, 26.384800304000066], [85.18310028100007, 26.38525254600006], [85.18396157800004, 26.386182611000038], [85.18704739200007, 26.387574072000064], [85.18919188600006, 26.387732915000072], [85.19134083900008, 26.389123810000058], [85.19253767700008, 26.390672195000036], [85.19502778900005, 26.39129151900005], [85.19674623600008, 26.391756986000075], [85.19863035300006, 26.391911101000062], [85.20163179700006, 26.39192569200003], [85.20382187800004, 26.391190836000078], [85.20684363100008, 26.390772003000052]]]]}}, {"type": "Feature", "properties": {"OBJECTID": 3867, "GPCODE": "253061", "GPNAME_1": "NARAHAN PANAPUR", "DIST_CEN_C": "02", "BLK_NAME": "TETARIA", "ST_NAME": "BIHAR", "ST_CODE_1": "10", "GPCODE2011": "244482", "REMARKS": "FINALIZED", "MAP_STATUS": "COMPLETED", "BLK_C_2001": "020026", "BLK_C_2011": "01056", "DIST_NAME": "PURBI CHAMPARAN", "code2011": 0.0, "Shape_Leng": 0.16720168571, "Shape_Area": 0.00070183758, "Area": 7.75946}, "geometry": {"type": "MultiPolygon", "coordinates": [[[[85.27154317800006, 26.388335520000055], [85.27456940400003, 26.387260939000043], [85.27521094100007, 26.38808666600005], [85.27447482700006, 26.389986801000077], [85.27374380700007, 26.392464551000046], [85.27401950900008, 26.393294886000035], [85.27631460400005, 26.393375674000026], [85.27777790200008, 26.39403431900007], [85.27796369300006, 26.39539715500007], [85.27870066300005, 26.396886249000033], [85.28062497100007, 26.396967158000052], [85.28227852200007, 26.39647037700007], [85.28282448000004, 26.39572559800007], [85.28264368700007, 26.394322102000046], [85.28200124800009, 26.390770548000035], [85.28218133000007, 26.389610713000025], [85.28273239400005, 26.38928111100006], [85.28392471800004, 26.388206811000032], [85.28438522500005, 26.386636129000067], [85.28364766800007, 26.38333286200003], [85.28328130900007, 26.38159545800005], [85.28373691900003, 26.38027306200007], [85.28483908600003, 26.379776371000048], [85.28630698200004, 26.379609037000023], [85.28832609600005, 26.37936478900008], [85.28878169300003, 26.37828608600006], [85.28988251400006, 26.374237626000024], [85.29079895500007, 26.373082114000056], [85.29078344600003, 26.371701168000072], [85.28959090500007, 26.37112376700003], [85.28793739500009, 26.370627846000048], [85.28353884100005, 26.371292321000055], [85.28124396300007, 26.370137485000043], [85.27977556900004, 26.368400370000074], [85.27895339100007, 26.36633806800006], [85.27904322300003, 26.364934508000033], [85.28106162300008, 26.36294847100004], [85.27920785600008, 26.362186149000024], [85.27848134900006, 26.36193806600005], [85.27510478000005, 26.361527973000022], [85.27191366600005, 26.36144730500007], [85.27218953200008, 26.362927530000036], [85.27218997500006, 26.36522908300003], [85.27109311700008, 26.366790748000028], [85.27027648500007, 26.366461451000077], [85.26917880500008, 26.36374931100005], [85.26881286200006, 26.36226908100008], [85.26826679500005, 26.36193967500003], [85.26644330700003, 26.362061764000032], [85.26553158600007, 26.36198064900003], [85.26461993600003, 26.36280213200007], [85.26398381400008, 26.363623535000045], [85.26298198700005, 26.36502262700003], [85.26316247400007, 26.365843960000063], [85.26289201500003, 26.366254712000057], [85.26142916100008, 26.366417245000036], [85.26088314300006, 26.36682797000003], [85.25970077900007, 26.366336148000073], [85.25814772000007, 26.366255027000022], [85.25960573100008, 26.368060150000076], [85.25942552300006, 26.370063858000037], [85.25906011800004, 26.373019921000036], [85.25897010500006, 26.37532154300004], [85.26006233900006, 26.37548838500004], [85.26006244400008, 26.37688290600005], [85.26124979700006, 26.376061484000047], [85.26198122700004, 26.375077582000074], [85.26398521400006, 26.374829185000067], [85.26453173300007, 26.377785104000054], [85.26471748100005, 26.38065983900003], [85.26353019200008, 26.381729501000052], [85.26107017400005, 26.38345364500003], [85.25769817700007, 26.384758176000048], [85.25861047700005, 26.38828722100004], [85.25970307100005, 26.39190203800007], [85.26171289400008, 26.395760426000038], [85.26338215100003, 26.399907631000076], [85.26283039400005, 26.396103292000078], [85.26374699500008, 26.392714020000028], [85.26769027000006, 26.390484232000063], [85.27154317800006, 26.388335520000055]]]]}}, {"type": "Feature", "properties": {"OBJECTID": 3869, "GPCODE": "96965", "GPNAME_1": "SEMRAHAN", "DIST_CEN_C": "02", "BLK_NAME": "TETARIA", "ST_NAME": "BIHAR", "ST_CODE_1": "10", "GPCODE2011": "99458", "REMARKS": "FINALIZED", "MAP_STATUS": "COMPLETED", "BLK_C_2001": "020026", "BLK_C_2011": "01056", "DIST_NAME": "PURBI CHAMPARAN", "code2011": 0.0, "Shape_Leng": 0.21101077813, "Shape_Area": 0.00094334562, "Area": 10.4285}, "geometry": {"type": "MultiPolygon", "coordinates": [[[[85.25059871100007, 26.417386874000044], [85.25177651000007, 26.41735073800004], [85.25266365400006, 26.417571921000047], [85.25392170600009, 26.418591812000045], [85.25641758700004, 26.416380356000047], [85.25741980600003, 26.414656405000073], [85.25887817200004, 26.413753684000028], [85.25887800700008, 26.412029734000043], [85.25723915400005, 26.41096027900005], [85.25258819000004, 26.409836734000066], [85.25030785000007, 26.408356472000037], [85.24958113500008, 26.404773265000074], [85.25012739700009, 26.402746948000072], [85.25121986100004, 26.400910189000058], [85.25267812400006, 26.39992634200007], [85.25559962000005, 26.39967799200008], [85.25906237900006, 26.400007306000077], [85.26115720700005, 26.401076686000067], [85.26243515300007, 26.401487324000072], [85.26328711600007, 26.401311215000078], [85.26338215100003, 26.399907631000076], [85.26171289400008, 26.395760426000038], [85.25970307100005, 26.39190203800007], [85.25861047700005, 26.38828722100004], [85.25769817700007, 26.384758176000048], [85.26107017400005, 26.38345364500003], [85.26353019200008, 26.381729501000052], [85.26471748100005, 26.38065983900003], [85.26453173300007, 26.377785104000054], [85.26398521400006, 26.374829185000067], [85.26198122700004, 26.375077582000074], [85.26124979700006, 26.376061484000047], [85.26006244400008, 26.37688290600005], [85.25778281700008, 26.376391166000076], [85.25140478300005, 26.37654025200004], [85.24779232700007, 26.37666871400006], [85.24709089200007, 26.376693635000038], [85.24664008700006, 26.374892997000075], [85.24636954100004, 26.373011113000075], [85.24596887700005, 26.369554166000057], [85.24636963600005, 26.368525195000075], [85.24677542100005, 26.36803777700004], [85.24596888800005, 26.367491732000076], [85.24576351400003, 26.36676509600005], [85.24529264500006, 26.36524876900006], [85.24529267400004, 26.364278522000063], [85.24442101500006, 26.363127674000054], [85.24320548500003, 26.362977837000074], [85.24253915100007, 26.363600535000046], [85.24196805400004, 26.364115023000068], [85.24207627200008, 26.366291085000057], [85.24214637200004, 26.367685657000038], [85.24133971300006, 26.36877774000004], [85.24181057300007, 26.370054873000072], [85.24268222200004, 26.371810495000034], [85.243624, 26.37296589600004], [85.24342356500006, 26.37399476400003], [85.24372909700008, 26.37590833300004], [85.24137434400006, 26.376088708000054], [85.24090332700007, 26.37554262100008], [85.23888420100008, 26.376088501000027], [85.23578783500005, 26.37675620500005], [85.23305705500007, 26.378533978000064], [85.23346265600009, 26.379562973000077], [85.23453993100009, 26.37956308300005], [85.23561680600005, 26.38229350000006], [85.23150803400006, 26.383624336000025], [85.23177838900006, 26.38489705300003], [85.23016493700004, 26.385623429000077], [85.22995926800007, 26.387081041000044], [85.23061544500007, 26.388385396000047], [85.23224388500006, 26.388385587000073], [85.23447870000007, 26.388616073000037], [85.23507448800007, 26.392406976000075], [85.23612644700006, 26.395751141000062], [85.23737396100006, 26.398224365000033], [85.23702806100005, 26.398729799000023], [85.23737381900008, 26.399695614000052], [85.23857127900004, 26.40135646500005], [85.23895710300008, 26.402480242000024], [85.23921256600005, 26.40374836600006], [85.23603519100004, 26.404596558000037], [85.23500287400003, 26.404673174000038], [85.23594963700003, 26.407999292000056], [85.23530813700006, 26.40835125500007], [85.23616496200003, 26.40974125300005], [85.23753805500007, 26.41035966000004], [85.23788378900008, 26.411289389000046], [85.23676606500004, 26.412367885000037], [85.23694142200003, 26.41360444700007], [85.23771305700006, 26.414534179000043], [85.24011370300008, 26.41577084200003], [85.24140174300004, 26.415924449000045], [85.24403484500004, 26.41559856600003], [85.24350869200003, 26.41468695700007], [85.24306763800007, 26.413838481000028], [85.24284212800006, 26.413278845000036], [85.24272186500008, 26.412881708000043], [85.24266179100005, 26.412538692000055], [85.24273199300006, 26.412231896000037], [85.24294750400009, 26.411748957000043], [85.24301264300004, 26.41135186200006], [85.24317308200006, 26.411072043000047], [85.24334845200008, 26.410841881000067], [85.24388976200004, 26.410521499000026], [85.24427064700006, 26.410607295000034], [85.24453120500004, 26.41077875800005], [85.24462138400008, 26.411004435000052], [85.24514766600004, 26.41159567400007], [85.24540323600007, 26.411997292000024], [85.24580410500005, 26.41256595300007], [85.24678137700005, 26.41343242100004], [85.24722279800005, 26.41441266700008], [85.24779193400008, 26.417028822000077], [85.24970659700006, 26.418812944000024], [85.25059871100007, 26.417386874000044]]]]}}, {"type": "Feature", "properties": {"OBJECTID": 3873, "GPCODE": "96966", "GPNAME_1": "TETARIA", "DIST_CEN_C": "02", "BLK_NAME": "TETARIA", "ST_NAME": "BIHAR", "ST_CODE_1": "10", "GPCODE2011": "99459", "REMARKS": "FINALIZED", "MAP_STATUS": "COMPLETED", "BLK_C_2001": "020026", "BLK_C_2011": "01056", "DIST_NAME": "PURBI CHAMPARAN", "code2011": 0.0, "Shape_Leng": 0.2386836594, "Shape_Area": 0.00084518095, "Area": 9.34401}, "geometry": {"type": "MultiPolygon", "coordinates": [[[[85.18095601300007, 26.384800304000066], [85.18361776000006, 26.38279329200003], [85.18859426500006, 26.380706032000035], [85.18868171500003, 26.37645485300004], [85.18851256500005, 26.374058379000076], [85.18671096200006, 26.37034346100006], [85.18654132500006, 26.368953386000044], [85.18656697200004, 26.367811584000037], [85.18585105000005, 26.366908727000066], [85.18574609900008, 26.36658824600005], [85.18617210900004, 26.366200271000025], [85.18606709300008, 26.365848225000036], [85.18567644500007, 26.365559216000065], [85.18445911500004, 26.36555872400004], [85.18128760100007, 26.366067154000064], [85.18057609700008, 26.36622933600006], [85.17936310500005, 26.36738857000006], [85.17750313200008, 26.36951321400005], [85.17693175100004, 26.369864930000062], [85.17232207900008, 26.37063421000005], [85.17136016700005, 26.370602064000025], [85.16983188000006, 26.37100739500005], [85.16927541200005, 26.371625394000034], [85.16884354700005, 26.37301962500004], [85.16536509700006, 26.375066452000056], [85.16403732000003, 26.375178506000054], [85.16335116400006, 26.374830639000038], [85.16204968900007, 26.373326989000077], [85.16115694600006, 26.374450185000057], [85.16051055400004, 26.374612239000044], [85.15915310100007, 26.37422328100007], [85.15822659500003, 26.37377592000007], [85.15661990100006, 26.371807217000026], [85.15338704900006, 26.367341757000077], [85.15320690500005, 26.36714752100005], [85.15259988500009, 26.368207692000055], [85.15220875200004, 26.368563959000028], [85.15254904500006, 26.36901098100003], [85.15362046500007, 26.369900699000027], [85.15396008000005, 26.371178158000077], [85.15447466000006, 26.372997170000076], [85.15587120200007, 26.374559593000072], [85.15794453700005, 26.375603434000027], [85.15946717700007, 26.376312934000055], [85.15997766100008, 26.37704431900005], [85.16062272700003, 26.378710089000037], [85.16195008300008, 26.379211849000058], [85.16276688900007, 26.379058889000078], [85.16400968000005, 26.378748193000035], [85.16491147300007, 26.378712703000076], [85.16551230900006, 26.379290703000038], [85.16649896100006, 26.37987344000004], [85.16791684500004, 26.379910335000034], [85.16980143900008, 26.378918595000073], [85.17152006500004, 26.37876614100003], [85.17435018100008, 26.380004145000044], [85.17829703600006, 26.38217238900006], [85.18095601300007, 26.384800304000066]]], [[[85.18095601300007, 26.384800304000066], [85.18202636700005, 26.388153859000056], [85.18245295400004, 26.395654638000053], [85.18326763500005, 26.399405280000053], [85.18292086900004, 26.401259894000077], [85.18086996900007, 26.40342966600008], [85.18232687600005, 26.405750012000055], [85.18331388500008, 26.406291949000035], [85.18421026500005, 26.40741162000006], [85.18502543800008, 26.41066127700003], [85.18541011500008, 26.412827634000053], [85.18605605200008, 26.413947217000043], [85.18726391700005, 26.413974807000045], [85.18910795000005, 26.414440426000056], [85.19153308900007, 26.41569605600006], [85.19295117900003, 26.41639157900005], [85.19419402100004, 26.416586188000053], [85.19511667300003, 26.41575616600005], [85.19460095900007, 26.41451937200003], [85.19417587600003, 26.412583167000037], [85.19301559600007, 26.407595955000033], [85.19479524200005, 26.40634201000006], [85.19844428300007, 26.404948888000035], [85.19917610800007, 26.40440761800005], [85.19951728500007, 26.403636], [85.20011875300008, 26.40324815100007], [85.20192309600003, 26.402594357000055], [85.20300073200008, 26.402364598000077], [85.20317125500009, 26.401823113000034], [85.20428903600003, 26.40128186100003], [85.20523093400004, 26.40182369200005], [85.20643406800008, 26.400817673000063], [85.20849395600004, 26.399893183000074], [85.21000757200005, 26.399383616000023], [85.21115069200005, 26.39768710100003], [85.21142148500007, 26.39683873900003], [85.21148697000007, 26.395990314000073], [85.21202341600008, 26.395200741000053], [85.21364206500004, 26.39477690600006], [85.21464939600008, 26.39435291500007], [85.21646858100007, 26.39374418700004], [85.21768121400004, 26.39368578600005], [85.21794665200008, 26.394290515000023], [85.21980071600007, 26.394263890000047], [85.22020173500005, 26.393961612000055], [85.21953063300003, 26.39250374900007], [85.22090881000008, 26.39162401300007], [85.21909587500005, 26.387864399000023], [85.21821883400008, 26.38822977500007], [85.21754730000004, 26.388590590000035], [85.21714118100004, 26.389682681000068], [85.21680518500006, 26.39059416200007], [85.21619880600008, 26.390715902000068], [85.21485600800008, 26.390652363000072], [85.21444998700008, 26.39107655500004], [85.21404413300007, 26.39101774900007], [85.21256634900004, 26.389437840000028], [85.20684363100008, 26.390772003000052], [85.20382187800004, 26.391190836000078], [85.20163179700006, 26.39192569200003], [85.19863035300006, 26.391911101000062], [85.19674623600008, 26.391756986000075], [85.19502778900005, 26.39129151900005], [85.19253767700008, 26.390672195000036], [85.19134083900008, 26.389123810000058], [85.18919188600006, 26.387732915000072], [85.18704739200007, 26.387574072000064], [85.18396157800004, 26.386182611000038], [85.18310028100007, 26.38525254600006], [85.18095601300007, 26.384800304000066]]]]}}, {"type": "Feature", "properties": {"OBJECTID": 3882, "GPCODE": "96959", "GPNAME_1": "KHOTHIYA", "DIST_CEN_C": "02", "BLK_NAME": "TETARIA", "ST_NAME": "BIHAR", "ST_CODE_1": "10", "GPCODE2011": "99455", "REMARKS": "FINALIZED", "MAP_STATUS": "COMPLETED", "BLK_C_2001": "020026", "BLK_C_2011": "01056", "DIST_NAME": "PURBI CHAMPARAN", "code2011": 0.0, "Shape_Leng": 0.14911178017, "Shape_Area": 0.00093899295, "Area": 10.3808}, "geometry": {"type": "MultiPolygon", "coordinates": [[[[85.16964698000004, 26.406961935000027], [85.17009911700006, 26.405355497000073], [85.16992933600005, 26.404547645000036], [85.16889759000009, 26.403540690000057], [85.16839726700005, 26.402425699000048], [85.16958436000004, 26.403270243000065], [85.17190384700007, 26.404431379000073], [85.17417388900003, 26.404662760000065], [85.17640905300004, 26.40462782000003], [85.17846919700008, 26.403893314000072], [85.17907024800007, 26.40439449400003], [85.18086996900007, 26.40342966600008], [85.18292086900004, 26.401259894000077], [85.18326763500005, 26.399405280000053], [85.18245295400004, 26.395654638000053], [85.18202636700005, 26.388153859000056], [85.18095601300007, 26.384800304000066], [85.17829703600006, 26.38217238900006], [85.17435018100008, 26.380004145000044], [85.17152006500004, 26.37876614100003], [85.16980143900008, 26.378918595000073], [85.16791684500004, 26.379910335000034], [85.16495369300003, 26.38281045800005], [85.16254715200006, 26.384740521000026], [85.15984565100007, 26.38582198000006], [85.15765526300004, 26.38678630900006], [85.15520977500006, 26.38709159800004], [85.15443842000008, 26.386707482000077], [85.15345138400005, 26.38662561700005], [85.15107549900006, 26.38764842200004], [85.14961119800006, 26.388996786000064], [85.14948503500005, 26.390079738000054], [85.15017139400004, 26.390197577000038], [85.14978451800005, 26.391397804000064], [85.14939772000008, 26.392557348000025], [85.14827404700003, 26.393905886000027], [85.14775767900005, 26.39425300100004], [85.14711577700007, 26.394717353000033], [85.14668418400004, 26.39552937700006], [85.14586678700005, 26.39610643900005], [85.14479309200004, 26.397612975000072], [85.14388978800008, 26.39904294100006], [85.14320308300006, 26.399313181000025], [85.14204537000006, 26.399429659000077], [85.14114291400006, 26.399853221000058], [85.13958343600007, 26.400876415000027], [85.13962276900008, 26.40165269000005], [85.13936570800007, 26.40331327100006], [85.13929899800007, 26.404874644000074], [85.14075423100007, 26.408274], [85.14182485800006, 26.41024699700006], [85.14304801900005, 26.40992747100006], [85.14510920800006, 26.408381123000026], [85.14562543100004, 26.408381443000053], [85.14635634500007, 26.40919431800006], [85.14742868500008, 26.409429784000054], [85.14880217300004, 26.40904259200005], [85.15000509200007, 26.408849389000068], [85.15215023200005, 26.408697479000068], [85.15489740900006, 26.40769291400005], [85.15788041200005, 26.406359058000078], [85.15856588700007, 26.407754], [85.16131007300004, 26.41061691400006], [85.16340838800005, 26.41270770600005], [85.16392407100005, 26.41347975000008], [85.16409372100009, 26.414445621000027], [85.16486408100008, 26.41645883900003], [85.16637782000004, 26.416274668000028], [85.16771130300003, 26.41596860800007], [85.17075952900007, 26.414463027000068], [85.17135644300004, 26.413687079000056], [85.17200353100003, 26.412798387000066], [85.17290586200005, 26.412604826000063], [85.17264603500007, 26.411291490000053], [85.17213547200004, 26.41032539300005], [85.17071758600008, 26.409783092000055], [85.16998673400008, 26.408582230000036], [85.16964698000004, 26.406961935000027]]]]}}, {"type": "Feature", "properties": {"OBJECTID": 3884, "GPCODE": "253060", "GPNAME_1": "GHEGHWA", "DIST_CEN_C": "02", "BLK_NAME": "TETARIA", "ST_NAME": "BIHAR", "ST_CODE_1": "10", "GPCODE2011": "244481", "REMARKS": "FINALIZED", "MAP_STATUS": "COMPLETED", "BLK_C_2001": "020026", "BLK_C_2011": "01056", "DIST_NAME": "PURBI CHAMPARAN", "code2011": 0.0, "Shape_Leng": 0.1596136655, "Shape_Area": 0.00072679647, "Area": 8.03338}, "geometry": {"type": "MultiPolygon", "coordinates": [[[[85.19281911600007, 26.43034093700004], [85.19562654900005, 26.429358252000043], [85.19640352000005, 26.429358582000077], [85.19858422000004, 26.428894541000034], [85.19954695200005, 26.42802838500006], [85.20047978900004, 26.426859884000066], [85.20068533300008, 26.426720067000076], [85.20162306800006, 26.425596674000076], [85.20219525800007, 26.42368338500006], [85.20328816800009, 26.423124118000032], [85.20522311800005, 26.42265996100008], [85.20676678400008, 26.422700985000063], [85.20801009900003, 26.422123700000043], [85.20917326500006, 26.42096421900004], [85.20955970300008, 26.41961045900007], [85.20977060400008, 26.41841006900006], [85.20998637800005, 26.417485056000032], [85.21050298100005, 26.416672791000053], [85.20966627900003, 26.415607513000054], [85.20841981900008, 26.411468865000074], [85.21192353500004, 26.409633092000036], [85.21295629500008, 26.408631419000073], [85.21158390600004, 26.406000036000023], [85.21055182200007, 26.405381455000054], [85.21021123300005, 26.404763118000062], [85.20849395600004, 26.399893183000074], [85.20643406800008, 26.400817673000063], [85.20523093400004, 26.40182369200005], [85.20428903600003, 26.40128186100003], [85.20317125500009, 26.401823113000034], [85.20300073200008, 26.402364598000077], [85.20192309600003, 26.402594357000055], [85.20011875300008, 26.40324815100007], [85.19951728500007, 26.403636], [85.19917610800007, 26.40440761800005], [85.19844428300007, 26.404948888000035], [85.19479524200005, 26.40634201000006], [85.19301559600007, 26.407595955000033], [85.19417587600003, 26.412583167000037], [85.19460095900007, 26.41451937200003], [85.19511667300003, 26.41575616600005], [85.19419402100004, 26.416586188000053], [85.19295117900003, 26.41639157900005], [85.19153308900007, 26.41569605600006], [85.18910795000005, 26.414440426000056], [85.18726391700005, 26.413974807000045], [85.18605605200008, 26.413947217000043], [85.18541011500008, 26.412827634000053], [85.18502543800008, 26.41066127700003], [85.18421026500005, 26.40741162000006], [85.18331388500008, 26.406291949000035], [85.18232687600005, 26.405750012000055], [85.18086996900007, 26.40342966600008], [85.17907024800007, 26.40439449400003], [85.17846919700008, 26.403893314000072], [85.17640905300004, 26.40462782000003], [85.17417388900003, 26.404662760000065], [85.17190384700007, 26.404431379000073], [85.16958436000004, 26.403270243000065], [85.16839726700005, 26.402425699000048], [85.16889759000009, 26.403540690000057], [85.16992933600005, 26.404547645000036], [85.17009911700006, 26.405355497000073], [85.16964698000004, 26.406961935000027], [85.16998673400008, 26.408582230000036], [85.17071758600008, 26.409783092000055], [85.17213547200004, 26.41032539300005], [85.17264603500007, 26.411291490000053], [85.17290586200005, 26.412604826000063], [85.17371770600005, 26.412645892000057], [85.17419346200006, 26.413264430000027], [85.17548060000007, 26.414578377000055], [85.17612218100004, 26.414619359000028], [85.17695862000005, 26.41545013800004], [85.17807005900005, 26.417463418000068], [85.17910207200003, 26.41819954500005], [85.17982879100003, 26.418199962000074], [85.18056031400005, 26.418660644000056], [85.18089969500005, 26.420980437000026], [85.18124362500004, 26.424306606000073], [85.18206052200009, 26.424424309000074], [85.18285221400004, 26.424903048000033], [85.18285170700005, 26.425828241000033], [85.18229471000006, 26.42698777100003], [85.18207860800004, 26.42780000600004], [85.18169199700003, 26.428959685000052], [85.18087459500003, 26.429618172000062], [85.18091935200005, 26.430313168000055], [85.18194626900004, 26.43139676000004], [85.18287723400005, 26.433725825000067], [85.18570453100006, 26.433515070000055], [85.18772996800004, 26.432956297000032], [85.18986089400005, 26.431973422000056], [85.18991128300007, 26.43145896200008], [85.18991148400005, 26.430944511000064], [85.19281911600007, 26.43034093700004]]]]}}, {"type": "Feature", "properties": {"OBJECTID": 4172, "GPCODE": "96956", "GPNAME_1": "BAHUARA GOPI SINGH", "DIST_CEN_C": "02", "BLK_NAME": "TETARIA", "ST_NAME": "BIHAR", "ST_CODE_1": "10", "GPCODE2011": "99454", "REMARKS": "FINALIZED", "MAP_STATUS": "COMPLETED", "BLK_C_2001": "020026", "BLK_C_2011": "01056", "DIST_NAME": "PURBI CHAMPARAN", "code2011": 0.0, "Shape_Leng": 0.25488738934, "Shape_Area": 0.00115044718, "Area": 12.7178}, "geometry": {"type": "MultiPolygon", "coordinates": [[[[85.22636599400005, 26.425308493000045], [85.22671712100004, 26.423873411000045], [85.22713347800004, 26.422181127000044], [85.22731919000006, 26.421052969000073], [85.22745963200003, 26.420574590000058], [85.22753483600007, 26.42007823700004], [85.22757506200008, 26.419762329000037], [85.22708394100005, 26.419333494000057], [85.22673312100005, 26.419040133000067], [85.22652266900008, 26.418638454000074], [85.22647262200007, 26.418227733000037], [85.22651786400007, 26.41783508800006], [85.22675847800008, 26.41750567300005], [85.22777613300008, 26.416436309000062], [85.22861821800007, 26.41570991800006], [85.22941025800003, 26.415046580000023], [85.23023224000008, 26.414509700000053], [85.23107430400006, 26.414135224000063], [85.23217194700004, 26.413972887000057], [85.23252276100004, 26.414013517000058], [85.23277335200004, 26.414094773000045], [85.23293876400004, 26.414212194000072], [85.23297376300007, 26.41437916500007], [85.23286344400003, 26.414591216000076], [85.23204650400004, 26.415046954000047], [85.23121437500004, 26.415719285000023], [85.23101385400008, 26.415994540000042], [85.23078330500005, 26.41631488200005], [85.23068303500008, 26.416644304000044], [85.23068797700006, 26.416838417000065], [85.23090337900004, 26.417560473000037], [85.23126920200008, 26.418038951000028], [85.23141947600004, 26.418260047000047], [85.23151974100006, 26.418539874000032], [85.23160983400004, 26.419085921000033], [85.23168493200006, 26.41972680200007], [85.23168484700005, 26.42017803500005], [85.23162462900007, 26.421044592000044], [85.23180990900005, 26.421965242000056], [85.23207041800003, 26.422682748000057], [85.23285222500004, 26.423756921000063], [85.23303764700006, 26.423960089000047], [85.23331325200007, 26.424027807000073], [85.23376936000005, 26.423919503000036], [85.23420546300008, 26.423906016000046], [85.23471171700004, 26.423910610000064], [85.23480191000004, 26.42374819400004], [85.23489720600008, 26.42345934000008], [85.23496239100007, 26.423211158000072], [85.23499748300009, 26.422999049000055], [85.23509782300005, 26.422701190000055], [85.23511796500009, 26.421933987000045], [85.23528337900007, 26.421415008000054], [85.23563430900003, 26.420896077000066], [85.23588499100003, 26.42065245400005], [85.236316, 26.420426814000052], [85.23673199600006, 26.420223762000035], [85.23754402500003, 26.41995305900008], [85.23858154300007, 26.419962215000055], [85.23879700900005, 26.42011568600003], [85.23892233000004, 26.420318743000053], [85.23917287100005, 26.420648200000073], [85.23958883400007, 26.420941561000063], [85.24006506000006, 26.421117586000037], [85.24113762300004, 26.42123497600005], [85.24233547200004, 26.421050070000035], [85.24270136600006, 26.42090114000007], [85.24312750400009, 26.420716138000046], [85.24347834200006, 26.420445401000052], [85.24390435100008, 26.42008434400003], [85.24484670100009, 26.41936683600005], [85.24517241100006, 26.419064542000058], [85.24530281500006, 26.418938135000076], [85.24535286200006, 26.418739600000038], [85.24541803600005, 26.418175468000072], [85.24537794000008, 26.417818992000036], [85.24506731100007, 26.417092325000056], [85.24403484500004, 26.41559856600003], [85.24140174300004, 26.415924449000045], [85.24011370300008, 26.41577084200003], [85.23771305700006, 26.414534179000043], [85.23694142200003, 26.41360444700007], [85.23676606500004, 26.412367885000037], [85.23788378900008, 26.411289389000046], [85.23753805500007, 26.41035966000004], [85.23616496200003, 26.40974125300005], [85.23530813700006, 26.40835125500007], [85.23594963700003, 26.407999292000056], [85.23500287400003, 26.404673174000038], [85.23603519100004, 26.404596558000037], [85.23921256600005, 26.40374836600006], [85.23895710300008, 26.402480242000024], [85.23857127900004, 26.40135646500005], [85.23737381900008, 26.399695614000052], [85.23702806100005, 26.398729799000023], [85.23737396100006, 26.398224365000033], [85.23612644700006, 26.395751141000062], [85.23507448800007, 26.392406976000075], [85.23447870000007, 26.388616073000037], [85.23224388500006, 26.388385587000073], [85.23061544500007, 26.388385396000047], [85.22995926800007, 26.387081041000044], [85.23016493700004, 26.385623429000077], [85.23177838900006, 26.38489705300003], [85.23150803400006, 26.383624336000025], [85.23561680600005, 26.38229350000006], [85.23453993100009, 26.37956308300005], [85.23346265600009, 26.379562973000077], [85.23305705500007, 26.378533978000064], [85.23578783500005, 26.37675620500005], [85.23888420100008, 26.376088501000027], [85.24090332700007, 26.37554262100008], [85.24137434400006, 26.376088708000054], [85.24372909700008, 26.37590833300004], [85.24342356500006, 26.37399476400003], [85.243624, 26.37296589600004], [85.24268222200004, 26.371810495000034], [85.24181057300007, 26.370054873000072], [85.24133971300006, 26.36877774000004], [85.24214637200004, 26.367685657000038], [85.24207627200008, 26.366291085000057], [85.24196805400004, 26.364115023000068], [85.24175266500004, 26.364507600000024], [85.24175256600006, 26.365076294000062], [85.24176756300005, 26.36546887800006], [85.24187268300005, 26.36658359100005], [85.24177249900004, 26.367373305000058], [85.24135660300004, 26.368113411000024], [85.24118631400006, 26.36833908500006], [85.24092074500004, 26.368758743000058], [85.24076037300006, 26.36911072600003], [85.24024434300009, 26.36920551600008], [85.23976342600008, 26.369024953000064], [85.23884662100005, 26.368569083000068], [85.23848090200005, 26.368402051000032], [85.23707824700006, 26.367828812000027], [85.23622658400006, 26.36741354000003], [85.23552525000008, 26.36721936200007], [85.23467358100004, 26.367165139000065], [85.23358640400005, 26.36741772700003], [85.23281489800007, 26.367526014000077], [85.23221365300003, 26.367823716000032], [85.23179785700006, 26.36789137900007], [85.23141206400004, 26.36801767600008], [85.23088104600004, 26.36818012300006], [85.23033987800005, 26.368703502000074], [85.23000917500008, 26.36912771200008], [85.22947297900004, 26.36950670300007], [85.22900210500006, 26.36970072400004], [85.22855118300004, 26.369836002000056], [85.22812025700006, 26.37007967200003], [85.22770433600004, 26.37042711500004], [85.22748888400008, 26.370621151000023], [85.22680249400008, 26.370945882000058], [85.22646679100006, 26.371063220000053], [85.22598574400007, 26.371243674000027], [85.22563505500005, 26.371351940000068], [85.22529944400009, 26.371320268000034], [85.22476338000007, 26.37126151700005], [85.22437760900004, 26.371153106000065], [85.22374641400006, 26.37102215300007], [85.22337570000008, 26.370904676000066], [85.22270940500005, 26.370588705000046], [85.22195303700005, 26.36988900700004], [85.22130191400004, 26.369238987000074], [85.22108153400006, 26.36894115700005], [85.22058072500005, 26.368670293000037], [85.22058020100008, 26.368675902000064], [85.21915057900009, 26.369749455000033], [85.21866954000006, 26.37002459100006], [85.21839899200006, 26.370295277000025], [85.21836377500006, 26.370683460000066], [85.21809824200005, 26.370877404000055], [85.21752698000006, 26.371102903000065], [85.21724144300003, 26.371292452000034], [85.21738584700006, 26.374316133000036], [85.21735062400006, 26.375024688000053], [85.21711509100004, 26.375299908000045], [85.21648866200007, 26.375764599000036], [85.21641842300005, 26.37597217900003], [85.21732924400004, 26.379763247000028], [85.21761450100007, 26.38122554100005], [85.21741898300007, 26.38148267400004], [85.21697300500006, 26.381744389000062], [85.21714298700005, 26.383012562000033], [85.21768366300006, 26.384953190000033], [85.21909587500005, 26.387864399000023], [85.22090881000008, 26.39162401300007], [85.21953063300003, 26.39250374900007], [85.22020173500005, 26.393961612000055], [85.21980071600007, 26.394263890000047], [85.21794665200008, 26.394290515000023], [85.21768121400004, 26.39368578600005], [85.21646858100007, 26.39374418700004], [85.21464939600008, 26.39435291500007], [85.21364206500004, 26.39477690600006], [85.21202341600008, 26.395200741000053], [85.21148697000007, 26.395990314000073], [85.21142148500007, 26.39683873900003], [85.21115069200005, 26.39768710100003], [85.21000757200005, 26.399383616000023], [85.20849395600004, 26.399893183000074], [85.21021123300005, 26.404763118000062], [85.21055182200007, 26.405381455000054], [85.21158390600004, 26.406000036000023], [85.21295629500008, 26.408631419000073], [85.21192353500004, 26.409633092000036], [85.20841981900008, 26.411468865000074], [85.20966627900003, 26.415607513000054], [85.21050298100005, 26.416672791000053], [85.21121521700007, 26.415030325000032], [85.21202744500005, 26.413789459000043], [85.21258901700008, 26.413094682000064], [85.21331585400003, 26.412593918000027], [85.21391736100009, 26.412440606000075], [85.21486463500008, 26.412359605000063], [85.21662408500003, 26.411281406000057], [85.21694409100007, 26.41369595200007], [85.21698886200005, 26.41504980700006], [85.21677313300006, 26.415780830000074], [85.21702854500006, 26.416399229000035], [85.21793076600005, 26.416245996000043], [85.21857237000006, 26.41593920200006], [85.21934873400005, 26.417947651000077], [85.22044039400004, 26.422027592000063], [85.22074731100008, 26.424801927000033], [85.22142403600003, 26.42463963800003], [85.22208557700003, 26.42483833700004], [85.22255174600008, 26.42499634400008], [85.22307791500003, 26.425280822000047], [85.22336366000008, 26.425492983000026], [85.22455155000006, 26.425434539000037], [85.22565422500008, 26.42536696800005], [85.22636599400005, 26.425308493000045]]]]}}]}