{"type": "FeatureCollection", "features": [{"type": "Feature", "properties": {"OBJECTID": 3915, "GPCODE": "96880", "GPNAME_1": "BARA PARSONI", "DIST_CEN_C": "02", "BLK_NAME": "PHENHARA", "ST_NAME": "BIHAR", "ST_CODE_1": "10", "GPCODE2011": "99396", "REMARKS": "FINALIZED", "MAP_STATUS": "COMPLETED", "BLK_C_2001": "020024", "BLK_C_2011": "01054", "DIST_NAME": "PURBI CHAMPARAN", "code2011": 0.0, "Shape_Leng": 0.1543375797, "Shape_Area": 0.00066675286, "Area": 7.3632}, "geometry": {"type": "MultiPolygon", "coordinates": [[[[85.21198238400007, 26.53903567100008], [85.21256445000006, 26.53902678600008], [85.21348249500005, 26.539239158000044], [85.21444080100008, 26.539316109000026], [85.21523855800007, 26.539374937000048], [85.21585057000004, 26.53954660000005], [85.21686899900004, 26.539883426000074], [85.21665341000005, 26.539515162000043], [85.21678925400005, 26.539229052000053], [85.21683380600007, 26.538552132000063], [85.21697829100003, 26.537311012000032], [85.21732379900004, 26.536439836000056], [85.21784483900007, 26.535595568000076], [85.21958911900003, 26.533626878000064], [85.22059721500005, 26.533269629000074], [85.22208667200005, 26.53262789100006], [85.22271331800005, 26.53211301600004], [85.22297357900004, 26.531435887000043], [85.22268113400008, 26.529734768000026], [85.22278603500007, 26.529274378000025], [85.22327172900003, 26.52817737500004], [85.22330031500007, 26.526444468000022], [85.22310833500006, 26.524991487000023], [85.22325304900005, 26.524075268000047], [85.22312217700005, 26.523560901000053], [85.22263501500004, 26.522974497000064], [85.22161103800005, 26.52219001700007], [85.21996448800007, 26.52089587000006], [85.21941210200004, 26.520133565000037], [85.21941149400004, 26.51938893600004], [85.21977607100007, 26.517574602000025], [85.22085218200004, 26.514802959000065], [85.22208361500003, 26.511931980000043], [85.22228380000007, 26.511403804000054], [85.22274960800007, 26.510577719000025], [85.22368161200006, 26.50949847000004], [85.22388155200008, 26.50875376700003], [85.22396063200006, 26.507399847000045], [85.22339283700006, 26.50626297200006], [85.22298094300004, 26.50559536800006], [85.22197177800007, 26.504449746000034], [85.22141981900006, 26.504071073000034], [85.21972952100003, 26.504067630000065], [85.21698636400004, 26.504565824000053], [85.21669435100006, 26.50323927200003], [85.21486351100003, 26.502996689000042], [85.21361419900006, 26.502537140000072], [85.21242528600004, 26.502212962000044], [85.21036885100006, 26.502214156000036], [85.20957528000008, 26.50063962400003], [85.20854736700005, 26.500354967000078], [85.20798838100006, 26.500119855000037], [85.20720707800007, 26.499965020000047], [85.20646481000006, 26.49987900600007], [85.20558209800004, 26.499775020000072], [85.20432323100005, 26.499810715000024], [85.20380656400005, 26.49985117400007], [85.20297894600003, 26.49994558700007], [85.20248238100004, 26.500116968000043], [85.20196570400003, 26.50020702300003], [85.20161457500006, 26.500233968000032], [85.20140900300004, 26.500089511000056], [85.20114834500004, 26.499791548000076], [85.20102308400004, 26.499498196000047], [85.20082264400008, 26.499182219000033], [85.20062200400008, 26.499033272000077], [85.20040140400005, 26.49891130700007], [85.20015562500004, 26.498866099000054], [85.19984971100007, 26.498915648000036], [85.19941320700008, 26.499199778000047], [85.19906203300008, 26.499452362000056], [85.19852031100004, 26.499587593000058], [85.19780297000005, 26.49977236500007], [85.19685999900008, 26.50002922500005], [85.19618773600007, 26.500218475000054], [85.19552075200005, 26.50022727100003], [85.19458777100004, 26.500254002000077], [85.19351950800007, 26.50013172000007], [85.19289758400004, 26.50012695500004], [85.19207016700005, 26.49991449600003], [85.19084660300007, 26.499498822000078], [85.18986863700007, 26.499241190000077], [85.18944735300005, 26.499173348000056], [85.18926167700005, 26.49939438000007], [85.18909106900009, 26.49958380700008], [85.18764667800008, 26.499384691000046], [85.18669887100003, 26.49927143800005], [85.18575600700007, 26.499126543000045], [85.18556787500006, 26.499989885000048], [85.18564448300003, 26.500354798000046], [85.18569289800007, 26.500585646000047], [85.18574286400008, 26.500969294000072], [85.18591319500007, 26.501402604000077], [85.18617890700006, 26.50165993300004], [85.18688095600004, 26.501912927000035], [85.18789386600008, 26.502369202000068], [85.18836524500006, 26.502491246000034], [85.18907238900005, 26.502681117000066], [85.18978449300005, 26.502789747000065], [85.19053690200008, 26.502826180000056], [85.19167059100005, 26.50256036500008], [85.19270887000005, 26.502407307000055], [85.19336106700007, 26.502132329000062], [85.19408338100004, 26.501961125000037], [85.19519192700005, 26.501758419000055], [85.19609476200003, 26.501704618000076], [85.19663143000008, 26.501677784000037], [85.19735368200008, 26.501709663000042], [85.19809595100008, 26.50179562900007], [85.19858740500007, 26.502007896000066], [85.19893830200004, 26.50251350800005], [85.19910353500006, 26.503073138000047], [85.19914830500005, 26.504129189000025], [85.19907766300008, 26.505027202000065], [85.19910755200004, 26.505451450000066], [85.19922277400008, 26.505749369000057], [85.19953368900008, 26.50592097300006], [85.19999512100009, 26.506006871000068], [85.20073732300006, 26.506282396000074], [85.20095297300008, 26.506440413000064], [85.20110813100007, 26.507135465000033], [85.20135875000005, 26.507631979000053], [85.20174979600006, 26.508178120000025], [85.20203059200009, 26.508363235000047], [85.20259228400005, 26.508494291000034], [85.20348011000004, 26.508661620000055], [85.20416722300007, 26.508860372000072], [85.20472894500006, 26.509009456000058], [85.20506987800007, 26.509293883000055], [85.20535566300003, 26.509727197000075], [85.20570153900007, 26.51039068800003], [85.20631316000004, 26.511198742000033], [85.20688961100007, 26.512173698000026], [85.20763675200004, 26.513035857000034], [85.20832869400004, 26.51384390000004], [85.20906585600005, 26.514530068000056], [85.20998861100009, 26.51525689500005], [85.20888986300008, 26.515563453000027], [85.20777115100003, 26.51596922300007], [85.20699345200006, 26.516451893000067], [85.20602507400008, 26.51712853500004], [85.20555341100004, 26.51746685100005], [85.20535227900007, 26.518558854000048], [85.20507613100006, 26.519393663000074], [85.20494535600005, 26.520151767000073], [85.20483473900003, 26.52078810000006], [85.20453845700007, 26.521785350000073], [85.20406126900008, 26.523202252000033], [85.20357908800008, 26.52465971400005], [85.20347858400004, 26.525223745000062], [85.20341795100006, 26.526275272000078], [85.20335748300005, 26.527119190000064], [85.20344236700004, 26.52791797200007], [85.20353239900004, 26.528612965000036], [85.20359251600007, 26.529005556000072], [85.20381807500007, 26.52939375300008], [85.20447505600004, 26.52992202200005], [85.20465033100004, 26.53075690600008], [85.20478536500008, 26.53201154900006], [85.20513574100005, 26.534015356000054], [85.20558168000008, 26.535658203000025], [85.20593763000005, 26.53644805700003], [85.20678526500006, 26.536949271000026], [85.20845078000008, 26.537563517000024], [85.20958950300007, 26.53815947700008], [85.20992553000008, 26.538561196000046], [85.21010093700005, 26.538962921000063], [85.21019612500004, 26.539391701000056], [85.21041179900004, 26.53973015500003], [85.21064244900003, 26.53998750100004], [85.21085822000003, 26.539987590000067], [85.21108907400009, 26.539829637000025], [85.21120954300005, 26.539622078000036], [85.21142545900005, 26.539270181000063], [85.21163115600007, 26.539085182000065], [85.21198238400007, 26.53903567100008]]]]}}, {"type": "Feature", "properties": {"OBJECTID": 3918, "GPCODE": "96888", "GPNAME_1": "RUPAULIYA", "DIST_CEN_C": "02", "BLK_NAME": "PHENHARA", "ST_NAME": "BIHAR", "ST_CODE_1": "10", "GPCODE2011": "99400", "REMARKS": "FINALIZED", "MAP_STATUS": "COMPLETED", "BLK_C_2001": "020024", "BLK_C_2011": "01054", "DIST_NAME": "PURBI CHAMPARAN", "code2011": 0.0, "Shape_Leng": 0.180292422, "Shape_Area": 0.00099966783, "Area": 11.0412}, "geometry": {"type": "MultiPolygon", "coordinates": [[[[85.16619132600005, 26.52295483100005], [85.16513844400004, 26.522047086000043], [85.16449222600005, 26.52081921300004], [85.16409182800004, 26.519614055000034], [85.16369135500008, 26.518426934000047], [85.16417313700003, 26.51811583700004], [85.16450941600004, 26.517836225000053], [85.16480068600004, 26.517511442000057], [85.16495640100004, 26.51719113000007], [85.16495663500007, 26.516848157000027], [85.16495697700003, 26.51634727000004], [85.16482196600003, 26.51580557400007], [85.16484728300009, 26.515480730000036], [85.16504812200003, 26.515200983000057], [85.16533922300005, 26.514980096000045], [85.16598642500009, 26.51484058400007], [85.16848948200004, 26.514851002000057], [85.16916151900006, 26.515031906000047], [85.16942732700005, 26.51513134700008], [85.16954238900007, 26.515632381000046], [85.16978800600003, 26.515853589000073], [85.16996355700007, 26.515894355000057], [85.17011903800005, 26.515894466000077], [85.17020941800007, 26.515835808000077], [85.17039011900005, 26.51557420300003], [85.17052590800006, 26.515154514000074], [85.17074680400003, 26.51487032400007], [85.17083708500007, 26.514811761000033], [85.17134883100005, 26.51478942800003], [85.172377, 26.514911899000026], [85.17392193000006, 26.51503458600007], [85.17474951100007, 26.515156861000037], [85.17499529400004, 26.515274255000065], [85.17528087200003, 26.515779863000034], [85.17532559300008, 26.516461373000027], [85.17550552000006, 26.517558034000047], [85.17627803100004, 26.517418571000064], [85.17702060400006, 26.517179790000057], [85.17825498400003, 26.51671106300006], [85.17903764300007, 26.51644968900007], [85.18024173100008, 26.516188537000062], [85.18135545800004, 26.515958986000044], [85.18289564400004, 26.51558509800003], [85.18391421700005, 26.515242638000075], [85.18533391900007, 26.51490933900004], [85.18630214500007, 26.514801440000042], [85.18761650500005, 26.514508695000075], [85.18888085100008, 26.514026373000036], [85.18900642700004, 26.513823350000052], [85.18908680500004, 26.51345333100005], [85.18890656200006, 26.512871096000026], [85.18860102500008, 26.512076668000077], [85.18796446300007, 26.51105652600006], [85.18763381500008, 26.510392955000043], [85.18741847600006, 26.509652773000028], [85.18724332600004, 26.508984784000063], [85.18726362300004, 26.508461328000067], [85.18743435900006, 26.50808233300006], [85.18771543300005, 26.50782520000007], [85.18807665100007, 26.507554552000045], [85.18820213000004, 26.507396715000027], [85.18821727500006, 26.507207105000077], [85.18822261700006, 26.50668819300006], [85.18826300300003, 26.506083458000035], [85.18838357700008, 26.50585336000006], [85.18861937600008, 26.505727111000056], [85.18881503000006, 26.50565952200003], [85.18924640400007, 26.505623597000067], [85.18952729900008, 26.505569562000062], [85.18965781100007, 26.505474776000028], [85.18973310200005, 26.505307834000064], [85.18973310300004, 26.50519050400004], [85.18958791000006, 26.504851978000033], [85.18954785000005, 26.504563156000074], [85.18962316400007, 26.504414250000025], [85.18997436400008, 26.504233928000076], [85.19029548600008, 26.504148281000028], [85.19053121800005, 26.50401301200003], [85.19075202700003, 26.503828085000066], [85.19078223600008, 26.503561871000045], [85.19063698900004, 26.503281967000078], [85.19053690200008, 26.502826180000056], [85.18978449300005, 26.502789747000065], [85.18907238900005, 26.502681117000066], [85.18836524500006, 26.502491246000034], [85.18789386600008, 26.502369202000068], [85.18688095600004, 26.501912927000035], [85.18617890700006, 26.50165993300004], [85.18591319500007, 26.501402604000077], [85.18574286400008, 26.500969294000072], [85.18569289800007, 26.500585646000047], [85.18564448300003, 26.500354798000046], [85.18556787500006, 26.499989885000048], [85.18575600700007, 26.499126543000045], [85.18515919100008, 26.498995396000055], [85.18474304100005, 26.49887795500007], [85.18449739100004, 26.49871078600006], [85.18425682200007, 26.498390320000055], [85.18419678600003, 26.49806534800007], [85.18417171900006, 26.497997620000035], [85.18405644900008, 26.49792993500006], [85.18375554400006, 26.497839503000023], [85.18326413500006, 26.497672280000074], [85.18262233400003, 26.497401264000075], [85.18179997200008, 26.497071437000045], [85.18140893200007, 26.49682754300005], [85.18126348900006, 26.496737205000045], [85.18115318700006, 26.496633372000076], [85.18110328100005, 26.496285793000027], [85.18116366500004, 26.495884226000044], [85.18112906700009, 26.49501316800007], [85.18130501100006, 26.49433639500006], [85.17662338900004, 26.494673873000067], [85.17418085100007, 26.494803499000056], [85.17278692500008, 26.494315372000074], [85.17258696900006, 26.49327281500007], [85.17225642800008, 26.492568619000053], [85.17190059800004, 26.49223445900003], [85.17131884200006, 26.492198006000024], [85.17100807800006, 26.491895483000064], [85.16991024200007, 26.49120889900007], [85.16830512400009, 26.491568993000044], [85.167162, 26.491108057000076], [85.16557750900006, 26.49064226200005], [85.16459462700004, 26.490569513000025], [85.16341081300004, 26.490893753000023], [85.16182522400004, 26.491876597000044], [85.16023510300005, 26.49225911800005], [85.15820368300007, 26.492618896000067], [85.15674913500004, 26.49280752800007], [85.15460770700008, 26.49262555200005], [85.15366946600005, 26.49308978600004], [85.15317796800008, 26.493107441000063], [85.15221514200005, 26.493007543000033], [85.15129736400007, 26.493006923000053], [85.14982252100003, 26.49337588000003], [85.14808176100007, 26.49392077500005], [85.14703834400007, 26.49416821500006], [85.14754845400006, 26.495806755000046], [85.14782356600006, 26.496700455000052], [85.14785798400004, 26.49738645900004], [85.14699486500007, 26.49791388400007], [85.14655330200009, 26.49816177300005], [85.14637258600004, 26.498378263000063], [85.14637236500005, 26.498576764000063], [85.14646232500007, 26.498955977000037], [85.14697345800005, 26.49942109500006], [85.14739929000007, 26.500084841000046], [85.14760894400007, 26.500354015000028], [85.14789520900007, 26.500721526000063], [85.14808028100003, 26.50129932400006], [85.14820531300006, 26.50174612400008], [85.14822428000008, 26.50302332700005], [85.14812668100006, 26.504279646000043], [85.14844547500007, 26.506081297000037], [85.14866889700005, 26.50772049300008], [85.14881531200007, 26.509936525000057], [85.14892391200004, 26.51174721500007], [85.14907614200007, 26.51547488600005], [85.14947125700007, 26.516923837000036], [85.14976576000004, 26.518539616000055], [85.15000485600007, 26.520543520000047], [85.15022458600004, 26.521658306000063], [85.15039836800008, 26.523829162000027], [85.15061313600006, 26.524934905000066], [85.15190750700003, 26.52484557200006], [85.15278068600009, 26.524543811000058], [85.15322751300005, 26.52406127100005], [85.15392075900007, 26.522897391000072], [85.15439274200008, 26.522392300000035], [85.15506018200006, 26.522112942000035], [85.15582276900005, 26.52207283200005], [85.15680588600009, 26.52221336100007], [85.15792430500005, 26.522538991000033], [85.15866132100007, 26.523053953000044], [85.15886148900006, 26.523636201000045], [85.15937725900005, 26.52488210300004], [85.15959662800003, 26.526673884000047], [85.15964023100008, 26.52871365200008], [85.15933286800004, 26.530414844000063], [85.16066703400008, 26.53082637800003], [85.16183076200008, 26.531016597000075], [85.16236816600008, 26.530254248000062], [85.16249883900008, 26.529933941000024], [85.16238866900005, 26.529753348000042], [85.16149609000007, 26.529107434000025], [85.16111521100004, 26.52866494700004], [85.16071431500006, 26.52808260300003], [85.16071471800007, 26.527459793000048], [85.16107118500008, 26.52713508000005], [85.16106193200005, 26.526119658000027], [85.16123780100008, 26.52575875100007], [85.16170957100007, 26.52547477300004], [85.16231161600007, 26.525357842000062], [85.16255775900004, 26.52497437200003], [85.16282891700007, 26.524690195000062], [85.16374234200003, 26.524149263000027], [85.16483615800007, 26.52391073700005], [85.16620078500006, 26.52373099500005], [85.16801752900005, 26.523727590000078], [85.16773090200007, 26.523578446000045], [85.16619132600005, 26.52295483100005]], [[85.16335089300009, 26.510736749000046], [85.16437929000006, 26.510687735000033], [85.16536235200005, 26.510688338000023], [85.16612008600003, 26.51030518300007], [85.16652636300006, 26.510328032000075], [85.16585359700008, 26.511212115000035], [85.16565247100004, 26.511893459000078], [85.16565194500004, 26.512660666000045], [85.16543078500007, 26.513269697000055], [85.16455835700003, 26.512669049000067], [85.16397696000007, 26.51204140400006], [85.16335089300009, 26.510736749000046]]]]}}, {"type": "Feature", "properties": {"OBJECTID": 3924, "GPCODE": "96883", "GPNAME_1": "MANKARWA", "DIST_CEN_C": "02", "BLK_NAME": "PHENHARA", "ST_NAME": "BIHAR", "ST_CODE_1": "10", "GPCODE2011": "99398", "REMARKS": "FINALIZED", "MAP_STATUS": "COMPLETED", "BLK_C_2001": "020024", "BLK_C_2011": "01054", "DIST_NAME": "PURBI CHAMPARAN", "code2011": 0.0, "Shape_Leng": 0.1880949474, "Shape_Area": 0.00091125083, "Area": 10.0626}, "geometry": {"type": "MultiPolygon", "coordinates": [[[[85.16585359700008, 26.511212115000035], [85.16652636300006, 26.510328032000075], [85.16612008600003, 26.51030518300007], [85.16536235200005, 26.510688338000023], [85.16437929000006, 26.510687735000033], [85.16335089300009, 26.510736749000046], [85.16397696000007, 26.51204140400006], [85.16455835700003, 26.512669049000067], [85.16543078500007, 26.513269697000055], [85.16565194500004, 26.512660666000045], [85.16565247100004, 26.511893459000078], [85.16585359700008, 26.511212115000035]]], [[[85.17420364700007, 26.53704956200005], [85.17473544800004, 26.537012571000048], [85.17545294800004, 26.537076185000046], [85.17631578800007, 26.53721652100006], [85.17766526600008, 26.537411250000048], [85.17865353900004, 26.53755165800004], [85.18008351600008, 26.537498193000033], [85.18099157400007, 26.537525755000047], [85.18169896900008, 26.537607251000054], [85.18218558700005, 26.53782865200003], [85.18248131400009, 26.538185290000058], [85.18264165300008, 26.538573463000034], [85.18318794700008, 26.53969293700004], [85.18360905600008, 26.540248235000035], [85.18401521700008, 26.540713203000053], [85.18447156400003, 26.541074457000036], [85.18489797900008, 26.541286800000023], [85.18532441500008, 26.541354670000032], [85.18580610000004, 26.541282678000073], [85.18631800300005, 26.54106171500007], [85.18660914600008, 26.54083628400008], [85.18696056800007, 26.540371536000066], [85.18717161800004, 26.539861745000053], [85.18752797800005, 26.539460233000057], [85.18780409400006, 26.539230236000037], [85.18799981600006, 26.539158049000036], [85.18820046500008, 26.539153701000032], [85.18844628400007, 26.539253036000048], [85.18883751100003, 26.539510429000075], [85.18920753600008, 26.53992449800006], [85.19091950500007, 26.539836283000056], [85.19169227300006, 26.53968763200004], [85.19253034500008, 26.539272805000053], [85.19310751000006, 26.538979719000054], [85.19327310400007, 26.538776658000074], [85.19339380100007, 26.53833445300006], [85.19337902500007, 26.537801959000035], [85.19309337900006, 26.53704821200006], [85.19276775700007, 26.536005556000077], [85.19238218800007, 26.534493647000033], [85.19184576000004, 26.533703674000037], [85.19050676900008, 26.532538818000035], [85.18860106400007, 26.531089336000036], [85.18697150500003, 26.529432469000028], [85.18825612700005, 26.52879213600005], [85.18919458600004, 26.528192343000057], [85.18940546800007, 26.527831439000067], [85.18932582800005, 26.526554243000078], [85.18952725900004, 26.525123807000057], [85.18960282200004, 26.52456871100003], [85.18990405100004, 26.524013773000036], [85.19046121900004, 26.523458907000077], [85.19093302900006, 26.522913034000055], [85.19118915100006, 26.52244829700004], [85.19127962700009, 26.522015186000033], [85.19126495200004, 26.521202842000037], [85.19125054500006, 26.51995273800003], [85.19108532700005, 26.519298325000022], [85.19067933700006, 26.518756616000076], [85.18972651400009, 26.518047700000068], [85.18880388300005, 26.517383881000057], [85.18804681100005, 26.516593837000073], [85.18779131800005, 26.515979956000024], [85.18761650500005, 26.514508695000075], [85.18630214500007, 26.514801440000042], [85.18533391900007, 26.51490933900004], [85.18391421700005, 26.515242638000075], [85.18289564400004, 26.51558509800003], [85.18135545800004, 26.515958986000044], [85.18024173100008, 26.516188537000062], [85.17903764300007, 26.51644968900007], [85.17825498400003, 26.51671106300006], [85.17702060400006, 26.517179790000057], [85.17627803100004, 26.517418571000064], [85.17550552000006, 26.517558034000047], [85.17532559300008, 26.516461373000027], [85.17528087200003, 26.515779863000034], [85.17499529400004, 26.515274255000065], [85.17474951100007, 26.515156861000037], [85.17392193000006, 26.51503458600007], [85.172377, 26.514911899000026], [85.17134883100005, 26.51478942800003], [85.17083708500007, 26.514811761000033], [85.17074680400003, 26.51487032400007], [85.17052590800006, 26.515154514000074], [85.17039011900005, 26.51557420300003], [85.17020941800007, 26.515835808000077], [85.17011903800005, 26.515894466000077], [85.16996355700007, 26.515894355000057], [85.16978800600003, 26.515853589000073], [85.16954238900007, 26.515632381000046], [85.16942732700005, 26.51513134700008], [85.16916151900006, 26.515031906000047], [85.16848948200004, 26.514851002000057], [85.16598642500009, 26.51484058400007], [85.16533922300005, 26.514980096000045], [85.16504812200003, 26.515200983000057], [85.16484728300009, 26.515480730000036], [85.16482196600003, 26.51580557400007], [85.16495697700003, 26.51634727000004], [85.16495663500007, 26.516848157000027], [85.16495640100004, 26.51719113000007], [85.16480068600004, 26.517511442000057], [85.16450941600004, 26.517836225000053], [85.16417313700003, 26.51811583700004], [85.16369135500008, 26.518426934000047], [85.16409182800004, 26.519614055000034], [85.16449222600005, 26.52081921300004], [85.16513844400004, 26.522047086000043], [85.16619132600005, 26.52295483100005], [85.16773090200007, 26.523578446000045], [85.16801752900005, 26.523727590000078], [85.16620078500006, 26.52373099500005], [85.16483615800007, 26.52391073700005], [85.16374234200003, 26.524149263000027], [85.16282891700007, 26.524690195000062], [85.16255775900004, 26.52497437200003], [85.16231161600007, 26.525357842000062], [85.16170957100007, 26.52547477300004], [85.16123780100008, 26.52575875100007], [85.16106193200005, 26.526119658000027], [85.16107118500008, 26.52713508000005], [85.16071471800007, 26.527459793000048], [85.16071431500006, 26.52808260300003], [85.16111521100004, 26.52866494700004], [85.16149609000007, 26.529107434000025], [85.16238866900005, 26.529753348000042], [85.16249883900008, 26.529933941000024], [85.16236816600008, 26.530254248000062], [85.16183076200008, 26.531016597000075], [85.16066703400008, 26.53082637800003], [85.15933286800004, 26.530414844000063], [85.15964023100008, 26.52871365200008], [85.15959662800003, 26.526673884000047], [85.15937725900005, 26.52488210300004], [85.15886148900006, 26.523636201000045], [85.15866132100007, 26.523053953000044], [85.15792430500005, 26.522538991000033], [85.15680588600009, 26.52221336100007], [85.15582276900005, 26.52207283200005], [85.15506018200006, 26.522112942000035], [85.15439274200008, 26.522392300000035], [85.15392075900007, 26.522897391000072], [85.15322751300005, 26.52406127100005], [85.15278068600009, 26.524543811000058], [85.15190750700003, 26.52484557200006], [85.15061313600006, 26.524934905000066], [85.15089745800003, 26.526898200000062], [85.15105732000006, 26.52758429200003], [85.15110793300005, 26.52791574200006], [85.15115622900004, 26.52797893500008], [85.15304257100007, 26.529314104000036], [85.15361377500005, 26.530180909000023], [85.15394932200007, 26.530930321000028], [85.15403878600006, 26.53193223900007], [85.15416824900007, 26.53313270700005], [85.15420187700005, 26.53490179100004], [85.15442669400005, 26.536102338000035], [85.15488741000007, 26.537154143000066], [85.15592498700005, 26.538373292000074], [85.15749926000007, 26.53977784500006], [85.15877794300008, 26.540726316000075], [85.15925896800007, 26.541511868000043], [85.15923871200005, 26.54177810400006], [85.15914832100003, 26.541945061000035], [85.15888721200008, 26.542148009000073], [85.15814412300006, 26.542747702000042], [85.15720052800003, 26.543229953000036], [85.15632677800005, 26.54402819200004], [85.15599526200003, 26.544497273000047], [85.15575402200005, 26.544979943000044], [85.15562317800004, 26.54546275100006], [85.15556736100007, 26.54624794800003], [85.15560204800005, 26.546866279000028], [85.15600802300008, 26.54737650100003], [85.15673480500004, 26.548274969000033], [85.15749197100007, 26.548911834000023], [85.15836480200005, 26.549228249000066], [85.15951371600005, 26.549472714000046], [85.16050221500007, 26.549491398000043], [85.16152086300008, 26.54933857000003], [85.16388005000005, 26.54822539500003], [85.16554141800003, 26.547581034000075], [85.16754908400009, 26.546602885000027], [85.16921055600005, 26.54576901200005], [85.17106754500008, 26.544998323000073], [85.17258820100005, 26.54445763500007], [85.17362710200007, 26.543997907000062], [85.17414417300006, 26.543704856000033], [85.17437503900004, 26.543510887000025], [85.17489227200008, 26.542861342000037], [85.17506318700003, 26.54239209800005], [85.17523418700006, 26.541674580000063], [85.17525469700007, 26.541047337000066], [85.17521502300008, 26.54037938600004], [85.17506465500009, 26.540054464000036], [85.17490931200007, 26.53978804600007], [85.17462402500007, 26.53875000800008], [85.17430838600006, 26.53797808300004], [85.17417821300006, 26.53762148000004], [85.17411824400006, 26.537215352000032], [85.17420364700007, 26.53704956200005]]]]}}, {"type": "Feature", "properties": {"OBJECTID": 3929, "GPCODE": "96881", "GPNAME_1": "MADHUBANI", "DIST_CEN_C": "02", "BLK_NAME": "PHENHARA", "ST_NAME": "BIHAR", "ST_CODE_1": "10", "GPCODE2011": "99397", "REMARKS": "FINALIZED", "MAP_STATUS": "COMPLETED", "BLK_C_2001": "020024", "BLK_C_2011": "01054", "DIST_NAME": "PURBI CHAMPARAN", "code2011": 0.0, "Shape_Leng": 0.1269037697, "Shape_Area": 0.00054538297, "Area": 6.02142}, "geometry": {"type": "MultiPolygon", "coordinates": [[[[85.20208610500003, 26.556862935000026], [85.20219659500003, 26.556650841000078], [85.20226199600006, 26.556262739000033], [85.20233243900003, 26.555820546000064], [85.20234264100003, 26.555491053000026], [85.20258353300005, 26.555292571000052], [85.20274415800003, 26.555224937000048], [85.20308540600007, 26.55517541200004], [85.20409399600004, 26.555076474000032], [85.20505254200003, 26.55495489900005], [85.20573002800006, 26.55487845700003], [85.20694442900003, 26.554671253000038], [85.20737626700009, 26.553642376000028], [85.20775786500008, 26.553001744000028], [85.20823477600004, 26.55256406500007], [85.20876177500008, 26.552162630000055], [85.20952461900004, 26.551905641000076], [85.21049809700008, 26.551608053000052], [85.21107518900004, 26.551481831000046], [85.21147165900004, 26.551265366000052], [85.21173267800003, 26.550994606000074], [85.21198380500005, 26.550520810000023], [85.21235532400004, 26.549834949000058], [85.21272179900006, 26.549302560000058], [85.21287735100003, 26.549099539000053], [85.21301290300005, 26.54905444600007], [85.21322357300005, 26.549054518000048], [85.21348453800005, 26.549113189000025], [85.21409159900008, 26.549280331000034], [85.21440766400008, 26.549303026000075], [85.21486434800005, 26.549267022000038], [85.21530089200007, 26.54905500900003], [85.21551168900004, 26.548851985000056], [85.21565734000006, 26.548617359000048], [85.21576273700003, 26.548319567000078], [85.21578796100005, 26.54803521200006], [85.21577297000005, 26.547728363000033], [85.21569280400007, 26.547421477000057], [85.21576314200007, 26.547064947000024], [85.21580339300004, 26.546735553000076], [85.21585365600004, 26.54648284700005], [85.21581350100007, 26.546297842000058], [85.21567310400007, 26.546130808000044], [85.21526174600007, 26.545701982000026], [85.21426356900008, 26.544672752000054], [85.21336077900008, 26.54361659800003], [85.21246265500008, 26.54364787700007], [85.21200102100005, 26.54369738200006], [85.21156447800007, 26.54381460700006], [85.21101247900003, 26.544089807000034], [85.21028980100004, 26.544441540000037], [85.20980805300007, 26.544626426000036], [85.20922098200003, 26.54467595500006], [85.20868915800008, 26.544603558000063], [85.20808216500006, 26.544355231000054], [85.20718418400008, 26.543867571000078], [85.20646181000006, 26.543492773000025], [85.20572425000006, 26.543442850000076], [85.20492141300008, 26.543514811000023], [85.20430922200006, 26.54357785600007], [85.20396811300003, 26.543577690000063], [85.20356179100008, 26.54334743000004], [85.20284949900008, 26.542674779000038], [85.20227772200008, 26.54235422000005], [85.20181613100004, 26.542178059000037], [85.20118393400008, 26.54211007500004], [85.20077257800006, 26.542150608000043], [85.19996469300008, 26.54223154600004], [85.19893112300008, 26.542285282000023], [85.19759647000006, 26.54231192000003], [85.19599588800008, 26.542342862000055], [85.19474144400004, 26.542464264000046], [85.19346690500004, 26.542806711000026], [85.19233781700007, 26.542991295000036], [85.19147482600005, 26.54310833900007], [85.19119885800006, 26.543044976000033], [85.19089807100005, 26.542620704000058], [85.19063732000006, 26.542282063000073], [85.19026128800004, 26.541681763000042], [85.19005085100008, 26.541067877000046], [85.18920753600008, 26.53992449800006], [85.18883751100003, 26.539510429000075], [85.18844628400007, 26.539253036000048], [85.18820046500008, 26.539153701000032], [85.18799981600006, 26.539158049000036], [85.18780409400006, 26.539230236000037], [85.18752797800005, 26.539460233000057], [85.18717161800004, 26.539861745000053], [85.18696056800007, 26.540371536000066], [85.18660914600008, 26.54083628400008], [85.18631800300005, 26.54106171500007], [85.18580610000004, 26.541282678000073], [85.18532441500008, 26.541354670000032], [85.18489797900008, 26.541286800000023], [85.18447156400003, 26.541074457000036], [85.18401521700008, 26.540713203000053], [85.18360905600008, 26.540248235000035], [85.18318794700008, 26.53969293700004], [85.18264165300008, 26.538573463000034], [85.18248131400009, 26.538185290000058], [85.18218558700005, 26.53782865200003], [85.18169896900008, 26.537607251000054], [85.18099157400007, 26.537525755000047], [85.18008351600008, 26.537498193000033], [85.17865353900004, 26.53755165800004], [85.17766526600008, 26.537411250000048], [85.17631578800007, 26.53721652100006], [85.17545294800004, 26.537076185000046], [85.17473544800004, 26.537012571000048], [85.17420364700007, 26.53704956200005], [85.17411824400006, 26.537215352000032], [85.17417821300006, 26.53762148000004], [85.17430838600006, 26.53797808300004], [85.17462402500007, 26.53875000800008], [85.17490931200007, 26.53978804600007], [85.17506465500009, 26.540054464000036], [85.17521502300008, 26.54037938600004], [85.17525469700007, 26.541047337000066], [85.17523418700006, 26.541674580000063], [85.17506318700003, 26.54239209800005], [85.17489227200008, 26.542861342000037], [85.17437503900004, 26.543510887000025], [85.17414417300006, 26.543704856000033], [85.17362710200007, 26.543997907000062], [85.17258820100005, 26.54445763500007], [85.17263756200003, 26.545788909000066], [85.17253667000006, 26.546587659000068], [85.17216468600003, 26.547512595000057], [85.17185823100004, 26.54813068800007], [85.17223410100007, 26.548821394000072], [85.17237440600007, 26.549132846000077], [85.17282037400008, 26.55000407700004], [85.17301068200004, 26.550527638000062], [85.17331130200006, 26.551276957000027], [85.17351160200008, 26.551877207000075], [85.17365162700008, 26.55261738300004], [85.17377679900005, 26.552973962000067], [85.17389217900006, 26.553073304000065], [85.17407783300007, 26.553154680000034], [85.17439392100005, 26.553218036000032], [85.17467984600006, 26.55327686700008], [85.17489560000007, 26.553353659000038], [85.17510626200004, 26.553493652000043], [85.17538709800004, 26.553660772000057], [85.17555256500003, 26.553909092000026], [85.17572801600005, 26.554121286000054], [85.17599402800005, 26.554148474000044], [85.17628001000008, 26.554103502000032], [85.17664637200005, 26.553999926000074], [85.17727881700006, 26.553770136000026], [85.17755992100007, 26.553670940000075], [85.17795630900008, 26.55367117700007], [85.17833761500003, 26.55370292200007], [85.17876405400006, 26.553825009000036], [85.17923070200004, 26.553901964000033], [85.17948157300003, 26.55392918700005], [85.18017405800003, 26.553979162000076], [85.18114758100006, 26.553875826000024], [85.18169457600004, 26.55380840600003], [85.18230677300005, 26.553781615000048], [85.18302435000004, 26.553664653000055], [85.18338065800003, 26.553588078000075], [85.18417867500006, 26.553466608000065], [85.18511201300004, 26.553309090000027], [85.18567913500004, 26.553201053000066], [85.18681322900005, 26.55299390400006], [85.18709924400008, 26.55307976200004], [85.18741530300008, 26.553292072000033], [85.18768620300006, 26.55341855100005], [85.18804736300007, 26.553517930000055], [85.18856428400005, 26.553518197000074], [85.19032558300006, 26.55333845900003], [85.19107840000004, 26.553185323000037], [85.19198670700007, 26.553063837000025], [85.19212165700003, 26.55398452600008], [85.19241746600005, 26.554526191000036], [85.19262803800007, 26.555045191000033], [85.19283843600005, 26.555699650000065], [85.19289850500007, 26.55605165600008], [85.19282807500008, 26.556295357000067], [85.19269257300004, 26.556466773000068], [85.19239637900006, 26.55660210800005], [85.19207522800008, 26.55671020400007], [85.19164864900006, 26.556710082000052], [85.19101636900007, 26.556763984000042], [85.19078550500006, 26.55686310300007], [85.19063481400008, 26.55702103400006], [85.19064975200007, 26.557350519000067], [85.19110095500008, 26.558253269000033], [85.19133112200007, 26.55960715200007], [85.19150638000008, 26.56024805100003], [85.19161652600008, 26.560803230000033], [85.19183738800007, 26.560722018000035], [85.19215863800008, 26.56054619400004], [85.19254008600007, 26.560338744000035], [85.19314242800004, 26.55999606200004], [85.19419139500008, 26.55958574700003], [85.19620914800004, 26.558823886000027], [85.19732329600004, 26.55840908500005], [85.19820161400008, 26.558034863000046], [85.19909998900005, 26.557777938000072], [85.20033960000006, 26.55757077900006], [85.20123789000007, 26.557404115000054], [85.20155903100004, 26.55729590900006], [85.20187028300006, 26.557083956000042], [85.20208610500003, 26.556862935000026]]]]}}, {"type": "Feature", "properties": {"OBJECTID": 3974, "GPCODE": "253023", "GPNAME_1": "KHAN PIPRA MATHURAPUR", "DIST_CEN_C": "02", "BLK_NAME": "PHENHARA", "ST_NAME": "BIHAR", "ST_CODE_1": "10", "GPCODE2011": "244444", "REMARKS": "FINALIZED", "MAP_STATUS": "COMPLETED", "BLK_C_2001": "020024", "BLK_C_2011": "01054", "DIST_NAME": "PURBI CHAMPARAN", "code2011": 0.0, "Shape_Leng": 0.16793795489, "Shape_Area": 0.00111511182, "Area": 12.3192}, "geometry": {"type": "MultiPolygon", "coordinates": [[[[85.18130501100006, 26.49433639500006], [85.18129522100008, 26.494029451000074], [85.18144590200006, 26.49358274700006], [85.18148128800004, 26.49316765100008], [85.18159690900006, 26.492716402000042], [85.18172761500006, 26.492183947000058], [85.18186313600006, 26.49192676200005], [85.18188336000009, 26.491701093000074], [85.18183828900004, 26.491579272000024], [85.18172293900005, 26.49148444100007], [85.18156251300007, 26.49143021200007], [85.18113128600004, 26.491258506000065], [85.18056475000003, 26.49099649200008], [85.18000831200004, 26.49062619700004], [85.17961732400005, 26.490237910000076], [85.17926649500004, 26.48992633000006], [85.17920634500007, 26.48976829000003], [85.17898592300008, 26.489362025000048], [85.17881580600005, 26.488820385000054], [85.17866547000006, 26.48849996000007], [85.17856548300006, 26.488125323000077], [85.17855544900004, 26.48798991900003], [85.17847543000005, 26.48765594100007], [85.17851570700003, 26.487452890000043], [85.17869650500006, 26.487087460000055], [85.17906309400007, 26.48619861000003], [85.17930405800007, 26.485824102000038], [85.18013223400004, 26.48466469600004], [85.18071448100005, 26.483775972000046], [85.18093026700006, 26.48347370500005], [85.18112090600005, 26.48326171800005], [85.18126642300007, 26.48321668600005], [85.18150719200008, 26.483045279000066], [85.18179826500005, 26.482783677000043], [85.18204412300008, 26.48257170100004], [85.18257586500005, 26.482183877000068], [85.182907, 26.481949290000045], [85.18355907300008, 26.481683368000063], [85.18401047300006, 26.481494029000032], [85.18450208200005, 26.481300227000077], [85.18480802400006, 26.481119845000023], [85.18498363100008, 26.48099807600005], [85.18529972500005, 26.48074097500006], [85.18546535400003, 26.480492817000027], [85.18552561500007, 26.48025367100007], [85.18551060900006, 26.48013186600008], [85.18551074300007, 26.479915234000032], [85.18561120000004, 26.47974377500003], [85.18583189200007, 26.479554344000064], [85.18605768400005, 26.479274651000026], [85.18618826300008, 26.47892725300005], [85.18623368500005, 26.478502982000066], [85.18630424300005, 26.47775845800004], [85.18626981900007, 26.47658507400007], [85.18616465300005, 26.476246592000052], [85.18588405000008, 26.475898923000045], [85.18526756200004, 26.475429313000063], [85.18478120600008, 26.47524858400004], [85.18429005600007, 26.47483316100005], [85.18258303600004, 26.474720925000042], [85.18153487500007, 26.474982108000063], [85.18026087300007, 26.475486989000046], [85.17896190600004, 26.475969219000035], [85.17764275900004, 26.476388240000063], [85.17610314500007, 26.47659956900003], [85.17487477200007, 26.476337152000042], [85.17426822900006, 26.47607505700006], [85.17382213100007, 26.475767993000034], [85.17330599500008, 26.47516296300006], [85.17288542100005, 26.474138357000072], [85.17225955200007, 26.472698412000057], [85.17136833900008, 26.470807011000034], [85.17114331900007, 26.46980050600007], [85.17089842100006, 26.468645022000032], [85.17074393300004, 26.46721433600004], [85.17087987000008, 26.466433696000024], [85.17090022800005, 26.465910222000048], [85.17088060500004, 26.46538668900007], [85.17059004800007, 26.464903673000038], [85.16927188100004, 26.46410867900005], [85.16775314300008, 26.463421895000067], [85.16659505600006, 26.463182033000066], [85.16576779600007, 26.46322213600007], [85.16500535100005, 26.463623323000036], [85.16377615800008, 26.46466955300008], [85.16199017200006, 26.465923068000052], [85.16080653300008, 26.466323955000064], [85.15948797800007, 26.46620132700008], [85.15852553200006, 26.465839646000063], [85.15805957900005, 26.465397084000074], [85.15785463300006, 26.464629717000037], [85.15767978100007, 26.463767675000042], [85.15745437700008, 26.463424576000023], [85.15705334400008, 26.463406228000053], [85.15660686800004, 26.463663155000063], [85.15571404400004, 26.46410485000007], [85.15488643800006, 26.464438286000075], [85.15396870700005, 26.464582075000067], [85.15215864400005, 26.464662111000052], [85.14974705500003, 26.464434770000025], [85.14811741300008, 26.464546460000065], [85.14733505200007, 26.464667719000033], [85.14543440800009, 26.46509050700007], [85.14340840900007, 26.46544552000006], [85.14224515900008, 26.465395037000064], [85.14093163800004, 26.465272181000046], [85.14012460200007, 26.465032370000074], [85.13967866700006, 26.464630417000023], [85.13936782200005, 26.464589552000064], [85.13892131600005, 26.46488701100003], [85.13833877700006, 26.46579363400008], [85.13786605600006, 26.467341194000028], [85.13804514100008, 26.468790050000052], [85.13884649900007, 26.469774449000056], [85.14042957700008, 26.471215288000053], [85.14121092900007, 26.472199687000057], [85.14130001400008, 26.473445355000024], [85.14120904600009, 26.474212426000065], [85.13991384400003, 26.475808992000054], [85.13915054200004, 26.476936606000038], [85.13856767800007, 26.478222370000026], [85.13802922800005, 26.480162437000047], [85.13784818500005, 26.480685833000052], [85.13740128600006, 26.481267648000028], [85.13670855900006, 26.481953051000062], [85.13543377200006, 26.483017088000054], [85.13433956600005, 26.483972858000072], [85.13348590000004, 26.485136526000076], [85.13295288800003, 26.48656215400007], [85.13269086100007, 26.487798433000023], [85.13377382500005, 26.488106255000048], [85.13526302300005, 26.488387214000056], [85.13599996700003, 26.488685668000073], [85.13643594000007, 26.488983873000052], [85.13660115900007, 26.48925028900004], [85.13667609400005, 26.489597795000066], [85.13667569700004, 26.48995881600007], [85.13654495600008, 26.490373899000076], [85.13654463800003, 26.49073942600006], [85.13658433200004, 26.49110051100007], [85.13684489200006, 26.491362509000055], [85.13746680800006, 26.49138102300003], [85.13823936200004, 26.491164991000062], [85.14000548400008, 26.490299958000037], [85.14149540800008, 26.489854309000066], [85.14303550000005, 26.489372581000055], [85.14380788700004, 26.489273856000068], [85.14437957700005, 26.48931488200003], [85.14467035600006, 26.489482102000068], [85.14502094300008, 26.489978825000037], [85.14547649700006, 26.49083660100007], [85.14608222300006, 26.492078054000046], [85.14663285100005, 26.49325183700006], [85.14703834400007, 26.49416821500006], [85.14808176100007, 26.49392077500005], [85.14982252100003, 26.49337588000003], [85.15129736400007, 26.493006923000053], [85.15221514200005, 26.493007543000033], [85.15317796800008, 26.493107441000063], [85.15366946600005, 26.49308978600004], [85.15460770700008, 26.49262555200005], [85.15674913500004, 26.49280752800007], [85.15820368300007, 26.492618896000067], [85.16023510300005, 26.49225911800005], [85.16182522400004, 26.491876597000044], [85.16341081300004, 26.490893753000023], [85.16459462700004, 26.490569513000025], [85.16557750900006, 26.49064226200005], [85.167162, 26.491108057000076], [85.16830512400009, 26.491568993000044], [85.16991024200007, 26.49120889900007], [85.17100807800006, 26.491895483000064], [85.17131884200006, 26.492198006000024], [85.17190059800004, 26.49223445900003], [85.17225642800008, 26.492568619000053], [85.17258696900006, 26.49327281500007], [85.17278692500008, 26.494315372000074], [85.17418085100007, 26.494803499000056], [85.17662338900004, 26.494673873000067], [85.18130501100006, 26.49433639500006]]]]}}, {"type": "Feature", "properties": {"OBJECTID": 4182, "GPCODE": "96887", "GPNAME_1": "PHANHARA", "DIST_CEN_C": "02", "BLK_NAME": "PHENHARA", "ST_NAME": "BIHAR", "ST_CODE_1": "10", "GPCODE2011": "99399", "REMARKS": "FINALIZED", "MAP_STATUS": "COMPLETED", "BLK_C_2001": "020024", "BLK_C_2011": "01054", "DIST_NAME": "PURBI CHAMPARAN", "code2011": 0.0, "Shape_Leng": 0.1483413241, "Shape_Area": 0.00064636535, "Area": 7.13777}, "geometry": {"type": "MultiPolygon", "coordinates": [[[[85.21336077900008, 26.54361659800003], [85.21344631200003, 26.542880989000025], [85.21351669500007, 26.54229431300007], [85.21361721200003, 26.54191524500004], [85.21376775500005, 26.541585859000065], [85.21397860400003, 26.54131970700007], [85.21431985900006, 26.541134700000043], [85.21465607300007, 26.541031023000073], [85.21525314100006, 26.54100856200006], [85.21607592400005, 26.54098170800006], [85.21655763600006, 26.540972839000062], [85.21682360600005, 26.540882631000045], [85.21700921600006, 26.540729214000066], [85.21708963800006, 26.540530713000066], [85.21703445500003, 26.540219312000033], [85.21686899900004, 26.539883426000074], [85.21585057000004, 26.53954660000005], [85.21523855800007, 26.539374937000048], [85.21444080100008, 26.539316109000026], [85.21348249500005, 26.539239158000044], [85.21256445000006, 26.53902678600008], [85.21198238400007, 26.53903567100008], [85.21163115600007, 26.539085182000065], [85.21142545900005, 26.539270181000063], [85.21120954300005, 26.539622078000036], [85.21108907400009, 26.539829637000025], [85.21085822000003, 26.539987590000067], [85.21064244900003, 26.53998750100004], [85.21041179900004, 26.53973015500003], [85.21019612500004, 26.539391701000056], [85.21010093700005, 26.538962921000063], [85.20992553000008, 26.538561196000046], [85.20958950300007, 26.53815947700008], [85.20845078000008, 26.537563517000024], [85.20678526500006, 26.536949271000026], [85.20593763000005, 26.53644805700003], [85.20558168000008, 26.535658203000025], [85.20513574100005, 26.534015356000054], [85.20478536500008, 26.53201154900006], [85.20465033100004, 26.53075690600008], [85.20447505600004, 26.52992202200005], [85.20381807500007, 26.52939375300008], [85.20359251600007, 26.529005556000072], [85.20353239900004, 26.528612965000036], [85.20344236700004, 26.52791797200007], [85.20335748300005, 26.527119190000064], [85.20341795100006, 26.526275272000078], [85.20347858400004, 26.525223745000062], [85.20357908800008, 26.52465971400005], [85.20406126900008, 26.523202252000033], [85.20453845700007, 26.521785350000073], [85.20483473900003, 26.52078810000006], [85.20494535600005, 26.520151767000073], [85.20507613100006, 26.519393663000074], [85.20535227900007, 26.518558854000048], [85.20555341100004, 26.51746685100005], [85.20602507400008, 26.51712853500004], [85.20699345200006, 26.516451893000067], [85.20777115100003, 26.51596922300007], [85.20888986300008, 26.515563453000027], [85.20998861100009, 26.51525689500005], [85.20906585600005, 26.514530068000056], [85.20832869400004, 26.51384390000004], [85.20763675200004, 26.513035857000034], [85.20688961100007, 26.512173698000026], [85.20631316000004, 26.511198742000033], [85.20570153900007, 26.51039068800003], [85.20535566300003, 26.509727197000075], [85.20506987800007, 26.509293883000055], [85.20472894500006, 26.509009456000058], [85.20416722300007, 26.508860372000072], [85.20348011000004, 26.508661620000055], [85.20259228400005, 26.508494291000034], [85.20203059200009, 26.508363235000047], [85.20174979600006, 26.508178120000025], [85.20135875000005, 26.507631979000053], [85.20110813100007, 26.507135465000033], [85.20095297300008, 26.506440413000064], [85.20073732300006, 26.506282396000074], [85.19999512100009, 26.506006871000068], [85.19953368900008, 26.50592097300006], [85.19922277400008, 26.505749369000057], [85.19910755200004, 26.505451450000066], [85.19907766300008, 26.505027202000065], [85.19914830500005, 26.504129189000025], [85.19910353500006, 26.503073138000047], [85.19893830200004, 26.50251350800005], [85.19858740500007, 26.502007896000066], [85.19809595100008, 26.50179562900007], [85.19735368200008, 26.501709663000042], [85.19663143000008, 26.501677784000037], [85.19609476200003, 26.501704618000076], [85.19519192700005, 26.501758419000055], [85.19408338100004, 26.501961125000037], [85.19336106700007, 26.502132329000062], [85.19270887000005, 26.502407307000055], [85.19167059100005, 26.50256036500008], [85.19053690200008, 26.502826180000056], [85.19063698900004, 26.503281967000078], [85.19078223600008, 26.503561871000045], [85.19075202700003, 26.503828085000066], [85.19053121800005, 26.50401301200003], [85.19029548600008, 26.504148281000028], [85.18997436400008, 26.504233928000076], [85.18962316400007, 26.504414250000025], [85.18954785000005, 26.504563156000074], [85.18958791000006, 26.504851978000033], [85.18973310300004, 26.50519050400004], [85.18973310200005, 26.505307834000064], [85.18965781100007, 26.505474776000028], [85.18952729900008, 26.505569562000062], [85.18924640400007, 26.505623597000067], [85.18881503000006, 26.50565952200003], [85.18861937600008, 26.505727111000056], [85.18838357700008, 26.50585336000006], [85.18826300300003, 26.506083458000035], [85.18822261700006, 26.50668819300006], [85.18821727500006, 26.507207105000077], [85.18820213000004, 26.507396715000027], [85.18807665100007, 26.507554552000045], [85.18771543300005, 26.50782520000007], [85.18743435900006, 26.50808233300006], [85.18726362300004, 26.508461328000067], [85.18724332600004, 26.508984784000063], [85.18741847600006, 26.509652773000028], [85.18763381500008, 26.510392955000043], [85.18796446300007, 26.51105652600006], [85.18860102500008, 26.512076668000077], [85.18890656200006, 26.512871096000026], [85.18908680500004, 26.51345333100005], [85.18900642700004, 26.513823350000052], [85.18888085100008, 26.514026373000036], [85.18761650500005, 26.514508695000075], [85.18779131800005, 26.515979956000024], [85.18804681100005, 26.516593837000073], [85.18880388300005, 26.517383881000057], [85.18972651400009, 26.518047700000068], [85.19067933700006, 26.518756616000076], [85.19108532700005, 26.519298325000022], [85.19125054500006, 26.51995273800003], [85.19126495200004, 26.521202842000037], [85.19127962700009, 26.522015186000033], [85.19118915100006, 26.52244829700004], [85.19093302900006, 26.522913034000055], [85.19046121900004, 26.523458907000077], [85.18990405100004, 26.524013773000036], [85.18960282200004, 26.52456871100003], [85.18952725900004, 26.525123807000057], [85.18932582800005, 26.526554243000078], [85.18940546800007, 26.527831439000067], [85.18919458600004, 26.528192343000057], [85.18825612700005, 26.52879213600005], [85.18697150500003, 26.529432469000028], [85.18860106400007, 26.531089336000036], [85.19050676900008, 26.532538818000035], [85.19184576000004, 26.533703674000037], [85.19238218800007, 26.534493647000033], [85.19276775700007, 26.536005556000077], [85.19309337900006, 26.53704821200006], [85.19337902500007, 26.537801959000035], [85.19339380100007, 26.53833445300006], [85.19327310400007, 26.538776658000074], [85.19310751000006, 26.538979719000054], [85.19253034500008, 26.539272805000053], [85.19169227300006, 26.53968763200004], [85.19091950500007, 26.539836283000056], [85.18920753600008, 26.53992449800006], [85.19005085100008, 26.541067877000046], [85.19026128800004, 26.541681763000042], [85.19063732000006, 26.542282063000073], [85.19089807100005, 26.542620704000058], [85.19119885800006, 26.543044976000033], [85.19147482600005, 26.54310833900007], [85.19233781700007, 26.542991295000036], [85.19346690500004, 26.542806711000026], [85.19474144400004, 26.542464264000046], [85.19599588800008, 26.542342862000055], [85.19759647000006, 26.54231192000003], [85.19893112300008, 26.542285282000023], [85.19996469300008, 26.54223154600004], [85.20077257800006, 26.542150608000043], [85.20118393400008, 26.54211007500004], [85.20181613100004, 26.542178059000037], [85.20227772200008, 26.54235422000005], [85.20284949900008, 26.542674779000038], [85.20356179100008, 26.54334743000004], [85.20396811300003, 26.543577690000063], [85.20430922200006, 26.54357785600007], [85.20492141300008, 26.543514811000023], [85.20572425000006, 26.543442850000076], [85.20646181000006, 26.543492773000025], [85.20718418400008, 26.543867571000078], [85.20808216500006, 26.544355231000054], [85.20868915800008, 26.544603558000063], [85.20922098200003, 26.54467595500006], [85.20980805300007, 26.544626426000036], [85.21028980100004, 26.544441540000037], [85.21101247900003, 26.544089807000034], [85.21156447800007, 26.54381460700006], [85.21200102100005, 26.54369738200006], [85.21246265500008, 26.54364787700007], [85.21336077900008, 26.54361659800003]]]]}}]}