{"type": "FeatureCollection", "features": [{"type": "Feature", "properties": {"OBJECTID": 3872, "GPCODE": "96790", "GPNAME_1": "KOILAHARA", "DIST_CEN_C": "02", "BLK_NAME": "MADHUBAN", "ST_NAME": "BIHAR", "ST_CODE_1": "10", "GPCODE2011": "99329", "REMARKS": "FINALIZED", "MAP_STATUS": "COMPLETED", "BLK_C_2001": "020025", "BLK_C_2011": "01055", "DIST_NAME": "PURBI CHAMPARAN", "code2011": 0.0, "Shape_Leng": 0.12664847156, "Shape_Area": 0.00063624247, "Area": 7.03302}, "geometry": {"type": "MultiPolygon", "coordinates": [[[[85.13912597000007, 26.428851707000035], [85.13994359500003, 26.428234022000026], [85.14032945500009, 26.428387731000043], [85.14251366400003, 26.429707232000055], [85.14320037700008, 26.429707755000038], [85.14431859400008, 26.429203114000074], [85.14478973400008, 26.429244034000078], [85.14552146800008, 26.429321290000075], [85.14663493100005, 26.428586533000043], [85.14775417400006, 26.426922085000058], [85.14831655900008, 26.42572652700005], [85.14805725600007, 26.424219067000024], [85.14608673800006, 26.41931211600007], [85.14501627700008, 26.416991650000057], [85.14495350100003, 26.414351542000077], [85.14379626600004, 26.413840737000044], [85.14182433400003, 26.41078851900005], [85.14182485800006, 26.41024699700006], [85.14075423100007, 26.408274], [85.13929899800007, 26.404874644000074], [85.13936570800007, 26.40331327100006], [85.13962276900008, 26.40165269000005], [85.13958343600007, 26.400876415000027], [85.13554762600006, 26.402615199000024], [85.13344246600008, 26.403078384000025], [85.13138326200004, 26.402611814000068], [85.12880710200005, 26.40291654400005], [85.12790493300008, 26.402992509000057], [85.12752092300008, 26.40125468100007], [85.12681998200009, 26.400617802000056], [85.12492972100006, 26.401545761000023], [85.12319094500003, 26.401417931000026], [85.11988899800008, 26.40099071900005], [85.11547008800005, 26.400020829000027], [85.11324017200008, 26.399978160000046], [85.11199769100006, 26.399706150000043], [85.11152166400007, 26.39970569600007], [85.11131051400008, 26.400283184000045], [85.11113471700008, 26.400634962000026], [85.11123726600005, 26.402882481000063], [85.11188272100009, 26.403731621000077], [85.11250248200008, 26.405104143000074], [85.11271326300005, 26.40912529800005], [85.11176756900005, 26.412062311000057], [85.11064865400004, 26.41320304000004], [85.11168104100005, 26.413203999000075], [85.11322501600006, 26.412970856000072], [85.11412699100003, 26.413052907000065], [85.11510819600005, 26.41401961500003], [85.11570816900007, 26.415256743000043], [85.11776918000004, 26.414328943000044], [85.11843539900008, 26.41461387700008], [85.11967642300004, 26.416316385000073], [85.12096320100005, 26.417554111000072], [85.12267733700008, 26.417519518000063], [85.12652282500005, 26.416232217000072], [85.12905383600008, 26.416275048000045], [85.12875149600006, 26.41785884600006], [85.12939034800007, 26.420449774000076], [85.13123643800003, 26.423813437000035], [85.13198699700007, 26.425109243000065], [85.13228553400006, 26.427239573000065], [85.13275613700006, 26.427858300000025], [85.13399892600006, 26.42808946200006], [85.13481523100006, 26.42890242900006], [85.13558581600006, 26.43025691500003], [85.13605648400005, 26.430717618000074], [85.13674321200006, 26.430758754000067], [85.13912597000007, 26.428851707000035]]]]}}, {"type": "Feature", "properties": {"OBJECTID": 3876, "GPCODE": "96793", "GPNAME_1": "MADHUBAN SOUTH", "DIST_CEN_C": "02", "BLK_NAME": "MADHUBAN", "ST_NAME": "BIHAR", "ST_CODE_1": "10", "GPCODE2011": "99332", "REMARKS": "FINALIZED", "MAP_STATUS": "COMPLETED", "BLK_C_2001": "020025", "BLK_C_2011": "01055", "DIST_NAME": "PURBI CHAMPARAN", "code2011": 0.0, "Shape_Leng": 0.11451894548, "Shape_Area": 0.00040235292, "Area": 4.44716}, "geometry": {"type": "MultiPolygon", "coordinates": [[[[85.13126402600005, 26.440808593000042], [85.13230568700004, 26.439593321000075], [85.13334734900008, 26.438667400000043], [85.13502558200008, 26.43739425800004], [85.13583576300005, 26.43594750500006], [85.13595150300006, 26.43531093400003], [85.13595150300006, 26.43490584400007], [85.13674321200006, 26.430758754000067], [85.13605648400005, 26.430717618000074], [85.13558581600006, 26.43025691500003], [85.13481523100006, 26.42890242900006], [85.13399892600006, 26.42808946200006], [85.13275613700006, 26.427858300000025], [85.13228553400006, 26.427239573000065], [85.13198699700007, 26.425109243000065], [85.13123643800003, 26.423813437000035], [85.12939034800007, 26.420449774000076], [85.12875149600006, 26.41785884600006], [85.12905383600008, 26.416275048000045], [85.12652282500005, 26.416232217000072], [85.12267733700008, 26.417519518000063], [85.12096320100005, 26.417554111000072], [85.11967642300004, 26.416316385000073], [85.11843539900008, 26.41461387700008], [85.11776918000004, 26.414328943000044], [85.11570816900007, 26.415256743000043], [85.11510819600005, 26.41401961500003], [85.11412699100003, 26.413052907000065], [85.11322501600006, 26.412970856000072], [85.11168104100005, 26.413203999000075], [85.11064865400004, 26.41320304000004], [85.10951462000008, 26.414275967000037], [85.11037041700007, 26.415359903000024], [85.11023860900008, 26.41656021600005], [85.10901418400005, 26.41781812200003], [85.10768663000005, 26.417315839000025], [85.10622877200007, 26.416772888000025], [85.10476567600006, 26.41645998300004], [85.10356778300007, 26.41649934800006], [85.10195332000006, 26.41701666700004], [85.10027898000004, 26.417285697000068], [85.10765820300008, 26.420113884000045], [85.11291347300005, 26.42219045400003], [85.11711570300008, 26.424820891000024], [85.11891341900008, 26.42632986900003], [85.11977336400008, 26.42826671200004], [85.12056277900007, 26.430645750000053], [85.12261910200004, 26.434167606000074], [85.12334860900006, 26.436293850000027], [85.12349556100008, 26.439484597000046], [85.12349406600003, 26.440879134000056], [85.12536349000004, 26.441286966000064], [85.12652166000004, 26.441053278000027], [85.12802642400004, 26.440242254000054], [85.12875308000008, 26.440513658000043], [85.12995478200008, 26.441909149000026], [85.13100862400006, 26.443352178000055], [85.13085893500005, 26.442023865000067], [85.13126402600005, 26.440808593000042]]]]}}, {"type": "Feature", "properties": {"OBJECTID": 3879, "GPCODE": "96788", "GPNAME_1": "GARAHIA", "DIST_CEN_C": "02", "BLK_NAME": "MADHUBAN", "ST_NAME": "BIHAR", "ST_CODE_1": "10", "GPCODE2011": "99327", "REMARKS": "FINALIZED", "MAP_STATUS": "COMPLETED", "BLK_C_2001": "020025", "BLK_C_2011": "01055", "DIST_NAME": "PURBI CHAMPARAN", "code2011": 0.0, "Shape_Leng": 0.15060502794, "Shape_Area": 0.00077157516, "Area": 8.53076}, "geometry": {"type": "MultiPolygon", "coordinates": [[[[85.09762076500004, 26.403292829000065], [85.09822327000006, 26.402481183000077], [85.09779318000005, 26.40178574500004], [85.09802936300008, 26.401262496000072], [85.10208344700004, 26.401320889000033], [85.10397292200008, 26.401128740000047], [85.10590373100007, 26.399970929000062], [85.10637508800005, 26.39974120200003], [85.10693118500006, 26.39985464700004], [85.10736165400004, 26.400279297000054], [85.10791757200008, 26.400550577000047], [85.10946094400003, 26.400633330000062], [85.11113471700008, 26.400634962000026], [85.11131051400008, 26.400283184000045], [85.11152166400007, 26.39970569600007], [85.11199769100006, 26.399706150000043], [85.11324017200008, 26.399978160000046], [85.11547008800005, 26.400020829000027], [85.11988899800008, 26.40099071900005], [85.12319094500003, 26.401417931000026], [85.12492972100006, 26.401545761000023], [85.12681998200009, 26.400617802000056], [85.12635309400008, 26.396677629000067], [85.12612024700007, 26.394145669000068], [85.12890787500004, 26.392721936000044], [85.13122908900004, 26.39152347000004], [85.13084401400005, 26.39078752100005], [85.13125021900004, 26.39049], [85.13137656700007, 26.389443138000047], [85.13159288900005, 26.38855419400005], [85.13301149700004, 26.388013886000067], [85.13420932700006, 26.387780193000026], [85.13254069000004, 26.38275591400003], [85.13224279700006, 26.380088476000026], [85.13228926100004, 26.378694041000074], [85.13310149800003, 26.37811702600004], [85.13421953000005, 26.377459101000056], [85.13495147900005, 26.37695870500005], [85.13529247600007, 26.376611495000077], [85.13500710500006, 26.37641719900006], [85.13318306500008, 26.376709104000042], [85.13022606100003, 26.377636282000026], [85.12883262200006, 26.378212744000052], [85.12861723000003, 26.378149404000055], [85.12851221200003, 26.377955255000074], [85.12819216000008, 26.377413466000064], [85.12794161900007, 26.377413216000036], [85.12059447300004, 26.379333760000065], [85.11937663700007, 26.379657646000055], [85.11912670600003, 26.379075167000053], [85.11863156300006, 26.37826244300004], [85.11766875800004, 26.379064818000074], [85.11613471300006, 26.379835167000067], [85.11409435300004, 26.38076737800003], [85.11266542600004, 26.38163705200003], [85.11081975100007, 26.383106482000073], [85.10820609600006, 26.385743913000056], [85.10766948900005, 26.386158555000065], [85.10724358600004, 26.386158201000057], [85.10416263700006, 26.38506426400005], [85.10242550400005, 26.384447435000027], [85.10113873100005, 26.38367438800003], [85.10050336100005, 26.38290649700008], [85.09940385700008, 26.380775202000052], [85.09861661500008, 26.381225690000065], [85.09593299500006, 26.383474797000076], [85.09493385300004, 26.385053200000073], [85.09471729000006, 26.385919456000067], [85.09471549600005, 26.387210156000037], [85.09514447100008, 26.388690851000035], [85.09599355600005, 26.390772250000055], [85.09606786900008, 26.391449290000025], [85.09563591900007, 26.392188934000046], [85.09506418600006, 26.39254485300006], [85.09284872800004, 26.39305692100004], [85.09032742100004, 26.393622719000064], [85.08893380600006, 26.394004721000044], [85.08564507100004, 26.39512927800007], [85.08411057000006, 26.395930778000036], [85.08488588000006, 26.396901979000063], [85.08587031500008, 26.39883462000006], [85.08724011200007, 26.401232535000076], [85.08839639100006, 26.402199606000067], [85.09062699700007, 26.401777950000053], [85.09127182800006, 26.402938436000056], [85.09371734700005, 26.40301783500007], [85.09526110600007, 26.402789381000048], [85.09650410600005, 26.402637250000055], [85.09762076500004, 26.403292829000065]]]]}}, {"type": "Feature", "properties": {"OBJECTID": 3885, "GPCODE": "96796", "GPNAME_1": "SAWAGIA", "DIST_CEN_C": "02", "BLK_NAME": "MADHUBAN", "ST_NAME": "BIHAR", "ST_CODE_1": "10", "GPCODE2011": "99335", "REMARKS": "FINALIZED", "MAP_STATUS": "COMPLETED", "BLK_C_2001": "020025", "BLK_C_2011": "01055", "DIST_NAME": "PURBI CHAMPARAN", "code2011": 0.0, "Shape_Leng": 0.29928769305, "Shape_Area": 0.0013073615, "Area": 14.4509}, "geometry": {"type": "MultiPolygon", "coordinates": [[[[85.07246346300008, 26.426419545000044], [85.06897694200006, 26.425106506000077], [85.06822874300008, 26.425926875000073], [85.06607396500004, 26.425626263000026], [85.06532829800005, 26.424840019000044], [85.06486458200004, 26.42649569100007], [85.06394996300008, 26.42797923300003], [85.06545883600006, 26.431095089000053], [85.06708374600004, 26.433723660000055], [85.06858641400004, 26.434497331000046], [85.07070707600008, 26.434301430000062], [85.07407279700004, 26.432811813000058], [85.07747888300008, 26.43117329000006], [85.07773050100008, 26.430501149000065], [85.07602789800006, 26.42937542100003], [85.07348937700004, 26.427512963000027], [85.07246346300008, 26.426419545000044]]], [[[85.11711881600007, 26.444136170000036], [85.11797665200004, 26.443595430000073], [85.11866327200005, 26.443713401000025], [85.11960498500008, 26.44444981600003], [85.12048742700006, 26.444351366000035], [85.12186159100008, 26.443774931000064], [85.12267469700004, 26.442927247000057], [85.12314687700007, 26.442074708000064], [85.12349406600003, 26.440879134000056], [85.12349556100008, 26.439484597000046], [85.12334860900006, 26.436293850000027], [85.12261910200004, 26.434167606000074], [85.12056277900007, 26.430645750000053], [85.11977336400008, 26.42826671200004], [85.11891341900008, 26.42632986900003], [85.11711570300008, 26.424820891000024], [85.11291347300005, 26.42219045400003], [85.10765820300008, 26.420113884000045], [85.10027898000004, 26.417285697000068], [85.10195332000006, 26.41701666700004], [85.10129213500005, 26.41665042300008], [85.10086192000006, 26.416067832000067], [85.10142427500006, 26.41522003800003], [85.10357053000007, 26.41433317700006], [85.10655381500004, 26.413307238000073], [85.10758661700004, 26.413001386000076], [85.10826725600003, 26.41380990500005], [85.10951462000008, 26.414275967000037], [85.11064865400004, 26.41320304000004], [85.11176756900005, 26.412062311000057], [85.11271326300005, 26.40912529800005], [85.11250248200008, 26.405104143000074], [85.11188272100009, 26.403731621000077], [85.11123726600005, 26.402882481000063], [85.11113471700008, 26.400634962000026], [85.10946094400003, 26.400633330000062], [85.10791757200008, 26.400550577000047], [85.10736165400004, 26.400279297000054], [85.10693118500006, 26.39985464700004], [85.10637508800005, 26.39974120200003], [85.10590373100007, 26.399970929000062], [85.10397292200008, 26.401128740000047], [85.10208344700004, 26.401320889000033], [85.09802936300008, 26.401262496000072], [85.09779318000005, 26.40178574500004], [85.09822327000006, 26.402481183000077], [85.09762076500004, 26.403292829000065], [85.09650410600005, 26.402637250000055], [85.09526110600007, 26.402789381000048], [85.09371734700005, 26.40301783500007], [85.09127182800006, 26.402938436000056], [85.09062699700007, 26.401777950000053], [85.08839639100006, 26.402199606000067], [85.08724011200007, 26.401232535000076], [85.08587031500008, 26.39883462000006], [85.08488588000006, 26.396901979000063], [85.08411057000006, 26.395930778000036], [85.08014182600004, 26.39930627600006], [85.08228236800005, 26.402318981000064], [85.07861503200007, 26.405058453000038], [85.07451750000007, 26.407151940000062], [85.07325819900007, 26.408093660000077], [85.07072116900008, 26.408853168000064], [85.06961649200008, 26.410192099000028], [85.06874099100008, 26.412424919000046], [85.06845147700005, 26.414915653000037], [85.06873476900006, 26.416459444000054], [85.06942556800004, 26.416947720000053], [85.07116459600007, 26.417040159000067], [85.07385084900005, 26.417183394000062], [85.07533806100008, 26.418105857000057], [85.07605503400003, 26.41789908800007], [85.07718272300008, 26.417900497000062], [85.07902676900005, 26.41818251600006], [85.08156234500007, 26.418551103000027], [85.08393817100006, 26.418468106000034], [85.08683584400006, 26.417938884000023], [85.08929370500005, 26.416493052000078], [85.09001227900006, 26.415135443000054], [85.09006399000003, 26.414025369000058], [85.08919302000004, 26.413243674000057], [85.08776090500004, 26.41227178300005], [85.08704575100006, 26.411187846000075], [85.08732747400006, 26.41044806800005], [85.08825073000008, 26.40966836900003], [85.09004548300004, 26.409182959000077], [85.09263105500008, 26.409578450000026], [85.09486025700005, 26.410293989000024], [85.09668831700003, 26.411171471000046], [85.09713883100005, 26.41161417400008], [85.09764889100006, 26.412467685000024], [85.09782651600005, 26.414679145000036], [85.09705323000009, 26.415738931000078], [85.09633508300004, 26.416825720000077], [85.09536128300005, 26.417975497000043], [85.09530429200004, 26.419387963000077], [85.09479201600004, 26.420145568000066], [85.09330834300005, 26.42021615500005], [85.09312647700006, 26.421299082000075], [85.09437910700007, 26.421598243000062], [85.09425250900006, 26.422568384000044], [85.09371082300004, 26.42279796400004], [85.09307208400008, 26.424412868000047], [85.09176228800004, 26.425607417000037], [85.09247874600004, 26.425842877000036], [85.09278334700008, 26.42674127400005], [85.09245143200008, 26.427481029000035], [85.09211438500006, 26.428383194000048], [85.09260546600007, 26.428519146000042], [85.09367875900006, 26.428082595000035], [85.09472601000004, 26.43211821700004], [85.09639040900004, 26.431934983000076], [85.09703127500006, 26.432490838000035], [85.09674868700006, 26.433943675000023], [85.09441341200005, 26.43345828100007], [85.09357052200005, 26.434007888000053], [85.09239164500008, 26.434651987000052], [85.09016083600005, 26.43474427900003], [85.08854707500006, 26.43453486900006], [85.08647278400008, 26.433814942000026], [85.08509150500004, 26.432224804000043], [85.08347628500007, 26.43303072200007], [85.08409171400007, 26.433848259000058], [85.08539765400008, 26.435537573000033], [85.08814839400009, 26.43641625500004], [85.09530673000006, 26.440165367000077], [85.09811165400004, 26.442041243000062], [85.09987478300008, 26.44311717900007], [85.10086241000005, 26.443122714000026], [85.10205495800005, 26.443543685000066], [85.10522141400008, 26.445040735000077], [85.10792302500005, 26.445467631000042], [85.11067433600005, 26.446264643000063], [85.11329625300004, 26.446258121000028], [85.11505613900005, 26.446106360000044], [85.11638550400005, 26.445295301000044], [85.11711881600007, 26.444136170000036]]]]}}, {"type": "Feature", "properties": {"OBJECTID": 3894, "GPCODE": "96795", "GPNAME_1": "RUPNI", "DIST_CEN_C": "02", "BLK_NAME": "MADHUBAN", "ST_NAME": "BIHAR", "ST_CODE_1": "10", "GPCODE2011": "99334", "REMARKS": "FINALIZED", "MAP_STATUS": "COMPLETED", "BLK_C_2001": "020025", "BLK_C_2011": "01055", "DIST_NAME": "PURBI CHAMPARAN", "code2011": 0.0, "Shape_Leng": 0.1891575583, "Shape_Area": 0.00085879228, "Area": 9.49046}, "geometry": {"type": "MultiPolygon", "coordinates": [[[[85.07855341000004, 26.46399686600006], [85.07855500500006, 26.462873198000068], [85.07912908300005, 26.46124018200004], [85.07939267500007, 26.459227792000036], [85.08069294700005, 26.458105578000072], [85.08245939800008, 26.456988455000044], [85.08360325200005, 26.456425743000068], [85.08482154700005, 26.45644974700008], [85.08529244900006, 26.456730028000038], [85.08627525600008, 26.45664093700003], [85.08695353400003, 26.455612779000035], [85.08773275600004, 26.454160502000036], [85.08867287800007, 26.452293198000064], [85.09062081300004, 26.450309723000032], [85.09145252800005, 26.450685273000033], [85.09171229700007, 26.451385048000077], [85.09207332200003, 26.45134026200003], [85.09409639700004, 26.453120627000033], [85.09420045000007, 26.45400528400006], [85.09674273100006, 26.453728230000024], [85.09763019300004, 26.453684043000067], [85.09783336900006, 26.455507442000055], [85.09965335400005, 26.455509334000055], [85.10100255000003, 26.455041487000074], [85.10256164200007, 26.455137801000035], [85.10344345200008, 26.455608097000038], [85.10411561700005, 26.455419239000037], [85.10505196300005, 26.456309223000062], [85.10515942100005, 26.454580883000062], [85.10884786100007, 26.451777578000076], [85.10968028500008, 26.451593400000036], [85.11035206700006, 26.451639191000027], [85.11118570700006, 26.450471115000028], [85.11067433600005, 26.446264643000063], [85.10792302500005, 26.445467631000042], [85.10522141400008, 26.445040735000077], [85.10205495800005, 26.443543685000066], [85.10086241000005, 26.443122714000026], [85.09987478300008, 26.44311717900007], [85.09811165400004, 26.442041243000062], [85.09530673000006, 26.440165367000077], [85.08814839400009, 26.43641625500004], [85.08539765400008, 26.435537573000033], [85.08695415200003, 26.437312963000068], [85.08772455300004, 26.438396923000028], [85.08751778400006, 26.439299248000054], [85.08638907300008, 26.439893720000043], [85.08466991700004, 26.439711161000048], [85.08219021000008, 26.438485326000034], [85.08032188400006, 26.437490280000077], [85.07857902600006, 26.436337362000074], [85.07727126100008, 26.43596578200004], [85.07534998400007, 26.436906606000036], [85.07437554600006, 26.43815102900004], [85.07406784000005, 26.439468333000036], [85.07460221500008, 26.44078225000004], [85.07802738300006, 26.443322661000025], [85.07925361800005, 26.444637386000068], [85.07984345800008, 26.44583859000005], [85.07989085000008, 26.447684374000062], [85.07934822400006, 26.448536662000038], [85.07804357500004, 26.44932036600005], [85.07655393200008, 26.449778862000073], [85.07548127600006, 26.449660254000037], [85.07332582100008, 26.449427395000043], [85.07207371900006, 26.448618044000057], [85.07166429500006, 26.44751191900008], [85.07187271900005, 26.445643764000067], [85.07269809700006, 26.443546337000043], [85.07200769400004, 26.442624812000076], [85.07129123200008, 26.442321621000076], [85.07062437600007, 26.442438113000037], [85.06867250900007, 26.443586434000053], [85.06605741300007, 26.445636428000057], [85.06297873600005, 26.44907125900005], [85.06038988800003, 26.45029087300003], [85.05766956100007, 26.45210585700005], [85.05577042300007, 26.454549287000077], [85.05471481800004, 26.45616344900003], [85.05425569000005, 26.457868672000075], [85.05409747900006, 26.459551841000064], [85.05414508100006, 26.461027563000073], [85.05518862000008, 26.463682606000077], [85.05669933500008, 26.465760554000042], [85.05818222600004, 26.46652528900006], [85.06064347200004, 26.46696629300004], [85.06585768800005, 26.46414352900007], [85.06775446600005, 26.46318920500005], [85.06941432900004, 26.46300182300007], [85.07086825300007, 26.46314354900005], [85.07304750100008, 26.46431505700008], [85.07486579600004, 26.465535786000032], [85.07465860300005, 26.46660961400005], [85.07470748500003, 26.46740394300008], [85.07631736600007, 26.46722087200004], [85.07876058900007, 26.466334824000057], [85.07891732200005, 26.465400846000023], [85.07855341000004, 26.46399686600006]]]]}}, {"type": "Feature", "properties": {"OBJECTID": 3896, "GPCODE": "96792", "GPNAME_1": "MADHUBAN NORTH", "DIST_CEN_C": "02", "BLK_NAME": "MADHUBAN", "ST_NAME": "BIHAR", "ST_CODE_1": "10", "GPCODE2011": "99331", "REMARKS": "FINALIZED", "MAP_STATUS": "COMPLETED", "BLK_C_2001": "020025", "BLK_C_2011": "01055", "DIST_NAME": "PURBI CHAMPARAN", "code2011": 0.0, "Shape_Leng": 0.09278527303, "Shape_Area": 0.00034864437, "Area": 3.85296}, "geometry": {"type": "MultiPolygon", "coordinates": [[[[85.14335615800007, 26.45128403900003], [85.14486116900008, 26.450206619000028], [85.14419040200005, 26.448992108000027], [85.14283812200006, 26.447632690000034], [85.14252906300004, 26.44566941900007], [85.14274103800005, 26.444126148000066], [85.14624655200004, 26.442607831000032], [85.14638762300007, 26.441827214000057], [85.14709494400006, 26.441263651000043], [85.14870456900007, 26.440822515000036], [85.14986300400005, 26.440281823000078], [85.15098171100004, 26.43935738600004], [85.15145367300005, 26.438464176000025], [85.15153994700006, 26.43715103900007], [85.15098451500006, 26.435954740000057], [85.14974212900006, 26.435024191000025], [85.14875465600005, 26.435064055000055], [85.14778932700005, 26.43260839000004], [85.14663493100005, 26.428586533000043], [85.14552146800008, 26.429321290000075], [85.14478973400008, 26.429244034000078], [85.14431859400008, 26.429203114000074], [85.14320037700008, 26.429707755000038], [85.14251366400003, 26.429707232000055], [85.14032945500009, 26.428387731000043], [85.13994359500003, 26.428234022000026], [85.13912597000007, 26.428851707000035], [85.13674321200006, 26.430758754000067], [85.13595150300006, 26.43490584400007], [85.13595150300006, 26.43531093400003], [85.13583576300005, 26.43594750500006], [85.13502558200008, 26.43739425800004], [85.13334734900008, 26.438667400000043], [85.13230568700004, 26.439593321000075], [85.13126402600005, 26.440808593000042], [85.13085893500005, 26.442023865000067], [85.13100862400006, 26.443352178000055], [85.13134645000008, 26.443814764000024], [85.12952582100007, 26.444657155000073], [85.12692734300003, 26.446243468000034], [85.12682612000003, 26.44708726500005], [85.12765178400008, 26.44853659200004], [85.12775480700003, 26.45073449000006], [85.12874206900005, 26.451060299000062], [85.13019576800008, 26.451296176000028], [85.13149322100008, 26.452281105000054], [85.13169976700004, 26.451342563000026], [85.13227144800004, 26.45115798100005], [85.13253162000007, 26.451672709000036], [85.13458190500006, 26.451927074000025], [85.13541180300007, 26.454310562000046], [85.13624399000008, 26.45440601100006], [85.13681482200008, 26.45510590500004], [85.13785263200003, 26.455156404000036], [85.13842380200003, 26.45553142800003], [85.13972199900007, 26.455952144000037], [85.14202871000003, 26.455511657000045], [85.14073120500007, 26.454341842000076], [85.14070805300008, 26.45230651600008], [85.14335615800007, 26.45128403900003]]]]}}, {"type": "Feature", "properties": {"OBJECTID": 3897, "GPCODE": "96785", "GPNAME_1": "BAJIT PAR", "DIST_CEN_C": "02", "BLK_NAME": "MADHUBAN", "ST_NAME": "BIHAR", "ST_CODE_1": "10", "GPCODE2011": "99324", "REMARKS": "FINALIZED", "MAP_STATUS": "COMPLETED", "BLK_C_2001": "020025", "BLK_C_2011": "01055", "DIST_NAME": "PURBI CHAMPARAN", "code2011": 0.0, "Shape_Leng": 0.14906979788, "Shape_Area": 0.00094577494, "Area": 10.4533}, "geometry": {"type": "MultiPolygon", "coordinates": [[[[85.15058139100006, 26.444411568000078], [85.15214101800007, 26.443758264000053], [85.15395569000003, 26.443899484000042], [85.15668442900005, 26.441870453000035], [85.15771727800006, 26.44160035500005], [85.15879013500006, 26.44156489100004], [85.15952241400004, 26.44114115800005], [85.16068098000005, 26.44040629400007], [85.16151815400008, 26.440312048000067], [85.16190434400005, 26.440118287000075], [85.16229068900003, 26.439576930000044], [85.16272188700003, 26.43957724200004], [85.16340831100007, 26.43996577100006], [85.16404999500008, 26.43996612600006], [85.16456647900003, 26.43973630800008], [85.16508272500005, 26.439849394000078], [85.16563887600006, 26.44031454800006], [85.16670139100006, 26.440662668000073], [85.16813095900005, 26.439377302000025], [85.16823705500008, 26.43816344000004], [85.16890943700008, 26.437274778000074], [85.17031339600004, 26.43666627500005], [85.17379258200003, 26.43629366500005], [85.17732231300005, 26.435171754000066], [85.17939802800004, 26.434378502000072], [85.18033552700007, 26.434239051000077], [85.18287723400005, 26.433725825000067], [85.18194626900004, 26.43139676000004], [85.18091935200005, 26.430313168000055], [85.18087459500003, 26.429618172000062], [85.18169199700003, 26.428959685000052], [85.18207860800004, 26.42780000600004], [85.18229471000006, 26.42698777100003], [85.18285170700005, 26.425828241000033], [85.18285221400004, 26.424903048000033], [85.18206052200009, 26.424424309000074], [85.18124362500004, 26.424306606000073], [85.18089969500005, 26.420980437000026], [85.18056031400005, 26.418660644000056], [85.17982879100003, 26.418199962000074], [85.17910207200003, 26.41819954500005], [85.17807005900005, 26.417463418000068], [85.17695862000005, 26.41545013800004], [85.17612218100004, 26.414619359000028], [85.17548060000007, 26.414578377000055], [85.17419346200006, 26.413264430000027], [85.17371770600005, 26.412645892000057], [85.17290586200005, 26.412604826000063], [85.17200353100003, 26.412798387000066], [85.17135644300004, 26.413687079000056], [85.17075952900007, 26.414463027000068], [85.16771130300003, 26.41596860800007], [85.16637782000004, 26.416274668000028], [85.16486408100008, 26.41645883900003], [85.16409372100009, 26.414445621000027], [85.16392407100005, 26.41347975000008], [85.16340838800005, 26.41270770600005], [85.16131007300004, 26.41061691400006], [85.15856588700007, 26.407754], [85.15788041200005, 26.406359058000078], [85.15489740900006, 26.40769291400005], [85.15215023200005, 26.408697479000068], [85.15000509200007, 26.408849389000068], [85.14880217300004, 26.40904259200005], [85.14742868500008, 26.409429784000054], [85.14635634500007, 26.40919431800006], [85.14562543100004, 26.408381443000053], [85.14510920800006, 26.408381123000026], [85.14304801900005, 26.40992747100006], [85.14182485800006, 26.41024699700006], [85.14182433400003, 26.41078851900005], [85.14379626600004, 26.413840737000044], [85.14495350100003, 26.414351542000077], [85.14501627700008, 26.416991650000057], [85.14608673800006, 26.41931211600007], [85.14805725600007, 26.424219067000024], [85.14831655900008, 26.42572652700005], [85.14775417400006, 26.426922085000058], [85.14663493100005, 26.428586533000043], [85.14778932700005, 26.43260839000004], [85.14875465600005, 26.435064055000055], [85.14974212900006, 26.435024191000025], [85.15098451500006, 26.435954740000057], [85.15153994700006, 26.43715103900007], [85.15145367300005, 26.438464176000025], [85.15098171100004, 26.43935738600004], [85.14986300400005, 26.440281823000078], [85.14870456900007, 26.440822515000036], [85.14709494400006, 26.441263651000043], [85.14638762300007, 26.441827214000057], [85.14624655200004, 26.442607831000032], [85.14730852700006, 26.443565412000055], [85.14767452500007, 26.44347533100006], [85.14860614000008, 26.44450501800003], [85.15058139100006, 26.444411568000078]]]]}}, {"type": "Feature", "properties": {"OBJECTID": 3898, "GPCODE": "96791", "GPNAME_1": "KORIA KAJRAHA", "DIST_CEN_C": "02", "BLK_NAME": "MADHUBAN", "ST_NAME": "BIHAR", "ST_CODE_1": "10", "GPCODE2011": "99330", "REMARKS": "FINALIZED", "MAP_STATUS": "COMPLETED", "BLK_C_2001": "020025", "BLK_C_2011": "01055", "DIST_NAME": "PURBI CHAMPARAN", "code2011": 0.0, "Shape_Leng": 0.19155454503, "Shape_Area": 0.00087767512, "Area": 9.69908}, "geometry": {"type": "MultiPolygon", "coordinates": [[[[85.19283561800006, 26.458325528000046], [85.19345755000006, 26.457856437000032], [85.19460072100009, 26.457856866000043], [85.19538269100008, 26.458231776000048], [85.19647065400005, 26.45813739500005], [85.19771921900008, 26.457952823000028], [85.19900969800005, 26.458064833000037], [85.19922551100007, 26.457640686000047], [85.19965658000007, 26.45778078400008], [85.20017292900008, 26.45803823500006], [85.20054891800004, 26.458051875000024], [85.20099013900006, 26.45799331300003], [85.20161698700008, 26.457754371000078], [85.20258483400005, 26.45722220700003], [85.20304118600006, 26.45687481300007], [85.20323684200008, 26.456739560000074], [85.20356783000005, 26.456563639000024], [85.20444529000008, 26.45629315900004], [85.20555847600008, 26.455887374000042], [85.20654125100003, 26.45554012300005], [85.20728337800006, 26.455283149000024], [85.20794023700006, 26.454976461000058], [85.20840157100008, 26.454800608000028], [85.20876762200004, 26.45464725200003], [85.20910357500009, 26.454430753000054], [85.20943451700003, 26.454286386000035], [85.20967019000005, 26.45418724800004], [85.21003629700004, 26.453970663000064], [85.21047764700006, 26.45360975600005], [85.21091893600004, 26.453262378000034], [85.21140031600004, 26.452960138000037], [85.21170114700004, 26.45273007800006], [85.21217761900004, 26.452378211000052], [85.21247852100004, 26.452008265000075], [85.21289474400004, 26.45146679900006], [85.21311042400004, 26.451232211000047], [85.21344651500004, 26.45075847700008], [85.21362704200004, 26.45046965800003], [85.21385774300006, 26.45011318300004], [85.21398821500009, 26.44993720100007], [85.21405346300008, 26.449711582000077], [85.21419893500007, 26.44934607400006], [85.21432438600004, 26.448804538000047], [85.21423925300007, 26.44847966100008], [85.21413918900004, 26.447983187000034], [85.21395879800008, 26.447504759000026], [85.21373329700003, 26.447179774000062], [85.21349781200007, 26.446723888000065], [85.21322725200008, 26.44651626700005], [85.21303176300006, 26.446349215000055], [85.21234992500007, 26.446335488000045], [85.21142743500008, 26.446515765000072], [85.21025922100006, 26.446903553000027], [85.20910103100005, 26.44738615700004], [85.20756170200008, 26.448012946000063], [85.20696004700005, 26.448256508000043], [85.20676952400004, 26.44826993500004], [85.20646371600003, 26.448324009000032], [85.20618802000007, 26.448292322000043], [85.20589724500007, 26.448152359000062], [85.20562661700006, 26.447962766000046], [85.20493001500006, 26.447258548000036], [85.20475464800006, 26.44700118000003], [85.20477973900006, 26.446870309000076], [85.20489017700004, 26.446671810000055], [85.20514590800008, 26.446468846000073], [85.20680563700006, 26.44550805700004], [85.20879126400007, 26.444375901000058], [85.20926760000003, 26.444173039000077], [85.20950321500004, 26.44396098200008], [85.21076688500006, 26.442891764000024], [85.21114306500004, 26.44238641800007], [85.21175990300009, 26.44173225000003], [85.21221629300004, 26.44113661800003], [85.21252222100009, 26.440486822000025], [85.21268774800006, 26.440189022000027], [85.21307898600008, 26.43957540200006], [85.21321438600006, 26.439367873000037], [85.21334992200008, 26.43885793100003], [85.21352545500008, 26.438366074000044], [85.21363083400007, 26.437977970000077], [85.21393176700008, 26.43751773300005], [85.21441326700005, 26.436827384000026], [85.21499988600004, 26.436128007000036], [85.21564681100006, 26.435478337000063], [85.21610305100006, 26.435081294000042], [85.21627856800006, 26.434909880000077], [85.21636878200007, 26.434774533000052], [85.21650429700009, 26.43436388600003], [85.21655457500003, 26.433727571000077], [85.21662993300004, 26.433082229000036], [85.21672030100007, 26.43244144700003], [85.21671546100004, 26.432080390000067], [85.21659015700004, 26.431976526000028], [85.21550745000008, 26.431922160000056], [85.21455506300003, 26.431894826000075], [85.21419915300004, 26.431962460000022], [85.21324166000005, 26.432300647000034], [85.21139171500005, 26.432968118000076], [85.20867444900006, 26.43422637900005], [85.20844903900007, 26.433671306000065], [85.20814865600005, 26.432786685000053], [85.20727203400008, 26.43103536500007], [85.20612489100006, 26.428963573000033], [85.20596462800006, 26.42859802600003], [85.20586462600005, 26.428074481000067], [85.20578457800008, 26.427618650000056], [85.20575972100005, 26.427140276000046], [85.20597033700005, 26.426743243000033], [85.20608072900006, 26.42645445900007], [85.20672244600007, 26.426116149000052], [85.20716358600004, 26.425953848000063], [85.20863217800007, 26.42603996400004], [85.20956452500008, 26.42605833700003], [85.21011581700003, 26.426049455000054], [85.21088784400007, 26.425882657000045], [85.21155446500006, 26.42577007600005], [85.21210583800007, 26.42564384600007], [85.21253195900005, 26.425526665000064], [85.21329885800003, 26.425558443000057], [85.21438645100005, 26.42570312500004], [85.21514832600008, 26.425689783000053], [85.21609572000006, 26.425455268000064], [85.21700796400006, 26.42551420800004], [85.21724853900008, 26.425672208000037], [85.21786505000006, 26.425785181000037], [85.21887250700007, 26.42560938500003], [85.21990519100007, 26.425289173000067], [85.22074731100008, 26.424801927000033], [85.22044039400004, 26.422027592000063], [85.21934873400005, 26.417947651000077], [85.21857237000006, 26.41593920200006], [85.21793076600005, 26.416245996000043], [85.21702854500006, 26.416399229000035], [85.21677313300006, 26.415780830000074], [85.21698886200005, 26.41504980700006], [85.21694409100007, 26.41369595200007], [85.21662408500003, 26.411281406000057], [85.21486463500008, 26.412359605000063], [85.21391736100009, 26.412440606000075], [85.21331585400003, 26.412593918000027], [85.21258901700008, 26.413094682000064], [85.21202744500005, 26.413789459000043], [85.21121521700007, 26.415030325000032], [85.21050298100005, 26.416672791000053], [85.20998637800005, 26.417485056000032], [85.20977060400008, 26.41841006900006], [85.20955970300008, 26.41961045900007], [85.20917326500006, 26.42096421900004], [85.20801009900003, 26.422123700000043], [85.20676678400008, 26.422700985000063], [85.20522311800005, 26.42265996100008], [85.20328816800009, 26.423124118000032], [85.20219525800007, 26.42368338500006], [85.20162306800006, 26.425596674000076], [85.20068533300008, 26.426720067000076], [85.20047978900004, 26.426859884000066], [85.19954695200005, 26.42802838500006], [85.19858422000004, 26.428894541000034], [85.19640352000005, 26.429358582000077], [85.19562654900005, 26.429358252000043], [85.19281911600007, 26.43034093700004], [85.18991148400005, 26.430944511000064], [85.18991128300007, 26.43145896200008], [85.18986089400005, 26.431973422000056], [85.18772996800004, 26.432956297000032], [85.18570453100006, 26.433515070000055], [85.18287723400005, 26.433725825000067], [85.18033552700007, 26.434239051000077], [85.18075031700005, 26.436437047000027], [85.18106040600009, 26.437651222000056], [85.18370801100008, 26.436203791000025], [85.18427945000008, 26.436204089000057], [85.18469528000008, 26.43667364500004], [85.18469453600005, 26.43788762300005], [85.18547603000007, 26.438916925000058], [85.18669374800004, 26.439689173000033], [85.18617186100005, 26.440623080000023], [85.18607126200004, 26.44132251900004], [85.18669186000005, 26.443195710000055], [85.18731217900006, 26.445578741000077], [85.18640411900003, 26.446959267000068], [85.18588251500006, 26.447333626000045], [85.18557055800005, 26.449296616000026], [85.18525784300004, 26.452708236000035], [85.18450488400003, 26.45451309200007], [85.18465942900008, 26.45610170200007], [85.18513045200007, 26.456426779000026], [85.18715094500004, 26.456567610000036], [85.18754160800006, 26.45724468000003], [85.18847384700007, 26.457994254000027], [85.18977232300006, 26.45808960200003], [85.19075970300008, 26.45869469200005], [85.19216370200007, 26.458555439000065], [85.19283561800006, 26.458325528000046]]]]}}, {"type": "Feature", "properties": {"OBJECTID": 3901, "GPCODE": "96789", "GPNAME_1": "KARISNA NAGRA", "DIST_CEN_C": "02", "BLK_NAME": "MADHUBAN", "ST_NAME": "BIHAR", "ST_CODE_1": "10", "GPCODE2011": "99328", "REMARKS": "FINALIZED", "MAP_STATUS": "COMPLETED", "BLK_C_2001": "020025", "BLK_C_2011": "01055", "DIST_NAME": "PURBI CHAMPARAN", "code2011": 0.0, "Shape_Leng": 0.17039164027, "Shape_Area": 0.00113318676, "Area": 12.5213}, "geometry": {"type": "MultiPolygon", "coordinates": [[[[85.18153487500007, 26.474982108000063], [85.18258303600004, 26.474720925000042], [85.18429005600007, 26.47483316100005], [85.18398429100006, 26.47449009500008], [85.18376898400004, 26.47401611600003], [85.18375918900006, 26.47352419400005], [85.18391992200003, 26.473086532000025], [85.18427115100008, 26.472788880000053], [85.18518379700004, 26.47266744600006], [85.18591589500005, 26.472654231000035], [85.18630701000006, 26.47260924400007], [85.18671822700009, 26.472528253000064], [85.18725486900007, 26.472338929000045], [85.18773641500007, 26.472145080000075], [85.18800221500004, 26.472018844000047], [85.18819783200007, 26.471806772000036], [85.18831837800008, 26.471481880000056], [85.18841918000004, 26.47057484100003], [85.18850457700006, 26.470150713000066], [85.18869536900007, 26.469825884000045], [85.18894613200007, 26.46958225800006], [85.18932738100006, 26.469406453000033], [85.18999427600005, 26.46933455100003], [85.19084669100005, 26.469253639000044], [85.19176944900005, 26.46912768800007], [85.19299803800004, 26.468907011000056], [85.19373518100008, 26.468762913000035], [85.19448734600007, 26.468691014000058], [85.19511414700008, 26.468691281000076], [85.19551026200008, 26.468668835000074], [85.19584626400007, 26.468596758000047], [85.19640790700004, 26.468411908000064], [85.19695958300008, 26.46809625000003], [85.19788741700006, 26.46752348900003], [85.19834386000008, 26.467261879000034], [85.19880526400004, 26.46696421200005], [85.19892070000003, 26.46686945500005], [85.19886603600008, 26.46566903200005], [85.19877608600007, 26.46485215200005], [85.19871616500006, 26.46449560600007], [85.19893682100007, 26.464256551000062], [85.19961899900005, 26.463688164000075], [85.20012055800004, 26.463273111000035], [85.20042150700004, 26.462930248000077], [85.20047683700005, 26.46266401500003], [85.20049700300007, 26.46234815200006], [85.20028160200008, 26.461910267000064], [85.19999094600007, 26.461449850000065], [85.19990587600006, 26.461021161000076], [85.19988088800005, 26.46079091100006], [85.20003155100005, 26.460348774000067], [85.20006678000004, 26.46000130500005], [85.20001673200005, 26.459798207000063], [85.19994161600005, 26.459527381000044], [85.19962593600007, 26.45922939600007], [85.19927505000004, 26.458940493000057], [85.19886908300003, 26.458597376000057], [85.19890927000006, 26.458380696000063], [85.19900969800005, 26.458064833000037], [85.19771921900008, 26.457952823000028], [85.19647065400005, 26.45813739500005], [85.19538269100008, 26.458231776000048], [85.19460072100009, 26.457856866000043], [85.19345755000006, 26.457856437000032], [85.19283561800006, 26.458325528000046], [85.19216370200007, 26.458555439000065], [85.19075970300008, 26.45869469200005], [85.18977232300006, 26.45808960200003], [85.18847384700007, 26.457994254000027], [85.18754160800006, 26.45724468000003], [85.18715094500004, 26.456567610000036], [85.18513045200007, 26.456426779000026], [85.18465942900008, 26.45610170200007], [85.18450488400003, 26.45451309200007], [85.18525784300004, 26.452708236000035], [85.18557055800005, 26.449296616000026], [85.18588251500006, 26.447333626000045], [85.18640411900003, 26.446959267000068], [85.18731217900006, 26.445578741000077], [85.18669186000005, 26.443195710000055], [85.18607126200004, 26.44132251900004], [85.18617186100005, 26.440623080000023], [85.18669374800004, 26.439689173000033], [85.18547603000007, 26.438916925000058], [85.18469453600005, 26.43788762300005], [85.18469528000008, 26.43667364500004], [85.18427945000008, 26.436204089000057], [85.18370801100008, 26.436203791000025], [85.18106040600009, 26.437651222000056], [85.18075031700005, 26.436437047000027], [85.18033552700007, 26.434239051000077], [85.17939802800004, 26.434378502000072], [85.17732231300005, 26.435171754000066], [85.17379258200003, 26.43629366500005], [85.17031339600004, 26.43666627500005], [85.16890943700008, 26.437274778000074], [85.16823705500008, 26.43816344000004], [85.16813095900005, 26.439377302000025], [85.16670139100006, 26.440662668000073], [85.16563887600006, 26.44031454800006], [85.16508272500005, 26.439849394000078], [85.16456647900003, 26.43973630800008], [85.16404999500008, 26.43996612600006], [85.16340831100007, 26.43996577100006], [85.16272188700003, 26.43957724200004], [85.16229068900003, 26.439576930000044], [85.16190434400005, 26.440118287000075], [85.16151815400008, 26.440312048000067], [85.16068098000005, 26.44040629400007], [85.15952241400004, 26.44114115800005], [85.15879013500006, 26.44156489100004], [85.15771727800006, 26.44160035500005], [85.15668442900005, 26.441870453000035], [85.15395569000003, 26.443899484000042], [85.15520168600005, 26.446612542000025], [85.15525038900006, 26.448390655000026], [85.15498678800003, 26.452036897000028], [85.15641314300007, 26.455102063000027], [85.15500849600005, 26.456175272000053], [85.15334708100005, 26.458371916000033], [85.15297885400008, 26.461129003000053], [85.15323789300004, 26.463096825000036], [85.15396870700005, 26.464582075000067], [85.15488643800006, 26.464438286000075], [85.15571404400004, 26.46410485000007], [85.15660686800004, 26.463663155000063], [85.15705334400008, 26.463406228000053], [85.15745437700008, 26.463424576000023], [85.15767978100007, 26.463767675000042], [85.15785463300006, 26.464629717000037], [85.15805957900005, 26.465397084000074], [85.15852553200006, 26.465839646000063], [85.15948797800007, 26.46620132700008], [85.16080653300008, 26.466323955000064], [85.16199017200006, 26.465923068000052], [85.16377615800008, 26.46466955300008], [85.16500535100005, 26.463623323000036], [85.16576779600007, 26.46322213600007], [85.16659505600006, 26.463182033000066], [85.16775314300008, 26.463421895000067], [85.16927188100004, 26.46410867900005], [85.17059004800007, 26.464903673000038], [85.17088060500004, 26.46538668900007], [85.17090022800005, 26.465910222000048], [85.17087987000008, 26.466433696000024], [85.17074393300004, 26.46721433600004], [85.17089842100006, 26.468645022000032], [85.17114331900007, 26.46980050600007], [85.17136833900008, 26.470807011000034], [85.17225955200007, 26.472698412000057], [85.17288542100005, 26.474138357000072], [85.17330599500008, 26.47516296300006], [85.17382213100007, 26.475767993000034], [85.17426822900006, 26.47607505700006], [85.17487477200007, 26.476337152000042], [85.17610314500007, 26.47659956900003], [85.17764275900004, 26.476388240000063], [85.17896190600004, 26.475969219000035], [85.18026087300007, 26.475486989000046], [85.18153487500007, 26.474982108000063]]]]}}, {"type": "Feature", "properties": {"OBJECTID": 3903, "GPCODE": "96797", "GPNAME_1": "TALIMPUR", "DIST_CEN_C": "02", "BLK_NAME": "MADHUBAN", "ST_NAME": "BIHAR", "ST_CODE_1": "10", "GPCODE2011": "99336", "REMARKS": "FINALIZED", "MAP_STATUS": "COMPLETED", "BLK_C_2001": "020025", "BLK_C_2011": "01055", "DIST_NAME": "PURBI CHAMPARAN", "code2011": 0.0, "Shape_Leng": 0.17927996809, "Shape_Area": 0.00071337294, "Area": 7.88288}, "geometry": {"type": "MultiPolygon", "coordinates": [[[[85.13628377800006, 26.46506544600004], [85.13836020100007, 26.464367639000045], [85.13936782200005, 26.464589552000064], [85.13967866700006, 26.464630417000023], [85.14012460200007, 26.465032370000074], [85.14093163800004, 26.465272181000046], [85.14224515900008, 26.465395037000064], [85.14340840900007, 26.46544552000006], [85.14543440800009, 26.46509050700007], [85.14733505200007, 26.464667719000033], [85.14811741300008, 26.464546460000065], [85.14974705500003, 26.464434770000025], [85.15215864400005, 26.464662111000052], [85.15396870700005, 26.464582075000067], [85.15323789300004, 26.463096825000036], [85.15297885400008, 26.461129003000053], [85.15334708100005, 26.458371916000033], [85.15500849600005, 26.456175272000053], [85.15641314300007, 26.455102063000027], [85.15498678800003, 26.452036897000028], [85.15525038900006, 26.448390655000026], [85.15520168600005, 26.446612542000025], [85.15395569000003, 26.443899484000042], [85.15214101800007, 26.443758264000053], [85.15058139100006, 26.444411568000078], [85.14860614000008, 26.44450501800003], [85.14767452500007, 26.44347533100006], [85.14730852700006, 26.443565412000055], [85.14624655200004, 26.442607831000032], [85.14274103800005, 26.444126148000066], [85.14252906300004, 26.44566941900007], [85.14283812200006, 26.447632690000034], [85.14419040200005, 26.448992108000027], [85.14486116900008, 26.450206619000028], [85.14335615800007, 26.45128403900003], [85.14070805300008, 26.45230651600008], [85.14073120500007, 26.454341842000076], [85.14202871000003, 26.455511657000045], [85.13972199900007, 26.455952144000037], [85.13842380200003, 26.45553142800003], [85.13785263200003, 26.455156404000036], [85.13681482200008, 26.45510590500004], [85.13624399000008, 26.45440601100006], [85.13541180300007, 26.454310562000046], [85.13458190500006, 26.451927074000025], [85.13253162000007, 26.451672709000036], [85.13227144800004, 26.45115798100005], [85.13169976700004, 26.451342563000026], [85.13149322100008, 26.452281105000054], [85.13019576800008, 26.451296176000028], [85.12874206900005, 26.451060299000062], [85.12775480700003, 26.45073449000006], [85.12765178400008, 26.44853659200004], [85.12682612000003, 26.44708726500005], [85.12692734300003, 26.446243468000034], [85.12952582100007, 26.444657155000073], [85.13134645000008, 26.443814764000024], [85.13100862400006, 26.443352178000055], [85.12995478200008, 26.441909149000026], [85.12875308000008, 26.440513658000043], [85.12802642400004, 26.440242254000054], [85.12652166000004, 26.441053278000027], [85.12536349000004, 26.441286966000064], [85.12349406600003, 26.440879134000056], [85.12314687700007, 26.442074708000064], [85.12267469700004, 26.442927247000057], [85.12186159100008, 26.443774931000064], [85.12048742700006, 26.444351366000035], [85.11960498500008, 26.44444981600003], [85.11866327200005, 26.443713401000025], [85.11797665200004, 26.443595430000073], [85.11711881600007, 26.444136170000036], [85.11638550400005, 26.445295301000044], [85.11505613900005, 26.446106360000044], [85.11329625300004, 26.446258121000028], [85.11067433600005, 26.446264643000063], [85.11118570700006, 26.450471115000028], [85.11035206700006, 26.451639191000027], [85.10968028500008, 26.451593400000036], [85.10884786100007, 26.451777578000076], [85.10515942100005, 26.454580883000062], [85.10505196300005, 26.456309223000062], [85.10533175800003, 26.45713090000004], [85.10668556500008, 26.45708709200005], [85.10673436300004, 26.458161184000062], [85.10735654700005, 26.45778722400007], [85.10871042800005, 26.45764870100004], [85.10979757500007, 26.458304131000034], [85.11159017400007, 26.460241981000024], [85.11512661900008, 26.458796651000057], [85.11725347700008, 26.457909648000054], [85.11834666900006, 26.457721131000028], [85.11917884600007, 26.45786176300004], [85.12063262300006, 26.45805263400007], [85.12114910700006, 26.457958337000036], [85.12115026600009, 26.45692936000006], [85.12359188800008, 26.456976702000077], [85.12587464700005, 26.46025508100007], [85.12532684500007, 26.461445983000033], [85.12563528700008, 26.46378390800004], [85.12745561400004, 26.46355089700006], [85.12843865800005, 26.463226778000035], [85.12932648600008, 26.46290715400005], [85.12974148700005, 26.464031169000066], [85.13093503000005, 26.46379749700003], [85.13186595800005, 26.465481587000056], [85.13327047700005, 26.464923123000062], [85.13405202200005, 26.46552850200004], [85.13628377800006, 26.46506544600004]]]]}}, {"type": "Feature", "properties": {"OBJECTID": 3905, "GPCODE": "96786", "GPNAME_1": "BHALWA", "DIST_CEN_C": "02", "BLK_NAME": "MADHUBAN", "ST_NAME": "BIHAR", "ST_CODE_1": "10", "GPCODE2011": "99325", "REMARKS": "FINALIZED", "MAP_STATUS": "COMPLETED", "BLK_C_2001": "020025", "BLK_C_2011": "01055", "DIST_NAME": "PURBI CHAMPARAN", "code2011": 0.0, "Shape_Leng": 0.18992177849, "Shape_Area": 0.00085830516, "Area": 9.48369}, "geometry": {"type": "MultiPolygon", "coordinates": [[[[85.09888987700003, 26.47977435300004], [85.10125563200006, 26.47671256900003], [85.10198346900006, 26.476153725000074], [85.10209115800006, 26.47433062700003], [85.10334127100003, 26.473068340000054], [85.10411993400004, 26.47199506800007], [85.10526378000003, 26.471481808000078], [85.10615385800008, 26.469474431000037], [85.10600132700006, 26.46708695500007], [85.10553966100008, 26.463345292000042], [85.10808198400008, 26.463113244000056], [85.10953661800005, 26.462649800000065], [85.11179789100004, 26.462674599000025], [85.11159017400007, 26.460241981000024], [85.10979757500007, 26.458304131000034], [85.10871042800005, 26.45764870100004], [85.10735654700005, 26.45778722400007], [85.10673436300004, 26.458161184000062], [85.10668556500008, 26.45708709200005], [85.10533175800003, 26.45713090000004], [85.10505196300005, 26.456309223000062], [85.10411561700005, 26.455419239000037], [85.10344345200008, 26.455608097000038], [85.10256164200007, 26.455137801000035], [85.10100255000003, 26.455041487000074], [85.09965335400005, 26.455509334000055], [85.09783336900006, 26.455507442000055], [85.09763019300004, 26.453684043000067], [85.09674273100006, 26.453728230000024], [85.09420045000007, 26.45400528400006], [85.09409639700004, 26.453120627000033], [85.09207332200003, 26.45134026200003], [85.09171229700007, 26.451385048000077], [85.09145252800005, 26.450685273000033], [85.09062081300004, 26.450309723000032], [85.08867287800007, 26.452293198000064], [85.08773275600004, 26.454160502000036], [85.08695353400003, 26.455612779000035], [85.08627525600008, 26.45664093700003], [85.08529244900006, 26.456730028000038], [85.08482154700005, 26.45644974700008], [85.08360325200005, 26.456425743000068], [85.08245939800008, 26.456988455000044], [85.08069294700005, 26.458105578000072], [85.07939267500007, 26.459227792000036], [85.07912908300005, 26.46124018200004], [85.07855500500006, 26.462873198000068], [85.07855341000004, 26.46399686600006], [85.07891732200005, 26.465400846000023], [85.07876058900007, 26.466334824000057], [85.07631736600007, 26.46722087200004], [85.07470748500003, 26.46740394300008], [85.07465860300005, 26.46660961400005], [85.07486579600004, 26.465535786000032], [85.07304750100008, 26.46431505700008], [85.07086825300007, 26.46314354900005], [85.06941432900004, 26.46300182300007], [85.06775446600005, 26.46318920500005], [85.06585768800005, 26.46414352900007], [85.06064347200004, 26.46696629300004], [85.06189658200003, 26.467265791000045], [85.06225608000005, 26.468164367000043], [85.06217422600008, 26.469202186000075], [85.06130600300008, 26.469638760000066], [85.06114908200004, 26.47056370000007], [85.06286375200006, 26.47070139400006], [85.06664892900005, 26.471094406000077], [85.07041245700003, 26.472565899000074], [85.07212157500004, 26.47308244000004], [85.07279695200003, 26.474112284000057], [85.07206792900007, 26.475374912000063], [85.07134000100007, 26.475888525000073], [85.06941983300004, 26.47565138400006], [85.06625148900008, 26.475132918000043], [85.06505657200006, 26.47602041500005], [85.06474371300004, 26.47723392200004], [85.06572457400006, 26.478498777000027], [85.06743797200005, 26.479530005000072], [85.06904705300008, 26.479951722000067], [85.07219581900006, 26.47698623200006], [85.07463396200006, 26.47628971900008], [85.07744274700008, 26.475868900000023], [85.07982836000008, 26.476760857000045], [85.08361578700004, 26.479242869000075], [85.08512519100003, 26.47929423100004], [85.08795592000007, 26.47754204000006], [85.09050278300003, 26.477919429000053], [85.09377401300009, 26.480405106000035], [85.09356215000008, 26.481339043000048], [85.09205535100006, 26.483065837000026], [85.09309244600007, 26.483816128000058], [85.09298554700007, 26.48493970800007], [85.09205075000006, 26.486432457000035], [85.09075088200007, 26.487180094000053], [85.08991759900005, 26.487738809000064], [85.08981134800007, 26.488393047000045], [85.08986405900004, 26.49017113700006], [85.09098323700005, 26.48958573400006], [85.09290419600006, 26.48949765900005], [85.09690639600007, 26.48562095500006], [85.09831358400004, 26.483284764000075], [85.09857743900005, 26.480947339000068], [85.09888987700003, 26.47977435300004]]]]}}, {"type": "Feature", "properties": {"OBJECTID": 3909, "GPCODE": "96787", "GPNAME_1": "DULMA", "DIST_CEN_C": "02", "BLK_NAME": "MADHUBAN", "ST_NAME": "BIHAR", "ST_CODE_1": "10", "GPCODE2011": "99326", "REMARKS": "FINALIZED", "MAP_STATUS": "COMPLETED", "BLK_C_2001": "020025", "BLK_C_2011": "01055", "DIST_NAME": "PURBI CHAMPARAN", "code2011": 0.0, "Shape_Leng": 0.18858365159, "Shape_Area": 0.00112905473, "Area": 12.4734}, "geometry": {"type": "MultiPolygon", "coordinates": [[[[85.08970062100008, 26.492337133000035], [85.08986405900004, 26.49017113700006], [85.08981134800007, 26.488393047000045], [85.08991759900005, 26.487738809000064], [85.09075088200007, 26.487180094000053], [85.09205075000006, 26.486432457000035], [85.09298554700007, 26.48493970800007], [85.09309244600007, 26.483816128000058], [85.09205535100006, 26.483065837000026], [85.09356215000008, 26.481339043000048], [85.09377401300009, 26.480405106000035], [85.09050278300003, 26.477919429000053], [85.08795592000007, 26.47754204000006], [85.08512519100003, 26.47929423100004], [85.08361578700004, 26.479242869000075], [85.07982836000008, 26.476760857000045], [85.07744274700008, 26.475868900000023], [85.07463396200006, 26.47628971900008], [85.07219581900006, 26.47698623200006], [85.06904705300008, 26.479951722000067], [85.06743797200005, 26.479530005000072], [85.06572457400006, 26.478498777000027], [85.06474371300004, 26.47723392200004], [85.06505657200006, 26.47602041500005], [85.06625148900008, 26.475132918000043], [85.06941983300004, 26.47565138400006], [85.07134000100007, 26.475888525000073], [85.07206792900007, 26.475374912000063], [85.07279695200003, 26.474112284000057], [85.07212157500004, 26.47308244000004], [85.07041245700003, 26.472565899000074], [85.06664892900005, 26.471094406000077], [85.06286375200006, 26.47070139400006], [85.06114908200004, 26.47056370000007], [85.06117308000006, 26.47125420200007], [85.06101697600008, 26.471646668000062], [85.06017418600004, 26.47187563600005], [85.05899565200008, 26.47194180500003], [85.05771227700006, 26.47180467000004], [85.05222739600003, 26.47128724600003], [85.05107403600005, 26.47133073400005], [85.04984451000007, 26.471951813000032], [85.04966205000005, 26.473061698000038], [85.05088891200006, 26.476939971000036], [85.05068021400007, 26.47873580600003], [85.04985670300005, 26.479429633000052], [85.04832195900008, 26.479562885000064], [85.04583650500007, 26.47852137800004], [85.04522023300007, 26.478177481000046], [85.04401674800005, 26.47817578300004], [85.04260648500008, 26.47884164100003], [85.04203934000003, 26.47912061200003], [85.04539171000005, 26.481598304000045], [85.04561353900004, 26.482438951000063], [85.04561600800008, 26.484077780000064], [85.04505667400008, 26.485791310000025], [85.04514624700005, 26.486466622000023], [85.04550688000006, 26.487641890000077], [85.04656149600004, 26.488907693000044], [85.04783528700005, 26.48937531300004], [85.04885395800005, 26.489738057000068], [85.04942937800007, 26.490002093000044], [85.04962640200006, 26.490221833000078], [85.04976746300008, 26.49061288200005], [85.04978545800003, 26.491064402000063], [85.04983494900006, 26.492306196000072], [85.04986419300008, 26.493039949000035], [85.04991143300003, 26.49422522100008], [85.05084532900008, 26.495607979000056], [85.05137371800004, 26.496269122000058], [85.05259399300007, 26.496964433000073], [85.05367770400005, 26.497381639000025], [85.05429776500006, 26.49719202500006], [85.05459546200007, 26.496786814000075], [85.05457970000003, 26.496391725000024], [85.05452340800008, 26.494980653000027], [85.05399682500007, 26.492793474000052], [85.05394954800005, 26.491608202000066], [85.05393378900004, 26.491213111000036], [85.05430308400008, 26.491031591000024], [85.05461652800005, 26.49102146900003], [85.05499933600004, 26.49117870200007], [85.05502410700007, 26.491799598000057], [85.05503986900004, 26.49219468900003], [85.05513860700006, 26.493095701000072], [85.05529095000009, 26.49376897700006], [85.05586865400005, 26.494089417000055], [85.05624697000007, 26.494133789000045], [85.05681566600003, 26.49422842000007], [85.05751419100005, 26.494431948000056], [85.05867402300004, 26.495185667000044], [85.06087118500005, 26.496543916000064], [85.06111911000005, 26.498472391000064], [85.06123107200006, 26.500389338000048], [85.06150426400006, 26.50200531400003], [85.06186363400008, 26.503097941000078], [85.06269883700008, 26.50460629400004], [85.06317871800007, 26.50564035800005], [85.06464953400007, 26.508029570000076], [85.06536549700007, 26.508838360000027], [85.06693126400006, 26.50832142300004], [85.06801055600005, 26.507803747000025], [85.06894429600004, 26.50728599200005], [85.06967730800005, 26.50687172100004], [85.07101223900008, 26.506363504000035], [85.07188062600005, 26.50599452700004], [85.07261347100007, 26.505589265000026], [85.07329088800003, 26.505414098000074], [85.07417389300008, 26.505257202000053], [85.07506179900008, 26.505199708000077], [85.07586956100005, 26.505074321000052], [85.07644667300008, 26.50487193300006], [85.07681818700007, 26.504633238000054], [85.07722026900007, 26.504123745000072], [85.07773321200006, 26.503167666000024], [85.07826102600006, 26.50239652500005], [85.07872296900007, 26.502094801000055], [85.07921982900007, 26.501842646000057], [85.08003771500006, 26.501654056000064], [85.08091058500008, 26.501551282000037], [85.08157774500006, 26.50149346200004], [85.08208967200005, 26.501272923000045], [85.08256685800006, 26.500790607000056], [85.08282032800008, 26.500353097000072], [85.08296399200003, 26.50010512800003], [85.08344093700003, 26.499785234000058], [85.08414353000006, 26.499519847000045], [85.08481078800008, 26.49938066200008], [85.08601511000006, 26.49894437200004], [85.08723455500007, 26.498507949000043], [85.08783703800003, 26.498057338000024], [85.08838904900006, 26.497814310000024], [85.08906649000005, 26.497562325000047], [85.08979906600007, 26.49732851300007], [85.09005510700007, 26.497121236000055], [85.09022115200008, 26.496733302000052], [85.08987577200008, 26.49623648100004], [85.08927542700008, 26.495184315000074], [85.08885547100004, 26.494177446000037], [85.08868592900006, 26.493518376000054], [85.08880186900006, 26.493089833000056], [85.08900807700007, 26.492647772000055], [85.08931428400007, 26.492467576000024], [85.08970062100008, 26.492337133000035]]]]}}, {"type": "Feature", "properties": {"OBJECTID": 3911, "GPCODE": "96794", "GPNAME_1": "NAWRANGIA MADHOPUR", "DIST_CEN_C": "02", "BLK_NAME": "MADHUBAN", "ST_NAME": "BIHAR", "ST_CODE_1": "10", "GPCODE2011": "99333", "REMARKS": "FINALIZED", "MAP_STATUS": "COMPLETED", "BLK_C_2001": "020025", "BLK_C_2011": "01055", "DIST_NAME": "PURBI CHAMPARAN", "code2011": 0.0, "Shape_Leng": 0.1925150239, "Shape_Area": 0.0011985217, "Area": 13.2413}, "geometry": {"type": "MultiPolygon", "coordinates": [[[[85.13295288800003, 26.48656215400007], [85.13348590000004, 26.485136526000076], [85.13433956600005, 26.483972858000072], [85.13543377200006, 26.483017088000054], [85.13670855900006, 26.481953051000062], [85.13740128600006, 26.481267648000028], [85.13784818500005, 26.480685833000052], [85.13802922800005, 26.480162437000047], [85.13856767800007, 26.478222370000026], [85.13915054200004, 26.476936606000038], [85.13991384400003, 26.475808992000054], [85.14120904600009, 26.474212426000065], [85.14130001400008, 26.473445355000024], [85.14121092900007, 26.472199687000057], [85.14042957700008, 26.471215288000053], [85.13884649900007, 26.469774449000056], [85.13804514100008, 26.468790050000052], [85.13786605600006, 26.467341194000028], [85.13833877700006, 26.46579363400008], [85.13892131600005, 26.46488701100003], [85.13936782200005, 26.464589552000064], [85.13836020100007, 26.464367639000045], [85.13628377800006, 26.46506544600004], [85.13405202200005, 26.46552850200004], [85.13327047700005, 26.464923123000062], [85.13186595800005, 26.465481587000056], [85.13093503000005, 26.46379749700003], [85.12974148700005, 26.464031169000066], [85.12932648600008, 26.46290715400005], [85.12843865800005, 26.463226778000035], [85.12745561400004, 26.46355089700006], [85.12563528700008, 26.46378390800004], [85.12532684500007, 26.461445983000033], [85.12587464700005, 26.46025508100007], [85.12359188800008, 26.456976702000077], [85.12115026600009, 26.45692936000006], [85.12114910700006, 26.457958337000036], [85.12063262300006, 26.45805263400007], [85.11917884600007, 26.45786176300004], [85.11834666900006, 26.457721131000028], [85.11725347700008, 26.457909648000054], [85.11512661900008, 26.458796651000057], [85.11159017400007, 26.460241981000024], [85.11179789100004, 26.462674599000025], [85.10953661800005, 26.462649800000065], [85.10808198400008, 26.463113244000056], [85.10553966100008, 26.463345292000042], [85.10600132700006, 26.46708695500007], [85.10615385800008, 26.469474431000037], [85.10526378000003, 26.471481808000078], [85.10411993400004, 26.47199506800007], [85.10334127100003, 26.473068340000054], [85.10209115800006, 26.47433062700003], [85.10198346900006, 26.476153725000074], [85.10125563200006, 26.47671256900003], [85.09888987700003, 26.47977435300004], [85.09857743900005, 26.480947339000068], [85.09831358400004, 26.483284764000075], [85.09690639600007, 26.48562095500006], [85.09290419600006, 26.48949765900005], [85.09098323700005, 26.48958573400006], [85.08986405900004, 26.49017113700006], [85.08970062100008, 26.492337133000035], [85.09059828600004, 26.492410362000044], [85.09181644100005, 26.49276827500006], [85.09331065000003, 26.49302259800004], [85.09446412800008, 26.493091621000076], [85.09495062800005, 26.49309207400006], [85.09559276900006, 26.49291685000003], [85.09629560800005, 26.49238959300004], [85.09744015200005, 26.49156047200006], [85.09862014300006, 26.490474087000052], [85.09912210400006, 26.490127099000063], [85.09950352900006, 26.489933480000047], [85.09987969700006, 26.489888740000026], [85.10025077100005, 26.489920727000026], [85.10051649600007, 26.490015778000043], [85.10067178300005, 26.490128782000056], [85.10097723400008, 26.49055777600006], [85.10132264200007, 26.491054575000078], [85.10150748500007, 26.491591759000073], [85.10183781800004, 26.49213818800007], [85.10234870500005, 26.492635112000073], [85.10256898100005, 26.492982862000076], [85.10269876900009, 26.493447853000077], [85.10293367800006, 26.49405729600005], [85.10320826700007, 26.495032338000044], [85.10392386500007, 26.496332837000068], [85.10456508500005, 26.49692912000006], [85.10530186200003, 26.49735866800006], [85.10632942900008, 26.49782446200004], [85.10755798300005, 26.498024281000028], [85.10902761700004, 26.497976136000034], [85.11069786200005, 26.497855908000076], [85.11151045300005, 26.497770941000056], [85.11249893900003, 26.497442440000043], [85.11301592600006, 26.497095470000033], [85.11332729300005, 26.49671674900003], [85.11342343500007, 26.49603531200006], [85.11338415000006, 26.495358390000035], [85.11303895000003, 26.494581863000064], [85.11237845900007, 26.493267914000057], [85.11190384400004, 26.491742128000055], [85.11181479600003, 26.490668002000064], [85.11201656600008, 26.48976566300007], [85.11231323800007, 26.489088991000074], [85.11308640000004, 26.48834512800005], [85.11396978400006, 26.48776827000006], [85.11547484700003, 26.487273327000025], [85.11747639100008, 26.48673811900005], [85.11929712500006, 26.486491586000056], [85.12051085300004, 26.48644304800007], [85.12184964900007, 26.486624792000043], [85.12269696600003, 26.486846721000063], [85.12295243700004, 26.487095105000037], [85.12309759600004, 26.487379583000063], [85.12313212300006, 26.487889550000034], [85.12295099900007, 26.488372251000044], [85.12248870000008, 26.48919773800003], [85.12162439400004, 26.49074937200004], [85.12121689700007, 26.49194943300006], [85.12096007400004, 26.492892420000032], [85.12082844700006, 26.493997963000027], [85.12084759200008, 26.494765173000076], [85.12084663300004, 26.49562708800005], [85.12138324900008, 26.495713334000072], [85.12189962600007, 26.495880759000045], [85.12230556200007, 26.496129371000052], [85.12289194600004, 26.496558607000054], [85.12399436100003, 26.49741698300005], [85.12515188600008, 26.498428879000073], [85.12591877300008, 26.498907959000064], [85.12673092600005, 26.49920647700003], [85.12773886400004, 26.49937434700007], [85.12896771800007, 26.499415987000077], [85.12990574600008, 26.499236264000047], [85.13073376100004, 26.498857876000045], [85.13200337200004, 26.49814596300007], [85.13325337600008, 26.49695552000003], [85.13406191800004, 26.495963407000033], [85.13420777100004, 26.49553476600005], [85.13420841700008, 26.49488948000004], [85.13400857300007, 26.494144667000057], [85.13353311000003, 26.493101813000067], [85.13307284300004, 26.49194158800003], [85.13287332800007, 26.490876429000025], [85.13259879700007, 26.48956747300008], [85.13269086100007, 26.487798433000023], [85.13295288800003, 26.48656215400007]]]]}}]}