{"type": "FeatureCollection", "features": [{"type": "Feature", "properties": {"OBJECTID": 5960, "GPCODE": "97279", "GPNAME_1": "CHAKNAHA", "DIST_CEN_C": "32", "BLK_NAME": "DEHRI", "ST_NAME": "BIHAR", "ST_CODE_1": "10", "GPCODE2011": "99766", "REMARKS": "FINALIZED", "MAP_STATUS": "COMPLETED", "BLK_C_2001": "320017", "BLK_C_2011": "01473", "DIST_NAME": "ROHTAS", "code2011": 0.0, "Shape_Leng": 0.21637301391, "Shape_Area": 0.00154078605, "Area": 17.2716}, "geometry": {"type": "MultiPolygon", "coordinates": [[[[84.15246642800008, 24.87461037500003], [84.15189060100005, 24.873698974000035], [84.15116398500004, 24.87248852700003], [84.15060396400008, 24.871468940000057], [84.15014495200006, 24.87022891400005], [84.14977691200005, 24.869323524000038], [84.14918305600008, 24.86820887300007], [84.15068115600008, 24.86721796200004], [84.15241448500007, 24.86591282200004], [84.16042768200003, 24.85995065900005], [84.16261417000004, 24.85828762500006], [84.16470612700004, 24.856687065000074], [84.16916781800006, 24.853365990000043], [84.17021373100005, 24.852556642000025], [84.16921789000008, 24.851583606000077], [84.16813911400004, 24.850483586000053], [84.16650563100006, 24.848883044000047], [84.16572961600008, 24.848241048000034], [84.16461199500003, 24.847050237000076], [84.16385721600005, 24.84624601300004], [84.16221790600008, 24.844758222000053], [84.16019411800005, 24.843118679000042], [84.15756042200007, 24.841091032000065], [84.15538340400008, 24.839450303000035], [84.15450834400008, 24.83882556100008], [84.15375919700006, 24.838517659000047], [84.15193053900003, 24.837213346000055], [84.15016522700006, 24.83602243300004], [84.14895678700003, 24.835070272000053], [84.14781344300008, 24.834023699000056], [84.14758258700004, 24.833798321000074], [84.14660704500005, 24.83284591100005], [84.14466247900003, 24.83124732600004], [84.14307185800004, 24.829895073000046], [84.14216431400007, 24.830159166000044], [84.13983800100004, 24.831992385000035], [84.13839940400004, 24.833006209000075], [84.13395466000009, 24.83608733400007], [84.13244521000007, 24.837276511000027], [84.12823138100003, 24.840485559000058], [84.12638949000007, 24.841776030000062], [84.12509317200005, 24.842899200000033], [84.12267288800007, 24.844668153000043], [84.12050378800006, 24.846019323000064], [84.11932115500008, 24.84714327300003], [84.11819423800006, 24.848664702000065], [84.11840313500005, 24.84963667100004], [84.11907509100007, 24.85081520600005], [84.12031035900003, 24.851533130000064], [84.12093359700003, 24.852630068000053], [84.12092702300004, 24.853356722000058], [84.12082904700009, 24.85433982400008], [84.12032828100007, 24.854462419000072], [84.11974607400003, 24.85428648100003], [84.11916357100006, 24.853600596000035], [84.11846850200004, 24.852778458000046], [84.11744558900006, 24.85210726100007], [84.11667849200006, 24.85159142300006], [84.11569710500004, 24.85234222300005], [84.11477924500008, 24.853170161000037], [84.11324760700006, 24.854034154000033], [84.11244448200006, 24.854754671000023], [84.11164586200005, 24.855524797000044], [84.11190198600008, 24.85619471900003], [84.11236427900008, 24.857033216000048], [84.11303465600008, 24.857850789000054], [84.11360608300004, 24.859200102000045], [84.11358653100007, 24.860260496000024], [84.11280871000008, 24.860918079000044], [84.11186664900004, 24.861673605000078], [84.11082884600006, 24.86208096100006], [84.10976848400009, 24.86279946700006], [84.10877927700005, 24.863306456000032], [84.10821275200004, 24.86357747200003], [84.10711061400008, 24.86397518600006], [84.10623769000006, 24.864207743000065], [84.10587351700008, 24.86453443000005], [84.10584211600008, 24.865260817000035], [84.10583209300006, 24.866352910000046], [84.10536132900006, 24.866967659000068], [84.10416262500007, 24.867111884000053], [84.10360097000006, 24.86685033200007], [84.10297859600007, 24.866204684000024], [84.10235165600005, 24.86551384200004], [84.10164829500007, 24.865594233000024], [84.10056466400005, 24.866136462000043], [84.09959512700004, 24.866648025000075], [84.09877137500007, 24.867445084000053], [84.09881087000008, 24.86798695500005], [84.09983572800007, 24.86844621000006], [84.10080053900003, 24.86845356200007], [84.10154815900006, 24.868396129000075], [84.10233155600008, 24.868754210000077], [84.10288775400005, 24.869616024000038], [84.10355533300003, 24.870731461000048], [84.10435058900003, 24.871419021000065], [84.10544787900005, 24.87100322300006], [84.10658333300006, 24.870745640000052], [84.10756764300004, 24.87024764100005], [84.10846723000003, 24.869812213000046], [84.10958677100007, 24.869130273000053], [84.11128819000004, 24.86811426500003], [84.11200974300004, 24.86766835900005], [84.11313610500008, 24.867320436000057], [84.11398979100005, 24.86702904200007], [84.11459603000003, 24.866740277000076], [84.11571289600005, 24.866351604000045], [84.11685150100004, 24.865737437000064], [84.11931589100004, 24.864605209000047], [84.12070251200004, 24.86391615100007], [84.12229708700005, 24.863215082000067], [84.12326530100006, 24.862838793000037], [84.12375750700005, 24.862580666000042], [84.12488421800003, 24.86218300300004], [84.12547997600007, 24.861952772000052], [84.12612148100004, 24.86213815600007], [84.12674043700008, 24.86263027700005], [84.12781042700004, 24.863590635000037], [84.12840697200005, 24.864371342000027], [84.12944995900006, 24.865024616000028], [84.13086651000003, 24.865965], [84.13165252500005, 24.866593728000055], [84.13222031200007, 24.867279499000063], [84.13286095300003, 24.868114728000023], [84.13331090600008, 24.868695801000058], [84.13363721300004, 24.869280459000038], [84.13386499900008, 24.869805679000024], [84.13407751200003, 24.870389514000067], [84.13437248800005, 24.871145392000074], [84.13454578900007, 24.87168385800004], [84.13478906000006, 24.872150456000043], [84.13508594900009, 24.872698874000037], [84.13520232100007, 24.873516634000055], [84.13531661200005, 24.875119682000047], [84.13540860000006, 24.875901162000048], [84.13568695500004, 24.876309441000046], [84.13623865300008, 24.876584407000053], [84.13706039800007, 24.876545356000065], [84.13825956100004, 24.876360249000072], [84.13917394100008, 24.87591568000005], [84.14004560900008, 24.87527681800003], [84.14112562400004, 24.874571669000034], [84.14135056200007, 24.874875734000057], [84.14188338200006, 24.875610851000033], [84.14247223000007, 24.876712029000032], [84.14309783400006, 24.87758768200007], [84.14384173100007, 24.87851845700004], [84.14471119300003, 24.879228966000028], [84.14509200800006, 24.879813978000072], [84.14567188600006, 24.880269681000073], [84.14645600500006, 24.88056876400003], [84.14695526100007, 24.880622130000063], [84.14802079200007, 24.879321169000036], [84.14842565600009, 24.878868311000076], [84.14903239000006, 24.878529757000024], [84.15009613800004, 24.877977960000067], [84.15102503200006, 24.877574098000025], [84.15199102100007, 24.876890635000052], [84.15250672700006, 24.876203893000024], [84.15270491100006, 24.875623130000065], [84.15270862000006, 24.875194401000044], [84.15246642800008, 24.87461037500003]]]]}}, {"type": "Feature", "properties": {"OBJECTID": 5963, "GPCODE": "97281", "GPNAME_1": "DARIHAT", "DIST_CEN_C": "32", "BLK_NAME": "DEHRI", "ST_NAME": "BIHAR", "ST_CODE_1": "10", "GPCODE2011": "99768", "REMARKS": "FINALIZED", "MAP_STATUS": "COMPLETED", "BLK_C_2001": "320017", "BLK_C_2011": "01473", "DIST_NAME": "ROHTAS", "code2011": 0.0, "Shape_Leng": 0.13876204867, "Shape_Area": 0.00098335868, "Area": 11.0117}, "geometry": {"type": "MultiPolygon", "coordinates": [[[[84.22090444300005, 24.98073333800005], [84.22168276000008, 24.98084586400006], [84.22218046000006, 24.981007869000052], [84.22303939500006, 24.98148889500004], [84.22336301000007, 24.981662011000026], [84.22584624200005, 24.981408283000064], [84.22715162200006, 24.98105623400005], [84.22892684700008, 24.980775034000033], [84.23006846100003, 24.98046695100004], [84.23098407500004, 24.97993609400004], [84.23197544000004, 24.979220714000064], [84.23280184100008, 24.979294139000046], [84.23457577400006, 24.979170854000074], [84.23622056600004, 24.97848699700006], [84.23774278000008, 24.97766235100005], [84.23932435900008, 24.976824641000064], [84.23968252400005, 24.976628412000025], [84.24024653100008, 24.977304769000057], [84.24092915000006, 24.978613798000026], [84.24190309000005, 24.980033080000055], [84.24328802000008, 24.979640766000045], [84.24809072500005, 24.977926421000063], [84.24898288500003, 24.977223878000075], [84.25024584300007, 24.97659144000005], [84.25132088400005, 24.97592621700005], [84.25281045600008, 24.97482142000007], [84.25377232500006, 24.974056053000027], [84.25507734700005, 24.973121442000036], [84.25607960600007, 24.972252534000063], [84.25759076100007, 24.971545046000074], [84.26000300700008, 24.970216097000048], [84.26141108600007, 24.96938146100007], [84.26393440900006, 24.96778239400004], [84.26601623800008, 24.966279649000057], [84.26759212300004, 24.96487290500005], [84.26543839900006, 24.96172635100004], [84.26504435200007, 24.959602490000066], [84.26357680100006, 24.957349565000072], [84.25838762300003, 24.951181457000075], [84.25595475700004, 24.948330817000056], [84.25330157500008, 24.945171781000056], [84.25211014900003, 24.946188368000037], [84.24861361500007, 24.948168790000068], [84.24793372900007, 24.948371864000023], [84.24736577900006, 24.94880127400006], [84.24617626100007, 24.949578580000036], [84.24450491900006, 24.95114255200008], [84.24290038200007, 24.952399917000037], [84.24119457100005, 24.953941034000025], [84.24007898700006, 24.955350629000066], [84.23904889700003, 24.955975500000022], [84.23590631500008, 24.957610576000036], [84.23307984500008, 24.958715102000042], [84.22926379500007, 24.960331831000076], [84.22767861500006, 24.961016020000045], [84.22735052500008, 24.959980245000054], [84.22550798500004, 24.961249362000046], [84.22209639700003, 24.963631408000026], [84.22208363100003, 24.96397435800003], [84.22216967000008, 24.964940867000053], [84.22243127200005, 24.965633195000066], [84.22298864700008, 24.966490030000045], [84.22352517600007, 24.966881882000052], [84.22429124800004, 24.967654450000055], [84.22454285000003, 24.968364730000076], [84.22360027500008, 24.969170646000066], [84.22280656600003, 24.969941451000068], [84.22141957800005, 24.970595380000077], [84.22012115400008, 24.971313002000045], [84.21851219200005, 24.97185701500007], [84.21884730200009, 24.973836231000064], [84.21904630700004, 24.97550750700003], [84.21957858100006, 24.977591852000046], [84.22014757300008, 24.97943721400003], [84.22090444300005, 24.98073333800005]]]]}}, {"type": "Feature", "properties": {"OBJECTID": 5965, "GPCODE": "97275", "GPNAME_1": "BARAWAN", "DIST_CEN_C": "32", "BLK_NAME": "DEHRI", "ST_NAME": "BIHAR", "ST_CODE_1": "10", "GPCODE2011": "99762", "REMARKS": "FINALIZED", "MAP_STATUS": "COMPLETED", "BLK_C_2001": "320017", "BLK_C_2011": "01473", "DIST_NAME": "ROHTAS", "code2011": 0.0, "Shape_Leng": 0.14565153689, "Shape_Area": 0.00067557058, "Area": 7.56281}, "geometry": {"type": "MultiPolygon", "coordinates": [[[[84.25677683900005, 24.997062722000067], [84.25674292000008, 24.996353870000064], [84.25689656800006, 24.995718502000045], [84.25716519500008, 24.99433923600003], [84.25716924400007, 24.99383369900005], [84.25609867300005, 24.993930412000054], [84.25491695300008, 24.994292560000076], [84.25395405000006, 24.99455243600005], [84.25314015600009, 24.99475009200006], [84.25225094900009, 24.99507810700004], [84.25055159100003, 24.99513442500006], [84.25014766600003, 24.994865376000064], [84.24989721200006, 24.993988138000077], [84.24879632800008, 24.994152219000057], [84.24791201100004, 24.994093700000064], [84.24630089400006, 24.994049679000057], [84.24352056100008, 24.99427909900004], [84.24042255400008, 24.99457400800003], [84.24059127000004, 24.995744156000058], [84.23993422100006, 24.996759673000042], [84.23958913900003, 24.99594948400005], [84.23940095000006, 24.994734097000048], [84.23891452300006, 24.993652138000073], [84.23866344100009, 24.992860551000035], [84.23822252100007, 24.99166599800003], [84.23763755800007, 24.990515639000023], [84.23688085100008, 24.989779352000028], [84.23626674400003, 24.989775187000077], [84.23566003400003, 24.989477675000046], [84.23537049900006, 24.988554976000046], [84.23515586400003, 24.988147346000062], [84.23442937900006, 24.98796178400005], [84.23358621300008, 24.988114], [84.23218467900006, 24.988104401000044], [84.22985332800005, 24.988539829000047], [84.22925250000003, 24.98752470100004], [84.22871157600008, 24.985855523000055], [84.22815492700005, 24.984303643000032], [84.22736460100003, 24.982249227000068], [84.22715162200006, 24.98105623400005], [84.22584624200005, 24.981408283000064], [84.22336301000007, 24.981662011000026], [84.22412102700008, 24.98341838400006], [84.22473528300003, 24.985196366000025], [84.22531500300005, 24.986956040000052], [84.22550321300008, 24.98814888000004], [84.22547385200005, 24.989295081000023], [84.22457465200006, 24.990232148000075], [84.22425643400004, 24.990974666000056], [84.22446301600007, 24.992348156000048], [84.22517720600007, 24.994013988000063], [84.22573808300007, 24.995064941000066], [84.22599172200006, 24.99554058800004], [84.22757179900003, 24.995528877000027], [84.22795439600003, 24.99658755300004], [84.22880032100005, 24.99911187200007], [84.22936037600005, 25.00051820500005], [84.22977537200006, 25.000950329000034], [84.23003853700004, 25.001579587000037], [84.23065286400004, 25.001800289000073], [84.23165357900007, 25.00193949800007], [84.23226850400005, 25.002855407000027], [84.23297318700008, 25.004421169000068], [84.23320181500003, 25.00529221000005], [84.23234516800005, 25.005504923000046], [84.23176589500008, 25.005848366000066], [84.23199456800006, 25.006800635000047], [84.23243655500005, 25.008131930000047], [84.23271470900005, 25.008908046000045], [84.23166980700006, 25.009297021000066], [84.22999575500006, 25.00950133400005], [84.23064099200008, 25.010949741000047], [84.23266469600009, 25.014089957000067], [84.23507660400008, 25.019030744000077], [84.23625239900008, 25.020948273000045], [84.23705099500006, 25.02212122800006], [84.23929480400005, 25.02178997200008], [84.24249406600006, 25.02090282900008], [84.24578739100008, 25.019884562000072], [84.24935374800003, 25.018911673000048], [84.25129752600003, 25.018062715000042], [84.25389915500006, 25.016726220000066], [84.25298581300007, 25.013271889000066], [84.25318693300005, 25.01168000800004], [84.25255256000008, 25.01109801000007], [84.25175057900003, 25.01042916800003], [84.25038129500007, 25.009463163000078], [84.25007206600003, 25.00849968700004], [84.24976508200007, 25.006651661000035], [84.25136098700006, 25.005926730000056], [84.25202647200007, 25.00571005200004], [84.25243670100008, 25.005198318000055], [84.25276737400003, 25.00412182900004], [84.25393092700006, 25.00356541900004], [84.25468592700008, 25.003299757000036], [84.25446490400003, 25.001226588000065], [84.25481295600008, 25.000452610000025], [84.25527625000007, 25.00011273100006], [84.25645668800007, 24.99991749700007], [84.25723588700004, 24.999724095000033], [84.25698884300004, 24.998409134000042], [84.25677683900005, 24.997062722000067]]]]}}, {"type": "Feature", "properties": {"OBJECTID": 5967, "GPCODE": "97278", "GPNAME_1": "BHALUARI", "DIST_CEN_C": "32", "BLK_NAME": "DEHRI", "ST_NAME": "BIHAR", "ST_CODE_1": "10", "GPCODE2011": "99765", "REMARKS": "FINALIZED", "MAP_STATUS": "COMPLETED", "BLK_C_2001": "320017", "BLK_C_2011": "01473", "DIST_NAME": "ROHTAS", "code2011": 0.0, "Shape_Leng": 0.12890046664, "Shape_Area": 0.00082869864, "Area": 9.28768}, "geometry": {"type": "MultiPolygon", "coordinates": [[[[84.13435529800006, 24.89621676400003], [84.13600625300006, 24.895886044000065], [84.13757986800005, 24.895906799000045], [84.13922718400005, 24.895986807000043], [84.14021654400005, 24.896034796000038], [84.14149679800005, 24.89564718300005], [84.14315915000003, 24.89515398900005], [84.14392441600006, 24.89479407600004], [84.14490964800007, 24.894201143000032], [84.14571809200004, 24.893439896000075], [84.14524225900004, 24.89241177400004], [84.14474528800008, 24.891532496000025], [84.14425521500004, 24.890441206000048], [84.14360911000006, 24.88908241000007], [84.14331309800008, 24.888425770000026], [84.14262836500006, 24.88696743400004], [84.14187014300006, 24.885418231000074], [84.14156383200003, 24.884811136000053], [84.14114539000008, 24.884004708000077], [84.14121219600008, 24.883734357000037], [84.14178374900007, 24.883458851000057], [84.14208886700004, 24.883086511000045], [84.14197789300005, 24.882769721000045], [84.14167260900007, 24.882040844000073], [84.14088342500008, 24.880644888000063], [84.13998494600008, 24.87875157700006], [84.13965672000006, 24.877823917000057], [84.13940921100004, 24.876725368000052], [84.13917394100008, 24.87591568000005], [84.13825956100004, 24.876360249000072], [84.13706039800007, 24.876545356000065], [84.13623865300008, 24.876584407000053], [84.13568695500004, 24.876309441000046], [84.13540860000006, 24.875901162000048], [84.13531661200005, 24.875119682000047], [84.13520232100007, 24.873516634000055], [84.13508594900009, 24.872698874000037], [84.13478906000006, 24.872150456000043], [84.13454578900007, 24.87168385800004], [84.13437248800005, 24.871145392000074], [84.13407751200003, 24.870389514000067], [84.13386499900008, 24.869805679000024], [84.13363721300004, 24.869280459000038], [84.13331090600008, 24.868695801000058], [84.13286095300003, 24.868114728000023], [84.13222031200007, 24.867279499000063], [84.13165252500005, 24.866593728000055], [84.13086651000003, 24.865965], [84.12944995900006, 24.865024616000028], [84.12840697200005, 24.864371342000027], [84.12781042700004, 24.863590635000037], [84.12674043700008, 24.86263027700005], [84.12612148100004, 24.86213815600007], [84.12547997600007, 24.861952772000052], [84.12488421800003, 24.86218300300004], [84.12375750700005, 24.862580666000042], [84.12326530100006, 24.862838793000037], [84.12229708700005, 24.863215082000067], [84.12070251200004, 24.86391615100007], [84.11931589100004, 24.864605209000047], [84.11685150100004, 24.865737437000064], [84.11571289600005, 24.866351604000045], [84.11459603000003, 24.866740277000076], [84.11398979100005, 24.86702904200007], [84.11313610500008, 24.867320436000057], [84.11200974300004, 24.86766835900005], [84.11128819000004, 24.86811426500003], [84.10958677100007, 24.869130273000053], [84.10846723000003, 24.869812213000046], [84.10756764300004, 24.87024764100005], [84.10658333300006, 24.870745640000052], [84.10544787900005, 24.87100322300006], [84.10435058900003, 24.871419021000065], [84.10467445800003, 24.87278451700007], [84.10583083700004, 24.874549044000048], [84.10634749800005, 24.875410514000066], [84.10642356000005, 24.876286739000022], [84.10739187700005, 24.87698920500003], [84.10830113100008, 24.877659622000067], [84.10928124800006, 24.878159055000026], [84.11007274000008, 24.87872023500006], [84.11069978600005, 24.879411042000072], [84.11097264200004, 24.88041952800006], [84.11074359600008, 24.881108347000065], [84.11129508400006, 24.88195201900004], [84.11192467500007, 24.88290458700004], [84.11285020400004, 24.88396780200003], [84.11363483800005, 24.884754602000044], [84.11503937400005, 24.88592513900005], [84.11595426700006, 24.887073993000058], [84.11654877900008, 24.88808945900007], [84.11725730400008, 24.889083279000033], [84.11736412300007, 24.88984235600003], [84.11708938400005, 24.890670639000064], [84.11674894800007, 24.891096825000034], [84.11607958300004, 24.891782282000065], [84.11552324300004, 24.892554335000057], [84.11532726600007, 24.893414867000047], [84.11517006400004, 24.894379542000024], [84.11627010500007, 24.894220923000034], [84.11785800600006, 24.89375908900007], [84.11940112700006, 24.893314919000034], [84.12145588700008, 24.893208617000028], [84.12371940000008, 24.893000104000066], [84.12589533100004, 24.892623884000045], [84.12723279800008, 24.892489512000054], [84.12742797500005, 24.893334911000068], [84.12771713300003, 24.893648513000073], [84.12900834400006, 24.893698820000054], [84.12914070500005, 24.895482624000067], [84.13097158400006, 24.895518947000028], [84.13123792500005, 24.896161849000066], [84.13157765500006, 24.896904556000038], [84.13205846900007, 24.896822343000053], [84.13242553200007, 24.89672585900007], [84.13323976500004, 24.896443066000074], [84.13435529800006, 24.89621676400003]]]]}}, {"type": "Feature", "properties": {"OBJECTID": 5970, "GPCODE": "97277", "GPNAME_1": "BHAINSAHA", "DIST_CEN_C": "32", "BLK_NAME": "DEHRI", "ST_NAME": "BIHAR", "ST_CODE_1": "10", "GPCODE2011": "99764", "REMARKS": "FINALIZED", "MAP_STATUS": "COMPLETED", "BLK_C_2001": "320017", "BLK_C_2011": "01473", "DIST_NAME": "ROHTAS", "code2011": 0.0, "Shape_Leng": 0.16478856808, "Shape_Area": 0.00112350184, "Area": 12.5913}, "geometry": {"type": "MultiPolygon", "coordinates": [[[[84.15078715100003, 24.900549657000056], [84.15251887300008, 24.900052381000023], [84.15367634500006, 24.899555425000074], [84.15523676300006, 24.89883570300003], [84.15634454700006, 24.898360969000066], [84.15829865200004, 24.897323656000026], [84.15881072800005, 24.897056598000063], [84.15943893800005, 24.897656924000046], [84.16022698000006, 24.898091493000038], [84.16099744100006, 24.898273078000045], [84.16226605800006, 24.898088315000052], [84.16315413500007, 24.897833028000036], [84.16347505800007, 24.89792108100005], [84.16600509200003, 24.89584411800007], [84.16706218600007, 24.893247204000033], [84.16826920400007, 24.890217826000026], [84.16947132000007, 24.88690160300007], [84.16924038900004, 24.882483937000075], [84.17054845000007, 24.88183721400003], [84.17474147600007, 24.878766797000026], [84.17781908300003, 24.876505231000067], [84.18237455500008, 24.873256609000066], [84.18564676300008, 24.870757052000044], [84.18741594200003, 24.869284761000074], [84.18573022800007, 24.867945837000036], [84.18382958400008, 24.86628935500005], [84.18271437800007, 24.865374255000063], [84.18139845900004, 24.864200348000054], [84.18028019400003, 24.86305045900008], [84.17881529600004, 24.861379079000073], [84.17678592200008, 24.859753257000023], [84.17533705200003, 24.858519714000067], [84.17424665300007, 24.85760913300004], [84.17224468000006, 24.855116862000045], [84.17101020400008, 24.853140132000078], [84.17021373100005, 24.852556642000025], [84.16916781800006, 24.853365990000043], [84.16470612700004, 24.856687065000074], [84.16261417000004, 24.85828762500006], [84.16042768200003, 24.85995065900005], [84.15241448500007, 24.86591282200004], [84.15068115600008, 24.86721796200004], [84.14918305600008, 24.86820887300007], [84.14977691200005, 24.869323524000038], [84.15014495200006, 24.87022891400005], [84.15060396400008, 24.871468940000057], [84.15116398500004, 24.87248852700003], [84.15189060100005, 24.873698974000035], [84.15246642800008, 24.87461037500003], [84.15270862000006, 24.875194401000044], [84.15270491100006, 24.875623130000065], [84.15250672700006, 24.876203893000024], [84.15199102100007, 24.876890635000052], [84.15102503200006, 24.877574098000025], [84.15009613800004, 24.877977960000067], [84.14903239000006, 24.878529757000024], [84.14842565600009, 24.878868311000076], [84.14802079200007, 24.879321169000036], [84.14695526100007, 24.880622130000063], [84.14645600500006, 24.88056876400003], [84.14567188600006, 24.880269681000073], [84.14509200800006, 24.879813978000072], [84.14471119300003, 24.879228966000028], [84.14384173100007, 24.87851845700004], [84.14309783400006, 24.87758768200007], [84.14247223000007, 24.876712029000032], [84.14188338200006, 24.875610851000033], [84.14135056200007, 24.874875734000057], [84.14112562400004, 24.874571669000034], [84.14004560900008, 24.87527681800003], [84.13917394100008, 24.87591568000005], [84.13940921100004, 24.876725368000052], [84.13965672000006, 24.877823917000057], [84.13998494600008, 24.87875157700006], [84.14088342500008, 24.880644888000063], [84.14167260900007, 24.882040844000073], [84.14197789300005, 24.882769721000045], [84.14208886700004, 24.883086511000045], [84.14178374900007, 24.883458851000057], [84.14121219600008, 24.883734357000037], [84.14114539000008, 24.884004708000077], [84.14156383200003, 24.884811136000053], [84.14187014300006, 24.885418231000074], [84.14262836500006, 24.88696743400004], [84.14331309800008, 24.888425770000026], [84.14360911000006, 24.88908241000007], [84.14425521500004, 24.890441206000048], [84.14474528800008, 24.891532496000025], [84.14524225900004, 24.89241177400004], [84.14571809200004, 24.893439896000075], [84.14490964800007, 24.894201143000032], [84.14392441600006, 24.89479407600004], [84.14408865700005, 24.895246660000055], [84.14428181100004, 24.895794158000058], [84.14488609100005, 24.896841214000062], [84.14512484900007, 24.897822373000054], [84.14533939600005, 24.898744686000043], [84.14546222600006, 24.89995063600003], [84.14560201600005, 24.900931134000075], [84.14704496500008, 24.900621354000066], [84.14900029900008, 24.900581642000077], [84.15078715100003, 24.900549657000056]]]]}}, {"type": "Feature", "properties": {"OBJECTID": 5971, "GPCODE": "97287", "GPNAME_1": "PATPURA", "DIST_CEN_C": "32", "BLK_NAME": "DEHRI", "ST_NAME": "BIHAR", "ST_CODE_1": "10", "GPCODE2011": "99774", "REMARKS": "FINALIZED", "MAP_STATUS": "COMPLETED", "BLK_C_2001": "320017", "BLK_C_2011": "01473", "DIST_NAME": "ROHTAS", "code2011": 0.0, "Shape_Leng": 0.17019396819, "Shape_Area": 0.0010032785, "Area": 11.2428}, "geometry": {"type": "MultiPolygon", "coordinates": [[[[84.13276491900007, 24.909609330000023], [84.13387983700005, 24.90947330800003], [84.13415449400009, 24.90975514300004], [84.13454616200005, 24.910227434000035], [84.13493681300008, 24.910266525000054], [84.13574278800007, 24.910358227000074], [84.13682604500008, 24.910443052000062], [84.13659687500007, 24.909498100000064], [84.13631264800006, 24.90863391700003], [84.13621824100005, 24.90756811500006], [84.13709474100006, 24.907520512000076], [84.13710851200005, 24.907082772000024], [84.13699349600006, 24.90556541500007], [84.13683035000008, 24.904986531000077], [84.13618771700004, 24.90490501200003], [84.13589679700004, 24.904776498000047], [84.13589718700007, 24.903634570000065], [84.13597599200006, 24.902579047000074], [84.13732186300007, 24.902611706000073], [84.13865412000007, 24.902513296000052], [84.13984304700006, 24.902382244000023], [84.14100256000006, 24.902228395000066], [84.14209891800004, 24.901938637000057], [84.14339883900004, 24.901573692000056], [84.14435685200004, 24.901255855000045], [84.14560201600005, 24.900931134000075], [84.14546222600006, 24.89995063600003], [84.14533939600005, 24.898744686000043], [84.14512484900007, 24.897822373000054], [84.14488609100005, 24.896841214000062], [84.14428181100004, 24.895794158000058], [84.14408865700005, 24.895246660000055], [84.14392441600006, 24.89479407600004], [84.14315915000003, 24.89515398900005], [84.14149679800005, 24.89564718300005], [84.14021654400005, 24.896034796000038], [84.13922718400005, 24.895986807000043], [84.13757986800005, 24.895906799000045], [84.13600625300006, 24.895886044000065], [84.13435529800006, 24.89621676400003], [84.13323976500004, 24.896443066000074], [84.13242553200007, 24.89672585900007], [84.13205846900007, 24.896822343000053], [84.13157765500006, 24.896904556000038], [84.13123792500005, 24.896161849000066], [84.13097158400006, 24.895518947000028], [84.12914070500005, 24.895482624000067], [84.12900834400006, 24.893698820000054], [84.12771713300003, 24.893648513000073], [84.12742797500005, 24.893334911000068], [84.12723279800008, 24.892489512000054], [84.12589533100004, 24.892623884000045], [84.12371940000008, 24.893000104000066], [84.12145588700008, 24.893208617000028], [84.11940112700006, 24.893314919000034], [84.11785800600006, 24.89375908900007], [84.11627010500007, 24.894220923000034], [84.11517006400004, 24.894379542000024], [84.11532726600007, 24.893414867000047], [84.11552324300004, 24.892554335000057], [84.11607958300004, 24.891782282000065], [84.11674894800007, 24.891096825000034], [84.11708938400005, 24.890670639000064], [84.11736412300007, 24.88984235600003], [84.11725730400008, 24.889083279000033], [84.11654877900008, 24.88808945900007], [84.11595426700006, 24.887073993000058], [84.11503937400005, 24.88592513900005], [84.11363483800005, 24.884754602000044], [84.11285020400004, 24.88396780200003], [84.11192467500007, 24.88290458700004], [84.11129508400006, 24.88195201900004], [84.11074359600008, 24.881108347000065], [84.10906772300007, 24.882016274000023], [84.10713289100005, 24.88362622300008], [84.10529666400004, 24.88474052500004], [84.10355444400005, 24.885309299000028], [84.10251658300007, 24.886240074000057], [84.10058414900004, 24.887037663000058], [84.09875315100004, 24.887578622000035], [84.09579467700007, 24.888025132000053], [84.09330773900007, 24.888308325000025], [84.09174385700004, 24.889388348000068], [84.09109795900008, 24.89018672000003], [84.09021108300004, 24.891366859000073], [84.08942963300007, 24.892367191000062], [84.08925059200004, 24.894053808000024], [84.08935666800005, 24.895413115000053], [84.08978097100004, 24.896079806000046], [84.08859197100008, 24.897280181000042], [84.08753859000007, 24.89824680600003], [84.08659766400007, 24.89990485800007], [84.08656299500007, 24.900960651000048], [84.08684428200007, 24.90157219100007], [84.08877429000006, 24.901596263000044], [84.08922304400005, 24.901771247000056], [84.08987050800005, 24.902922628000056], [84.09050939100007, 24.903401466000048], [84.09144929900003, 24.90451451900003], [84.09200899700005, 24.905534399000032], [84.09338289600004, 24.905220047000057], [84.09439094400005, 24.905390416000046], [84.09519421200008, 24.90576670300004], [84.09549620400009, 24.906288068000038], [84.09555526400004, 24.907389729000045], [84.09730721100004, 24.907944842000063], [84.09823036100005, 24.909260819000053], [84.09947682000006, 24.910416803000032], [84.10203663500005, 24.91032821600004], [84.10386787000004, 24.909800764000067], [84.10649324500008, 24.909031054000025], [84.10894072000008, 24.908228456000074], [84.11216777700008, 24.90768890800007], [84.11313488800005, 24.908562854000024], [84.11336511500008, 24.909363400000075], [84.11386289300003, 24.91067606300004], [84.11437547400004, 24.91199339600007], [84.11492468100005, 24.913640377000036], [84.11556034900008, 24.913406002000045], [84.11660826700006, 24.91302129500008], [84.11765552100007, 24.91270429000008], [84.11869883600008, 24.91228349800008], [84.11932743200003, 24.912279261000037], [84.12030404000006, 24.91211506800005], [84.12326322500007, 24.91164101000004], [84.12515836400007, 24.911158843000067], [84.12754425900005, 24.910594652000043], [84.13186203700008, 24.909841809000056], [84.13276491900007, 24.909609330000023]]]]}}, {"type": "Feature", "properties": {"OBJECTID": 5976, "GPCODE": "97285", "GPNAME_1": "MATHURI", "DIST_CEN_C": "32", "BLK_NAME": "DEHRI", "ST_NAME": "BIHAR", "ST_CODE_1": "10", "GPCODE2011": "99772", "REMARKS": "FINALIZED", "MAP_STATUS": "COMPLETED", "BLK_C_2001": "320017", "BLK_C_2011": "01473", "DIST_NAME": "ROHTAS", "code2011": 0.0, "Shape_Leng": 0.14960053867, "Shape_Area": 0.00069994363, "Area": 7.84208}, "geometry": {"type": "MultiPolygon", "coordinates": [[[[84.17541821900005, 24.928089003000025], [84.17685690100006, 24.927733757000055], [84.17938222100008, 24.927083955000057], [84.18164279900003, 24.92612077800004], [84.18290381900005, 24.925692], [84.18375232700004, 24.92545434400006], [84.18455781000006, 24.925049401000024], [84.18473813100007, 24.924793458000067], [84.18482223700005, 24.923652206000042], [84.18481406700005, 24.92229812900007], [84.18485745200007, 24.920700714000077], [84.18492881000003, 24.919884267000043], [84.18490311200009, 24.91884149300006], [84.18436060000005, 24.918029794000063], [84.18416750500006, 24.91746871400005], [84.18402085500009, 24.916677880000066], [84.18403491600003, 24.916194998000037], [84.18435216500006, 24.91556087400005], [84.18483713300003, 24.914991188000045], [84.18523139400008, 24.914619389000052], [84.18506539700007, 24.913774189000037], [84.18411147400008, 24.91246304200007], [84.18353502100007, 24.91157876400007], [84.18313579600004, 24.910799650000058], [84.18250737200003, 24.909630718000074], [84.18244708000003, 24.90916541200005], [84.18241723400007, 24.90860552600003], [84.18161321600007, 24.908857080000075], [84.18068698900004, 24.908940634000032], [84.17990919800008, 24.90902081100006], [84.17943797200007, 24.909143804000053], [84.17930748700007, 24.909919210000055], [84.17879122000005, 24.91066922600004], [84.17782096800005, 24.911262520000037], [84.17641994000007, 24.911866258000032], [84.17559395900008, 24.91236574800007], [84.17472405700005, 24.912797347000037], [84.17423709800005, 24.913592696000023], [84.17376538600007, 24.91433845000006], [84.17327279300008, 24.914628237000045], [84.17285644900005, 24.91469750600004], [84.17205530300004, 24.914619496000057], [84.17085030900006, 24.914868007000052], [84.16991091900007, 24.914752919000023], [84.16886787600004, 24.915156095000043], [84.16750325700008, 24.91555237500006], [84.16662071300004, 24.91572648600004], [84.16639772400003, 24.915187743000047], [84.16602886500004, 24.914345603000072], [84.16543278700004, 24.913456633000067], [84.16528975300008, 24.912832751000053], [84.16525747100007, 24.91199304500003], [84.16579335900008, 24.910715195000023], [84.16659836800005, 24.90921356000007], [84.16732443000006, 24.908248495000066], [84.16699670300005, 24.90667546000003], [84.16661519500008, 24.90501629000005], [84.16595432100007, 24.90304369000006], [84.16523693400006, 24.901314369000033], [84.16465966200008, 24.899978762000046], [84.16401299400007, 24.898660680000035], [84.16347505800007, 24.89792108100005], [84.16315413500007, 24.897833028000036], [84.16226605800006, 24.898088315000052], [84.16099744100006, 24.898273078000045], [84.16022698000006, 24.898091493000038], [84.15943893800005, 24.897656924000046], [84.15881072800005, 24.897056598000063], [84.15829865200004, 24.897323656000026], [84.15634454700006, 24.898360969000066], [84.15523676300006, 24.89883570300003], [84.15367634500006, 24.899555425000074], [84.15251887300008, 24.900052381000023], [84.15078715100003, 24.900549657000056], [84.15094518200004, 24.901715239000055], [84.15114341600008, 24.90279989000004], [84.15137293000004, 24.903708807000044], [84.15172199000006, 24.904532818000064], [84.15190395700006, 24.905220135000036], [84.15200372000004, 24.905694796000034], [84.15197062700008, 24.906073655000057], [84.15186526900004, 24.90624438100008], [84.15114346700005, 24.906703917000073], [84.15039307200004, 24.90761006200006], [84.14996285200004, 24.908121436000044], [84.14922028100005, 24.908698208000033], [84.14859866700004, 24.909027576000028], [84.14764030300006, 24.909386062000067], [84.14573484600004, 24.909927082000024], [84.14481709000006, 24.910154970000065], [84.14372213500008, 24.910286760000076], [84.14179062900007, 24.910412333000068], [84.14239337200007, 24.912208648000046], [84.14283997400008, 24.91318681000007], [84.14332238200006, 24.91459852500003], [84.14363594800005, 24.915512560000025], [84.14380174200005, 24.91634426400003], [84.14425171300007, 24.91750744600006], [84.14413548200008, 24.918337045000044], [84.14623764800007, 24.91795092700005], [84.14709259000006, 24.919776185000046], [84.14742545700005, 24.920198355000025], [84.14905470900004, 24.920115647000046], [84.15004303200004, 24.920294384000044], [84.15081019000007, 24.920873233000066], [84.15140703200007, 24.921662953000066], [84.15186986600008, 24.922505913000066], [84.15317074100005, 24.920931263000057], [84.15466111000006, 24.92312666400005], [84.15549047300004, 24.924509300000068], [84.15621744500004, 24.925701650000065], [84.15664484600006, 24.926643540000043], [84.15810275400008, 24.925783168000066], [84.15908489200007, 24.92556019400007], [84.16014681400009, 24.925265532000026], [84.16101522900004, 24.92501466300007], [84.16125084500004, 24.924113684000076], [84.16228823100005, 24.92322766500007], [84.16435883300005, 24.921929375000047], [84.16452974400005, 24.921628214000066], [84.16520680000008, 24.92119533700003], [84.16654464400006, 24.921042571000044], [84.16737712600008, 24.921500036000054], [84.16852810300009, 24.922338843000034], [84.16924994500005, 24.923012028000073], [84.16949311100007, 24.923505739000063], [84.17003837300007, 24.924556773000063], [84.17029193900004, 24.92556963100003], [84.17057032200006, 24.926569017000077], [84.17101693800004, 24.928151994000075], [84.17150729200006, 24.928114900000026], [84.17308821600005, 24.92790965200004], [84.17410373100006, 24.92783128700006], [84.17430697200007, 24.928369815000053], [84.17541821900005, 24.928089003000025]]]]}}, {"type": "Feature", "properties": {"OBJECTID": 5978, "GPCODE": "97280", "GPNAME_1": "DAHAUR", "DIST_CEN_C": "32", "BLK_NAME": "DEHRI", "ST_NAME": "BIHAR", "ST_CODE_1": "10", "GPCODE2011": "99767", "REMARKS": "FINALIZED", "MAP_STATUS": "COMPLETED", "BLK_C_2001": "320017", "BLK_C_2011": "01473", "DIST_NAME": "ROHTAS", "code2011": 0.0, "Shape_Leng": 0.15183865194, "Shape_Area": 0.00087502053, "Area": 9.80351}, "geometry": {"type": "MultiPolygon", "coordinates": [[[[84.15466111000006, 24.92312666400005], [84.15317074100005, 24.920931263000057], [84.15186986600008, 24.922505913000066], [84.15140703200007, 24.921662953000066], [84.15081019000007, 24.920873233000066], [84.15004303200004, 24.920294384000044], [84.14905470900004, 24.920115647000046], [84.14742545700005, 24.920198355000025], [84.14709259000006, 24.919776185000046], [84.14623764800007, 24.91795092700005], [84.14413548200008, 24.918337045000044], [84.14425171300007, 24.91750744600006], [84.14380174200005, 24.91634426400003], [84.14363594800005, 24.915512560000025], [84.14332238200006, 24.91459852500003], [84.14283997400008, 24.91318681000007], [84.14239337200007, 24.912208648000046], [84.14179062900007, 24.910412333000068], [84.14372213500008, 24.910286760000076], [84.14481709000006, 24.910154970000065], [84.14573484600004, 24.909927082000024], [84.14764030300006, 24.909386062000067], [84.14859866700004, 24.909027576000028], [84.14922028100005, 24.908698208000033], [84.14996285200004, 24.908121436000044], [84.15039307200004, 24.90761006200006], [84.15114346700005, 24.906703917000073], [84.15186526900004, 24.90624438100008], [84.15197062700008, 24.906073655000057], [84.15200372000004, 24.905694796000034], [84.15190395700006, 24.905220135000036], [84.15172199000006, 24.904532818000064], [84.15137293000004, 24.903708807000044], [84.15114341600008, 24.90279989000004], [84.15094518200004, 24.901715239000055], [84.15078715100003, 24.900549657000056], [84.14900029900008, 24.900581642000077], [84.14704496500008, 24.900621354000066], [84.14560201600005, 24.900931134000075], [84.14435685200004, 24.901255855000045], [84.14339883900004, 24.901573692000056], [84.14209891800004, 24.901938637000057], [84.14100256000006, 24.902228395000066], [84.13984304700006, 24.902382244000023], [84.13865412000007, 24.902513296000052], [84.13732186300007, 24.902611706000073], [84.13597599200006, 24.902579047000074], [84.13589718700007, 24.903634570000065], [84.13589679700004, 24.904776498000047], [84.13618771700004, 24.90490501200003], [84.13683035000008, 24.904986531000077], [84.13699349600006, 24.90556541500007], [84.13710851200005, 24.907082772000024], [84.13709474100006, 24.907520512000076], [84.13621824100005, 24.90756811500006], [84.13631264800006, 24.90863391700003], [84.13659687500007, 24.909498100000064], [84.13682604500008, 24.910443052000062], [84.13574278800007, 24.910358227000074], [84.13493681300008, 24.910266525000054], [84.13454616200005, 24.910227434000035], [84.13415449400009, 24.90975514300004], [84.13387983700005, 24.90947330800003], [84.13276491900007, 24.909609330000023], [84.13186203700008, 24.909841809000056], [84.12754425900005, 24.910594652000043], [84.12515836400007, 24.911158843000067], [84.12326322500007, 24.91164101000004], [84.12030404000006, 24.91211506800005], [84.11932743200003, 24.912279261000037], [84.11869883600008, 24.91228349800008], [84.11765552100007, 24.91270429000008], [84.11660826700006, 24.91302129500008], [84.11556034900008, 24.913406002000045], [84.11492468100005, 24.913640377000036], [84.11528585000008, 24.91473536500007], [84.11609545400006, 24.917142570000067], [84.11700418300006, 24.918444730000033], [84.11710393500005, 24.91945200300006], [84.11758682500005, 24.920773521000058], [84.11811358800009, 24.922722794000038], [84.11854101000006, 24.924165695000056], [84.11963597800008, 24.925686023000026], [84.12090127800008, 24.926977360000024], [84.12245206000006, 24.929015522000043], [84.12267948300007, 24.929590489000077], [84.12273312900004, 24.931314943000075], [84.12280582400007, 24.933657866000033], [84.12340194200004, 24.934519910000063], [84.12390410500007, 24.934830593000072], [84.12488907400007, 24.935393162000025], [84.12592654900004, 24.935631156000056], [84.12730042400005, 24.935889721000024], [84.12822379600004, 24.93616298200004], [84.12921244400007, 24.936323886000025], [84.13053705800007, 24.936564030000056], [84.13182822200008, 24.93666847800006], [84.13274287300004, 24.93679265800006], [84.13393592300008, 24.936801631000037], [84.13517901000006, 24.93675224800006], [84.13687491600007, 24.93644004400005], [84.13857298200008, 24.936430116000054], [84.14038201700004, 24.936199848000058], [84.14205951300005, 24.935733911000057], [84.14379836800003, 24.935038278000036], [84.14619498500008, 24.93442867500005], [84.14764397200008, 24.934037789000058], [84.14865470700005, 24.93339074800008], [84.14970298800006, 24.93240561700003], [84.15078912400008, 24.931064152000033], [84.15200625600005, 24.93001699900003], [84.15337291500003, 24.928862666000043], [84.15516620300008, 24.92759406600004], [84.15664484600006, 24.926643540000043], [84.15621744500004, 24.925701650000065], [84.15549047300004, 24.924509300000068], [84.15466111000006, 24.92312666400005]]]]}}, {"type": "Feature", "properties": {"OBJECTID": 5981, "GPCODE": "97283", "GPNAME_1": "JAMUHAR", "DIST_CEN_C": "32", "BLK_NAME": "DEHRI", "ST_NAME": "BIHAR", "ST_CODE_1": "10", "GPCODE2011": "99770", "REMARKS": "FINALIZED", "MAP_STATUS": "COMPLETED", "BLK_C_2001": "320017", "BLK_C_2011": "01473", "DIST_NAME": "ROHTAS", "code2011": 0.0, "Shape_Leng": 0.15289814171, "Shape_Area": 0.00092380674, "Area": 10.3489}, "geometry": {"type": "MultiPolygon", "coordinates": [[[[84.11775804200005, 24.950810588000024], [84.11715505700005, 24.94961900800007], [84.11910318600007, 24.949904617000072], [84.12105028700006, 24.94866927100003], [84.12277285700003, 24.947630712000034], [84.12359625700003, 24.94746543800005], [84.12589847000004, 24.947460251000052], [84.12931205800004, 24.94720163100004], [84.13092637400007, 24.94717763600005], [84.13184766200004, 24.94712592600007], [84.13252132300005, 24.94709483300005], [84.13313028300007, 24.94654429600007], [84.13352986900009, 24.945053349000034], [84.13269802000008, 24.94342689800004], [84.13174126300004, 24.94190776000005], [84.13085250400007, 24.940005519000067], [84.13039708500008, 24.938900845000035], [84.12951053800003, 24.93839775300006], [84.12872791000007, 24.937890866000032], [84.12802622500004, 24.937199554000074], [84.12759519100007, 24.936695332000056], [84.12730042400005, 24.935889721000024], [84.12592654900004, 24.935631156000056], [84.12488907400007, 24.935393162000025], [84.12390410500007, 24.934830593000072], [84.12340194200004, 24.934519910000063], [84.12280582400007, 24.933657866000033], [84.12273312900004, 24.931314943000075], [84.12267948300007, 24.929590489000077], [84.12245206000006, 24.929015522000043], [84.12090127800008, 24.926977360000024], [84.11963597800008, 24.925686023000026], [84.11854101000006, 24.924165695000056], [84.11679928700005, 24.924626370000055], [84.11527711300005, 24.92489468100007], [84.11318947300003, 24.925289470000052], [84.11087471000008, 24.925628293000045], [84.10828845100008, 24.92586581200004], [84.10655373700007, 24.92610524400004], [84.10624878400006, 24.925895266000055], [84.10504263400009, 24.92570997400003], [84.10260758200008, 24.92620124900003], [84.10089725600005, 24.92646787500007], [84.09893111900004, 24.926561036000066], [84.09761975700007, 24.92704737100007], [84.09704575100005, 24.927561939000043], [84.09612226500008, 24.927857189000065], [84.09444718000003, 24.928051802000027], [84.09276198700007, 24.92827797700005], [84.09012296500003, 24.928862222000078], [84.08758401900008, 24.929338878000067], [84.08689154200005, 24.929807362000076], [84.08715313200008, 24.930946756000026], [84.08735577900006, 24.932027018000042], [84.08775072600008, 24.933198983000068], [84.08852220300008, 24.93539844000003], [84.08922007300004, 24.937001587000054], [84.08939652900006, 24.93825761100004], [84.09003953800004, 24.93937741600007], [84.08939864300004, 24.939611633000027], [84.08880297300004, 24.939778527000044], [84.08870692100004, 24.93999436100006], [84.08900530800008, 24.940908339000032], [84.08964097000006, 24.941752790000066], [84.09034245900006, 24.942453300000068], [84.09141931600004, 24.943233477000035], [84.09336101900004, 24.943135724000058], [84.09552208900004, 24.942872623000028], [84.09730025300007, 24.942778050000072], [84.09779235400003, 24.943106857000032], [84.09837593300006, 24.94423511100007], [84.09971759700005, 24.945306135000067], [84.10066794700003, 24.945335989000057], [84.10197956000007, 24.944836184000053], [84.10238672100007, 24.945250026000053], [84.10396282700003, 24.946670277000067], [84.10444568400004, 24.947991820000027], [84.10487299600004, 24.949430325000037], [84.10385029400004, 24.949729355000045], [84.10234972600006, 24.950304551000045], [84.10172532800004, 24.950904458000025], [84.10177019200006, 24.951401318000023], [84.10202597800009, 24.952116369000066], [84.10225663700004, 24.952876385000025], [84.10169184400007, 24.95344523700004], [84.10056511100004, 24.95428051300007], [84.09934836200006, 24.955742386000054], [84.09919447500005, 24.95632344300003], [84.09974325500008, 24.956413412000074], [84.10140099600005, 24.95651198400003], [84.10258235400005, 24.956737661000034], [84.10355401900006, 24.957137800000055], [84.10518388400004, 24.95758362500004], [84.10592962600003, 24.95779248300005], [84.10708914000008, 24.958234669000035], [84.10831784800007, 24.958695360000036], [84.10985278300006, 24.959226177000062], [84.11113194400008, 24.959583463000058], [84.11223619600008, 24.959582907000026], [84.11295596600007, 24.959380758000066], [84.11352249900006, 24.958617866000054], [84.11341500900005, 24.957384904000037], [84.11295182800006, 24.956063511000025], [84.11298624800008, 24.95500313200006], [84.11382027000008, 24.954770309000025], [84.11656496200004, 24.95404656000005], [84.11868198000008, 24.953737713000066], [84.11971403700005, 24.953497276000064], [84.11968324400004, 24.953072801000076], [84.11885925000007, 24.952222624000058], [84.11829738100005, 24.951396953000028], [84.11775804200005, 24.950810588000024]]]]}}, {"type": "Feature", "properties": {"OBJECTID": 5996, "GPCODE": "97284", "GPNAME_1": "MAJHIAWAN", "DIST_CEN_C": "32", "BLK_NAME": "DEHRI", "ST_NAME": "BIHAR", "ST_CODE_1": "10", "GPCODE2011": "99771", "REMARKS": "FINALIZED", "MAP_STATUS": "COMPLETED", "BLK_C_2001": "320017", "BLK_C_2011": "01473", "DIST_NAME": "ROHTAS", "code2011": 0.0, "Shape_Leng": 0.19097584628, "Shape_Area": 0.00130377987, "Area": 14.5969}, "geometry": {"type": "MultiPolygon", "coordinates": [[[[84.27799659800007, 24.99690504600005], [84.28554603600008, 24.991682526000034], [84.28786411500005, 24.990393160000053], [84.28460402100006, 24.986729685000057], [84.28088964000005, 24.98167313400006], [84.27914658800006, 24.979125270000054], [84.27631491900007, 24.97584356400006], [84.27181920900006, 24.97010468900004], [84.27135874100009, 24.969465273000026], [84.27002392800006, 24.967935488000023], [84.26887703900007, 24.96644746900006], [84.26759212300004, 24.96487290500005], [84.26601623800008, 24.966279649000057], [84.26393440900006, 24.96778239400004], [84.26141108600007, 24.96938146100007], [84.26000300700008, 24.970216097000048], [84.25759076100007, 24.971545046000074], [84.25607960600007, 24.972252534000063], [84.25507734700005, 24.973121442000036], [84.25377232500006, 24.974056053000027], [84.25281045600008, 24.97482142000007], [84.25132088400005, 24.97592621700005], [84.25024584300007, 24.97659144000005], [84.24898288500003, 24.977223878000075], [84.24809072500005, 24.977926421000063], [84.24328802000008, 24.979640766000045], [84.24190309000005, 24.980033080000055], [84.24092915000006, 24.978613798000026], [84.24024653100008, 24.977304769000057], [84.23968252400005, 24.976628412000025], [84.23932435900008, 24.976824641000064], [84.23774278000008, 24.97766235100005], [84.23622056600004, 24.97848699700006], [84.23457577400006, 24.979170854000074], [84.23280184100008, 24.979294139000046], [84.23197544000004, 24.979220714000064], [84.23098407500004, 24.97993609400004], [84.23006846100003, 24.98046695100004], [84.22892684700008, 24.980775034000033], [84.22715162200006, 24.98105623400005], [84.22736460100003, 24.982249227000068], [84.22815492700005, 24.984303643000032], [84.22871157600008, 24.985855523000055], [84.22925250000003, 24.98752470100004], [84.22985332800005, 24.988539829000047], [84.23218467900006, 24.988104401000044], [84.23358621300008, 24.988114], [84.23442937900006, 24.98796178400005], [84.23515586400003, 24.988147346000062], [84.23537049900006, 24.988554976000046], [84.23566003400003, 24.989477675000046], [84.23626674400003, 24.989775187000077], [84.23688085100008, 24.989779352000028], [84.23763755800007, 24.990515639000023], [84.23822252100007, 24.99166599800003], [84.23866344100009, 24.992860551000035], [84.23891452300006, 24.993652138000073], [84.23940095000006, 24.994734097000048], [84.23958913900003, 24.99594948400005], [84.23993422100006, 24.996759673000042], [84.24059127000004, 24.995744156000058], [84.24042255400008, 24.99457400800003], [84.24352056100008, 24.99427909900004], [84.24630089400006, 24.994049679000057], [84.24791201100004, 24.994093700000064], [84.24879632800008, 24.994152219000057], [84.24989721200006, 24.993988138000077], [84.25014766600003, 24.994865376000064], [84.25055159100003, 24.99513442500006], [84.25225094900009, 24.99507810700004], [84.25314015600009, 24.99475009200006], [84.25395405000006, 24.99455243600005], [84.25491695300008, 24.994292560000076], [84.25609867300005, 24.993930412000054], [84.25716924400007, 24.99383369900005], [84.25716519500008, 24.99433923600003], [84.25689656800006, 24.995718502000045], [84.25674292000008, 24.996353870000064], [84.25677683900005, 24.997062722000067], [84.25698884300004, 24.998409134000042], [84.25723588700004, 24.999724095000033], [84.25645668800007, 24.99991749700007], [84.25527625000007, 25.00011273100006], [84.25481295600008, 25.000452610000025], [84.25446490400003, 25.001226588000065], [84.25468592700008, 25.003299757000036], [84.25393092700006, 25.00356541900004], [84.25276737400003, 25.00412182900004], [84.25243670100008, 25.005198318000055], [84.25202647200007, 25.00571005200004], [84.25136098700006, 25.005926730000056], [84.24976508200007, 25.006651661000035], [84.25007206600003, 25.00849968700004], [84.25038129500007, 25.009463163000078], [84.25175057900003, 25.01042916800003], [84.25255256000008, 25.01109801000007], [84.25318693300005, 25.01168000800004], [84.25503507300004, 25.011001794000038], [84.25856794800006, 25.01026269700003], [84.26188533000004, 25.00921062200007], [84.26476538400004, 25.008940831000075], [84.26517151000007, 25.00647020100007], [84.26792425100007, 25.00476881900005], [84.27157819600006, 25.00246402700003], [84.27467487600006, 25.000453330000028], [84.27799659800007, 24.99690504600005]]]]}}, {"type": "Feature", "properties": {"OBJECTID": 6008, "GPCODE": "97276", "GPNAME_1": "BERKAP", "DIST_CEN_C": "32", "BLK_NAME": "DEHRI", "ST_NAME": "BIHAR", "ST_CODE_1": "10", "GPCODE2011": "99763", "REMARKS": "FINALIZED", "MAP_STATUS": "COMPLETED", "BLK_C_2001": "320017", "BLK_C_2011": "01473", "DIST_NAME": "ROHTAS", "code2011": 0.0, "Shape_Leng": 0.16703444776, "Shape_Area": 0.00141103137, "Area": 15.8046}, "geometry": {"type": "MultiPolygon", "coordinates": [[[[84.24007898700006, 24.955350629000066], [84.24119457100005, 24.953941034000025], [84.24290038200007, 24.952399917000037], [84.24450491900006, 24.95114255200008], [84.24617626100007, 24.949578580000036], [84.24736577900006, 24.94880127400006], [84.24793372900007, 24.948371864000023], [84.24861361500007, 24.948168790000068], [84.25211014900003, 24.946188368000037], [84.25330157500008, 24.945171781000056], [84.25151640400009, 24.942451793000032], [84.24972416600008, 24.94062082000005], [84.24793386700009, 24.938955143000044], [84.24623541900007, 24.937374861000023], [84.24408304200006, 24.93480127600003], [84.24231239300008, 24.93276728400008], [84.24126728400006, 24.93162282700007], [84.24014908600003, 24.930328960000054], [84.23869423400004, 24.929055281000046], [84.23699838100003, 24.92698123100007], [84.23555644500004, 24.92533757600006], [84.23383511700007, 24.923366971000064], [84.23218634900007, 24.921604528000046], [84.22978671100003, 24.91905612000005], [84.22819706300004, 24.917126664000023], [84.22764019300007, 24.916450738000037], [84.22668770000007, 24.91550092400007], [84.22492649300005, 24.913602226000023], [84.22364758500004, 24.91442842300006], [84.22139208100003, 24.916037708000033], [84.21713299000004, 24.918693663000056], [84.21430232700004, 24.920393690000026], [84.20957810100003, 24.92299202600003], [84.20661689700006, 24.924289216000034], [84.20395914000005, 24.925417010000047], [84.20472141100004, 24.928947288000074], [84.20499989100006, 24.931147203000023], [84.20559157100007, 24.93260015100003], [84.20636642500006, 24.93405437100006], [84.20687961500005, 24.93484330600006], [84.20688613400006, 24.935840824000024], [84.20569317700006, 24.936405628000045], [84.20611030500004, 24.93860655000003], [84.20394106500004, 24.939886712000032], [84.20424332000005, 24.94102620700005], [84.20443495700005, 24.941785770000024], [84.20446758500003, 24.943198670000072], [84.20469249000007, 24.94411647000004], [84.20562249300008, 24.945386692000056], [84.20590373700009, 24.946679543000073], [84.20596336900007, 24.947830794000026], [84.20511702000005, 24.948384494000038], [84.20489887200006, 24.94900582500003], [84.20539026800003, 24.95062054500005], [84.20591571600005, 24.952312250000034], [84.20703552400005, 24.954554168000072], [84.20716298100007, 24.955881960000056], [84.20778293400008, 24.957533692000027], [84.20786480900006, 24.960151987000074], [84.20899482200008, 24.960033535000036], [84.20951258800005, 24.959955019000063], [84.20926100500003, 24.95840611600005], [84.20940294000007, 24.95742316700006], [84.21098907100009, 24.95603966300007], [84.21274312000008, 24.955889348000028], [84.21364439100006, 24.955281799000034], [84.21410421500008, 24.954179289000024], [84.21514510200006, 24.95344635400005], [84.21573104300006, 24.953247280000028], [84.21703146000004, 24.953459444000032], [84.21743191600007, 24.954121101000055], [84.21760163900007, 24.955142340000066], [84.21824111200004, 24.95624349600007], [84.21985098500005, 24.955564069000047], [84.22188525700005, 24.95506367100006], [84.22443388300007, 24.95462083700005], [84.22530758900007, 24.95434708700003], [84.22656260600007, 24.957659489000037], [84.22735052500008, 24.959980245000054], [84.22767861500006, 24.961016020000045], [84.22926379500007, 24.960331831000076], [84.23307984500008, 24.958715102000042], [84.23590631500008, 24.957610576000036], [84.23904889700003, 24.955975500000022], [84.24007898700006, 24.955350629000066]]]]}}, {"type": "Feature", "properties": {"OBJECTID": 6009, "GPCODE": "97282", "GPNAME_1": "GANGAULI", "DIST_CEN_C": "32", "BLK_NAME": "DEHRI", "ST_NAME": "BIHAR", "ST_CODE_1": "10", "GPCODE2011": "99769", "REMARKS": "FINALIZED", "MAP_STATUS": "COMPLETED", "BLK_C_2001": "320017", "BLK_C_2011": "01473", "DIST_NAME": "ROHTAS", "code2011": 0.0, "Shape_Leng": 0.14537867498, "Shape_Area": 0.00077523007, "Area": 8.68414}, "geometry": {"type": "MultiPolygon", "coordinates": [[[[84.18313551900007, 24.94019051400005], [84.18563448000003, 24.939747999000076], [84.18607963600004, 24.939791841000044], [84.18742651800005, 24.939765289000036], [84.18878296400004, 24.93919279000005], [84.19085034700004, 24.93884192200005], [84.19325519500006, 24.938398611000025], [84.19499660300005, 24.937964160000035], [84.19764810300006, 24.93761732400003], [84.19944416500005, 24.937156103000063], [84.20002089500008, 24.936862291000068], [84.20056177900005, 24.936717083000076], [84.20098110800006, 24.936891627000023], [84.20138430100008, 24.937801639000043], [84.20158801400004, 24.938890770000057], [84.20186345700006, 24.93968701500006], [84.20244594600007, 24.939880694000067], [84.20331374700004, 24.939715257000046], [84.20394106500004, 24.939886712000032], [84.20611030500004, 24.93860655000003], [84.20569317700006, 24.936405628000045], [84.20688613400006, 24.935840824000024], [84.20687961500005, 24.93484330600006], [84.20636642500006, 24.93405437100006], [84.20559157100007, 24.93260015100003], [84.20499989100006, 24.931147203000023], [84.20472141100004, 24.928947288000074], [84.20395914000005, 24.925417010000047], [84.20363866000008, 24.92467909100003], [84.20290094600006, 24.924696493000056], [84.20163763400006, 24.92481844300005], [84.20096275100008, 24.924425580000047], [84.19983331000003, 24.923943764000057], [84.19870258400005, 24.923610805000067], [84.19829849800004, 24.92281362700004], [84.19764468100004, 24.921689655000023], [84.19751498400007, 24.921219334000057], [84.19680492900005, 24.92031165900005], [84.19605078200004, 24.919358576000036], [84.19564992600004, 24.91876447100003], [84.19541285900004, 24.918126407000045], [84.19404436600007, 24.918396576000077], [84.19315313400006, 24.91842178400003], [84.19157860000007, 24.91848735700006], [84.18908376300004, 24.91850124800004], [84.18763753200005, 24.918599219000043], [84.18590841900004, 24.91879003300005], [84.18490311200009, 24.91884149300006], [84.18492881000003, 24.919884267000043], [84.18485745200007, 24.920700714000077], [84.18481406700005, 24.92229812900007], [84.18482223700005, 24.923652206000042], [84.18473813100007, 24.924793458000067], [84.18455781000006, 24.925049401000024], [84.18375232700004, 24.92545434400006], [84.18290381900005, 24.925692], [84.18164279900003, 24.92612077800004], [84.17938222100008, 24.927083955000057], [84.17685690100006, 24.927733757000055], [84.17541821900005, 24.928089003000025], [84.17430697200007, 24.928369815000053], [84.17410373100006, 24.92783128700006], [84.17308821600005, 24.92790965200004], [84.17150729200006, 24.928114900000026], [84.17101693800004, 24.928151994000075], [84.17057032200006, 24.926569017000077], [84.17029193900004, 24.92556963100003], [84.17003837300007, 24.924556773000063], [84.16949311100007, 24.923505739000063], [84.16924994500005, 24.923012028000073], [84.16852810300009, 24.922338843000034], [84.16737712600008, 24.921500036000054], [84.16654464400006, 24.921042571000044], [84.16520680000008, 24.92119533700003], [84.16452974400005, 24.921628214000066], [84.16435883300005, 24.921929375000047], [84.16228823100005, 24.92322766500007], [84.16125084500004, 24.924113684000076], [84.16101522900004, 24.92501466300007], [84.16014681400009, 24.925265532000026], [84.15908489200007, 24.92556019400007], [84.15931660000007, 24.926789532000043], [84.15954516000005, 24.92837988200006], [84.15983988900007, 24.929203491000067], [84.16021195100006, 24.930244207000044], [84.16045362500006, 24.931478154000047], [84.16081890100008, 24.932717428000046], [84.16122872800008, 24.933966093000038], [84.16144211700004, 24.935037326000042], [84.16160186800005, 24.936017907000064], [84.16161929000003, 24.936848428000076], [84.16147189100008, 24.93728064800007], [84.16210008000007, 24.93790812800006], [84.16271125000003, 24.937655250000034], [84.16344228700007, 24.93727701800003], [84.16403498500006, 24.936875159000067], [84.16439736200005, 24.93675588900004], [84.16467350300007, 24.937443961000042], [84.16505775300004, 24.93879617600004], [84.16591568400008, 24.93976382200003], [84.16624742500005, 24.94088554900003], [84.16635363400007, 24.941761841000073], [84.16721575300005, 24.942260042000044], [84.16789698300005, 24.942481671000053], [84.16859291300005, 24.943299135000075], [84.17011075600004, 24.945241847000034], [84.17137594100006, 24.94663206200005], [84.17205828200008, 24.946740824000074], [84.17294914900003, 24.94676981400005], [84.17442616000005, 24.946586430000025], [84.17589757900004, 24.945901992000074], [84.17695760900006, 24.945268724000073], [84.17724773000003, 24.944350135000036], [84.17742315300006, 24.942961268000033], [84.17821943400008, 24.94190640900007], [84.17907131900006, 24.941294133000042], [84.18052734300005, 24.94066375700004], [84.18313551900007, 24.94019051400005]]]]}}, {"type": "Feature", "properties": {"OBJECTID": 6011, "GPCODE": "97286", "GPNAME_1": "PAHLEZA", "DIST_CEN_C": "32", "BLK_NAME": "DEHRI", "ST_NAME": "BIHAR", "ST_CODE_1": "10", "GPCODE2011": "99773", "REMARKS": "FINALIZED", "MAP_STATUS": "COMPLETED", "BLK_C_2001": "320017", "BLK_C_2011": "01473", "DIST_NAME": "ROHTAS", "code2011": 0.0, "Shape_Leng": 0.14043017415, "Shape_Area": 0.00059641523, "Area": 6.68076}, "geometry": {"type": "MultiPolygon", "coordinates": [[[[84.14074418200005, 24.959897308000052], [84.14251771000005, 24.959251521000056], [84.14333554100006, 24.958048100000042], [84.14486001900008, 24.95699876900005], [84.14645354500004, 24.956536705000076], [84.14776661000008, 24.95587392400006], [84.14935475500005, 24.955452403000038], [84.14954772000004, 24.95491223700003], [84.14925415400006, 24.953411681000034], [84.14898206000004, 24.951153057000056], [84.14868669600008, 24.949846501000025], [84.14799214000004, 24.948893535000025], [84.14889101300008, 24.948029116000043], [84.14889623900007, 24.94632768300005], [84.14807033800008, 24.944547811000064], [84.14764634100004, 24.94323586200005], [84.14817600500004, 24.943244298000025], [84.14911397300006, 24.94299393700004], [84.15019563100003, 24.942726633000063], [84.15201639600008, 24.94229772500006], [84.15249194300003, 24.94170105300003], [84.15247597700005, 24.94071697100003], [84.15274074900003, 24.939884025000026], [84.15396362700005, 24.939315242000077], [84.15609366500007, 24.938613282000063], [84.15750397900007, 24.93813170800007], [84.15790625900007, 24.937981171000047], [84.15884389300004, 24.937753414000042], [84.16022822000008, 24.93740246300007], [84.16161929000003, 24.936848428000076], [84.16160186800005, 24.936017907000064], [84.16144211700004, 24.935037326000042], [84.16122872800008, 24.933966093000038], [84.16081890100008, 24.932717428000046], [84.16045362500006, 24.931478154000047], [84.16021195100006, 24.930244207000044], [84.15983988900007, 24.929203491000067], [84.15954516000005, 24.92837988200006], [84.15931660000007, 24.926789532000043], [84.15908489200007, 24.92556019400007], [84.15810275400008, 24.925783168000066], [84.15664484600006, 24.926643540000043], [84.15516620300008, 24.92759406600004], [84.15337291500003, 24.928862666000043], [84.15200625600005, 24.93001699900003], [84.15078912400008, 24.931064152000033], [84.14970298800006, 24.93240561700003], [84.14865470700005, 24.93339074800008], [84.14764397200008, 24.934037789000058], [84.14619498500008, 24.93442867500005], [84.14379836800003, 24.935038278000036], [84.14205951300005, 24.935733911000057], [84.14038201700004, 24.936199848000058], [84.13857298200008, 24.936430116000054], [84.13687491600007, 24.93644004400005], [84.13517901000006, 24.93675224800006], [84.13393592300008, 24.936801631000037], [84.13274287300004, 24.93679265800006], [84.13182822200008, 24.93666847800006], [84.13053705800007, 24.936564030000056], [84.12921244400007, 24.936323886000025], [84.12822379600004, 24.93616298200004], [84.12730042400005, 24.935889721000024], [84.12759519100007, 24.936695332000056], [84.12802622500004, 24.937199554000074], [84.12872791000007, 24.937890866000032], [84.12951053800003, 24.93839775300006], [84.13039708500008, 24.938900845000035], [84.13085250400007, 24.940005519000067], [84.13174126300004, 24.94190776000005], [84.13269802000008, 24.94342689800004], [84.13352986900009, 24.945053349000034], [84.13313028300007, 24.94654429600007], [84.13252132300005, 24.94709483300005], [84.13184766200004, 24.94712592600007], [84.13092637400007, 24.94717763600005], [84.12931205800004, 24.94720163100004], [84.12589847000004, 24.947460251000052], [84.12359625700003, 24.94746543800005], [84.12277285700003, 24.947630712000034], [84.12105028700006, 24.94866927100003], [84.11910318600007, 24.949904617000072], [84.12019710900006, 24.949930985000037], [84.12137894000006, 24.95009342000003], [84.12184800800009, 24.950787465000076], [84.12260009800008, 24.95137992800005], [84.12355068300008, 24.951387073000035], [84.12470939400004, 24.951373276000027], [84.12539633000006, 24.95150938200004], [84.12604404400008, 24.952150663000054], [84.12634403000004, 24.952929148000067], [84.12675824000007, 24.95420954100007], [84.12713791300007, 24.954383868000036], [84.12734782100006, 24.95471045000005], [84.12808058600007, 24.956349791000036], [84.12896920400004, 24.95718686500004], [84.13022613600003, 24.957819217000065], [84.13173590100007, 24.958412748000057], [84.13374598500008, 24.958991962000027], [84.13529682700005, 24.959423377000064], [84.13578880300008, 24.95977454000007], [84.13692819300007, 24.95971991300007], [84.13887395000006, 24.959734395000055], [84.14074418200005, 24.959897308000052]]]]}}, {"type": "Feature", "properties": {"OBJECTID": 6020, "GPCODE": "321701", "GPNAME_1": "Dehri (Nagar Parishad)", "DIST_CEN_C": "32", "BLK_NAME": "DEHRI", "ST_NAME": "BIHAR", "ST_CODE_1": "10", "GPCODE2011": "801398", "REMARKS": "FINALIZED", "MAP_STATUS": "COMPLETED", "BLK_C_2001": "320017", "BLK_C_2011": "01473", "DIST_NAME": "ROHTAS", "code2011": 0.0, "Shape_Leng": 0.19481770145, "Shape_Area": 0.00179110318, "Area": 20.0688}, "geometry": {"type": "MultiPolygon", "coordinates": [[[[84.22492649300005, 24.913602226000023], [84.22242513600008, 24.91082283000003], [84.22061456400007, 24.908923775000062], [84.21900025800005, 24.907224627000062], [84.21712232400006, 24.90510384600003], [84.21462776600004, 24.902730571000063], [84.21317804100005, 24.90150643100003], [84.20926824900005, 24.89735851300003], [84.20726751500007, 24.895160003000058], [84.20609620500005, 24.89379328700005], [84.20570522600008, 24.89320381500005], [84.20479499300006, 24.891992350000066], [84.20327360100003, 24.88989199300005], [84.20157455300006, 24.887745247000055], [84.19922710400004, 24.885025295000048], [84.19707593100009, 24.882518710000056], [84.19611019400008, 24.881442246000063], [84.19497265600006, 24.879624344000035], [84.19378750100003, 24.878180729000064], [84.19247639500009, 24.876406664000058], [84.19150035300004, 24.87422884500006], [84.19026103700008, 24.87275314900006], [84.18887631400008, 24.870938039000066], [84.18741594200003, 24.869284761000074], [84.18564676300008, 24.870757052000044], [84.18237455500008, 24.873256609000066], [84.17781908300003, 24.876505231000067], [84.17474147600007, 24.878766797000026], [84.17054845000007, 24.88183721400003], [84.16924038900004, 24.882483937000075], [84.16947132000007, 24.88690160300007], [84.16826920400007, 24.890217826000026], [84.16706218600007, 24.893247204000033], [84.16600509200003, 24.89584411800007], [84.16347505800007, 24.89792108100005], [84.16401299400007, 24.898660680000035], [84.16465966200008, 24.899978762000046], [84.16523693400006, 24.901314369000033], [84.16595432100007, 24.90304369000006], [84.16661519500008, 24.90501629000005], [84.16699670300005, 24.90667546000003], [84.16732443000006, 24.908248495000066], [84.16659836800005, 24.90921356000007], [84.16579335900008, 24.910715195000023], [84.16525747100007, 24.91199304500003], [84.16528975300008, 24.912832751000053], [84.16543278700004, 24.913456633000067], [84.16602886500004, 24.914345603000072], [84.16639772400003, 24.915187743000047], [84.16662071300004, 24.91572648600004], [84.16750325700008, 24.91555237500006], [84.16886787600004, 24.915156095000043], [84.16991091900007, 24.914752919000023], [84.17085030900006, 24.914868007000052], [84.17205530300004, 24.914619496000057], [84.17285644900005, 24.91469750600004], [84.17327279300008, 24.914628237000045], [84.17376538600007, 24.91433845000006], [84.17423709800005, 24.913592696000023], [84.17472405700005, 24.912797347000037], [84.17559395900008, 24.91236574800007], [84.17641994000007, 24.911866258000032], [84.17782096800005, 24.911262520000037], [84.17879122000005, 24.91066922600004], [84.17930748700007, 24.909919210000055], [84.17943797200007, 24.909143804000053], [84.17990919800008, 24.90902081100006], [84.18068698900004, 24.908940634000032], [84.18161321600007, 24.908857080000075], [84.18241723400007, 24.90860552600003], [84.18244708000003, 24.90916541200005], [84.18250737200003, 24.909630718000074], [84.18313579600004, 24.910799650000058], [84.18353502100007, 24.91157876400007], [84.18411147400008, 24.91246304200007], [84.18506539700007, 24.913774189000037], [84.18523139400008, 24.914619389000052], [84.18483713300003, 24.914991188000045], [84.18435216500006, 24.91556087400005], [84.18403491600003, 24.916194998000037], [84.18402085500009, 24.916677880000066], [84.18416750500006, 24.91746871400005], [84.18436060000005, 24.918029794000063], [84.18490311200009, 24.91884149300006], [84.18590841900004, 24.91879003300005], [84.18763753200005, 24.918599219000043], [84.18908376300004, 24.91850124800004], [84.19157860000007, 24.91848735700006], [84.19315313400006, 24.91842178400003], [84.19404436600007, 24.918396576000077], [84.19541285900004, 24.918126407000045], [84.19564992600004, 24.91876447100003], [84.19605078200004, 24.919358576000036], [84.19680492900005, 24.92031165900005], [84.19751498400007, 24.921219334000057], [84.19764468100004, 24.921689655000023], [84.19829849800004, 24.92281362700004], [84.19870258400005, 24.923610805000067], [84.19983331000003, 24.923943764000057], [84.20096275100008, 24.924425580000047], [84.20163763400006, 24.92481844300005], [84.20290094600006, 24.924696493000056], [84.20363866000008, 24.92467909100003], [84.20395914000005, 24.925417010000047], [84.20661689700006, 24.924289216000034], [84.20957810100003, 24.92299202600003], [84.21430232700004, 24.920393690000026], [84.21713299000004, 24.918693663000056], [84.22139208100003, 24.916037708000033], [84.22364758500004, 24.91442842300006], [84.22492649300005, 24.913602226000023]]]]}}]}