{"type": "FeatureCollection", "features": [{"type": "Feature", "properties": {"OBJECTID": 6140, "GPCODE": "97270", "GPNAME_1": "ITWAN", "DIST_CEN_C": "32", "BLK_NAME": "DAWATH", "ST_NAME": "BIHAR", "ST_CODE_1": "10", "GPCODE2011": "99757", "REMARKS": "FINALIZED", "MAP_STATUS": "COMPLETED", "BLK_C_2001": "320003", "BLK_C_2011": "01459", "DIST_NAME": "ROHTAS", "code2011": 0.0, "Shape_Leng": 0.2013102687, "Shape_Area": 0.0009322048, "Area": 10.4068}, "geometry": {"type": "MultiPolygon", "coordinates": [[[[84.28254128700007, 25.35313156600006], [84.28327381300005, 25.352843006000057], [84.28287048300007, 25.349848173000055], [84.28249565300007, 25.34637510700003], [84.28193474300008, 25.34508065700004], [84.28015880100008, 25.34355253800004], [84.27982313000007, 25.342665673000056], [84.27995610900007, 25.341560895000043], [84.27952796200003, 25.339193152000064], [84.27937379900004, 25.337973556000065], [84.27912602100008, 25.337281406000045], [84.27878389600005, 25.336579614000073], [84.27836179300004, 25.336576808000075], [84.27799478900005, 25.336506735000057], [84.27774842800005, 25.336256811000055], [84.27737682500003, 25.33614607000004], [84.27537965100004, 25.336218665000047], [84.27294965200008, 25.336383092000062], [84.27078828100008, 25.33648151600005], [84.26967434100004, 25.33665465300004], [84.26790764400005, 25.337094191000062], [84.26736055100008, 25.337180801000045], [84.26687536800006, 25.33699701100005], [84.26699200100006, 25.339164152000023], [84.26708476700009, 25.339977160000046], [84.26631144200007, 25.339791448000028], [84.26569148500005, 25.339674440000067], [84.26522393800008, 25.339761615000043], [84.26487261000005, 25.340210599000045], [84.26404340700003, 25.34140099700005], [84.26389055600004, 25.34187389300007], [84.26369175000008, 25.341895107000028], [84.26252551300007, 25.341774418000057], [84.26217894900003, 25.341636711000035], [84.26186234300008, 25.341476631000035], [84.26119181800004, 25.34147213700004], [84.26085530900008, 25.340093360000026], [84.26069767100006, 25.339938854000025], [84.25925773900008, 25.33988404200005], [84.25910705900003, 25.340081644000065], [84.25900411300006, 25.340532262000067], [84.25909235700004, 25.341886832000057], [84.25893958500006, 25.342359628000054], [84.25792538500008, 25.342465666000066], [84.25648195300005, 25.342839560000073], [84.25578584100003, 25.342925063000052], [84.25469186600003, 25.341866147000076], [84.25441356000005, 25.341282075000038], [84.25402505500006, 25.34019624000007], [84.25307372000003, 25.33809573900004], [84.25201407900005, 25.33588162800004], [84.25177051100007, 25.335293282000066], [84.25147497200004, 25.334997890000068], [84.25006457000006, 25.334988317000068], [84.24919410300004, 25.335140359000036], [84.24852312400003, 25.33520350200007], [84.24792702700006, 25.33581330000004], [84.24653799100008, 25.335614252000028], [84.24455165700004, 25.335573629000066], [84.24422595700008, 25.336519193000072], [84.24377637100008, 25.33743223600004], [84.24317586800004, 25.337974271000064], [84.24184915000006, 25.338050914000064], [84.24163798000006, 25.33655559400006], [84.24275735600008, 25.336337667000066], [84.24267512200004, 25.334874821000028], [84.24263544500008, 25.332464494000078], [84.24301927700003, 25.331695425000078], [84.24274305100005, 25.330863116000046], [84.24273307800007, 25.330262744000038], [84.24318058900008, 25.329602428000044], [84.24340281000008, 25.32914809400006], [84.24306041100004, 25.32851391300005], [84.24226264300006, 25.327700574000062], [84.24103271000007, 25.327493624000056], [84.24021307300006, 25.327515036000023], [84.23892019500005, 25.32770472800007], [84.23908961400008, 25.330030204000025], [84.23985858300006, 25.332531268000025], [84.23989954200005, 25.335370287000046], [84.23987568800004, 25.33645776700007], [84.23838405200007, 25.337250951000044], [84.23566772300006, 25.337778327000024], [84.23331453500003, 25.338245002000065], [84.23204946900006, 25.338669507000077], [84.23062592700006, 25.339029725000046], [84.22851160900007, 25.33944385800004], [84.22673360900006, 25.338831305000042], [84.22533760200008, 25.340053608000062], [84.22359278300007, 25.34081772600007], [84.22166221800006, 25.341806217000055], [84.21990588100005, 25.342741689000036], [84.22042838300007, 25.344114656000045], [84.22059457200004, 25.34487884600003], [84.22061103500005, 25.346284878000063], [84.22657334900003, 25.34548698900005], [84.23146235300004, 25.344726641000022], [84.23281885900008, 25.34823818700005], [84.23396496400005, 25.352573680000035], [84.23416710200007, 25.353338317000066], [84.23490415800006, 25.356071297000028], [84.23496215700004, 25.35628635200004], [84.23513784800008, 25.35666211800003], [84.23971576900004, 25.356319041000063], [84.24198208600006, 25.355585417000043], [84.24225643800008, 25.355587297000056], [84.24310961600008, 25.35559314300008], [84.24792670000005, 25.353960603000075], [84.25034109400008, 25.353922881000074], [84.25323231900006, 25.353910898000038], [84.25423423000007, 25.35408469400005], [84.25473461700005, 25.354255030000047], [84.25480387500005, 25.354896401000076], [84.25475750700008, 25.355708437000033], [84.26007508200007, 25.35480099800003], [84.26364504100007, 25.353777913000044], [84.26637728400004, 25.35315532900006], [84.26749063900007, 25.353063544000065], [84.26816021900004, 25.35319888500004], [84.26907814600008, 25.354554447000055], [84.27051193300008, 25.356017157000053], [84.27128116800003, 25.357340153000052], [84.27223947000005, 25.358628285000066], [84.27297341700006, 25.359409432000064], [84.27315404500007, 25.36001508000004], [84.27446558100007, 25.35979840600004], [84.27540269600007, 25.359398444000078], [84.27621500600003, 25.359069782000063], [84.27646073800008, 25.358778108000024], [84.27650989200004, 25.35822335000006], [84.27643315700004, 25.357261478000055], [84.27614696000006, 25.355156496000063], [84.27615377200004, 25.354308063000076], [84.27757583700009, 25.35413236900007], [84.27977514000008, 25.353668541000047], [84.28254128700007, 25.35313156600006]]]]}}, {"type": "Feature", "properties": {"OBJECTID": 6151, "GPCODE": "97268", "GPNAME_1": "DERGAUN", "DIST_CEN_C": "32", "BLK_NAME": "DAWATH", "ST_NAME": "BIHAR", "ST_CODE_1": "10", "GPCODE2011": "99755", "REMARKS": "FINALIZED", "MAP_STATUS": "COMPLETED", "BLK_C_2001": "320003", "BLK_C_2011": "01459", "DIST_NAME": "ROHTAS", "code2011": 0.0, "Shape_Leng": 0.1909253682, "Shape_Area": 0.00100333796, "Area": 11.2045}, "geometry": {"type": "MultiPolygon", "coordinates": [[[[84.28883535300008, 25.309661134000066], [84.29231696200003, 25.309566491000055], [84.29347853200005, 25.309619122000072], [84.29447307500004, 25.310067911000033], [84.29485398200006, 25.310255426000026], [84.29651742300007, 25.310266132000038], [84.29728186400007, 25.310293648000027], [84.29761528200004, 25.310201067000037], [84.29812871600006, 25.309951648000037], [84.29935970000008, 25.30937734200006], [84.30004157600007, 25.309169653000026], [84.30070184800007, 25.309196451000048], [84.30306051200006, 25.309189081000056], [84.30331417800005, 25.30914106000006], [84.30411110300008, 25.308821223000052], [84.30487864200006, 25.30845606500003], [84.30572637500006, 25.307996591000062], [84.30613865800007, 25.307972151000058], [84.30634140200004, 25.308090830000026], [84.30644261400005, 25.308488672000067], [84.30671632400004, 25.30904553700003], [84.30724368900007, 25.310195274000023], [84.30765289100003, 25.309940616000063], [84.30814305500007, 25.309478913000078], [84.30863133400004, 25.30927435700005], [84.31065917300003, 25.308380189000047], [84.31235489600004, 25.30741613500004], [84.31309687000004, 25.307140968000056], [84.31360794000005, 25.307189359000063], [84.31396247900005, 25.307579777000058], [84.31445240900007, 25.307145132000073], [84.31479931300004, 25.306587668000077], [84.31529729800008, 25.305105988000037], [84.31548615100007, 25.303784760000042], [84.31627880500008, 25.303370131000065], [84.31782973100007, 25.30314975500005], [84.32039057400004, 25.30265589800007], [84.32269279200005, 25.30222814700005], [84.32508465200004, 25.301755684000057], [84.32638661900006, 25.30162394000007], [84.32825936600005, 25.300859372000048], [84.33143422900008, 25.299917868000023], [84.33247194900008, 25.299260935000063], [84.33451279700006, 25.297910628000068], [84.33586024600004, 25.29699370700007], [84.33614657000004, 25.296553174000053], [84.33647339600003, 25.296004597000035], [84.33664170600008, 25.29541441200007], [84.33668531400008, 25.294895676000067], [84.33668772800007, 25.29456622200007], [84.33637145700004, 25.29371573900005], [84.33589038300005, 25.292972634000023], [84.33528170600005, 25.29271157000005], [84.33438804400004, 25.292705999000077], [84.33337301500006, 25.292993055000068], [84.33266332800008, 25.292952585000023], [84.33173054500008, 25.29287451700003], [84.33015653100006, 25.292237362000037], [84.32942813600005, 25.292047855000078], [84.32829038600005, 25.292153493000058], [84.32678523500005, 25.292252439000038], [84.32565464100009, 25.292060332000062], [84.32472381500008, 25.291724975000022], [84.32359231100008, 25.29101379900004], [84.32294840500003, 25.290161289000025], [84.32275207600009, 25.28920328600003], [84.32251308700006, 25.288646671000038], [84.32273812000005, 25.28842694100007], [84.32383692400003, 25.28821266500006], [84.32481337000007, 25.287776465000036], [84.32526212800008, 25.287517519000062], [84.32546602500008, 25.286819258000037], [84.32604809400004, 25.285347054000056], [84.32621181100006, 25.28507005800003], [84.32637498500003, 25.284793981000064], [84.32674311000005, 25.284687933000043], [84.32730880100007, 25.284727662000023], [84.32812238500009, 25.28480494100006], [84.32917399000007, 25.284924278000062], [84.32990378800008, 25.284928840000077], [84.33083844600003, 25.284749672000032], [84.33189759400005, 25.284535064000067], [84.33313647800009, 25.284172691000038], [84.33382759800008, 25.284028125000077], [84.33423636700007, 25.28380949900003], [84.33456257500006, 25.283333133000042], [84.33465066500008, 25.282850721000045], [84.33453288900006, 25.282001491000074], [84.33409133200007, 25.281299171000057], [84.33304504500006, 25.280480331000035], [84.33118347800007, 25.279805278000026], [84.32988729700008, 25.27920593500005], [84.32910134500008, 25.278758724000056], [84.32817513400005, 25.277832256000067], [84.32642675100004, 25.279270103000044], [84.32596342900007, 25.279474762000063], [84.32443505100008, 25.280701828000076], [84.32353552900008, 25.281485989000032], [84.32337735600004, 25.28204466300008], [84.32347088800003, 25.282808015000057], [84.32354796000004, 25.28311085000007], [84.32385257200008, 25.28353247800004], [84.32256809600005, 25.284011892000024], [84.32141678100004, 25.284604897000065], [84.32011222600005, 25.285111185000062], [84.31867448700007, 25.285494743000072], [84.31606869900008, 25.286060466000038], [84.31327745500005, 25.286855165000077], [84.30976006100008, 25.287812191000057], [84.30793227300006, 25.28854969300005], [84.30779724000007, 25.28803436800007], [84.30775673500005, 25.286851565000063], [84.30753342100007, 25.286195778000035], [84.30352235300006, 25.286797404000026], [84.30006476400007, 25.28770945100007], [84.29721203000008, 25.288088145000074], [84.29229487400005, 25.288986067000053], [84.29067012800004, 25.289142489000028], [84.28984940300006, 25.289344778000043], [84.28856504900006, 25.289778686000034], [84.28777813300007, 25.29009854000003], [84.28741750600005, 25.290493337000044], [84.28728884300006, 25.291070211000033], [84.28742400400006, 25.291558475000045], [84.28761416900005, 25.29325667100005], [84.28801237500005, 25.295023972000024], [84.28831890700008, 25.296443061000048], [84.28851349300004, 25.29758623400005], [84.28868046500008, 25.299072169000056], [84.28867311800008, 25.300001862000045], [84.28800844100004, 25.29992973900005], [84.28673164100007, 25.300011751000056], [84.28586098500006, 25.300240720000033], [84.28556844300005, 25.300189141000033], [84.28541822900007, 25.29972330100003], [84.28539522400007, 25.29949299200007], [84.28347722600006, 25.299665455000024], [84.28227311700005, 25.299982536000073], [84.28150707500004, 25.30016254700007], [84.28099604500005, 25.300114049000058], [84.28046035100004, 25.30004284200004], [84.27992235800008, 25.300269494000077], [84.27954809000005, 25.300497147000044], [84.27931643000005, 25.300915340000074], [84.27922994900007, 25.301794913000037], [84.27909418100006, 25.302633395000043], [84.27883821800003, 25.302979237000045], [84.27711842000008, 25.30382544200006], [84.27560304100007, 25.30456009200003], [84.27585376400003, 25.305491500000073], [84.27642796900005, 25.306957545000046], [84.27685926200007, 25.307677977000026], [84.27718913000007, 25.30802771900005], [84.27728606700003, 25.308330667000064], [84.27707372100008, 25.309421539000027], [84.27687574800007, 25.309957307000047], [84.27692816100006, 25.310237449000056], [84.27735497500004, 25.310890138000048], [84.27808774000005, 25.311779596000065], [84.28288725400006, 25.311445553000055], [84.28579888300004, 25.31122997400007], [84.28604977400005, 25.310902127000077], [84.28643528700007, 25.310507479000023], [84.28696452300005, 25.310136387000057], [84.28791550700004, 25.309817622000025], [84.28883535300008, 25.309661134000066]]]]}}, {"type": "Feature", "properties": {"OBJECTID": 6153, "GPCODE": "97269", "GPNAME_1": "GIDHA", "DIST_CEN_C": "32", "BLK_NAME": "DAWATH", "ST_NAME": "BIHAR", "ST_CODE_1": "10", "GPCODE2011": "99756", "REMARKS": "FINALIZED", "MAP_STATUS": "COMPLETED", "BLK_C_2001": "320003", "BLK_C_2011": "01459", "DIST_NAME": "ROHTAS", "code2011": 0.0, "Shape_Leng": 0.15072304725, "Shape_Area": 0.00078206355, "Area": 8.73221}, "geometry": {"type": "MultiPolygon", "coordinates": [[[[84.28838022500008, 25.325806405000037], [84.29138806200007, 25.325401787000033], [84.29278770900004, 25.325501151000026], [84.29307385100003, 25.32574672800007], [84.29320958500006, 25.32617179500005], [84.29337154200005, 25.326412064000067], [84.29351471900003, 25.326521359000026], [84.29378797600003, 25.32650955300005], [84.29524943200005, 25.326333975000068], [84.29773434300006, 25.326115366000067], [84.30105908200005, 25.325816415000077], [84.30312294400005, 25.326086942000074], [84.30377036500005, 25.326497241000027], [84.30364507500008, 25.327272739000023], [84.30302885200007, 25.327968311000063], [84.30310457800005, 25.32845175800003], [84.30394007400008, 25.328308209000056], [84.30686618400006, 25.32817803200004], [84.30796489800008, 25.328040591000047], [84.30825027100008, 25.327744533000043], [84.30825509300007, 25.327117225000052], [84.30855121900004, 25.325422134000064], [84.30860352500008, 25.32379772400003], [84.30881137000006, 25.323248474000025], [84.30933983000006, 25.322990039000047], [84.30956337400005, 25.32297341900005], [84.30978702000004, 25.32295679400005], [84.31108916700003, 25.322820669000066], [84.31202448200008, 25.322601], [84.31291429500004, 25.32249833900005], [84.31335890700007, 25.32279453600006], [84.31404440400007, 25.32342620600008], [84.31445040700004, 25.323577707000027], [84.31516222700003, 25.323361109000075], [84.31614449100005, 25.322848297000064], [84.31716095100006, 25.322412428000064], [84.31854203100005, 25.322348998000052], [84.31959529300008, 25.322283458000072], [84.32041337200008, 25.32180567300003], [84.32163253900006, 25.321483923000073], [84.32183841900007, 25.321187292000047], [84.32164105000004, 25.320373717000052], [84.32136589100008, 25.319338456000025], [84.32074532400009, 25.318007661000024], [84.32058738500007, 25.31723037000006], [84.32071792800008, 25.316382696000062], [84.32096637900008, 25.31572078100004], [84.32129056500008, 25.315537796000058], [84.32316014600008, 25.315215575000025], [84.32494858200005, 25.315118528000028], [84.32608683600006, 25.31497671900007], [84.32681979100005, 25.314575124000044], [84.32722946500007, 25.314248208000038], [84.32729032500004, 25.314081679000026], [84.32729033800007, 25.314081644000055], [84.32735121800005, 25.31391505700003], [84.32709897100005, 25.312473719000025], [84.32655440700006, 25.30634583400007], [84.32645089300007, 25.304278125000053], [84.32626358500005, 25.302137705000064], [84.32638661900006, 25.30162394000007], [84.32508465200004, 25.301755684000057], [84.32269279200005, 25.30222814700005], [84.32039057400004, 25.30265589800007], [84.31782973100007, 25.30314975500005], [84.31627880500008, 25.303370131000065], [84.31548615100007, 25.303784760000042], [84.31529729800008, 25.305105988000037], [84.31479931300004, 25.306587668000077], [84.31445240900007, 25.307145132000073], [84.31396247900005, 25.307579777000058], [84.31360794000005, 25.307189359000063], [84.31309687000004, 25.307140968000056], [84.31235489600004, 25.30741613500004], [84.31065917300003, 25.308380189000047], [84.30863133400004, 25.30927435700005], [84.30814305500007, 25.309478913000078], [84.30765289100003, 25.309940616000063], [84.30724368900007, 25.310195274000023], [84.30671632400004, 25.30904553700003], [84.30644261400005, 25.308488672000067], [84.30634140200004, 25.308090830000026], [84.30613865800007, 25.307972151000058], [84.30572637500006, 25.307996591000062], [84.30487864200006, 25.30845606500003], [84.30411110300008, 25.308821223000052], [84.30331417800005, 25.30914106000006], [84.30306051200006, 25.309189081000056], [84.30070184800007, 25.309196451000048], [84.30004157600007, 25.309169653000026], [84.29935970000008, 25.30937734200006], [84.29812871600006, 25.309951648000037], [84.29761528200004, 25.310201067000037], [84.29728186400007, 25.310293648000027], [84.29651742300007, 25.310266132000038], [84.29485398200006, 25.310255426000026], [84.29447307500004, 25.310067911000033], [84.29347853200005, 25.309619122000072], [84.29231696200003, 25.309566491000055], [84.28883535300008, 25.309661134000066], [84.28791550700004, 25.309817622000025], [84.28696452300005, 25.310136387000057], [84.28643528700007, 25.310507479000023], [84.28604977400005, 25.310902127000077], [84.28579888300004, 25.31122997400007], [84.28288725400006, 25.311445553000055], [84.27808774000005, 25.311779596000065], [84.27851378100007, 25.313154414000053], [84.27917444500008, 25.314995596000074], [84.27952143400006, 25.31632029000008], [84.27948960700007, 25.317204607000065], [84.27947132000008, 25.317624271000057], [84.27938853800003, 25.318666259000054], [84.27962719400006, 25.320504721000077], [84.27972201300008, 25.321692265000024], [84.27914279700008, 25.322085611000034], [84.27909063500005, 25.322410259000037], [84.27907726000007, 25.324079985000026], [84.27904940300004, 25.324458935000052], [84.27933630700005, 25.325855448000027], [84.27951946700006, 25.327797279000038], [84.27955622300004, 25.32941773300007], [84.27959689300008, 25.329928032000055], [84.28062199700008, 25.32904566600007], [84.28139521300005, 25.328608468000027], [84.28253868300004, 25.32783967100005], [84.28319333600007, 25.327329495000072], [84.28477983800008, 25.327041996000048], [84.28701512100008, 25.326357159000054], [84.28730752200005, 25.326239058000056], [84.28759810200006, 25.32612169300006], [84.28838022500008, 25.325806405000037]]]]}}, {"type": "Feature", "properties": {"OBJECTID": 6154, "GPCODE": "97272", "GPNAME_1": "SAHI NAUN", "DIST_CEN_C": "32", "BLK_NAME": "DAWATH", "ST_NAME": "BIHAR", "ST_CODE_1": "10", "GPCODE2011": "99759", "REMARKS": "FINALIZED", "MAP_STATUS": "COMPLETED", "BLK_C_2001": "320003", "BLK_C_2011": "01459", "DIST_NAME": "ROHTAS", "code2011": 0.0, "Shape_Leng": 0.21432188482, "Shape_Area": 0.00115204625, "Area": 12.8654}, "geometry": {"type": "MultiPolygon", "coordinates": [[[[84.16338956300007, 25.34016923100006], [84.16454952900006, 25.339870860000076], [84.16599639800006, 25.340256098000054], [84.16785833400007, 25.34033753600005], [84.16805665800007, 25.33925589200004], [84.16815565600007, 25.338173418000054], [84.16791422600005, 25.336276172000055], [84.16820411200007, 25.33496048300003], [84.16821668400007, 25.333538992000058], [84.16849288100008, 25.33208324700007], [84.16936414900005, 25.33016251500004], [84.17110100100007, 25.32976459400004], [84.17466047700003, 25.32937540200004], [84.17808218000005, 25.328822715000058], [84.18031987300003, 25.328505018000044], [84.18122837900006, 25.328552151000054], [84.18193124300007, 25.32938769100008], [84.18288662200007, 25.329746621000027], [84.18522129600007, 25.32969584600005], [84.18631042200008, 25.330664949000038], [84.18912786400006, 25.329362969000044], [84.19121530500007, 25.328606270000023], [84.19327506400003, 25.327614565000033], [84.19207807800007, 25.32533591400005], [84.19163364700006, 25.323328889000038], [84.19091679300004, 25.321816425000065], [84.19030976200008, 25.320232387000033], [84.18998280000005, 25.319002468000065], [84.18986193800004, 25.31805841000005], [84.19005048300005, 25.31749558100006], [84.19057060100005, 25.31707516700004], [84.19282718000005, 25.31684314100005], [84.19530435900003, 25.316368925000063], [84.19752520900005, 25.316240376000053], [84.19832040600005, 25.31616478500007], [84.19896433100007, 25.315199092000057], [84.19937489800003, 25.314809423000042], [84.20005610500004, 25.314714904000027], [84.20050494200007, 25.31506563100004], [84.20040955300004, 25.31576453200006], [84.20060940600007, 25.31619917000006], [84.20108425800004, 25.316410148000045], [84.20169686600008, 25.31620689300007], [84.20249298800007, 25.315449857000033], [84.20339163700004, 25.313727697000047], [84.20399575700003, 25.312193077000074], [84.20429686800009, 25.311247430000037], [84.20400725100006, 25.310852708000027], [84.20366675400004, 25.310602091000078], [84.20357879200003, 25.310434495000038], [84.20366978200008, 25.310250074000066], [84.20417285800005, 25.310068656000055], [84.20425407600004, 25.308710740000038], [84.20435408900005, 25.307474873000047], [84.20489933600004, 25.30700482900005], [84.20544724900003, 25.306801102000065], [84.20533866500006, 25.306141430000025], [84.20425156300007, 25.30611116600005], [84.20404991700008, 25.305884039000034], [84.20289371500007, 25.305794589000072], [84.20287795100006, 25.30532061300005], [84.20308482000007, 25.30492945700007], [84.20304173900007, 25.304166441000064], [84.20276807900007, 25.30192145600006], [84.20229847400003, 25.29878601000007], [84.20036755100006, 25.298727127000063], [84.19827591900008, 25.298292553000067], [84.19691432000008, 25.29785853100003], [84.19663594500008, 25.295586494000077], [84.19679017600004, 25.29325881500006], [84.19646012000004, 25.29295403100008], [84.19568429600008, 25.293675138000026], [84.19417395700003, 25.295510241000045], [84.19279586600004, 25.296980603000065], [84.19159119200003, 25.29791071300008], [84.19047087400008, 25.29826827100004], [84.19064314000008, 25.299591797000062], [84.19007584200006, 25.29973218400005], [84.18919108800003, 25.29984763400006], [84.18855428400008, 25.299987500000043], [84.18836713400003, 25.30037874800007], [84.18845758600008, 25.300830725000026], [84.18894778400005, 25.301556428000026], [84.18893505300008, 25.303018563000023], [84.18878701100004, 25.304051021000078], [84.18833000100005, 25.30464339300005], [84.18778413700005, 25.305176562000042], [84.18778112000007, 25.305524066000032], [84.18796687200006, 25.30586389000007], [84.18547644900008, 25.30617537100005], [84.18308360100008, 25.30667708800007], [84.17841198400004, 25.307139581000058], [84.17641663400008, 25.307052852000027], [84.17588778200007, 25.305072263000056], [84.17570931900008, 25.30447974200007], [84.17449040100007, 25.304755215000057], [84.17300865600004, 25.304979100000025], [84.17150985500007, 25.304900392000036], [84.17116488000005, 25.302921191000053], [84.17048228200008, 25.300934959000074], [84.17002978000005, 25.299329456000066], [84.16667486100005, 25.30027062100004], [84.16407536700007, 25.301122538000072], [84.16194278700004, 25.301955333000024], [84.16141562100006, 25.302614793000032], [84.16131144600007, 25.303155618000062], [84.16181809900007, 25.304242470000077], [84.16237510900004, 25.30582170300005], [84.16262844100004, 25.30636968400006], [84.16335720700005, 25.306492372000037], [84.16519349000004, 25.30660067100007], [84.16526061500008, 25.30799121800004], [84.16543781200005, 25.308723652000026], [84.16530835200007, 25.31044213200005], [84.16432059700008, 25.310389763000046], [84.16165415400008, 25.31037004600006], [84.15840717400005, 25.310865120000074], [84.15793809100006, 25.311118865000026], [84.15781699400003, 25.313004418000048], [84.15812103000007, 25.31453657800006], [84.15863470000005, 25.31484728600003], [84.15969201700005, 25.315446346000044], [84.16017562200005, 25.31634348500006], [84.16047477700005, 25.31788019000004], [84.16051797200004, 25.321933217000037], [84.15926370900007, 25.322794954000074], [84.15809231000009, 25.323282732000052], [84.15829564400008, 25.32387542600003], [84.16057887900007, 25.32622562800003], [84.16042034100008, 25.326743503000046], [84.15997690100005, 25.32690264100006], [84.15769753000006, 25.326885808000043], [84.15810294300007, 25.32764241600006], [84.15823240700007, 25.328153391000058], [84.15877037800004, 25.328527441000062], [84.15882215200008, 25.331068732000062], [84.15802421900008, 25.333093692000034], [84.15741642100005, 25.33440702200005], [84.15677898200005, 25.334605329000055], [84.15647578100004, 25.335180759000025], [84.15665722600005, 25.335994476000053], [84.15730447700008, 25.33636937500006], [84.15571569600007, 25.336862980000035], [84.15596789800009, 25.33808344700003], [84.15609990000007, 25.339979864000043], [84.15669954600008, 25.341234473000043], [84.15857155700007, 25.34239915200004], [84.15927503700004, 25.342607437000026], [84.16084435500005, 25.342077490000065], [84.16159117800004, 25.34187991400006], [84.16249268700005, 25.341042653000045], [84.16338956300007, 25.34016923100006]]]]}}, {"type": "Feature", "properties": {"OBJECTID": 6156, "GPCODE": "97274", "GPNAME_1": "USARI", "DIST_CEN_C": "32", "BLK_NAME": "DAWATH", "ST_NAME": "BIHAR", "ST_CODE_1": "10", "GPCODE2011": "99761", "REMARKS": "FINALIZED", "MAP_STATUS": "COMPLETED", "BLK_C_2001": "320003", "BLK_C_2011": "01459", "DIST_NAME": "ROHTAS", "code2011": 0.0, "Shape_Leng": 0.14387190577, "Shape_Area": 0.00081119028, "Area": 9.05836}, "geometry": {"type": "MultiPolygon", "coordinates": [[[[84.24021307300006, 25.327515036000023], [84.24103271000007, 25.327493624000056], [84.24226264300006, 25.327700574000062], [84.24323071700007, 25.32713853000007], [84.24364528400008, 25.32685701400004], [84.24336318200005, 25.32613757200005], [84.24265050500009, 25.324638846000028], [84.24197766600008, 25.323718034000024], [84.24113617000006, 25.32279161200006], [84.24057928500008, 25.32167305100006], [84.24040583600004, 25.319834971000034], [84.23998520200007, 25.31725060800005], [84.23944449100009, 25.315983163000055], [84.23932093200006, 25.315323463000027], [84.24234966600005, 25.31537576200003], [84.24490051700008, 25.315564665000068], [84.24792898600003, 25.315657470000076], [84.24881893400004, 25.31549101300004], [84.24958767600003, 25.315041458000053], [84.24969877000007, 25.31420728100005], [84.25033316600008, 25.314351487000067], [84.25304402500007, 25.313810170000068], [84.25523296000006, 25.31331499600003], [84.25496031800003, 25.31265875300005], [84.25480956200005, 25.31226509800007], [84.25476174100004, 25.31142984400003], [84.25474451200006, 25.310500011000045], [84.25461154000004, 25.309754388000044], [84.25448918600006, 25.309532422000075], [84.25425446900005, 25.308483786000068], [84.25413582200008, 25.307205810000028], [84.25384047200004, 25.306274124000026], [84.25356829900005, 25.304945387000032], [84.25115773200008, 25.305836224000075], [84.25000782400008, 25.30619401200005], [84.24983749400008, 25.305777591000037], [84.24931353100004, 25.30306613500005], [84.24876070600004, 25.29782706000003], [84.24792690100008, 25.297171546000072], [84.24669741900004, 25.29754678100005], [84.24593112500008, 25.29775369500004], [84.24473611500008, 25.29756506700005], [84.24287276300004, 25.297128061000024], [84.24108673600006, 25.296957889000055], [84.23972295200008, 25.296768042000053], [84.23766123500008, 25.29690731200003], [84.23612786200005, 25.29741130800005], [84.23572461400005, 25.297530436000045], [84.23519565900006, 25.29725142700005], [84.23436633600005, 25.29727731500003], [84.23366379800007, 25.297574876000056], [84.23233237600004, 25.29765599900003], [84.23146829800004, 25.297681622000027], [84.23070504500004, 25.29751839000005], [84.22933743600004, 25.297779667000043], [84.22800222300003, 25.298316571000043], [84.22680036900005, 25.29894457900008], [84.22603046300009, 25.29957101800005], [84.22552208600007, 25.300989134000076], [84.22506684600006, 25.30316133200006], [84.22488717500005, 25.30503752000004], [84.22454898400008, 25.305698679000045], [84.22524764900004, 25.308826619000058], [84.22493958700005, 25.310029502000077], [84.22426532500003, 25.311085366000043], [84.22400000400006, 25.312518665000027], [84.22376563000006, 25.31440802700007], [84.22401948700008, 25.316102312000055], [84.22473024200008, 25.317799610000066], [84.22491242500007, 25.318577151000056], [84.22469027700004, 25.319004386000074], [84.22405573500004, 25.319460264000043], [84.22360920900007, 25.31999876900005], [84.22354201600007, 25.320314229000076], [84.22372755600009, 25.320690112000023], [84.22433631000007, 25.321524719000024], [84.22529912800007, 25.32336827100005], [84.22614047500008, 25.32489505600006], [84.22659499200006, 25.326960744000075], [84.22712812000003, 25.330890853000028], [84.22749853900007, 25.331728353000074], [84.22799176400008, 25.332133499000065], [84.22745999200004, 25.333361902000036], [84.22675073100004, 25.33501779100004], [84.22651639500003, 25.336306953000076], [84.22701335600004, 25.337456745000054], [84.22673360900006, 25.338831305000042], [84.22851160900007, 25.33944385800004], [84.23062592700006, 25.339029725000046], [84.23204946900006, 25.338669507000077], [84.23331453500003, 25.338245002000065], [84.23566772300006, 25.337778327000024], [84.23838405200007, 25.337250951000044], [84.23987568800004, 25.33645776700007], [84.23989954200005, 25.335370287000046], [84.23985858300006, 25.332531268000025], [84.23908961400008, 25.330030204000025], [84.23892019500005, 25.32770472800007], [84.24021307300006, 25.327515036000023]]]]}}, {"type": "Feature", "properties": {"OBJECTID": 6158, "GPCODE": "97271", "GPNAME_1": "JAMSONA", "DIST_CEN_C": "32", "BLK_NAME": "DAWATH", "ST_NAME": "BIHAR", "ST_CODE_1": "10", "GPCODE2011": "99758", "REMARKS": "FINALIZED", "MAP_STATUS": "COMPLETED", "BLK_C_2001": "320003", "BLK_C_2011": "01459", "DIST_NAME": "ROHTAS", "code2011": 0.0, "Shape_Leng": 0.16041979649, "Shape_Area": 0.00109935904, "Area": 12.2736}, "geometry": {"type": "MultiPolygon", "coordinates": [[[[84.18266474200004, 25.367501557000026], [84.18842229400008, 25.366979018000052], [84.19162287500006, 25.36798144100004], [84.19409183400006, 25.367999112000064], [84.19804695600004, 25.367937194000035], [84.19371766300003, 25.36589336700007], [84.19384455500006, 25.363290196000037], [84.19327326900003, 25.36043841700007], [84.19239820500007, 25.359371503000034], [84.19149521900005, 25.358101386000044], [84.19122726600006, 25.356352874000038], [84.19035961400004, 25.354455657000074], [84.18908588100004, 25.352411033000067], [84.18807838400005, 25.350598517000037], [84.18724112700005, 25.34864281700004], [84.18672856900008, 25.345913257000063], [84.18627937300005, 25.345020894000072], [84.18622200200008, 25.344190140000023], [84.18600822500008, 25.343642516000045], [84.18540902900008, 25.34343954700006], [84.18506191200004, 25.34337838600004], [84.18487839600004, 25.342776814000047], [84.18457227000005, 25.341998353000065], [84.18467609700008, 25.340915920000043], [84.18537373000004, 25.34065924500004], [84.18544335600006, 25.340086565000036], [84.18480085700008, 25.337446314000033], [84.18420112600006, 25.33560516700004], [84.18421814000004, 25.33365556600006], [84.18401141000004, 25.332309231000067], [84.18425227600005, 25.33202207000005], [84.18523021300007, 25.331514643000048], [84.18631042200008, 25.330664949000038], [84.18522129600007, 25.32969584600005], [84.18288662200007, 25.329746621000027], [84.18193124300007, 25.32938769100008], [84.18122837900006, 25.328552151000054], [84.18031987300003, 25.328505018000044], [84.17808218000005, 25.328822715000058], [84.17466047700003, 25.32937540200004], [84.17110100100007, 25.32976459400004], [84.16936414900005, 25.33016251500004], [84.16849288100008, 25.33208324700007], [84.16821668400007, 25.333538992000058], [84.16820411200007, 25.33496048300003], [84.16791422600005, 25.336276172000055], [84.16815565600007, 25.338173418000054], [84.16805665800007, 25.33925589200004], [84.16785833400007, 25.34033753600005], [84.16599639800006, 25.340256098000054], [84.16454952900006, 25.339870860000076], [84.16338956300007, 25.34016923100006], [84.16249268700005, 25.341042653000045], [84.16159117800004, 25.34187991400006], [84.16084435500005, 25.342077490000065], [84.15927503700004, 25.342607437000026], [84.15857155700007, 25.34239915200004], [84.15669954600008, 25.341234473000043], [84.15646817500004, 25.342112755000073], [84.15596969800004, 25.34340886800004], [84.15602430600006, 25.343973412000025], [84.15475631000004, 25.344672485000046], [84.15522232400008, 25.346436097000037], [84.15547763100005, 25.347317995000026], [84.15688517600006, 25.34766698900006], [84.15794777800005, 25.347706446000075], [84.15733956400004, 25.34905586900004], [84.15695247100007, 25.350677621000045], [84.15669513900008, 25.35223272500008], [84.15627046500003, 25.354161178000027], [84.15663178000005, 25.355413974000044], [84.15758389100006, 25.356707278000044], [84.15863286200005, 25.358267582000053], [84.16033357900005, 25.359737834000043], [84.15972177000003, 25.361488905000044], [84.15862980600008, 25.363037849000023], [84.15832356000004, 25.363951739000072], [84.15935610400004, 25.365141770000037], [84.16007780700005, 25.367209623000065], [84.16048347700007, 25.36795727200007], [84.16106540600003, 25.36809046700006], [84.16337109600005, 25.367265513000063], [84.16526460200004, 25.367744380000033], [84.16577890200006, 25.368398400000046], [84.16633546900005, 25.369106164000073], [84.16682887000007, 25.371167780000064], [84.17176776900004, 25.370549636000078], [84.17780943700006, 25.369939376000048], [84.18254076800008, 25.369739080000045], [84.18266474200004, 25.367501557000026]]]]}}, {"type": "Feature", "properties": {"OBJECTID": 6159, "GPCODE": "97273", "GPNAME_1": "SEMARI", "DIST_CEN_C": "32", "BLK_NAME": "DAWATH", "ST_NAME": "BIHAR", "ST_CODE_1": "10", "GPCODE2011": "99760", "REMARKS": "FINALIZED", "MAP_STATUS": "COMPLETED", "BLK_C_2001": "320003", "BLK_C_2011": "01459", "DIST_NAME": "ROHTAS", "code2011": 0.0, "Shape_Leng": 0.13457859182, "Shape_Area": 0.00103647599, "Area": 11.5715}, "geometry": {"type": "MultiPolygon", "coordinates": [[[[84.20036504700005, 25.36757921000003], [84.20258242300008, 25.36624107600005], [84.20530644200005, 25.366634976000057], [84.20749377400006, 25.366465509000022], [84.20763182800005, 25.366466486000036], [84.20985343300003, 25.366482210000072], [84.21103217700005, 25.366910225000026], [84.21226333600003, 25.367009191000022], [84.21376439200003, 25.365760609000063], [84.21702148800006, 25.363635273000057], [84.21826097600007, 25.362643392000052], [84.21872935900006, 25.362013525000066], [84.21804137400005, 25.358786275000057], [84.21682706200005, 25.356115035000073], [84.21692641800007, 25.35378245100003], [84.21965238400009, 25.353332227000067], [84.21958247600008, 25.349269925000044], [84.21976053900005, 25.346418895000056], [84.22061103500005, 25.346284878000063], [84.22059457200004, 25.34487884600003], [84.22042838300007, 25.344114656000045], [84.21990588100005, 25.342741689000036], [84.21918879400005, 25.341788936000057], [84.21869636000008, 25.34012012900007], [84.21779707200005, 25.338394342000072], [84.21704502600005, 25.33804602300006], [84.21555828000004, 25.338238671000056], [84.21366242900007, 25.338654117000033], [84.21327206300003, 25.338421176000054], [84.21228285400008, 25.336180221000063], [84.21156123500003, 25.335773498000037], [84.20976216000008, 25.335905240000045], [84.20925726800004, 25.33569851200008], [84.20796772200003, 25.335490893000042], [84.20776018700008, 25.333625459000075], [84.20761038800003, 25.332563789000062], [84.20630542800006, 25.332410167000035], [84.20189464200007, 25.331891407000057], [84.20085590700006, 25.331396639000047], [84.20070770100006, 25.330736666000064], [84.20021274600003, 25.32938370100004], [84.19923712500008, 25.32906087500004], [84.19835567200005, 25.328770207000048], [84.19798810600008, 25.32762124100003], [84.19657198700008, 25.327696881000065], [84.19581768500007, 25.327059665000036], [84.19327506400003, 25.327614565000033], [84.19121530500007, 25.328606270000023], [84.18912786400006, 25.329362969000044], [84.18631042200008, 25.330664949000038], [84.18523021300007, 25.331514643000048], [84.18425227600005, 25.33202207000005], [84.18401141000004, 25.332309231000067], [84.18421814000004, 25.33365556600006], [84.18420112600006, 25.33560516700004], [84.18480085700008, 25.337446314000033], [84.18544335600006, 25.340086565000036], [84.18537373000004, 25.34065924500004], [84.18467609700008, 25.340915920000043], [84.18457227000005, 25.341998353000065], [84.18487839600004, 25.342776814000047], [84.18506191200004, 25.34337838600004], [84.18540902900008, 25.34343954700006], [84.18600822500008, 25.343642516000045], [84.18622200200008, 25.344190140000023], [84.18627937300005, 25.345020894000072], [84.18672856900008, 25.345913257000063], [84.18724112700005, 25.34864281700004], [84.18807838400005, 25.350598517000037], [84.18908588100004, 25.352411033000067], [84.19035961400004, 25.354455657000074], [84.19122726600006, 25.356352874000038], [84.19149521900005, 25.358101386000044], [84.19239820500007, 25.359371503000034], [84.19327326900003, 25.36043841700007], [84.19384455500006, 25.363290196000037], [84.19371766300003, 25.36589336700007], [84.19804695600004, 25.367937194000035], [84.20036504700005, 25.36757921000003]]]]}}, {"type": "Feature", "properties": {"OBJECTID": 6161, "GPCODE": "97267", "GPNAME_1": "DAWATH", "DIST_CEN_C": "32", "BLK_NAME": "DAWATH", "ST_NAME": "BIHAR", "ST_CODE_1": "10", "GPCODE2011": "99754", "REMARKS": "FINALIZED", "MAP_STATUS": "COMPLETED", "BLK_C_2001": "320003", "BLK_C_2011": "01459", "DIST_NAME": "ROHTAS", "code2011": 0.0, "Shape_Leng": 0.16035853138, "Shape_Area": 0.00078066839, "Area": 8.71927}, "geometry": {"type": "MultiPolygon", "coordinates": [[[[84.22211939300007, 25.30645799200005], [84.22454898400008, 25.305698679000045], [84.22488717500005, 25.30503752000004], [84.22506684600006, 25.30316133200006], [84.22552208600007, 25.300989134000076], [84.22603046300009, 25.29957101800005], [84.22680036900005, 25.29894457900008], [84.22800222300003, 25.298316571000043], [84.22933743600004, 25.297779667000043], [84.23070504500004, 25.29751839000005], [84.23146829800004, 25.297681622000027], [84.23233237600004, 25.29765599900003], [84.23366379800007, 25.297574876000056], [84.23436633600005, 25.29727731500003], [84.23519565900006, 25.29725142700005], [84.23572461400005, 25.297530436000045], [84.23612786200005, 25.29741130800005], [84.23766123500008, 25.29690731200003], [84.23972295200008, 25.296768042000053], [84.24108673600006, 25.296957889000055], [84.23903247800007, 25.295612418000076], [84.23834240800005, 25.294398215000058], [84.23822088500003, 25.29349019700004], [84.23772998900006, 25.29221860800004], [84.23717810800008, 25.29051792100006], [84.23631196700006, 25.29078276900003], [84.23619095200007, 25.28981607700007], [84.23610043900004, 25.28875490200005], [84.23633738000007, 25.287727500000074], [84.23726081500007, 25.28474159500007], [84.23479471100006, 25.285175968000033], [84.23163435100008, 25.285519777000047], [84.22903467800006, 25.285894445000054], [84.22580402100004, 25.28632790000006], [84.22280560100006, 25.286884702000066], [84.22137383700004, 25.287113960000056], [84.22034095100008, 25.287138321000043], [84.21994836500005, 25.286593939000056], [84.21972970300004, 25.284863950000044], [84.22001532400003, 25.28278080800004], [84.22000399500007, 25.280596357000036], [84.21811232800007, 25.280623743000035], [84.21601865300005, 25.280464702000074], [84.21403051600004, 25.280739604000075], [84.21363040000006, 25.280506650000063], [84.21286520100006, 25.28000028400004], [84.21169110500006, 25.280289853000056], [84.21077388200007, 25.280152533000035], [84.20992860800004, 25.280891263000058], [84.20960428800004, 25.281669703000034], [84.20941779400005, 25.282571103000066], [84.20952063200008, 25.283903139000074], [84.20968125300004, 25.28603453900007], [84.20810552400008, 25.285680374000037], [84.20637346900008, 25.285604936000027], [84.20565589400007, 25.28533361800004], [84.20512178100006, 25.28450841500006], [84.20449501500008, 25.284075233000067], [84.20372769600004, 25.28382155500003], [84.20305205200003, 25.283879940000077], [84.20218955200005, 25.28430260400006], [84.20171366700004, 25.284791116000065], [84.20148062500004, 25.28591780200003], [84.20142465200007, 25.28723066500004], [84.20060910500007, 25.287387401000046], [84.19849222100004, 25.287597908000066], [84.19578647000003, 25.287601218000077], [84.19449950300003, 25.287731920000056], [84.19418402400004, 25.287463385000024], [84.19308367100007, 25.28725237200007], [84.19238393100005, 25.287215781000043], [84.19171890200005, 25.287766100000056], [84.19150999300007, 25.288382900000045], [84.19173408600005, 25.288876475000052], [84.19233796300006, 25.289666039000053], [84.19273629100007, 25.290679858000033], [84.19270694800008, 25.291194193000024], [84.19234133500004, 25.29156615200003], [84.19161221200005, 25.29205282500004], [84.19117523400007, 25.29262735700007], [84.19139416800004, 25.293721168000047], [84.19113892800004, 25.294522646000075], [84.19020176100008, 25.295526820000077], [84.18978486100008, 25.296656609000024], [84.19002268800006, 25.297854329000074], [84.19047087400008, 25.29826827100004], [84.19159119200003, 25.29791071300008], [84.19279586600004, 25.296980603000065], [84.19417395700003, 25.295510241000045], [84.19568429600008, 25.293675138000026], [84.19646012000004, 25.29295403100008], [84.19679017600004, 25.29325881500006], [84.19663594500008, 25.295586494000077], [84.19691432000008, 25.29785853100003], [84.19827591900008, 25.298292553000067], [84.20036755100006, 25.298727127000063], [84.20229847400003, 25.29878601000007], [84.20276807900007, 25.30192145600006], [84.20304173900007, 25.304166441000064], [84.20517194400009, 25.304159020000043], [84.20656514200004, 25.304408042000034], [84.20672929600005, 25.30495533900006], [84.20635072400006, 25.306252362000066], [84.20644459000005, 25.306889412000032], [84.20730777600005, 25.30698577800007], [84.20947641100008, 25.30654981200007], [84.21157462300005, 25.306230648000053], [84.21333825600004, 25.30612119700004], [84.21376017900008, 25.30730660200004], [84.21405528200006, 25.307642687000055], [84.21459135600008, 25.307673505000025], [84.21532195400005, 25.307588348000024], [84.21725683000005, 25.307209276000037], [84.21892090000006, 25.307130649000044], [84.22085173900007, 25.306629634000046], [84.22211939300007, 25.30645799200005]]]]}}, {"type": "Feature", "properties": {"OBJECTID": 6162, "GPCODE": "97266", "GPNAME_1": "BABHNAUL", "DIST_CEN_C": "32", "BLK_NAME": "DAWATH", "ST_NAME": "BIHAR", "ST_CODE_1": "10", "GPCODE2011": "99753", "REMARKS": "FINALIZED", "MAP_STATUS": "COMPLETED", "BLK_C_2001": "320003", "BLK_C_2011": "01459", "DIST_NAME": "ROHTAS", "code2011": 0.0, "Shape_Leng": 0.14679083372, "Shape_Area": 0.00084058401, "Area": 9.38632}, "geometry": {"type": "MultiPolygon", "coordinates": [[[[84.22673360900006, 25.338831305000042], [84.22701335600004, 25.337456745000054], [84.22651639500003, 25.336306953000076], [84.22675073100004, 25.33501779100004], [84.22745999200004, 25.333361902000036], [84.22799176400008, 25.332133499000065], [84.22749853900007, 25.331728353000074], [84.22712812000003, 25.330890853000028], [84.22659499200006, 25.326960744000075], [84.22614047500008, 25.32489505600006], [84.22529912800007, 25.32336827100005], [84.22433631000007, 25.321524719000024], [84.22372755600009, 25.320690112000023], [84.22354201600007, 25.320314229000076], [84.22360920900007, 25.31999876900005], [84.22405573500004, 25.319460264000043], [84.22469027700004, 25.319004386000074], [84.22491242500007, 25.318577151000056], [84.22473024200008, 25.317799610000066], [84.22401948700008, 25.316102312000055], [84.22376563000006, 25.31440802700007], [84.22400000400006, 25.312518665000027], [84.22426532500003, 25.311085366000043], [84.22493958700005, 25.310029502000077], [84.22524764900004, 25.308826619000058], [84.22454898400008, 25.305698679000045], [84.22211939300007, 25.30645799200005], [84.22085173900007, 25.306629634000046], [84.21892090000006, 25.307130649000044], [84.21725683000005, 25.307209276000037], [84.21532195400005, 25.307588348000024], [84.21459135600008, 25.307673505000025], [84.21405528200006, 25.307642687000055], [84.21376017900008, 25.30730660200004], [84.21333825600004, 25.30612119700004], [84.21157462300005, 25.306230648000053], [84.20947641100008, 25.30654981200007], [84.20730777600005, 25.30698577800007], [84.20644459000005, 25.306889412000032], [84.20635072400006, 25.306252362000066], [84.20672929600005, 25.30495533900006], [84.20656514200004, 25.304408042000034], [84.20517194400009, 25.304159020000043], [84.20304173900007, 25.304166441000064], [84.20308482000007, 25.30492945700007], [84.20287795100006, 25.30532061300005], [84.20289371500007, 25.305794589000072], [84.20404991700008, 25.305884039000034], [84.20425156300007, 25.30611116600005], [84.20533866500006, 25.306141430000025], [84.20544724900003, 25.306801102000065], [84.20489933600004, 25.30700482900005], [84.20435408900005, 25.307474873000047], [84.20425407600004, 25.308710740000038], [84.20417285800005, 25.310068656000055], [84.20366978200008, 25.310250074000066], [84.20357879200003, 25.310434495000038], [84.20366675400004, 25.310602091000078], [84.20400725100006, 25.310852708000027], [84.20429686800009, 25.311247430000037], [84.20399575700003, 25.312193077000074], [84.20339163700004, 25.313727697000047], [84.20249298800007, 25.315449857000033], [84.20169686600008, 25.31620689300007], [84.20108425800004, 25.316410148000045], [84.20060940600007, 25.31619917000006], [84.20040955300004, 25.31576453200006], [84.20050494200007, 25.31506563100004], [84.20005610500004, 25.314714904000027], [84.19937489800003, 25.314809423000042], [84.19896433100007, 25.315199092000057], [84.19832040600005, 25.31616478500007], [84.19752520900005, 25.316240376000053], [84.19530435900003, 25.316368925000063], [84.19282718000005, 25.31684314100005], [84.19057060100005, 25.31707516700004], [84.19005048300005, 25.31749558100006], [84.18986193800004, 25.31805841000005], [84.18998280000005, 25.319002468000065], [84.19030976200008, 25.320232387000033], [84.19091679300004, 25.321816425000065], [84.19163364700006, 25.323328889000038], [84.19207807800007, 25.32533591400005], [84.19327506400003, 25.327614565000033], [84.19581768500007, 25.327059665000036], [84.19657198700008, 25.327696881000065], [84.19798810600008, 25.32762124100003], [84.19835567200005, 25.328770207000048], [84.19923712500008, 25.32906087500004], [84.20021274600003, 25.32938370100004], [84.20070770100006, 25.330736666000064], [84.20085590700006, 25.331396639000047], [84.20189464200007, 25.331891407000057], [84.20630542800006, 25.332410167000035], [84.20761038800003, 25.332563789000062], [84.20776018700008, 25.333625459000075], [84.20796772200003, 25.335490893000042], [84.20925726800004, 25.33569851200008], [84.20976216000008, 25.335905240000045], [84.21156123500003, 25.335773498000037], [84.21228285400008, 25.336180221000063], [84.21327206300003, 25.338421176000054], [84.21366242900007, 25.338654117000033], [84.21555828000004, 25.338238671000056], [84.21704502600005, 25.33804602300006], [84.21779707200005, 25.338394342000072], [84.21869636000008, 25.34012012900007], [84.21918879400005, 25.341788936000057], [84.21990588100005, 25.342741689000036], [84.22166221800006, 25.341806217000055], [84.22359278300007, 25.34081772600007], [84.22533760200008, 25.340053608000062], [84.22673360900006, 25.338831305000042]]]]}}, {"type": "Feature", "properties": {"OBJECTID": 6172, "GPCODE": "320321", "GPNAME_1": "Koath (NP)", "DIST_CEN_C": "32", "BLK_NAME": "DAWATH", "ST_NAME": "BIHAR", "ST_CODE_1": "10", "GPCODE2011": "801393", "REMARKS": "FINALIZED", "MAP_STATUS": "COMPLETED", "BLK_C_2001": "320003", "BLK_C_2011": "01459", "DIST_NAME": "ROHTAS", "code2011": 0.0, "Shape_Leng": 0.16020426842, "Shape_Area": 0.00105724975, "Area": 11.8047}, "geometry": {"type": "MultiPolygon", "coordinates": [[[[84.25910705900003, 25.340081644000065], [84.25925773900008, 25.33988404200005], [84.26069767100006, 25.339938854000025], [84.26085530900008, 25.340093360000026], [84.26119181800004, 25.34147213700004], [84.26186234300008, 25.341476631000035], [84.26217894900003, 25.341636711000035], [84.26252551300007, 25.341774418000057], [84.26369175000008, 25.341895107000028], [84.26389055600004, 25.34187389300007], [84.26404340700003, 25.34140099700005], [84.26487261000005, 25.340210599000045], [84.26522393800008, 25.339761615000043], [84.26569148500005, 25.339674440000067], [84.26631144200007, 25.339791448000028], [84.26708476700009, 25.339977160000046], [84.26699200100006, 25.339164152000023], [84.26687536800006, 25.33699701100005], [84.26736055100008, 25.337180801000045], [84.26790764400005, 25.337094191000062], [84.26967434100004, 25.33665465300004], [84.27078828100008, 25.33648151600005], [84.27294965200008, 25.336383092000062], [84.27537965100004, 25.336218665000047], [84.27737682500003, 25.33614607000004], [84.27774842800005, 25.336256811000055], [84.27799478900005, 25.336506735000057], [84.27836179300004, 25.336576808000075], [84.27878389600005, 25.336579614000073], [84.27912602100008, 25.337281406000045], [84.27937379900004, 25.337973556000065], [84.28112254500007, 25.337912836000044], [84.28205775900005, 25.33773396500004], [84.28232366200007, 25.337401756000077], [84.28101034300005, 25.33392245300007], [84.28011208900006, 25.331957836000072], [84.27959689300008, 25.329928032000055], [84.27955622300004, 25.32941773300007], [84.27951946700006, 25.327797279000038], [84.27933630700005, 25.325855448000027], [84.27904940300004, 25.324458935000052], [84.27907726000007, 25.324079985000026], [84.27909063500005, 25.322410259000037], [84.27914279700008, 25.322085611000034], [84.27972201300008, 25.321692265000024], [84.27962719400006, 25.320504721000077], [84.27938853800003, 25.318666259000054], [84.27947132000008, 25.317624271000057], [84.27948960700007, 25.317204607000065], [84.27952143400006, 25.31632029000008], [84.27917444500008, 25.314995596000074], [84.27851378100007, 25.313154414000053], [84.27808774000005, 25.311779596000065], [84.27735497500004, 25.310890138000048], [84.27692816100006, 25.310237449000056], [84.27687574800007, 25.309957307000047], [84.27707372100008, 25.309421539000027], [84.27728606700003, 25.308330667000064], [84.27718913000007, 25.30802771900005], [84.27685926200007, 25.307677977000026], [84.27642796900005, 25.306957545000046], [84.27585376400003, 25.305491500000073], [84.27560304100007, 25.30456009200003], [84.27486157400006, 25.304767292000065], [84.27460131500004, 25.30501830700007], [84.27429104000004, 25.30531867600007], [84.27401191500007, 25.30545676400004], [84.27357475900004, 25.305476371000054], [84.27301348800006, 25.30549525500004], [84.27214277000007, 25.305724146000045], [84.27063473000004, 25.30615190800006], [84.26940517600008, 25.306540950000056], [84.26811360800008, 25.306604521000054], [84.26558555400004, 25.30668241500007], [84.26512230000003, 25.306864414000074], [84.26284285400004, 25.30812641600005], [84.26124182100006, 25.30900020300004], [84.26085148300007, 25.309367663000046], [84.26018672400005, 25.30922336900005], [84.25971202100004, 25.30904410200003], [84.25868788200006, 25.30919969100006], [84.25771947300007, 25.309215710000046], [84.25602860100008, 25.309533799000064], [84.25461154000004, 25.309754388000044], [84.25474451200006, 25.310500011000045], [84.25476174100004, 25.31142984400003], [84.25480956200005, 25.31226509800007], [84.25496031800003, 25.31265875300005], [84.25523296000006, 25.31331499600003], [84.25304402500007, 25.313810170000068], [84.25033316600008, 25.314351487000067], [84.24969877000007, 25.31420728100005], [84.24958767600003, 25.315041458000053], [84.24881893400004, 25.31549101300004], [84.24792898600003, 25.315657470000076], [84.24490051700008, 25.315564665000068], [84.24234966600005, 25.31537576200003], [84.23932093200006, 25.315323463000027], [84.23944449100009, 25.315983163000055], [84.23998520200007, 25.31725060800005], [84.24040583600004, 25.319834971000034], [84.24057928500008, 25.32167305100006], [84.24113617000006, 25.32279161200006], [84.24197766600008, 25.323718034000024], [84.24265050500009, 25.324638846000028], [84.24336318200005, 25.32613757200005], [84.24364528400008, 25.32685701400004], [84.24323071700007, 25.32713853000007], [84.24226264300006, 25.327700574000062], [84.24306041100004, 25.32851391300005], [84.24340281000008, 25.32914809400006], [84.24318058900008, 25.329602428000044], [84.24273307800007, 25.330262744000038], [84.24274305100005, 25.330863116000046], [84.24301927700003, 25.331695425000078], [84.24263544500008, 25.332464494000078], [84.24267512200004, 25.334874821000028], [84.24275735600008, 25.336337667000066], [84.24163798000006, 25.33655559400006], [84.24184915000006, 25.338050914000064], [84.24317586800004, 25.337974271000064], [84.24377637100008, 25.33743223600004], [84.24422595700008, 25.336519193000072], [84.24455165700004, 25.335573629000066], [84.24653799100008, 25.335614252000028], [84.24792702700006, 25.33581330000004], [84.24852312400003, 25.33520350200007], [84.24919410300004, 25.335140359000036], [84.25006457000006, 25.334988317000068], [84.25147497200004, 25.334997890000068], [84.25177051100007, 25.335293282000066], [84.25201407900005, 25.33588162800004], [84.25307372000003, 25.33809573900004], [84.25402505500006, 25.34019624000007], [84.25441356000005, 25.341282075000038], [84.25469186600003, 25.341866147000076], [84.25578584100003, 25.342925063000052], [84.25648195300005, 25.342839560000073], [84.25792538500008, 25.342465666000066], [84.25893958500006, 25.342359628000054], [84.25909235700004, 25.341886832000057], [84.25900411300006, 25.340532262000067], [84.25910705900003, 25.340081644000065]]]]}}]}