{"type": "FeatureCollection", "features": [{"type": "Feature", "properties": {"OBJECTID": 5946, "GPCODE": "97265", "GPNAME_1": "UGAHANI", "DIST_CEN_C": "32", "BLK_NAME": "CHENARI", "ST_NAME": "BIHAR", "ST_CODE_1": "10", "GPCODE2011": "99752", "REMARKS": "FINALIZED", "MAP_STATUS": "COMPLETED", "BLK_C_2001": "320012", "BLK_C_2011": "01468", "DIST_NAME": "ROHTAS", "code2011": 0.0, "Shape_Leng": 0.62098410078, "Shape_Area": 0.00779186853, "Area": 87.4156}, "geometry": {"type": "MultiPolygon", "coordinates": [[[[83.81800644900005, 24.887757316000034], [83.82007292700007, 24.88751079800005], [83.82214980600008, 24.88764802000003], [83.82385924700003, 24.887461305000045], [83.82371441700008, 24.887144041000056], [83.82353168700007, 24.886248729000044], [83.82339454500004, 24.885263604000045], [83.82311447700005, 24.884231917000022], [83.82336615300005, 24.883431020000046], [83.82317825200005, 24.882982484000024], [83.82111883400006, 24.88305306700005], [83.81901155800006, 24.882987680000042], [83.81863484700006, 24.88303374000003], [83.81755808700007, 24.883289670000067], [83.81696666100004, 24.883509654000022], [83.81747390700008, 24.885012774000074], [83.81801609800004, 24.88691342000004], [83.81800644900005, 24.887757316000034]]], [[[83.80423866300004, 24.887782463000065], [83.80761084800008, 24.887174255000048], [83.80870317100005, 24.887717372000054], [83.80953167700005, 24.887544895000076], [83.81075632600005, 24.887344589000065], [83.81203905400008, 24.886828897000044], [83.81323437700007, 24.886596694000048], [83.81435339200004, 24.88654880100006], [83.81469048500009, 24.886069147000057], [83.81456379500008, 24.885467782000035], [83.81418114700006, 24.88431779000007], [83.81458535500008, 24.883599616000026], [83.81508535700004, 24.883153142000026], [83.81575922900004, 24.88179664100005], [83.81602001100003, 24.880634804000067], [83.81597883100005, 24.879921368000055], [83.81578917700006, 24.879202022000072], [83.81711120200004, 24.879128923000053], [83.81721584300004, 24.87863806100006], [83.81728745600003, 24.87671625100006], [83.81700647000008, 24.875770312000043], [83.81717104200004, 24.873939676000077], [83.81683988800006, 24.869184356000062], [83.81650596100008, 24.868107017000057], [83.81622639800008, 24.86703478000004], [83.81520355300006, 24.866487880000022], [83.81469774100003, 24.866586851000022], [83.81493712300005, 24.86599347600003], [83.81550945100008, 24.86527233700008], [83.81723951400005, 24.864991058000044], [83.81869210000008, 24.86474774900006], [83.81908323100004, 24.863004974000035], [83.81885949500008, 24.862235634000058], [83.81588369500008, 24.861137591000045], [83.81498768500006, 24.85774877800003], [83.81475139600008, 24.857218448000026], [83.81443006200004, 24.85548241400005], [83.81447122100008, 24.854485406000038], [83.81435241500003, 24.854060106000077], [83.81415088500006, 24.852663605000032], [83.81425697200007, 24.851613144000055], [83.81407920300006, 24.850731411000027], [83.81428118700006, 24.849514837000072], [83.81432976100007, 24.847448344000043], [83.81424629400004, 24.846540428000026], [83.81410076900005, 24.845428859000037], [83.81389826800006, 24.84411811700005], [83.81366105100005, 24.843235824000033], [83.81333649500004, 24.841784060000066], [83.81239300600004, 24.839951760000076], [83.81132741800008, 24.837554156000067], [83.81378899800006, 24.837722220000046], [83.81528638100008, 24.83742072800004], [83.81750942200006, 24.836390496000035], [83.82001642200004, 24.836477676000072], [83.82143727300007, 24.83680720500007], [83.82238167600008, 24.836847831000057], [83.82388927700003, 24.83780990400004], [83.82511490500008, 24.83834058000008], [83.82593271700006, 24.838637211000048], [83.82861723500008, 24.838780083000074], [83.83004931400006, 24.838563597000075], [83.83273245300006, 24.83838594300005], [83.83602266600008, 24.838331392000043], [83.83750595200007, 24.83840403000005], [83.83807373100007, 24.838495180000052], [83.83906611400005, 24.83997578900005], [83.83965584700007, 24.840757556000028], [83.84015253300004, 24.841890489000036], [83.84100239100007, 24.841984282000055], [83.84140925100007, 24.84188778400005], [83.84182574400006, 24.841789], [83.84442770100009, 24.840919877000033], [83.84550438700006, 24.84064118400005], [83.84661064700003, 24.840362759000072], [83.84803842900004, 24.840087272000062], [83.84915716700004, 24.839578834000065], [83.85203842800007, 24.83894685100006], [83.85511342600006, 24.837793231000035], [83.85622591000003, 24.83739743600006], [83.85797432400005, 24.83631704100003], [83.85766578300007, 24.83559655700003], [83.85720397600005, 24.834870231000025], [83.85518556800008, 24.834445163000055], [83.85225269400007, 24.83395742500005], [83.84967423300003, 24.832750928000053], [83.84852653200005, 24.832320451000044], [83.84561051500003, 24.83079481200008], [83.84171211300009, 24.829088291000062], [83.83888427200003, 24.82764450700006], [83.83679936200008, 24.825688765000052], [83.83504651000004, 24.82411522700005], [83.83358308300006, 24.822314191000032], [83.83234323400006, 24.820429494000052], [83.83082414500007, 24.81787877800008], [83.83011393400005, 24.816400870000052], [83.82920909600006, 24.81377466300006], [83.82866476900006, 24.811634887000025], [83.82833237800008, 24.81041771200006], [83.82852624000003, 24.809900577000064], [83.82854299900004, 24.80843400300006], [83.82859006100006, 24.807337822000022], [83.82851427300005, 24.805748476000076], [83.82789609000008, 24.804447397000047], [83.82774668300004, 24.80366525100004], [83.82732083500008, 24.802415576000044], [83.82671027500004, 24.800451121000037], [83.82598066700007, 24.79807932800003], [83.82595395800007, 24.79738862800008], [83.82606813700005, 24.79648261400007], [83.82597527900003, 24.794653960000062], [83.82562877300006, 24.792515980000076], [83.82549245700005, 24.791467624000063], [83.82591998200007, 24.789531115000045], [83.82573224500004, 24.78692079500007], [83.82537886200004, 24.784954278000043], [83.82469611900007, 24.78325545000007], [83.82389930000005, 24.781587074000072], [83.82334955400006, 24.780801024000027], [83.82280831600008, 24.779703753000035], [83.82249113300009, 24.778477704000068], [83.82262533000005, 24.77668734200006], [83.82286950700006, 24.774351899000067], [83.82251532400005, 24.773333061000073], [83.82211232000003, 24.772683909000023], [83.82144884200005, 24.77233904800005], [83.82073863900007, 24.772183402000053], [83.82010977600004, 24.77183887500007], [83.81959337500007, 24.77159931500006], [83.81948549700007, 24.771088271000053], [83.81985071300005, 24.76855090300006], [83.81986160000008, 24.767603328000064], [83.82042150800004, 24.767067093000037], [83.82139442400006, 24.76585790000007], [83.82236481600006, 24.76573172800005], [83.82329118800004, 24.765573578000044], [83.82312495100007, 24.76411427900007], [83.82320806700005, 24.762896541000032], [83.82315777000008, 24.76123525500003], [83.82291214000008, 24.759802327000045], [83.82266915400004, 24.758139182000036], [83.82236109900003, 24.756105392000052], [83.82215963900006, 24.754271204000077], [83.82299608900007, 24.752451362000045], [83.82269008100008, 24.75154138000005], [83.82233169500006, 24.750463789000037], [83.82199312500006, 24.748939678000056], [83.82095603800008, 24.747553332000052], [83.82002080100006, 24.746777181000027], [83.81856007400006, 24.745702743000038], [83.81733882100008, 24.744860622000033], [83.81630101500008, 24.74398420500006], [83.81563780600004, 24.74362586700005], [83.81517908000006, 24.743973460000063], [83.81424807100007, 24.745408702000077], [83.81327427100007, 24.74798985500007], [83.81230833500007, 24.749456337000026], [83.81089143600008, 24.750488631000053], [83.80989443700008, 24.751310572000023], [83.80809865000003, 24.753139195000074], [83.80760540300008, 24.753477393000026], [83.80686595000003, 24.754584962000024], [83.80659059600004, 24.755313427000033], [83.80533614000007, 24.758203240000057], [83.80497489200008, 24.75951301500004], [83.80474057900005, 24.761816880000026], [83.80422961500005, 24.76240314900008], [83.80439098300008, 24.762982417000046], [83.80534438600006, 24.76432746000006], [83.80445504200009, 24.76599322000004], [83.80350309200008, 24.767933584000048], [83.80261781800004, 24.769233792000023], [83.80148866100006, 24.76897924900004], [83.79966060300006, 24.768871213000068], [83.79796078100009, 24.768791587000067], [83.79686408900005, 24.768293538000023], [83.79623900100006, 24.76761957800005], [83.79622070900007, 24.76664463700007], [83.79602728200007, 24.76585294800003], [83.79553510000005, 24.76523889300006], [83.79451469800006, 24.76413231300006], [83.79372096900005, 24.76351535300006], [83.79179305500008, 24.76349662000007], [83.79077400700004, 24.76354984200003], [83.78984751100006, 24.763297142000056], [83.78878872100006, 24.762528631000066], [83.78717206600004, 24.761262766000073], [83.78661354400003, 24.760404323000046], [83.78628593500008, 24.760098775000074], [83.78532500500006, 24.759836671000073], [83.78517052400008, 24.760358687000064], [83.78501721700007, 24.760790419000045], [83.78425477000008, 24.76214589800003], [83.78339688000005, 24.76363126600006], [83.78258843600008, 24.76469287900005], [83.78172445500007, 24.766277571000046], [83.78075520700008, 24.76797397100006], [83.78034058400004, 24.769179351000048], [83.77912197200004, 24.77105830200003], [83.77848087100006, 24.772599937000052], [83.77899287400004, 24.77362946100004], [83.77910622700006, 24.774496990000046], [83.77822707500007, 24.775260073000027], [83.77726542600004, 24.77630219300005], [83.77703340100004, 24.777527402000032], [83.77672467400004, 24.778548838000063], [83.77643442100003, 24.779687703000036], [83.77644835800004, 24.780594962000066], [83.77632722700008, 24.782484685000043], [83.77615145200008, 24.78271314600005], [83.77546891800006, 24.783568374000026], [83.77515920300004, 24.78425128600003], [83.77507602400004, 24.785008686000026], [83.77523674200006, 24.786057219000043], [83.77565327300005, 24.78679244700004], [83.77591610700006, 24.787566799000047], [83.77617819400007, 24.78882393200007], [83.77663822800008, 24.789645306000068], [83.77687401100007, 24.790617954000027], [83.77698471500008, 24.791711176000035], [83.77722555400004, 24.79267025400003], [83.77685954700007, 24.793515065000065], [83.77613567300006, 24.794094650000034], [83.77532889800005, 24.794998315000043], [83.77334058200006, 24.796278434000044], [83.77150627800006, 24.797090697000044], [83.76870878000005, 24.797383470000057], [83.76493743300006, 24.797639445000073], [83.76281736400006, 24.797938791000036], [83.76145871700004, 24.798656357000027], [83.76015268200007, 24.799527899000054], [83.75916064500007, 24.800601113000027], [83.75810133300007, 24.801520226000036], [83.75735137200007, 24.801788061000025], [83.75675301600006, 24.801782090000074], [83.75588218900003, 24.801407831000063], [83.75533848900005, 24.80096915400003], [83.75432614100004, 24.800440020000053], [83.75290920100008, 24.799830189000033], [83.75203646200004, 24.800029058000064], [83.75107640300007, 24.80090399000005], [83.74996775800008, 24.801804445000073], [83.74800231200004, 24.802389464000044], [83.74560202900005, 24.80294752800006], [83.74230722400006, 24.804268235000052], [83.74028463300004, 24.805488882000077], [83.73931258800008, 24.80611537300007], [83.73751283800004, 24.806895992000022], [83.73654477400004, 24.80720206600006], [83.73465325800004, 24.80739501200003], [83.73255849400005, 24.807211305000067], [83.73072389500004, 24.80719275900003], [83.72985011800006, 24.807066527000075], [83.72910440100009, 24.807379338000032], [83.72826349700006, 24.80820565500005], [83.72732617800006, 24.80963575900006], [83.72701026500005, 24.810390727000026], [83.72617175300007, 24.811826264000047], [83.72566912200006, 24.813296881000042], [83.72504273800007, 24.81476615300005], [83.72498313100004, 24.81600661500005], [83.72618216000006, 24.817855549000058], [83.72732826400005, 24.81958667500004], [83.72787292100008, 24.81994419800003], [83.72878976500004, 24.82100949000005], [83.72919337500008, 24.82197942700003], [83.72905797900006, 24.82253313900003], [83.72853153500006, 24.82352056900004], [83.72768670700003, 24.824653733000048], [83.72690658800008, 24.82534982100003], [83.72640473500007, 24.825940372000048], [83.72498584100003, 24.826688613000044], [83.72340781900004, 24.827110249000043], [83.72182942700005, 24.827951545000076], [83.72160123700007, 24.828414011000064], [83.72088500700005, 24.829133299000034], [83.71991264600007, 24.82976868800006], [83.71895069200008, 24.829961868000055], [83.71830116900009, 24.83048328700005], [83.71749346000007, 24.831002986000044], [83.71713157100004, 24.831874792000065], [83.71708283600003, 24.833015980000027], [83.71694251300005, 24.833966806000035], [83.71651768800007, 24.83472510100006], [83.71592897400006, 24.835535872000037], [83.71576375700005, 24.83609378500006], [83.71627350000006, 24.83647806500005], [83.71688223600006, 24.836457241000062], [83.71771353100007, 24.836434186000076], [83.71800102000003, 24.836789186000033], [83.71831713600005, 24.837230155000043], [83.71939593400003, 24.838003807000064], [83.72033841800004, 24.838600144000054], [83.72135724800006, 24.839016712000046], [83.72240477400004, 24.839925552000068], [83.72274770000007, 24.84060143800008], [83.72264392000005, 24.841394646000026], [83.72257038700008, 24.842152036000073], [83.72233127400006, 24.84308830200007], [83.72226011800007, 24.844053303000067], [83.72253697600007, 24.84487297100003], [83.72310245000006, 24.845555646000037], [83.72438106100003, 24.846182439000074], [83.72562610700004, 24.846312457000067], [83.72658886700003, 24.846466776000057], [83.72719371700003, 24.846766211000045], [83.72760564600009, 24.84706376200006], [83.72816129900008, 24.84653693200005], [83.72905101900005, 24.84578782400007], [83.72974618200004, 24.845172064000053], [83.73087611600005, 24.84460141900007], [83.73217482100006, 24.844393490000073], [83.73303409500005, 24.84410887200005], [83.73430917000007, 24.843810416000053], [83.73504555700003, 24.843461439000066], [83.73529358100006, 24.842994608000026], [83.73537652700008, 24.842282383000054], [83.73529904600008, 24.84091870900005], [83.73557294000005, 24.840366434000032], [83.73611885900004, 24.839812364000068], [83.73641346000005, 24.839594158000068], [83.73784989300003, 24.83862041100008], [83.73895474700004, 24.838071952000064], [83.73991864400006, 24.837323558000037], [83.74043869400003, 24.836859521000065], [83.74073564600008, 24.836438276000024], [83.74201863100006, 24.835471889000075], [83.74299937300003, 24.835369006000064], [83.74446289700006, 24.835428832000048], [83.74524218800008, 24.83561271800005], [83.74577379100003, 24.836245392000023], [83.74656542600007, 24.837458294000044], [83.74685737100003, 24.837862865000034], [83.74753265800007, 24.83846985100007], [83.74799965900007, 24.838713704000043], [83.74879366400006, 24.83892023800007], [83.74952945500007, 24.839026971000067], [83.75052676500007, 24.83877518500003], [83.75237543400004, 24.839308240000037], [83.75321477000006, 24.83985365700005], [83.75441928500004, 24.840068785000028], [83.75546503400005, 24.839903277000076], [83.75605763900006, 24.83957519200004], [83.75659834200007, 24.839039040000046], [83.75748424300008, 24.83817694800007], [83.75853435100004, 24.837239757000077], [83.75904468500005, 24.836752869000065], [83.76028550000007, 24.836408798000036], [83.76194464700006, 24.836655432000043], [83.76241951700007, 24.837070804000064], [83.76275398300004, 24.836406304000036], [83.76227713900005, 24.833675756000048], [83.76193163000005, 24.831952821000073], [83.76291858300004, 24.831732517000034], [83.76421788000005, 24.831461122000064], [83.76559471800005, 24.83173200500005], [83.76629465900004, 24.831942033000075], [83.76748672800005, 24.833190466000076], [83.76770716300007, 24.833783786000026], [83.76682684700006, 24.834185797000032], [83.76594718000007, 24.834944189000055], [83.76543839200008, 24.835300200000063], [83.76520473600004, 24.83581232000006], [83.76541542100006, 24.83722698300005], [83.76578966400007, 24.838616199000057], [83.76588982500004, 24.839754422000055], [83.76581766300006, 24.840832290000037], [83.76611769500005, 24.84181009200006], [83.76610334600008, 24.843014835000076], [83.76621639800004, 24.845150569000054], [83.76440264200005, 24.846238215000028], [83.76357754200006, 24.846974628000055], [83.76278184400007, 24.848153655000033], [83.76197194600007, 24.850099603000046], [83.76216587400006, 24.850435528000048], [83.76410280300007, 24.850635314000044], [83.76409755900005, 24.851073066000026], [83.76509941300003, 24.852107429000057], [83.76657733000008, 24.85304719800007], [83.76740684400005, 24.85401668000003], [83.76801574900009, 24.854821539000056], [83.76823099400008, 24.855852605000052], [83.76956954300005, 24.85603736300004], [83.77048824900004, 24.856588024000075], [83.77159015500007, 24.857117905000052], [83.77236906100006, 24.857770970000047], [83.77271990800006, 24.858221203000028], [83.77282412400007, 24.85861483900004], [83.77300029100007, 24.859609463000027], [83.77288147100006, 24.86044764600007], [83.77430175300003, 24.859595247000073], [83.77566256400007, 24.85916192800005], [83.77721299400008, 24.859005670000045], [83.77842912700004, 24.85908992700007], [83.78043812000004, 24.859064514000067], [83.78198133700005, 24.859102332000077], [83.78364131500007, 24.859732377000057], [83.78438701600004, 24.861102586000072], [83.78465295800004, 24.863312002000043], [83.78506578600008, 24.863965963000055], [83.78774453500006, 24.863798148000058], [83.78900354700005, 24.86402705300003], [83.78957447500005, 24.86470502800006], [83.78996564200008, 24.86468179800005], [83.79013455700004, 24.86377634100006], [83.78978121900008, 24.862689846000023], [83.78994431300003, 24.862285240000062], [83.79220048500008, 24.86228473500006], [83.79269908100008, 24.86322371600005], [83.79271302200004, 24.865412695000032], [83.79310493600008, 24.866594380000038], [83.79354250900008, 24.86683329400006], [83.79498492200008, 24.86661265400005], [83.79557165400007, 24.866785366000045], [83.79638581900008, 24.866558604000033], [83.79786203200007, 24.86640599100008], [83.79822071900008, 24.867045871000073], [83.79860170800004, 24.86917065600005], [83.79881017200006, 24.870386584000073], [83.79926440600008, 24.87258434200004], [83.79957870700008, 24.87406758800006], [83.79952907400008, 24.875348802000076], [83.79790542500007, 24.875400713000033], [83.79610152900005, 24.875211703000048], [83.79380409700008, 24.875333729000033], [83.79203395200005, 24.87648977200007], [83.79188033300005, 24.877769943000033], [83.79162006500007, 24.878439857000046], [83.79203269600004, 24.879125298000076], [83.79370140400005, 24.880296894000026], [83.79434946300006, 24.88115621700007], [83.79593037200004, 24.88180787600004], [83.79771796800009, 24.88213220500006], [83.79822197800007, 24.883035207000034], [83.80012401300007, 24.884159277000037], [83.80197196900008, 24.88609525100003], [83.80205265700005, 24.886822634000055], [83.80162555100009, 24.88737354400007], [83.80255180400007, 24.888149733000034], [83.80423866300004, 24.887782463000065]]]]}}, {"type": "Feature", "properties": {"OBJECTID": 5952, "GPCODE": "97264", "GPNAME_1": "SADOKHAR", "DIST_CEN_C": "32", "BLK_NAME": "CHENARI", "ST_NAME": "BIHAR", "ST_CODE_1": "10", "GPCODE2011": "99751", "REMARKS": "FINALIZED", "MAP_STATUS": "COMPLETED", "BLK_C_2001": "320012", "BLK_C_2011": "01468", "DIST_NAME": "ROHTAS", "code2011": 0.0, "Shape_Leng": 0.22367672523, "Shape_Area": 0.00138229308, "Area": 15.502}, "geometry": {"type": "MultiPolygon", "coordinates": [[[[83.85804440500004, 24.86057067400003], [83.85857988000004, 24.85869819000004], [83.85874025900006, 24.85762561400003], [83.85689364000007, 24.85861479500005], [83.85570727500004, 24.859407055000077], [83.85511311000005, 24.859893412000076], [83.85447387300007, 24.859977704000073], [83.85373522400005, 24.860106193000036], [83.85270627300008, 24.86009659800004], [83.85196257800004, 24.86111409500006], [83.85161313700007, 24.86182834300007], [83.85076854900007, 24.862578607000046], [83.85007978300007, 24.863109205000058], [83.85039999400004, 24.864989695000077], [83.85398692000007, 24.864129664000075], [83.85654128100003, 24.863575858000047], [83.85728444400007, 24.863045714000066], [83.85743840500004, 24.862108496000076], [83.85804440500004, 24.86057067400003]]], [[[83.82498413400003, 24.88344648800006], [83.82474906900006, 24.882370222000077], [83.82680790000006, 24.882344730000057], [83.82867634800004, 24.882096277000073], [83.83047534500008, 24.881865180000034], [83.83048393600006, 24.881107044000032], [83.83015120600004, 24.880345676000047], [83.82968443200008, 24.878328447000058], [83.82926914200004, 24.876131185000077], [83.82942675200007, 24.875329384000054], [83.82992832900004, 24.874305211000035], [83.83062020300008, 24.873508483000023], [83.83175192000004, 24.873203298000078], [83.83282894300004, 24.873348969000062], [83.83286929200005, 24.87241064400007], [83.83304238400007, 24.87068383600007], [83.83299733300004, 24.868990991000032], [83.83459898000007, 24.86912804700006], [83.83457624000005, 24.868085378000046], [83.83512471600005, 24.867711488000054], [83.83574084300005, 24.867487133000054], [83.83692150400003, 24.86721403000007], [83.83876901600007, 24.86704645800006], [83.84016118000005, 24.866450350000036], [83.84108882700008, 24.865804725000032], [83.84177256300006, 24.86441211400006], [83.84229563100007, 24.864101177000066], [83.84296006600005, 24.863967500000058], [83.84347838200006, 24.863642954000056], [83.84408721600005, 24.863179303000038], [83.84466579500008, 24.862774052000077], [83.84581417500004, 24.862726208000026], [83.84699187200005, 24.862710225000058], [83.84762664500005, 24.862580766000065], [83.84884191000003, 24.861874603000047], [83.85021458100005, 24.861237628000026], [83.85118613400005, 24.86064195700004], [83.85161652300008, 24.86020372200005], [83.85313747900005, 24.85914390100004], [83.85383656700003, 24.858568180000077], [83.85426763900006, 24.85807586100003], [83.85424504500008, 24.85744373800003], [83.85415969900004, 24.856671265000045], [83.85392783300006, 24.856172653000044], [83.85366034400005, 24.85575496000007], [83.85375469900004, 24.855286516000035], [83.85409451300006, 24.854545057000053], [83.85434072400005, 24.853762096000025], [83.85476623300008, 24.85332378800007], [83.85532544700004, 24.85197961600005], [83.85557225600007, 24.851593748000028], [83.85585103100004, 24.850991673000067], [83.85604585300007, 24.84994641800006], [83.85638464600004, 24.849286204000066], [83.85624462500004, 24.848097907000067], [83.85745496300007, 24.848249098000053], [83.85860330900005, 24.848201156000073], [83.85920702900006, 24.848179712000046], [83.85919391200008, 24.847588333000033], [83.85939432200007, 24.84559094900004], [83.85944833200006, 24.84385398300003], [83.85946734800007, 24.842148191000035], [83.85937575200006, 24.841050685000027], [83.85910357000006, 24.84017715500005], [83.85882475900007, 24.83945243000005], [83.85849746300005, 24.837748015000045], [83.85797432400005, 24.83631704100003], [83.85622591000003, 24.83739743600006], [83.85511342600006, 24.837793231000035], [83.85203842800007, 24.83894685100006], [83.84915716700004, 24.839578834000065], [83.84803842900004, 24.840087272000062], [83.84661064700003, 24.840362759000072], [83.84550438700006, 24.84064118400005], [83.84442770100009, 24.840919877000033], [83.84182574400006, 24.841789], [83.84140925100007, 24.84188778400005], [83.84100239100007, 24.841984282000055], [83.84015253300004, 24.841890489000036], [83.83965584700007, 24.840757556000028], [83.83906611400005, 24.83997578900005], [83.83807373100007, 24.838495180000052], [83.83750595200007, 24.83840403000005], [83.83602266600008, 24.838331392000043], [83.83273245300006, 24.83838594300005], [83.83004931400006, 24.838563597000075], [83.82861723500008, 24.838780083000074], [83.82593271700006, 24.838637211000048], [83.82511490500008, 24.83834058000008], [83.82388927700003, 24.83780990400004], [83.82238167600008, 24.836847831000057], [83.82143727300007, 24.83680720500007], [83.82001642200004, 24.836477676000072], [83.81750942200006, 24.836390496000035], [83.81528638100008, 24.83742072800004], [83.81378899800006, 24.837722220000046], [83.81132741800008, 24.837554156000067], [83.81239300600004, 24.839951760000076], [83.81333649500004, 24.841784060000066], [83.81366105100005, 24.843235824000033], [83.81389826800006, 24.84411811700005], [83.81410076900005, 24.845428859000037], [83.81424629400004, 24.846540428000026], [83.81432976100007, 24.847448344000043], [83.81428118700006, 24.849514837000072], [83.81407920300006, 24.850731411000027], [83.81425697200007, 24.851613144000055], [83.81415088500006, 24.852663605000032], [83.81435241500003, 24.854060106000077], [83.81447122100008, 24.854485406000038], [83.81443006200004, 24.85548241400005], [83.81475139600008, 24.857218448000026], [83.81498768500006, 24.85774877800003], [83.81588369500008, 24.861137591000045], [83.81885949500008, 24.862235634000058], [83.81908323100004, 24.863004974000035], [83.81869210000008, 24.86474774900006], [83.81723951400005, 24.864991058000044], [83.81550945100008, 24.86527233700008], [83.81493712300005, 24.86599347600003], [83.81469774100003, 24.866586851000022], [83.81520355300006, 24.866487880000022], [83.81622639800008, 24.86703478000004], [83.81650596100008, 24.868107017000057], [83.81683988800006, 24.869184356000062], [83.81717104200004, 24.873939676000077], [83.81700647000008, 24.875770312000043], [83.81728745600003, 24.87671625100006], [83.81721584300004, 24.87863806100006], [83.81711120200004, 24.879128923000053], [83.81578917700006, 24.879202022000072], [83.81597883100005, 24.879921368000055], [83.81602001100003, 24.880634804000067], [83.81575922900004, 24.88179664100005], [83.81508535700004, 24.883153142000026], [83.81588851700008, 24.883454150000034], [83.81696666100004, 24.883509654000022], [83.81755808700007, 24.883289670000067], [83.81863484700006, 24.88303374000003], [83.81901155800006, 24.882987680000042], [83.82111883400006, 24.88305306700005], [83.82317825200005, 24.882982484000024], [83.82336615300005, 24.883431020000046], [83.82311447700005, 24.884231917000022], [83.82339454500004, 24.885263604000045], [83.82353168700007, 24.886248729000044], [83.82371441700008, 24.887144041000056], [83.82385924700003, 24.887461305000045], [83.82620964400007, 24.88748376800004], [83.82617791600006, 24.886364249000053], [83.82574233200006, 24.885511672000064], [83.82556006300007, 24.88457122500006], [83.82498413400003, 24.88344648800006]]]]}}, {"type": "Feature", "properties": {"OBJECTID": 5953, "GPCODE": "97262", "GPNAME_1": "MALHIPUR", "DIST_CEN_C": "32", "BLK_NAME": "CHENARI", "ST_NAME": "BIHAR", "ST_CODE_1": "10", "GPCODE2011": "99749", "REMARKS": "FINALIZED", "MAP_STATUS": "COMPLETED", "BLK_C_2001": "320012", "BLK_C_2011": "01468", "DIST_NAME": "ROHTAS", "code2011": 0.0, "Shape_Leng": 0.29313617525, "Shape_Area": 0.00180224376, "Area": 20.2128}, "geometry": {"type": "MultiPolygon", "coordinates": [[[[83.80205265700005, 24.886822634000055], [83.80197196900008, 24.88609525100003], [83.80012401300007, 24.884159277000037], [83.79822197800007, 24.883035207000034], [83.79771796800009, 24.88213220500006], [83.79593037200004, 24.88180787600004], [83.79434946300006, 24.88115621700007], [83.79370140400005, 24.880296894000026], [83.79203269600004, 24.879125298000076], [83.79162006500007, 24.878439857000046], [83.79188033300005, 24.877769943000033], [83.79203395200005, 24.87648977200007], [83.79380409700008, 24.875333729000033], [83.79610152900005, 24.875211703000048], [83.79790542500007, 24.875400713000033], [83.79952907400008, 24.875348802000076], [83.79957870700008, 24.87406758800006], [83.79926440600008, 24.87258434200004], [83.79881017200006, 24.870386584000073], [83.79860170800004, 24.86917065600005], [83.79822071900008, 24.867045871000073], [83.79786203200007, 24.86640599100008], [83.79638581900008, 24.866558604000033], [83.79557165400007, 24.866785366000045], [83.79498492200008, 24.86661265400005], [83.79354250900008, 24.86683329400006], [83.79310493600008, 24.866594380000038], [83.79271302200004, 24.865412695000032], [83.79269908100008, 24.86322371600005], [83.79220048500008, 24.86228473500006], [83.78994431300003, 24.862285240000062], [83.78978121900008, 24.862689846000023], [83.79013455700004, 24.86377634100006], [83.78996564200008, 24.86468179800005], [83.78957447500005, 24.86470502800006], [83.78900354700005, 24.86402705300003], [83.78774453500006, 24.863798148000058], [83.78506578600008, 24.863965963000055], [83.78465295800004, 24.863312002000043], [83.78438701600004, 24.861102586000072], [83.78364131500007, 24.859732377000057], [83.78198133700005, 24.859102332000077], [83.78043812000004, 24.859064514000067], [83.77842912700004, 24.85908992700007], [83.77721299400008, 24.859005670000045], [83.77566256400007, 24.85916192800005], [83.77430175300003, 24.859595247000073], [83.77288147100006, 24.86044764600007], [83.77300029100007, 24.859609463000027], [83.77282412400007, 24.85861483900004], [83.77271990800006, 24.858221203000028], [83.77236906100006, 24.857770970000047], [83.77159015500007, 24.857117905000052], [83.77048824900004, 24.856588024000075], [83.76956954300005, 24.85603736300004], [83.76823099400008, 24.855852605000052], [83.76801574900009, 24.854821539000056], [83.76740684400005, 24.85401668000003], [83.76657733000008, 24.85304719800007], [83.76509941300003, 24.852107429000057], [83.76409755900005, 24.851073066000026], [83.76410280300007, 24.850635314000044], [83.76216587400006, 24.850435528000048], [83.76197194600007, 24.850099603000046], [83.76278184400007, 24.848153655000033], [83.76357754200006, 24.846974628000055], [83.76440264200005, 24.846238215000028], [83.76621639800004, 24.845150569000054], [83.76610334600008, 24.843014835000076], [83.76611769500005, 24.84181009200006], [83.76581766300006, 24.840832290000037], [83.76588982500004, 24.839754422000055], [83.76578966400007, 24.838616199000057], [83.76541542100006, 24.83722698300005], [83.76520473600004, 24.83581232000006], [83.76543839200008, 24.835300200000063], [83.76594718000007, 24.834944189000055], [83.76682684700006, 24.834185797000032], [83.76770716300007, 24.833783786000026], [83.76748672800005, 24.833190466000076], [83.76629465900004, 24.831942033000075], [83.76559471800005, 24.83173200500005], [83.76421788000005, 24.831461122000064], [83.76291858300004, 24.831732517000034], [83.76193163000005, 24.831952821000073], [83.76227713900005, 24.833675756000048], [83.76275398300004, 24.836406304000036], [83.76241951700007, 24.837070804000064], [83.76194464700006, 24.836655432000043], [83.76028550000007, 24.836408798000036], [83.75904468500005, 24.836752869000065], [83.75853435100004, 24.837239757000077], [83.75748424300008, 24.83817694800007], [83.75659834200007, 24.839039040000046], [83.75605763900006, 24.83957519200004], [83.75546503400005, 24.839903277000076], [83.75441928500004, 24.840068785000028], [83.75321477000006, 24.83985365700005], [83.75237543400004, 24.839308240000037], [83.75052676500007, 24.83877518500003], [83.74952945500007, 24.839026971000067], [83.74879366400006, 24.83892023800007], [83.74799965900007, 24.838713704000043], [83.74753265800007, 24.83846985100007], [83.74685737100003, 24.837862865000034], [83.74656542600007, 24.837458294000044], [83.74577379100003, 24.836245392000023], [83.74524218800008, 24.83561271800005], [83.74446289700006, 24.835428832000048], [83.74299937300003, 24.835369006000064], [83.74201863100006, 24.835471889000075], [83.74073564600008, 24.836438276000024], [83.74043869400003, 24.836859521000065], [83.73991864400006, 24.837323558000037], [83.73895474700004, 24.838071952000064], [83.73784989300003, 24.83862041100008], [83.73641346000005, 24.839594158000068], [83.73611885900004, 24.839812364000068], [83.73557294000005, 24.840366434000032], [83.73529904600008, 24.84091870900005], [83.73537652700008, 24.842282383000054], [83.73529358100006, 24.842994608000026], [83.73504555700003, 24.843461439000066], [83.73430917000007, 24.843810416000053], [83.73303409500005, 24.84410887200005], [83.73217482100006, 24.844393490000073], [83.73087611600005, 24.84460141900007], [83.72974618200004, 24.845172064000053], [83.72905101900005, 24.84578782400007], [83.72816129900008, 24.84653693200005], [83.72760564600009, 24.84706376200006], [83.72791926200006, 24.847712255000033], [83.72804377100005, 24.848052016000054], [83.72775325000003, 24.848342398000057], [83.72720238100004, 24.84889185800006], [83.72642283300007, 24.84952925700003], [83.72650784400008, 24.85026117900003], [83.72685400100005, 24.851081561000058], [83.72719698000003, 24.851757434000035], [83.72825164300008, 24.85209315700007], [83.72946563000005, 24.852340208000044], [83.73047338300006, 24.852467723000075], [83.73223793700004, 24.85260300300007], [83.73370853600005, 24.852906808000057], [83.73520415600007, 24.853598900000065], [83.73583802600007, 24.85436349300005], [83.73632822500008, 24.856358595000074], [83.73637372100006, 24.857090178000078], [83.73681047600007, 24.85820478900007], [83.73754217900006, 24.858649934000027], [83.73837475300007, 24.858541003000028], [83.73950229700006, 24.858173328000078], [83.74052884400004, 24.85798058000006], [83.74132741100004, 24.858218815000043], [83.74247436200005, 24.85911046800004], [83.74304007400008, 24.859788551000065], [83.74351290000004, 24.860375503000057], [83.74405135500007, 24.86126089800007], [83.74445488500004, 24.862257863000025], [83.74444610600005, 24.86298882600005], [83.74510937100007, 24.863785268000072], [83.74547818300005, 24.86438017000006], [83.74661896400005, 24.863741834000052], [83.74717052400007, 24.86313362800007], [83.74745088900005, 24.86286565200004], [83.74799863400006, 24.862573319000035], [83.74849259500007, 24.862641449000023], [83.74877278700006, 24.862793229000033], [83.74892253200005, 24.86309257700003], [83.74893791500006, 24.86386890700004], [83.74901487200003, 24.864465361000043], [83.74867393300008, 24.865653335000047], [83.74841446400006, 24.86706329900005], [83.74889207700005, 24.86766374700005], [83.74987714200006, 24.86722689000004], [83.75136086000003, 24.86605038700003], [83.75276487900004, 24.86450301600007], [83.75390993400003, 24.863918856000055], [83.75480495800008, 24.864374593000036], [83.75569323500008, 24.864979126000037], [83.75658070600008, 24.86565596500003], [83.75673856400005, 24.86610429700005], [83.75681726200008, 24.866551883000056], [83.75680923000004, 24.867219654000053], [83.75663254600005, 24.868337068000073], [83.75637444000006, 24.869228074000034], [83.75603815300008, 24.870041505000074], [83.75610881800003, 24.871156953000025], [83.75723959100003, 24.87176395800003], [83.75830958500006, 24.871255636000058], [83.75993370100008, 24.871569735000037], [83.76090895000004, 24.871949533000077], [83.76122922300004, 24.87247614300003], [83.76129858300004, 24.87329370300006], [83.76086173100003, 24.87382641100004], [83.76063568800004, 24.874108467000042], [83.75941274700006, 24.874168449000024], [83.75778849900007, 24.873854348000066], [83.75698292200008, 24.87295275400004], [83.75535328000007, 24.87308540400005], [83.75517756300007, 24.874126077000028], [83.75457409200004, 24.876575009000078], [83.75391458100006, 24.87709644100005], [83.75373342600005, 24.878583886000058], [83.75460707900004, 24.88082653500004], [83.75514912900007, 24.88306582000007], [83.75628495000007, 24.88367289400003], [83.75887925100005, 24.884813501000053], [83.76005213800005, 24.884391997000023], [83.76098778900007, 24.88436074300006], [83.76186284300007, 24.885263016000067], [83.76237542200005, 24.885439594000047], [83.76335610800004, 24.885363577000078], [83.76494656000006, 24.88520795100004], [83.76592418400008, 24.885389203000045], [83.76760200800004, 24.885789401000068], [83.76900365400007, 24.886101191000023], [83.77053943800007, 24.886373685000024], [83.77213362100008, 24.88673692100008], [83.77363454300007, 24.88619669900004], [83.77467132300006, 24.88556613800006], [83.77570211100004, 24.88544995500007], [83.77571319200007, 24.88451136200007], [83.77539726900005, 24.883610232000024], [83.77666166800003, 24.88298633900007], [83.77955666400004, 24.883398541000076], [83.78329593200004, 24.883137446000035], [83.78605550600008, 24.882862154000065], [83.78688057300008, 24.88423767100005], [83.78826470900003, 24.886042893000024], [83.78895393500005, 24.88677165400003], [83.79016864100004, 24.887000167000053], [83.79142695200005, 24.887310299000035], [83.79277977100008, 24.88715211500005], [83.79367189900006, 24.88703442800005], [83.79971853400008, 24.886673606000045], [83.80037419600006, 24.88646334400005], [83.80162555100009, 24.88737354400007], [83.80205265700005, 24.886822634000055]]]]}}, {"type": "Feature", "properties": {"OBJECTID": 5957, "GPCODE": "97256", "GPNAME_1": "DEWDIHI", "DIST_CEN_C": "32", "BLK_NAME": "CHENARI", "ST_NAME": "BIHAR", "ST_CODE_1": "10", "GPCODE2011": "99743", "REMARKS": "FINALIZED", "MAP_STATUS": "COMPLETED", "BLK_C_2001": "320012", "BLK_C_2011": "01468", "DIST_NAME": "ROHTAS", "code2011": 0.0, "Shape_Leng": 0.22018806072, "Shape_Area": 0.00123961977, "Area": 13.8994}, "geometry": {"type": "MultiPolygon", "coordinates": [[[[83.84601593300005, 24.89655297300004], [83.84755714400006, 24.895931091000023], [83.84818926700007, 24.89561668700003], [83.84936617400007, 24.895257669000046], [83.85188939000005, 24.894455444000073], [83.85455386300004, 24.893839547000027], [83.85592216300006, 24.89318441200004], [83.85992213300005, 24.891754955000067], [83.86188774000004, 24.890789402000053], [83.86374874100005, 24.88988160400004], [83.86438852500004, 24.888867584000025], [83.86450700100005, 24.888006680000046], [83.86451556100008, 24.88724411900006], [83.86490116100003, 24.886832483000035], [83.86591581400006, 24.886819337000077], [83.86578195900006, 24.885504741000034], [83.86561462500003, 24.884090693000076], [83.86547782000008, 24.88304692400004], [83.86526789100003, 24.882340941000052], [83.86429028200007, 24.88081547400003], [83.86363888500006, 24.879766896000035], [83.86328243400004, 24.878454824000073], [83.86322829200003, 24.877980424000043], [83.86327465500005, 24.876933818000055], [83.86303350200006, 24.875487443000054], [83.86359887000003, 24.874481820000028], [83.86441934800007, 24.873681625000074], [83.86532252800004, 24.873446285000057], [83.86679500600007, 24.87318913400003], [83.86804475800005, 24.872934416000078], [83.86952089700003, 24.87234330600006], [83.87099633600008, 24.87181988800006], [83.87298141900004, 24.871292148000066], [83.87564496500005, 24.870256126000072], [83.87594723200004, 24.869320231000074], [83.87505918400007, 24.865065300000026], [83.87481097500006, 24.863790314000028], [83.87392420500004, 24.86166105800004], [83.87359926600004, 24.85972196800003], [83.87353221900008, 24.85773560800004], [83.87362413900007, 24.855692028000078], [83.87405663500004, 24.854161618000035], [83.87445824100007, 24.853190442000027], [83.87514303100005, 24.852104590000067], [83.87550236900006, 24.851372259000073], [83.87468552000007, 24.851418916000057], [83.87374762400003, 24.851685579000048], [83.87237586300006, 24.85269739000006], [83.87149332200005, 24.853321083000026], [83.86982807700008, 24.853581], [83.86835187400004, 24.853301095000063], [83.86828627400007, 24.853864607000048], [83.86848755700004, 24.854448692000062], [83.86908661200005, 24.855307198000048], [83.86950053100009, 24.85590667400004], [83.86973038800005, 24.857037082000033], [83.87041464700008, 24.85778809100003], [83.87073242100007, 24.859032056000046], [83.87111713800005, 24.860028542000066], [83.87121724100007, 24.861712831000034], [83.87133054500003, 24.862652574000037], [83.87053593300004, 24.86336274000007], [83.86968479900008, 24.863372929000036], [83.86917517800003, 24.86337731900005], [83.86676332800005, 24.863133823000055], [83.86547554000003, 24.862372768000057], [83.86521717400007, 24.86112924200006], [83.86492686500003, 24.860102107000046], [83.86375086000004, 24.85773994400006], [83.86317745900004, 24.855031247000056], [83.86310006300005, 24.85354125500004], [83.86284516800004, 24.851995473000045], [83.86212817000006, 24.85151941500004], [83.86064880900005, 24.851532744000053], [83.85968143600007, 24.851329732000067], [83.85921048800003, 24.850526469000044], [83.85900705000006, 24.849694231000058], [83.85920702900006, 24.848179712000046], [83.85860330900005, 24.848201156000073], [83.85745496300007, 24.848249098000053], [83.85624462500004, 24.848097907000067], [83.85638464600004, 24.849286204000066], [83.85604585300007, 24.84994641800006], [83.85585103100004, 24.850991673000067], [83.85557225600007, 24.851593748000028], [83.85532544700004, 24.85197961600005], [83.85476623300008, 24.85332378800007], [83.85434072400005, 24.853762096000025], [83.85409451300006, 24.854545057000053], [83.85375469900004, 24.855286516000035], [83.85366034400005, 24.85575496000007], [83.85392783300006, 24.856172653000044], [83.85415969900004, 24.856671265000045], [83.85424504500008, 24.85744373800003], [83.85426763900006, 24.85807586100003], [83.85383656700003, 24.858568180000077], [83.85313747900005, 24.85914390100004], [83.85161652300008, 24.86020372200005], [83.85118613400005, 24.86064195700004], [83.85021458100005, 24.861237628000026], [83.84884191000003, 24.861874603000047], [83.84762664500005, 24.862580766000065], [83.84699187200005, 24.862710225000058], [83.84581417500004, 24.862726208000026], [83.84466579500008, 24.862774052000077], [83.84408721600005, 24.863179303000038], [83.84347838200006, 24.863642954000056], [83.84296006600005, 24.863967500000058], [83.84229563100007, 24.864101177000066], [83.84177256300006, 24.86441211400006], [83.84108882700008, 24.865804725000032], [83.84016118000005, 24.866450350000036], [83.83876901600007, 24.86704645800006], [83.83692150400003, 24.86721403000007], [83.83574084300005, 24.867487133000054], [83.83512471600005, 24.867711488000054], [83.83457624000005, 24.868085378000046], [83.83459898000007, 24.86912804700006], [83.83299733300004, 24.868990991000032], [83.83304238400007, 24.87068383600007], [83.83286929200005, 24.87241064400007], [83.83282894300004, 24.873348969000062], [83.83175192000004, 24.873203298000078], [83.83062020300008, 24.873508483000023], [83.82992832900004, 24.874305211000035], [83.82942675200007, 24.875329384000054], [83.82926914200004, 24.876131185000077], [83.82968443200008, 24.878328447000058], [83.83015120600004, 24.880345676000047], [83.83048393600006, 24.881107044000032], [83.83047534500008, 24.881865180000034], [83.83040818900008, 24.88471214200007], [83.83065660400007, 24.885919486000034], [83.83104630900004, 24.886464770000032], [83.83090067400008, 24.88795263800006], [83.83161738700005, 24.888893635000045], [83.83263411900003, 24.88956223300005], [83.83278985000004, 24.89022714400005], [83.83235044400004, 24.891008217000035], [83.83366185600005, 24.891878086000077], [83.83412834100005, 24.892193895000048], [83.83434256000004, 24.892940604000046], [83.83480878300008, 24.893288005000045], [83.83534323600009, 24.893293061000065], [83.83555496700006, 24.89381411200003], [83.83566669500004, 24.894871136000063], [83.83625733200006, 24.89559431200007], [83.83653055200006, 24.896368653000025], [83.83734186600003, 24.896836680000035], [83.83788745800007, 24.897166721000076], [83.83804873600008, 24.896911025000065], [83.83877544600006, 24.896547803000033], [83.83958965600004, 24.896325330000025], [83.84015635500003, 24.896533829000077], [83.84077250500007, 24.897194007000053], [83.84176724700006, 24.898065419000034], [83.84229717200003, 24.898471995000023], [83.84342771300004, 24.89827957500006], [83.84434284000008, 24.897886589000052], [83.84499379400006, 24.897215793000044], [83.84601593300005, 24.89655297300004]], [[83.85196257800004, 24.86111409500006], [83.85270627300008, 24.86009659800004], [83.85373522400005, 24.860106193000036], [83.85447387300007, 24.859977704000073], [83.85511311000005, 24.859893412000076], [83.85570727500004, 24.859407055000077], [83.85689364000007, 24.85861479500005], [83.85874025900006, 24.85762561400003], [83.85857988000004, 24.85869819000004], [83.85804440500004, 24.86057067400003], [83.85743840500004, 24.862108496000076], [83.85728444400007, 24.863045714000066], [83.85654128100003, 24.863575858000047], [83.85398692000007, 24.864129664000075], [83.85039999400004, 24.864989695000077], [83.85007978300007, 24.863109205000058], [83.85076854900007, 24.862578607000046], [83.85161313700007, 24.86182834300007], [83.85196257800004, 24.86111409500006]]]]}}, {"type": "Feature", "properties": {"OBJECTID": 5958, "GPCODE": "97263", "GPNAME_1": "PEWANDI", "DIST_CEN_C": "32", "BLK_NAME": "CHENARI", "ST_NAME": "BIHAR", "ST_CODE_1": "10", "GPCODE2011": "99750", "REMARKS": "FINALIZED", "MAP_STATUS": "COMPLETED", "BLK_C_2001": "320012", "BLK_C_2011": "01468", "DIST_NAME": "ROHTAS", "code2011": 0.0, "Shape_Leng": 0.16316601603, "Shape_Area": 0.0011638848, "Area": 13.0492}, "geometry": {"type": "MultiPolygon", "coordinates": [[[[83.78259150700006, 24.916778686000043], [83.78594020300005, 24.91572850700004], [83.78901738400003, 24.915023070000075], [83.79069113400004, 24.914547524000056], [83.79060793300005, 24.912782250000078], [83.79136833400008, 24.912099153000042], [83.79466437600007, 24.911296506000042], [83.79629103400003, 24.91102354900005], [83.79774466300006, 24.91073530500006], [83.79849331700007, 24.91062978000008], [83.79961402900005, 24.910451188000025], [83.79969941000007, 24.909923984000045], [83.79957276500005, 24.909322521000036], [83.79956321700007, 24.908866628000055], [83.79947496200003, 24.908378413000037], [83.79927627600006, 24.90801088300003], [83.79924813600007, 24.90745552800007], [83.79906821800006, 24.90718303500006], [83.79949237200003, 24.906884725000054], [83.79982544600006, 24.906757090000042], [83.79956181600005, 24.905603777000067], [83.79945002400007, 24.905002499000034], [83.79916155300003, 24.90384887500005], [83.79864418100004, 24.903234549000047], [83.79864765900004, 24.902932219000036], [83.79773802200003, 24.90114987000004], [83.79777122800004, 24.900852335000025], [83.79834517400008, 24.900447202000066], [83.79972568500006, 24.90004994700007], [83.80029041100005, 24.900005848000035], [83.80143896800007, 24.899976388000027], [83.80247421200005, 24.899905137000076], [83.80386642200006, 24.899354593000055], [83.80512843900004, 24.898928988000023], [83.80607603300007, 24.898735087000034], [83.80666955600003, 24.898763468000027], [83.80693564200004, 24.898441035000076], [83.80727272800004, 24.897966006000047], [83.80775863600007, 24.89788947200003], [83.80847864200007, 24.897688826000035], [83.80955400100004, 24.897568282000066], [83.80969425000006, 24.89699652400003], [83.80926965400005, 24.896477928000024], [83.80855861700007, 24.89591150800004], [83.80829562400004, 24.895547875000034], [83.80810499900008, 24.894914287000063], [83.80798153200004, 24.89446175200004], [83.80781895600006, 24.893977305000078], [83.80713001100008, 24.89364120700003], [83.80591828000007, 24.892722340000034], [83.80552828800006, 24.892208683000035], [83.80524295500004, 24.89121301600005], [83.80492550400004, 24.89042470100003], [83.80459645500008, 24.89020939200003], [83.80393510500005, 24.890054114000066], [83.80322072200005, 24.889352192000047], [83.80299384000006, 24.88886711300006], [83.80255180400007, 24.888149733000034], [83.80162555100009, 24.88737354400007], [83.80037419600006, 24.88646334400005], [83.79971853400008, 24.886673606000045], [83.79367189900006, 24.88703442800005], [83.79277977100008, 24.88715211500005], [83.79142695200005, 24.887310299000035], [83.79016864100004, 24.887000167000053], [83.78895393500005, 24.88677165400003], [83.78826470900003, 24.886042893000024], [83.78688057300008, 24.88423767100005], [83.78605550600008, 24.882862154000065], [83.78329593200004, 24.883137446000035], [83.77955666400004, 24.883398541000076], [83.77666166800003, 24.88298633900007], [83.77539726900005, 24.883610232000024], [83.77571319200007, 24.88451136200007], [83.77570211100004, 24.88544995500007], [83.77467132300006, 24.88556613800006], [83.77363454300007, 24.88619669900004], [83.77213362100008, 24.88673692100008], [83.77053943800007, 24.886373685000024], [83.76900365400007, 24.886101191000023], [83.76760200800004, 24.885789401000068], [83.76592418400008, 24.885389203000045], [83.76494656000006, 24.88520795100004], [83.76335610800004, 24.885363577000078], [83.76237542200005, 24.885439594000047], [83.76186284300007, 24.885263016000067], [83.76098778900007, 24.88436074300006], [83.76005213800005, 24.884391997000023], [83.75887925100005, 24.884813501000053], [83.75926169700006, 24.88675330700005], [83.76086967300006, 24.888854362000075], [83.76214872700007, 24.89072637000004], [83.76181144000003, 24.891616635000048], [83.76040984600007, 24.892942896000022], [83.76023771400008, 24.89368132900006], [83.76087925400003, 24.89465799100003], [83.76069455600003, 24.89644325200004], [83.76043604100005, 24.897776485000065], [83.76182071700003, 24.89786699900003], [83.76410729700007, 24.897443021000072], [83.76489708100007, 24.89803304700007], [83.76491676800003, 24.89804674900006], [83.76473381600005, 24.89968315300007], [83.76479390300005, 24.901691940000035], [83.76395777500005, 24.903321788000028], [83.76385937700007, 24.90451224900005], [83.76391300800003, 24.90623221000004], [83.76463796100006, 24.907281875000024], [83.76624668000005, 24.90893151100005], [83.76467525100009, 24.910779671000057], [83.76376166900008, 24.912259817000063], [83.76382927200007, 24.913226317000067], [83.76480125900008, 24.913903901000026], [83.76601740200005, 24.914439509000033], [83.76844988600004, 24.91550608700004], [83.77113704200008, 24.91597961100007], [83.77341953500007, 24.91592544100007], [83.77405610500006, 24.917344292000053], [83.77413793500006, 24.918369562000066], [83.77735041000005, 24.91795454800007], [83.77961752800007, 24.917534604000025], [83.78259150700006, 24.916778686000043]]]]}}, {"type": "Feature", "properties": {"OBJECTID": 5968, "GPCODE": "97259", "GPNAME_1": "HATA", "DIST_CEN_C": "32", "BLK_NAME": "CHENARI", "ST_NAME": "BIHAR", "ST_CODE_1": "10", "GPCODE2011": "99746", "REMARKS": "FINALIZED", "MAP_STATUS": "COMPLETED", "BLK_C_2001": "320012", "BLK_C_2011": "01468", "DIST_NAME": "ROHTAS", "code2011": 0.0, "Shape_Leng": 0.22299145376, "Shape_Area": 0.00139351939, "Area": 15.6216}, "geometry": {"type": "MultiPolygon", "coordinates": [[[[83.80839834400007, 24.931440185000042], [83.80920750100006, 24.931249410000078], [83.81022756100003, 24.93165192500004], [83.81088227600003, 24.931116664000058], [83.81234965500005, 24.93094131400005], [83.81323186800006, 24.931279248000067], [83.81388261400008, 24.931086925000045], [83.81477072600006, 24.930919496000058], [83.81484650100003, 24.930356148000044], [83.81512034300005, 24.929790120000064], [83.81550306100007, 24.929662885000027], [83.81619375400004, 24.92986362000005], [83.81674081200003, 24.93050524000006], [83.81769821500006, 24.930338385000027], [83.81896485500005, 24.93039567200003], [83.82013595300003, 24.930578437000065], [83.82001225800008, 24.928857832000062], [83.82304997400007, 24.929013290000057], [83.82591123500004, 24.929455869000037], [83.82777952600009, 24.929284164000023], [83.82897427500006, 24.930432771000028], [83.82996657600006, 24.930667872000072], [83.83358435800005, 24.929023466000046], [83.83869796400006, 24.927731636000033], [83.83792437900007, 24.926113197000063], [83.83659315800008, 24.92433602400007], [83.83644434500007, 24.923928440000054], [83.83622056700005, 24.923154628000077], [83.83661863200007, 24.922102361000043], [83.83694251400004, 24.921044936000044], [83.83696147200004, 24.91938433300004], [83.83670008000007, 24.918429574000072], [83.83667578800004, 24.917089048000037], [83.83642092800005, 24.91599442300003], [83.83616193400007, 24.91483221200008], [83.83674380600007, 24.914589466000052], [83.83676580400004, 24.91396693300004], [83.83664242000003, 24.912625366000043], [83.83623230700005, 24.909087808000038], [83.83626851500009, 24.90851501800006], [83.83927790800004, 24.907207693000032], [83.83994100600006, 24.906785269000068], [83.83985249500006, 24.906296987000076], [83.83970520100007, 24.905754082000044], [83.83939495500005, 24.90517802200003], [83.83918282200005, 24.90468857600007], [83.83890916600006, 24.90394132800003], [83.83870927800007, 24.901935648000062], [83.83878041700007, 24.901336110000045], [83.83860221000003, 24.900467965000075], [83.83839776400004, 24.899292699000057], [83.83818488500003, 24.898433151000063], [83.83788745800007, 24.897166721000076], [83.83734186600003, 24.896836680000035], [83.83653055200006, 24.896368653000025], [83.83625733200006, 24.89559431200007], [83.83566669500004, 24.894871136000063], [83.83555496700006, 24.89381411200003], [83.83534323600009, 24.893293061000065], [83.83480878300008, 24.893288005000045], [83.83434256000004, 24.892940604000046], [83.83412834100005, 24.892193895000048], [83.83366185600005, 24.891878086000077], [83.83235044400004, 24.891008217000035], [83.83278985000004, 24.89022714400005], [83.83263411900003, 24.88956223300005], [83.83161738700005, 24.888893635000045], [83.83090067400008, 24.88795263800006], [83.83104630900004, 24.886464770000032], [83.83065660400007, 24.885919486000034], [83.83040818900008, 24.88471214200007], [83.83047534500008, 24.881865180000034], [83.82867634800004, 24.882096277000073], [83.82680790000006, 24.882344730000057], [83.82474906900006, 24.882370222000077], [83.82498413400003, 24.88344648800006], [83.82556006300007, 24.88457122500006], [83.82574233200006, 24.885511672000064], [83.82617791600006, 24.886364249000053], [83.82620964400007, 24.88748376800004], [83.82385924700003, 24.887461305000045], [83.82214980600008, 24.88764802000003], [83.82007292700007, 24.88751079800005], [83.81800644900005, 24.887757316000034], [83.81801609800004, 24.88691342000004], [83.81747390700008, 24.885012774000074], [83.81696666100004, 24.883509654000022], [83.81588851700008, 24.883454150000034], [83.81508535700004, 24.883153142000026], [83.81458535500008, 24.883599616000026], [83.81418114700006, 24.88431779000007], [83.81456379500008, 24.885467782000035], [83.81469048500009, 24.886069147000057], [83.81435339200004, 24.88654880100006], [83.81323437700007, 24.886596694000048], [83.81203905400008, 24.886828897000044], [83.81075632600005, 24.887344589000065], [83.80953167700005, 24.887544895000076], [83.80870317100005, 24.887717372000054], [83.80761084800008, 24.887174255000048], [83.80423866300004, 24.887782463000065], [83.80255180400007, 24.888149733000034], [83.80299384000006, 24.88886711300006], [83.80322072200005, 24.889352192000047], [83.80393510500005, 24.890054114000066], [83.80459645500008, 24.89020939200003], [83.80492550400004, 24.89042470100003], [83.80524295500004, 24.89121301600005], [83.80552828800006, 24.892208683000035], [83.80591828000007, 24.892722340000034], [83.80713001100008, 24.89364120700003], [83.80781895600006, 24.893977305000078], [83.80798153200004, 24.89446175200004], [83.80810499900008, 24.894914287000063], [83.80829562400004, 24.895547875000034], [83.80855861700007, 24.89591150800004], [83.80926965400005, 24.896477928000024], [83.80969425000006, 24.89699652400003], [83.80955400100004, 24.897568282000066], [83.80847864200007, 24.897688826000035], [83.80775863600007, 24.89788947200003], [83.80727272800004, 24.897966006000047], [83.80693564200004, 24.898441035000076], [83.80666955600003, 24.898763468000027], [83.80607603300007, 24.898735087000034], [83.80512843900004, 24.898928988000023], [83.80386642200006, 24.899354593000055], [83.80247421200005, 24.899905137000076], [83.80143896800007, 24.899976388000027], [83.80029041100005, 24.900005848000035], [83.80084794600003, 24.90142829800004], [83.80148512500006, 24.903235108000047], [83.80202567900005, 24.904833404000044], [83.80231915400003, 24.90513864600007], [83.80438900700005, 24.905050385000038], [83.80567546300006, 24.905089975000067], [83.80620770300004, 24.905284619000042], [83.80712793200007, 24.906169042000045], [83.80738946900004, 24.906663482000056], [83.80783512100004, 24.907073999000033], [83.80960217900008, 24.907063951000055], [83.81197003100004, 24.906897237000067], [83.81205847100006, 24.907805194000048], [83.81184896900004, 24.908367333000058], [83.81163912300008, 24.90853680300006], [83.81171069800007, 24.909196345000055], [83.81162301100005, 24.909926583000072], [83.81183422800007, 24.91049731100003], [83.81179753400005, 24.91153037600003], [83.81189580800003, 24.91244297000003], [83.81204828700004, 24.913378631000057], [83.81221011900004, 24.91393528900005], [83.81228654300008, 24.914179655000055], [83.81219602600004, 24.915158147000056], [83.81274549300008, 24.916002785000046], [83.81329173000006, 24.91713629800006], [83.81303576600004, 24.918293662000053], [83.81301040800008, 24.918776293000064], [83.81184967200005, 24.918986265000058], [83.81013631300004, 24.91904188500007], [83.80901806500003, 24.91942824700004], [83.80417906400004, 24.920947354000077], [83.80251899200005, 24.92109827200005], [83.79863149000005, 24.922089398000026], [83.79484901200004, 24.92298667400007], [83.79295568200007, 24.923604499000078], [83.79363208900008, 24.925867591000042], [83.79430571400007, 24.92793652900008], [83.79504192100006, 24.929320154000038], [83.79789808500004, 24.929348047000076], [83.80091014300007, 24.929575940000063], [83.80315397500004, 24.931168221000064], [83.80393422800006, 24.930904973000054], [83.80527150000006, 24.931703251000044], [83.80666084200004, 24.93270053200007], [83.80839834400007, 24.931440185000042]]]]}}, {"type": "Feature", "properties": {"OBJECTID": 5972, "GPCODE": "97260", "GPNAME_1": "KENAR KALA", "DIST_CEN_C": "32", "BLK_NAME": "CHENARI", "ST_NAME": "BIHAR", "ST_CODE_1": "10", "GPCODE2011": "99747", "REMARKS": "FINALIZED", "MAP_STATUS": "COMPLETED", "BLK_C_2001": "320012", "BLK_C_2011": "01468", "DIST_NAME": "ROHTAS", "code2011": 0.0, "Shape_Leng": 0.17262230741, "Shape_Area": 0.00119377415, "Area": 13.3819}, "geometry": {"type": "MultiPolygon", "coordinates": [[[[83.84421244300006, 24.922945842000047], [83.84700368900008, 24.92212821000004], [83.84726254800006, 24.922870836000072], [83.84739410300006, 24.92480811200005], [83.85052743600005, 24.924381759000028], [83.85342587700006, 24.923713935000023], [83.85570995000006, 24.923098964000076], [83.85667827400005, 24.922828265000078], [83.86004538300006, 24.922733305000065], [83.86339922100007, 24.922502768000072], [83.86765030100008, 24.92215410600005], [83.86954894700006, 24.921905432000074], [83.86978867200008, 24.921271361000038], [83.86921503400004, 24.92077415800003], [83.86887557500006, 24.920139120000044], [83.86911146200003, 24.91985702900007], [83.86991619100007, 24.92004048800004], [83.87053329500003, 24.92019060900003], [83.87088292000004, 24.919909533000066], [83.87066054700006, 24.91899132900005], [83.87102871500008, 24.917482844000062], [83.87042411500005, 24.916209163000076], [83.86885053500004, 24.915278389000036], [83.86886543600008, 24.91394267900006], [83.86868566700008, 24.91274510100004], [83.86939216100006, 24.911975380000058], [83.87006551000007, 24.91151683700008], [83.87104092500005, 24.91104298600004], [83.87267053700003, 24.91137843000007], [83.87399201400007, 24.911390604000076], [83.87461130300005, 24.911333170000034], [83.87493562700007, 24.91020786100006], [83.87494677000007, 24.909201563000067], [83.87539395300007, 24.90860095200003], [83.87693711700007, 24.90825418000003], [83.87884420100005, 24.90766691700003], [83.87878257700004, 24.906529094000064], [83.87917952600003, 24.905539904000022], [83.87877048200005, 24.904480058000047], [83.87780550000008, 24.903126302000032], [83.87731458800005, 24.902314026000056], [83.87783333600004, 24.901506426000026], [83.87919853700004, 24.901130850000072], [83.88140908700007, 24.900839744000052], [83.88251865100005, 24.900308386000063], [83.88244345500004, 24.899490832000026], [83.88195124500004, 24.897897745000023], [83.88184524000008, 24.895843325000044], [83.88152030400005, 24.894793340000035], [83.88122819200004, 24.894348319000073], [83.88108870700006, 24.893083424000054], [83.88057759800006, 24.893209633000026], [83.87976146400007, 24.893175065000037], [83.87862822300008, 24.89316466400004], [83.87653472900007, 24.892730141000072], [83.87628913700007, 24.892109611000024], [83.87587903600007, 24.890711337000027], [83.87555507300004, 24.889571063000062], [83.87510229600008, 24.887554069000032], [83.87456720600005, 24.886272016000078], [83.87440761000005, 24.885047494000048], [83.87307589400007, 24.88554062700007], [83.87181918300007, 24.885966849000056], [83.86897188800003, 24.88701457700006], [83.86734332800006, 24.887504964000073], [83.86664297100003, 24.887733209000032], [83.86631448300005, 24.887459351000075], [83.86591581400006, 24.886819337000077], [83.86490116100003, 24.886832483000035], [83.86451556100008, 24.88724411900006], [83.86450700100005, 24.888006680000046], [83.86438852500004, 24.888867584000025], [83.86374874100005, 24.88988160400004], [83.86188774000004, 24.890789402000053], [83.85992213300005, 24.891754955000067], [83.85592216300006, 24.89318441200004], [83.85455386300004, 24.893839547000027], [83.85188939000005, 24.894455444000073], [83.84936617400007, 24.895257669000046], [83.84818926700007, 24.89561668700003], [83.84755714400006, 24.895931091000023], [83.84601593300005, 24.89655297300004], [83.84499379400006, 24.897215793000044], [83.84434284000008, 24.897886589000052], [83.84342771300004, 24.89827957500006], [83.84229717200003, 24.898471995000023], [83.84176724700006, 24.898065419000034], [83.84077250500007, 24.897194007000053], [83.84015635500003, 24.896533829000077], [83.83958965600004, 24.896325330000025], [83.83877544600006, 24.896547803000033], [83.83804873600008, 24.896911025000065], [83.83788745800007, 24.897166721000076], [83.83818488500003, 24.898433151000063], [83.83839776400004, 24.899292699000057], [83.83860221000003, 24.900467965000075], [83.83878041700007, 24.901336110000045], [83.83870927800007, 24.901935648000062], [83.83890916600006, 24.90394132800003], [83.83918282200005, 24.90468857600007], [83.83939495500005, 24.90517802200003], [83.83970520100007, 24.905754082000044], [83.83985249500006, 24.906296987000076], [83.83994100600006, 24.906785269000068], [83.83927790800004, 24.907207693000032], [83.83626851500009, 24.90851501800006], [83.83623230700005, 24.909087808000038], [83.83664242000003, 24.912625366000043], [83.83676580400004, 24.91396693300004], [83.83674380600007, 24.914589466000052], [83.83616193400007, 24.91483221200008], [83.83642092800005, 24.91599442300003], [83.83667578800004, 24.917089048000037], [83.83670008000007, 24.918429574000072], [83.83696147200004, 24.91938433300004], [83.83694251400004, 24.921044936000044], [83.83661863200007, 24.922102361000043], [83.83622056700005, 24.923154628000077], [83.83644434500007, 24.923928440000054], [83.83659315800008, 24.92433602400007], [83.83792437900007, 24.926113197000063], [83.83869796400006, 24.927731636000033], [83.83914774300007, 24.927794593000044], [83.83951471200004, 24.927739428000052], [83.84204341000003, 24.927384175000043], [83.84193123300008, 24.926800988000025], [83.84167674700007, 24.925670357000058], [83.84134092700003, 24.924295219000044], [83.84192641400006, 24.92373667700008], [83.84227724600004, 24.923351851000064], [83.84421244300006, 24.922945842000047]]]]}}, {"type": "Feature", "properties": {"OBJECTID": 5977, "GPCODE": "97257", "GPNAME_1": "DIHRIYA", "DIST_CEN_C": "32", "BLK_NAME": "CHENARI", "ST_NAME": "BIHAR", "ST_CODE_1": "10", "GPCODE2011": "99744", "REMARKS": "FINALIZED", "MAP_STATUS": "COMPLETED", "BLK_C_2001": "320012", "BLK_C_2011": "01468", "DIST_NAME": "ROHTAS", "code2011": 0.0, "Shape_Leng": 0.2857659909, "Shape_Area": 0.00189230963, "Area": 21.2054}, "geometry": {"type": "MultiPolygon", "coordinates": [[[[83.84907560500005, 24.98229636800005], [83.85016480600007, 24.98144918500003], [83.85015594500004, 24.98004550400003], [83.85069595100003, 24.979152506000048], [83.85123535100007, 24.978751462000048], [83.85204687400005, 24.97925099200006], [83.85210606900006, 24.980149598000025], [83.85217180900008, 24.98046161600007], [83.85242486000004, 24.980423354000038], [83.85276890600005, 24.980218997000065], [83.85313867600007, 24.979929183000024], [83.85321982200009, 24.978882958000042], [83.85329808300008, 24.978531619000023], [83.85346172900006, 24.978510595000046], [83.85389295200008, 24.978911759000027], [83.85415681900008, 24.97966795700006], [83.85424719200006, 24.98000275000004], [83.85446762100008, 24.980654680000043], [83.85467089500008, 24.981071748000033], [83.85505506800007, 24.981264948000046], [83.85537453000006, 24.98148002000005], [83.85572399000006, 24.981230581000034], [83.85600556400004, 24.98041639300004], [83.85629466800003, 24.97937206900008], [83.85657027100007, 24.979085793000024], [83.85696502000008, 24.978773613000044], [83.85781511100004, 24.978488192000043], [83.85807047200007, 24.97823787300007], [83.85825974700003, 24.977698108000027], [83.85875607700007, 24.976718868000034], [83.85996558800008, 24.97706420800006], [83.86110854800006, 24.977598327000067], [83.86144686400007, 24.977899388000026], [83.86179191000008, 24.97803792700006], [83.86214349700003, 24.978041205000068], [83.86200285900009, 24.977335906000064], [83.86163192800007, 24.97685406000005], [83.86188380900006, 24.97646826400006], [83.86279045900005, 24.975998420000053], [83.86323284600007, 24.975406829000065], [83.86404117800004, 24.975306044000035], [83.86399864200007, 24.976014172000077], [83.86445158500004, 24.976686246000043], [83.86496020100003, 24.976375157000064], [83.86539338500006, 24.975286966000056], [83.86495755400006, 24.973965141000065], [83.86478847200004, 24.97181538700005], [83.86567989200006, 24.97136791400004], [83.86680607100004, 24.970742077000068], [83.86716047500005, 24.970041337000055], [83.86766553900009, 24.97004601200007], [83.86851072300004, 24.970193751000068], [83.86855890600003, 24.969422488000077], [83.86872114100004, 24.96864772500004], [83.86782829100008, 24.968332562000057], [83.86802886000004, 24.967666520000023], [83.86892700200008, 24.96661879800007], [83.86897744300006, 24.966086819000054], [83.86882874300005, 24.965661217000047], [83.86821211000006, 24.96544338800004], [83.86732350300008, 24.96564722900007], [83.86643309800007, 24.965566736000028], [83.86628585000005, 24.965001210000025], [83.86650303600004, 24.96373966500005], [83.86657514800004, 24.963487559000043], [83.86630746000003, 24.963065392000033], [83.86600603700003, 24.96256616000005], [83.86566008700004, 24.96207098800005], [83.86566558400006, 24.961579180000058], [83.86590059500008, 24.96136922900007], [83.86640487100004, 24.961446125000066], [83.86709768800006, 24.961484136000024], [83.86749124800008, 24.960819893000064], [83.86757494800008, 24.959976736000044], [83.86712158300008, 24.959336174000043], [83.86662358800004, 24.959155613000064], [83.86553687200006, 24.959357588000046], [83.86519183400003, 24.959214453000072], [83.86485598600007, 24.95825912600003], [83.86470997500004, 24.957589873000074], [83.86437317400004, 24.956706675000078], [83.86487521100008, 24.956535356000074], [83.86541685300006, 24.956364334000057], [83.86588584400005, 24.95604833400006], [83.86585241900008, 24.95548843100005], [83.86559004900005, 24.954601439000044], [83.86494244000005, 24.954067397000074], [83.86483461100005, 24.953082513000027], [83.86491932400008, 24.952591393000034], [83.86125077700007, 24.95255721600006], [83.86046047800005, 24.95238292700003], [83.85980527500004, 24.95209244800003], [83.85954232200004, 24.95170192100005], [83.85962719000008, 24.950754952000068], [83.86027758800003, 24.947949461000064], [83.86096399700006, 24.94590244500006], [83.86059538000006, 24.943448500000045], [83.86087760100008, 24.941682049000065], [83.86172905200004, 24.94080543000007], [83.86277997800005, 24.941131132000066], [83.86396260600003, 24.94206732200007], [83.86713717800006, 24.94197491700004], [83.86943504500005, 24.94191950800007], [83.87102413100007, 24.941487488000064], [83.87102799900003, 24.94114002300006], [83.87081424100006, 24.940776921000065], [83.87042046700003, 24.940570279000042], [83.87038125400005, 24.940086953000048], [83.87055947200008, 24.93964634400004], [83.87012560700003, 24.939037622000058], [83.87071322900005, 24.937838055000043], [83.87231791800008, 24.936444839000046], [83.87294204300008, 24.93596772500007], [83.87290953600007, 24.93487983500006], [83.87292168000005, 24.933792297000025], [83.87323205900003, 24.93347472100004], [83.87428455900005, 24.933655999000052], [83.87477637900008, 24.93305575200003], [83.87456163000007, 24.93233168000006], [83.87483652300006, 24.931648281000037], [83.87431843100006, 24.930600930000026], [83.87445521200004, 24.92987568500007], [83.87326680400008, 24.92990529800005], [83.87243024200006, 24.929897536000055], [83.87080265500003, 24.929358973000035], [83.87036656000004, 24.928953276000072], [83.86998036300008, 24.92806514800003], [83.86945793300004, 24.927414989000056], [83.86792037500004, 24.926795956000035], [83.86756747100003, 24.926030023000067], [83.86922867400006, 24.926221420000047], [83.87019748600005, 24.925910011000042], [83.87139674300005, 24.926683741000033], [83.87289565900005, 24.92677436500003], [83.87461905800006, 24.926713564000067], [83.87555178300005, 24.926076744000056], [83.87555848800008, 24.921446467000067], [83.87539663600006, 24.919978251000032], [83.87532232700005, 24.91908857100003], [83.87493336500006, 24.91800187800004], [83.87472810000008, 24.916871714000024], [83.87380658800004, 24.91650214300006], [83.87226508100008, 24.91624425400005], [83.87042411500005, 24.916209163000076], [83.87102871500008, 24.917482844000062], [83.87066054700006, 24.91899132900005], [83.87088292000004, 24.919909533000066], [83.87053329500003, 24.92019060900003], [83.86991619100007, 24.92004048800004], [83.86911146200003, 24.91985702900007], [83.86887557500006, 24.920139120000044], [83.86921503400004, 24.92077415800003], [83.86978867200008, 24.921271361000038], [83.86954894700006, 24.921905432000074], [83.86765030100008, 24.92215410600005], [83.86339922100007, 24.922502768000072], [83.86004538300006, 24.922733305000065], [83.85667827400005, 24.922828265000078], [83.85570995000006, 24.923098964000076], [83.85342587700006, 24.923713935000023], [83.85052743600005, 24.924381759000028], [83.84739410300006, 24.92480811200005], [83.84726254800006, 24.922870836000072], [83.84700368900008, 24.92212821000004], [83.84421244300006, 24.922945842000047], [83.84227724600004, 24.923351851000064], [83.84192641400006, 24.92373667700008], [83.84134092700003, 24.924295219000044], [83.84167674700007, 24.925670357000058], [83.84193123300008, 24.926800988000025], [83.84204341000003, 24.927384175000043], [83.83951471200004, 24.927739428000052], [83.83914774300007, 24.927794593000044], [83.83869796400006, 24.927731636000033], [83.83358435800005, 24.929023466000046], [83.82996657600006, 24.930667872000072], [83.82897427500006, 24.930432771000028], [83.82777952600009, 24.929284164000023], [83.82591123500004, 24.929455869000037], [83.82304997400007, 24.929013290000057], [83.82001225800008, 24.928857832000062], [83.82013595300003, 24.930578437000065], [83.82194832600004, 24.930970401000025], [83.82301603100007, 24.931964443000027], [83.82436667200005, 24.933759938000037], [83.82610048900005, 24.93453017300004], [83.82886892200008, 24.935729958000024], [83.83230879800004, 24.93667434200006], [83.83262529100006, 24.937999689000037], [83.83349026600007, 24.938558494000063], [83.83472047700008, 24.93964871000003], [83.83545499200005, 24.940792939000062], [83.83544783900004, 24.94141574200006], [83.83470031200005, 24.941408602000024], [83.83413639900004, 24.94180035200003], [83.83411820800006, 24.94339323300005], [83.83383758600007, 24.946287875000053], [83.83219995900004, 24.947915030000047], [83.83302953500004, 24.948541204000037], [83.83376225000006, 24.94854816800006], [83.83352508900003, 24.948934016000067], [83.83332437100006, 24.94960001900006], [83.83335072400007, 24.95076016300004], [83.83384595200005, 24.951189081000052], [83.83387546900008, 24.952069375000065], [83.83414013400005, 24.952739763000068], [83.83378660700004, 24.95334564700005], [83.83468791900003, 24.956368886000064], [83.83549257400006, 24.958312551000063], [83.83547331900007, 24.95869593900005], [83.83529584000007, 24.95949756600004], [83.83505459800006, 24.960244416000023], [83.83448950500008, 24.961164234000023], [83.83359997000008, 24.96186878000003], [83.83288321900005, 24.96262917000007], [83.83322847600004, 24.963616281000043], [83.83336227400008, 24.96447050100005], [83.83278528600005, 24.964695145000064], [83.832096, 24.96521210000003], [83.83176327700005, 24.96616113700003], [83.83249949300006, 24.965865785000062], [83.83401880600007, 24.965519232000076], [83.83469297300007, 24.965453421000063], [83.83927907400005, 24.975822570000048], [83.83946687700006, 24.97758887400005], [83.83914572300006, 24.978393607000044], [83.83934445700004, 24.979207896000048], [83.83954325700006, 24.980017579000048], [83.84006314300007, 24.98045571600005], [83.84062887000005, 24.981223773000067], [83.84073560300004, 24.98185662700007], [83.84192309400004, 24.98152036600004], [83.84310516100004, 24.981657846000076], [83.84540356300005, 24.982058640000048], [83.84807460700006, 24.98278339500007], [83.84866506200007, 24.983127382000077], [83.84907560500005, 24.98229636800005]]]]}}, {"type": "Feature", "properties": {"OBJECTID": 5980, "GPCODE": "97254", "GPNAME_1": "BANAULI", "DIST_CEN_C": "32", "BLK_NAME": "CHENARI", "ST_NAME": "BIHAR", "ST_CODE_1": "10", "GPCODE2011": "99741", "REMARKS": "FINALIZED", "MAP_STATUS": "COMPLETED", "BLK_C_2001": "320012", "BLK_C_2011": "01468", "DIST_NAME": "ROHTAS", "code2011": 0.0, "Shape_Leng": 0.21536687953, "Shape_Area": 0.00122832833, "Area": 13.7668}, "geometry": {"type": "MultiPolygon", "coordinates": [[[[83.80597590200006, 24.958769364000034], [83.80793500100003, 24.958490510000047], [83.80948471200008, 24.958505544000047], [83.81102475800003, 24.959341778000066], [83.81152947300006, 24.95894504100005], [83.81361899600006, 24.958527434000075], [83.81461028200005, 24.95844670200006], [83.81686172900004, 24.95857667100006], [83.81921126400005, 24.958360136000067], [83.82084473800006, 24.95797865700007], [83.82084298900008, 24.955988457000046], [83.82256439900004, 24.956135867000057], [83.82365674800008, 24.95587097400005], [83.82409541300007, 24.955184733000067], [83.82511624000006, 24.95381808600007], [83.82549014200004, 24.952738561000047], [83.82717905200008, 24.952691492000042], [83.82836916600007, 24.95253584900007], [83.82965872800008, 24.952778323000075], [83.83058801700008, 24.953346785000065], [83.83105077900007, 24.953581377000035], [83.83180635800005, 24.95375106000006], [83.83281440100006, 24.953498874000047], [83.83378660700004, 24.95334564700005], [83.83414013400005, 24.952739763000068], [83.83387546900008, 24.952069375000065], [83.83384595200005, 24.951189081000052], [83.83335072400007, 24.95076016300004], [83.83332437100006, 24.94960001900006], [83.83352508900003, 24.948934016000067], [83.83376225000006, 24.94854816800006], [83.83302953500004, 24.948541204000037], [83.83219995900004, 24.947915030000047], [83.83383758600007, 24.946287875000053], [83.83411820800006, 24.94339323300005], [83.83413639900004, 24.94180035200003], [83.83470031200005, 24.941408602000024], [83.83544783900004, 24.94141574200006], [83.83545499200005, 24.940792939000062], [83.83472047700008, 24.93964871000003], [83.83349026600007, 24.938558494000063], [83.83262529100006, 24.937999689000037], [83.83230879800004, 24.93667434200006], [83.82886892200008, 24.935729958000024], [83.82610048900005, 24.93453017300004], [83.82436667200005, 24.933759938000037], [83.82301603100007, 24.931964443000027], [83.82194832600004, 24.930970401000025], [83.82013595300003, 24.930578437000065], [83.81896485500005, 24.93039567200003], [83.81769821500006, 24.930338385000027], [83.81674081200003, 24.93050524000006], [83.81619375400004, 24.92986362000005], [83.81550306100007, 24.929662885000027], [83.81512034300005, 24.929790120000064], [83.81484650100003, 24.930356148000044], [83.81477072600006, 24.930919496000058], [83.81388261400008, 24.931086925000045], [83.81323186800006, 24.931279248000067], [83.81234965500005, 24.93094131400005], [83.81088227600003, 24.931116664000058], [83.81022756100003, 24.93165192500004], [83.80920750100006, 24.931249410000078], [83.80839834400007, 24.931440185000042], [83.80666084200004, 24.93270053200007], [83.80527150000006, 24.931703251000044], [83.80393422800006, 24.930904973000054], [83.80315397500004, 24.931168221000064], [83.80091014300007, 24.929575940000063], [83.79789808500004, 24.929348047000076], [83.79504192100006, 24.929320154000038], [83.79430571400007, 24.92793652900008], [83.79363208900008, 24.925867591000042], [83.79295568200007, 24.923604499000078], [83.79180851300003, 24.920551585000055], [83.79339410000006, 24.918306167000026], [83.79383794400007, 24.917182258000025], [83.79434023300007, 24.91571599200006], [83.79420149600008, 24.914044819000026], [83.79466437600007, 24.911296506000042], [83.79136833400008, 24.912099153000042], [83.79060793300005, 24.912782250000078], [83.79069113400004, 24.914547524000056], [83.78901738400003, 24.915023070000075], [83.78594020300005, 24.91572850700004], [83.78259150700006, 24.916778686000043], [83.77961752800007, 24.917534604000025], [83.77735041000005, 24.91795454800007], [83.77413793500006, 24.918369562000066], [83.77434107000005, 24.92084910500006], [83.77603066600005, 24.92279733600003], [83.77893929800007, 24.925059969000074], [83.78105654900008, 24.925599754000075], [83.77884384600003, 24.929761387000042], [83.77932688700008, 24.930361878000042], [83.78232630200006, 24.931659608000075], [83.78288561700003, 24.932928637000032], [83.78369439900007, 24.933604572000036], [83.78539309100006, 24.934812625000063], [83.78578397300004, 24.936084572000027], [83.78567786800005, 24.937942875000033], [83.78607822400005, 24.938840334000076], [83.78697414300007, 24.938849137000034], [83.78787193200003, 24.938709071000062], [83.78886171100004, 24.937897434000035], [83.79001750100008, 24.93686622900003], [83.79205640400005, 24.93651617300003], [83.79278791300004, 24.937042286000064], [83.79260958300006, 24.938308665000022], [83.79266870100008, 24.940019626000037], [83.79331687200005, 24.94047272800003], [83.79429354000007, 24.940780180000047], [83.79575183900005, 24.941390097000067], [83.79607249900005, 24.94191219700008], [83.79695361400007, 24.943188922000047], [83.79693789400005, 24.944529123000052], [83.79651542300007, 24.94593751900004], [83.79601395800006, 24.94689836300006], [83.79608414900008, 24.948090489000037], [83.79679682400007, 24.94980776400007], [83.79817426900007, 24.950565883000024], [83.80126902900008, 24.95097058500005], [83.80330613900009, 24.95121146300005], [83.80501389300008, 24.951674810000043], [83.80573353300008, 24.95280102600003], [83.80564225000006, 24.95383808500003], [83.80465060600005, 24.954798777000065], [83.80307987100008, 24.955320543000028], [83.80086799600008, 24.956043623000028], [83.79994931500005, 24.95796620400006], [83.80091065900007, 24.959166981000067], [83.80196904400003, 24.959700757000064], [83.80359798700005, 24.959716571000058], [83.80482518800005, 24.959353919000023], [83.80597590200006, 24.958769364000034]]]]}}, {"type": "Feature", "properties": {"OBJECTID": 5988, "GPCODE": "97258", "GPNAME_1": "FULWARIYA", "DIST_CEN_C": "32", "BLK_NAME": "CHENARI", "ST_NAME": "BIHAR", "ST_CODE_1": "10", "GPCODE2011": "99745", "REMARKS": "FINALIZED", "MAP_STATUS": "COMPLETED", "BLK_C_2001": "320012", "BLK_C_2011": "01468", "DIST_NAME": "ROHTAS", "code2011": 0.0, "Shape_Leng": 0.1342712132, "Shape_Area": 0.00086025427, "Area": 9.63866}, "geometry": {"type": "MultiPolygon", "coordinates": [[[[83.83700756900004, 24.98825215200003], [83.83621578800006, 24.983862590000058], [83.83569409400008, 24.98054062600005], [83.83664147400003, 24.980418762000056], [83.83751044200005, 24.980648132000056], [83.83851193500004, 24.981420295000078], [83.83934233100007, 24.982001381000032], [83.83993015200008, 24.98213329200007], [83.84073560300004, 24.98185662700007], [83.84062887000005, 24.981223773000067], [83.84006314300007, 24.98045571600005], [83.83954325700006, 24.980017579000048], [83.83934445700004, 24.979207896000048], [83.83914572300006, 24.978393607000044], [83.83946687700006, 24.97758887400005], [83.83927907400005, 24.975822570000048], [83.83469297300007, 24.965453421000063], [83.83401880600007, 24.965519232000076], [83.83249949300006, 24.965865785000062], [83.83176327700005, 24.96616113700003], [83.832096, 24.96521210000003], [83.83278528600005, 24.964695145000064], [83.83336227400008, 24.96447050100005], [83.83322847600004, 24.963616281000043], [83.83288321900005, 24.96262917000007], [83.83359997000008, 24.96186878000003], [83.83448950500008, 24.961164234000023], [83.83505459800006, 24.960244416000023], [83.83529584000007, 24.95949756600004], [83.83547331900007, 24.95869593900005], [83.83549257400006, 24.958312551000063], [83.83468791900003, 24.956368886000064], [83.83378660700004, 24.95334564700005], [83.83281440100006, 24.953498874000047], [83.83180635800005, 24.95375106000006], [83.83105077900007, 24.953581377000035], [83.83058801700008, 24.953346785000065], [83.82965872800008, 24.952778323000075], [83.82836916600007, 24.95253584900007], [83.82717905200008, 24.952691492000042], [83.82549014200004, 24.952738561000047], [83.82511624000006, 24.95381808600007], [83.82409541300007, 24.955184733000067], [83.82365674800008, 24.95587097400005], [83.82256439900004, 24.956135867000057], [83.82084298900008, 24.955988457000046], [83.82084473800006, 24.95797865700007], [83.81921126400005, 24.958360136000067], [83.81686172900004, 24.95857667100006], [83.81461028200005, 24.95844670200006], [83.81361899600006, 24.958527434000075], [83.81152947300006, 24.95894504100005], [83.81102475800003, 24.959341778000066], [83.81174613200005, 24.96076131800004], [83.81156717000005, 24.96209992400003], [83.81089713500006, 24.96350598400005], [83.80964567000007, 24.965948840000067], [83.80921561700006, 24.967582880000066], [83.80873947400005, 24.969771508000065], [83.80826829900008, 24.97196470600005], [83.80848272700007, 24.974809941000046], [83.80812301800006, 24.977631563000045], [83.80850997800007, 24.979273455000055], [83.80899245600006, 24.97994606000003], [83.81027835300006, 24.981371023000065], [83.81213776600003, 24.982878249000066], [83.81319042900003, 24.984350564000067], [83.81390687200008, 24.985350373000074], [83.81495801800008, 24.986100555000064], [83.81634985000005, 24.98566727000008], [83.81847102500006, 24.985538726000073], [83.81919514000003, 24.986737050000045], [83.81982475900008, 24.98882359600003], [83.82603352900009, 24.988143018000073], [83.82756214500006, 24.99001693300005], [83.82877349900008, 24.99106648700007], [83.83064358800004, 24.991680061000068], [83.83177661900004, 24.99220985100004], [83.83248680500003, 24.991616416000056], [83.83412696100004, 24.99111750900005], [83.83506820200006, 24.990232947000038], [83.83572877000006, 24.98964348900006], [83.83671414000008, 24.989228670000045], [83.83700756900004, 24.98825215200003]]]]}}, {"type": "Feature", "properties": {"OBJECTID": 6003, "GPCODE": "97255", "GPNAME_1": "CHENARI", "DIST_CEN_C": "32", "BLK_NAME": "CHENARI", "ST_NAME": "BIHAR", "ST_CODE_1": "10", "GPCODE2011": "99742", "REMARKS": "FINALIZED", "MAP_STATUS": "COMPLETED", "BLK_C_2001": "320012", "BLK_C_2011": "01468", "DIST_NAME": "ROHTAS", "code2011": 0.0, "Shape_Leng": 0.08083708112, "Shape_Area": 0.00026738453, "Area": 2.99741}, "geometry": {"type": "MultiPolygon", "coordinates": [[[[83.81205847100006, 24.907805194000048], [83.81197003100004, 24.906897237000067], [83.80960217900008, 24.907063951000055], [83.80783512100004, 24.907073999000033], [83.80738946900004, 24.906663482000056], [83.80712793200007, 24.906169042000045], [83.80620770300004, 24.905284619000042], [83.80567546300006, 24.905089975000067], [83.80438900700005, 24.905050385000038], [83.80231915400003, 24.90513864600007], [83.80202567900005, 24.904833404000044], [83.80148512500006, 24.903235108000047], [83.80084794600003, 24.90142829800004], [83.80029041100005, 24.900005848000035], [83.79972568500006, 24.90004994700007], [83.79834517400008, 24.900447202000066], [83.79777122800004, 24.900852335000025], [83.79773802200003, 24.90114987000004], [83.79864765900004, 24.902932219000036], [83.79864418100004, 24.903234549000047], [83.79916155300003, 24.90384887500005], [83.79945002400007, 24.905002499000034], [83.79956181600005, 24.905603777000067], [83.79982544600006, 24.906757090000042], [83.79949237200003, 24.906884725000054], [83.79906821800006, 24.90718303500006], [83.79924813600007, 24.90745552800007], [83.79927627600006, 24.90801088300003], [83.79947496200003, 24.908378413000037], [83.79956321700007, 24.908866628000055], [83.79957276500005, 24.909322521000036], [83.79969941000007, 24.909923984000045], [83.79961402900005, 24.910451188000025], [83.79849331700007, 24.91062978000008], [83.79774466300006, 24.91073530500006], [83.79629103400003, 24.91102354900005], [83.79466437600007, 24.911296506000042], [83.79420149600008, 24.914044819000026], [83.79434023300007, 24.91571599200006], [83.79383794400007, 24.917182258000025], [83.79339410000006, 24.918306167000026], [83.79180851300003, 24.920551585000055], [83.79295568200007, 24.923604499000078], [83.79484901200004, 24.92298667400007], [83.79863149000005, 24.922089398000026], [83.80251899200005, 24.92109827200005], [83.80417906400004, 24.920947354000077], [83.80901806500003, 24.91942824700004], [83.81013631300004, 24.91904188500007], [83.81184967200005, 24.918986265000058], [83.81301040800008, 24.918776293000064], [83.81303576600004, 24.918293662000053], [83.81329173000006, 24.91713629800006], [83.81274549300008, 24.916002785000046], [83.81219602600004, 24.915158147000056], [83.81228654300008, 24.914179655000055], [83.81221011900004, 24.91393528900005], [83.81204828700004, 24.913378631000057], [83.81189580800003, 24.91244297000003], [83.81179753400005, 24.91153037600003], [83.81183422800007, 24.91049731100003], [83.81162301100005, 24.909926583000072], [83.81171069800007, 24.909196345000055], [83.81163912300008, 24.90853680300006], [83.81184896900004, 24.908367333000058], [83.81205847100006, 24.907805194000048]]]]}}, {"type": "Feature", "properties": {"OBJECTID": 6015, "GPCODE": "97261", "GPNAME_1": "KHURMABAD", "DIST_CEN_C": "32", "BLK_NAME": "CHENARI", "ST_NAME": "BIHAR", "ST_CODE_1": "10", "GPCODE2011": "99748", "REMARKS": "FINALIZED", "MAP_STATUS": "COMPLETED", "BLK_C_2001": "320012", "BLK_C_2011": "01468", "DIST_NAME": "ROHTAS", "code2011": 0.0, "Shape_Leng": 0.24725054367, "Shape_Area": 0.00139567905, "Area": 15.6334}, "geometry": {"type": "MultiPolygon", "coordinates": [[[[83.83775430800006, 25.031682441000044], [83.83865440100004, 25.031393139000045], [83.83954979800006, 25.031514471000037], [83.84104733500004, 25.03226876800005], [83.84202618600006, 25.03202077000003], [83.84340664800004, 25.03218279400005], [83.84402066900003, 25.031777910000073], [83.84528557300007, 25.031645440000034], [83.84613766100006, 25.031653532000064], [83.84679455500003, 25.031397948000063], [83.84781098800005, 25.03133536300004], [83.84854254500004, 25.031486690000065], [83.85003717500007, 25.032502684000065], [83.85191111800003, 25.03065193300006], [83.85290255700005, 25.029289294000023], [83.85054048000006, 25.029190388000075], [83.85042361500007, 25.02900424300003], [83.84923323700008, 25.02606415400004], [83.84838440600004, 25.023592106000024], [83.84872230900004, 25.022629576000043], [83.84917492800008, 25.02203806500006], [83.84910825800006, 25.020927306000033], [83.84936746300008, 25.019481062000068], [83.84966768400005, 25.018337684000073], [83.84933921800007, 25.016723459000048], [83.84898405400008, 25.01571823000006], [83.85017729900005, 25.01446586800006], [83.85132115100004, 25.014070408000066], [83.85327067900005, 25.012956005000035], [83.85425732400006, 25.01200408400007], [83.85313528000006, 25.010472632000074], [83.85213263700007, 25.00890172900006], [83.85141370400004, 25.008082651000052], [83.85088755100008, 25.007743797000046], [83.85074462000006, 25.00592373300003], [83.85024445900007, 25.00328800500006], [83.85006371800006, 25.001318683000022], [83.85118405000009, 25.00123441900007], [83.85212684300006, 25.00065204300006], [83.85257505300007, 25.000435148000065], [83.85315944300004, 25.000011894000068], [83.85498408500007, 24.999844018000033], [83.85764050000006, 24.999277710000058], [83.85911599200006, 24.998880815000064], [83.86309724600005, 24.998101115000054], [83.86517027500008, 24.997867789000054], [83.86609869600005, 24.997673287000055], [83.86662335100004, 24.997700776000045], [83.86741027800008, 24.998642223000047], [83.86855712700003, 25.000344632000065], [83.86910147300006, 25.001341618000026], [83.87208754500006, 25.00117683700006], [83.87300708300006, 25.00044969000004], [83.87381106000004, 24.999861449000036], [83.87551916200005, 24.999489142000073], [83.87578660600008, 24.99859801300005], [83.87537754000004, 24.99707784000003], [83.87499993400007, 24.996298195000065], [83.87467306500008, 24.995401612000023], [83.87431142900004, 24.99318239400003], [83.87347517800004, 24.99177560000004], [83.87296523200007, 24.991310618000057], [83.87238398100004, 24.990578612000036], [83.87235667900006, 24.989472659000057], [83.87276204400007, 24.986877], [83.87270716000006, 24.98601899600004], [83.87235640800003, 24.98372315100005], [83.87061692800006, 24.98204630300006], [83.86873399500007, 24.981685855000023], [83.86634397700004, 24.98195249200006], [83.86503876200004, 24.98263528700005], [83.86491369400005, 24.98230017000003], [83.86488073600003, 24.98081964200003], [83.86419456000004, 24.979743695000025], [83.86353048100005, 24.978898061000052], [83.86301348800004, 24.97818927700007], [83.86275465200004, 24.976977400000067], [83.86279045900005, 24.975998420000053], [83.86188380900006, 24.97646826400006], [83.86163192800007, 24.97685406000005], [83.86200285900009, 24.977335906000064], [83.86214349700003, 24.978041205000068], [83.86179191000008, 24.97803792700006], [83.86144686400007, 24.977899388000026], [83.86110854800006, 24.977598327000067], [83.85996558800008, 24.97706420800006], [83.85875607700007, 24.976718868000034], [83.85825974700003, 24.977698108000027], [83.85807047200007, 24.97823787300007], [83.85781511100004, 24.978488192000043], [83.85696502000008, 24.978773613000044], [83.85657027100007, 24.979085793000024], [83.85629466800003, 24.97937206900008], [83.85600556400004, 24.98041639300004], [83.85572399000006, 24.981230581000034], [83.85537453000006, 24.98148002000005], [83.85505506800007, 24.981264948000046], [83.85467089500008, 24.981071748000033], [83.85446762100008, 24.980654680000043], [83.85424719200006, 24.98000275000004], [83.85415681900008, 24.97966795700006], [83.85389295200008, 24.978911759000027], [83.85346172900006, 24.978510595000046], [83.85329808300008, 24.978531619000023], [83.85321982200009, 24.978882958000042], [83.85313867600007, 24.979929183000024], [83.85276890600005, 24.980218997000065], [83.85242486000004, 24.980423354000038], [83.85217180900008, 24.98046161600007], [83.85210606900006, 24.980149598000025], [83.85204687400005, 24.97925099200006], [83.85123535100007, 24.978751462000048], [83.85069595100003, 24.979152506000048], [83.85015594500004, 24.98004550400003], [83.85016480600007, 24.98144918500003], [83.84907560500005, 24.98229636800005], [83.84866506200007, 24.983127382000077], [83.84807460700006, 24.98278339500007], [83.84540356300005, 24.982058640000048], [83.84310516100004, 24.981657846000076], [83.84192309400004, 24.98152036600004], [83.84073560300004, 24.98185662700007], [83.83993015200008, 24.98213329200007], [83.83934233100007, 24.982001381000032], [83.83851193500004, 24.981420295000078], [83.83751044200005, 24.980648132000056], [83.83664147400003, 24.980418762000056], [83.83569409400008, 24.98054062600005], [83.83621578800006, 24.983862590000058], [83.83700756900004, 24.98825215200003], [83.83671414000008, 24.989228670000045], [83.83572877000006, 24.98964348900006], [83.83506820200006, 24.990232947000038], [83.83412696100004, 24.99111750900005], [83.83248680500003, 24.991616416000056], [83.83177661900004, 24.99220985100004], [83.83185404000005, 24.992806323000025], [83.83232038900007, 24.994895669000073], [83.83270855500007, 24.996460849000073], [83.83335122900007, 24.997432745000026], [83.83473121600008, 24.998041572000034], [83.83675295400008, 24.999694488000046], [83.83772018900004, 25.000448257000073], [83.83937045800008, 25.001240219000067], [83.83926194600008, 25.00206498600005], [83.83816477300007, 25.00271796900006], [83.83756262800006, 25.00285801600006], [83.83695291700008, 25.00299982100006], [83.83617937400004, 25.003506902000026], [83.83613054700004, 25.004314253000075], [83.83607863000003, 25.005383395000024], [83.83526329600005, 25.006075130000056], [83.83299550600003, 25.00686135500007], [83.83150097300006, 25.00673430100005], [83.83073794100005, 25.00632537000007], [83.83025152800008, 25.00683515700007], [83.83004639700005, 25.00701824500004], [83.82991538500005, 25.007639769000036], [83.82990182200007, 25.00881744800006], [83.83031794200008, 25.009683446000054], [83.83079738000004, 25.010202453000034], [83.83123268400004, 25.010684981000054], [83.83074096900003, 25.011230906000037], [83.82985357000007, 25.011294607000025], [83.82961207800008, 25.011184006000065], [83.82937058700008, 25.011073405000047], [83.82809262000006, 25.01021272400004], [83.82796879200004, 25.010211554000023], [83.82727549000003, 25.011053364000077], [83.82669679500003, 25.012261789000036], [83.82612025300006, 25.013285154000073], [83.82655260900003, 25.01402496700007], [83.82771978400007, 25.014622823000025], [83.82815181400008, 25.01539864600005], [83.82822630400005, 25.015805486000033], [83.82777109400007, 25.01705118900003], [83.82726185800004, 25.017393837000043], [83.82550449000007, 25.01899710500004], [83.82549948200005, 25.019439340000076], [83.82634766500007, 25.019776940000042], [83.82739069600007, 25.019971949000023], [83.82791151200007, 25.020342415000073], [83.82831260200004, 25.020788501000027], [83.82850064800004, 25.021674881000024], [83.82736446800004, 25.02225065300007], [83.82602884600004, 25.02293734400007], [83.82525121700007, 25.023773858000027], [83.82560305600003, 25.024625615000048], [83.82639996000006, 25.025553933000026], [83.82703458100008, 25.02636774700005], [83.82748214600008, 25.02622314300004], [83.82837606500004, 25.025608892000037], [83.82894960500005, 25.02484270700006], [83.82979763600008, 25.024774095000055], [83.82997771700008, 25.025051053000027], [83.82995612500008, 25.026928231000056], [83.83010985200008, 25.02777816300005], [83.83050652400004, 25.028183557000034], [83.83099156400004, 25.028224306000027], [83.83126634700005, 25.028890286000035], [83.83109225100003, 25.029809300000068], [83.83076427700007, 25.030320588000052], [83.83035592500005, 25.030939491000026], [83.83054770800004, 25.031496378000043], [83.83121679200008, 25.03319510400007], [83.83087748200006, 25.033969997000042], [83.83079960100008, 25.03414785700005], [83.83111895100006, 25.03480978400006], [83.83188319800007, 25.034708798000054], [83.83346324800004, 25.034317680000072], [83.83510842000004, 25.033430792000047], [83.83656679400008, 25.032415730000025], [83.83775430800006, 25.031682441000044]]]]}}]}