{"type": "FeatureCollection", "features": [{"type": "Feature", "properties": {"OBJECTID": 8377, "GPCODE": "97566", "GPNAME_1": "SHAHPUR", "DIST_CEN_C": "12", "BLK_NAME": "SATAR KATAIYA", "ST_NAME": "BIHAR", "ST_CODE_1": "10", "GPCODE2011": "100053", "REMARKS": "FINALIZED", "MAP_STATUS": "COMPLETED", "BLK_C_2001": "120002", "BLK_C_2011": "01172", "DIST_NAME": "SAHARSA", "code2011": 0.0, "Shape_Leng": 0.17941436557, "Shape_Area": 0.00099212761, "Area": 11.0044}, "geometry": {"type": "MultiPolygon", "coordinates": [[[[86.57629742800003, 25.922739920000026], [86.57696631000005, 25.92260021900006], [86.57738541700007, 25.92279896200006], [86.57773952100007, 25.92343094900008], [86.57828342100004, 25.923850811000023], [86.58004022600005, 25.92371145900006], [86.58389328800007, 25.923599787000057], [86.58511115000005, 25.923442179000062], [86.58703273500004, 25.923162870000056], [86.59107038100007, 25.922996881000074], [86.59162445200008, 25.92282550400006], [86.59220850800006, 25.922491670000056], [86.59291242100005, 25.921711020000032], [86.59378609400005, 25.920483648000072], [86.59486414500003, 25.920474830000046], [86.59699061700007, 25.91885947000003], [86.59720537100009, 25.918029153000077], [86.59710072100006, 25.91735209500007], [86.59668660700004, 25.91665250400007], [86.59646237400005, 25.915469967000035], [86.59539930300008, 25.91551942600006], [86.59501512800006, 25.91519886800006], [86.59468597100005, 25.914422540000032], [86.59405223600004, 25.91418771000008], [86.59341348400005, 25.913948391000076], [86.59297951500008, 25.913275789000068], [86.59268038900007, 25.912066206000077], [86.59243141800005, 25.90991335500007], [86.59225194800007, 25.909313052000073], [86.59427804800004, 25.908934346000024], [86.59506662300004, 25.90885783500005], [86.59747196400008, 25.908447546000048], [86.59791614900007, 25.908271679000052], [86.59875986500003, 25.906926806000058], [86.59974311700006, 25.905843857000036], [86.60018235500007, 25.90517597300004], [86.60191909500008, 25.904169746000036], [86.60224850900005, 25.90417889500003], [86.60335609600008, 25.90520358300006], [86.60381521800008, 25.905388677000076], [86.60444891300006, 25.90537975500007], [86.60551189700004, 25.905239969000036], [86.60615566400008, 25.904928593000022], [86.60571667700003, 25.904075611000053], [86.60488855700004, 25.90204450600004], [86.60380621400003, 25.899187477000055], [86.60273360600007, 25.89811764700005], [86.60094766200007, 25.896045810000032], [86.60048844000005, 25.896614336000027], [86.59977485900004, 25.89703402300006], [86.59783851300006, 25.89851402100004], [86.59647116100007, 25.899091455000075], [86.59504381500005, 25.899867421000067], [86.59314747200006, 25.900625198000057], [86.59194468800007, 25.901347043000044], [86.59038750400003, 25.90225391100006], [86.58835140400004, 25.90293934300007], [86.58676947300006, 25.903051787000038], [86.58649017400006, 25.902780928000027], [86.58637557900005, 25.902144530000044], [86.58631121100007, 25.90052423900005], [86.58649641000005, 25.898759648000066], [86.58667158800006, 25.897143955000047], [86.58693129000005, 25.896300041000075], [86.58667693200005, 25.896087813000065], [86.58546430000007, 25.89645762600003], [86.58440645500008, 25.89638060900006], [86.58338318300008, 25.897332617000075], [86.58269456900007, 25.89762571700004], [86.58270423900007, 25.89849231000005], [86.58245949900004, 25.89906091900008], [86.58198029500005, 25.899484978000032], [86.57973985100006, 25.899398611000038], [86.57893147400006, 25.899538239000037], [86.57734946500005, 25.900101822000067], [86.57607206500006, 25.899997643000063], [86.57523887700006, 25.899690478000025], [86.57441028400007, 25.900245324000025], [86.57348215000007, 25.90033978300005], [86.57220471900007, 25.90029415300006], [86.57065280400008, 25.90035229700004], [86.56929032800008, 25.900997162000067], [86.56779356100003, 25.90048207500007], [86.56716000200004, 25.90000341700005], [86.56538820900005, 25.900787923000053], [86.56466966200009, 25.900742515000047], [86.56347721700007, 25.90040355600007], [86.56309788100003, 25.90061094600003], [86.56114684200008, 25.900650729000063], [86.56046841100004, 25.900253331000044], [86.55881151400007, 25.90071294300003], [86.55802305300006, 25.90080280600006], [86.55748412100007, 25.900752929000078], [86.55631550800007, 25.90242680700004], [86.55486783200007, 25.903477631000044], [86.55291169200007, 25.90345866900003], [86.55217776800004, 25.90417132600004], [86.55083974400009, 25.90520874400005], [86.54840848600008, 25.906836756000075], [86.54633779600005, 25.906506146000027], [86.54602807000003, 25.906939262000037], [86.54590770100003, 25.907896046000076], [86.54596660800007, 25.90942601300003], [86.54605992900008, 25.911601477000033], [86.54656833800004, 25.91265330500005], [86.54662400600006, 25.913067082000055], [86.54676204700007, 25.914093139000045], [86.54727497600004, 25.91579494000007], [86.54736941900006, 25.916381728000033], [86.54775826000008, 25.916928042000052], [86.54794387200008, 25.916966332000072], [86.54870139400003, 25.91712259700006], [86.54940017600006, 25.916992073000074], [86.55067322000008, 25.91635180800006], [86.55218071500008, 25.915680114000054], [86.55423634200008, 25.91654770400004], [86.55635684200007, 25.91747396900007], [86.55743952500006, 25.91808369900008], [86.55816812800003, 25.91802989200005], [86.55940122500004, 25.917470816000048], [86.55983530300006, 25.91766059300005], [86.56028424500005, 25.91794507000003], [86.56119790700006, 25.917286611000065], [86.56248070600003, 25.91701637600005], [86.56381847800003, 25.916299312000035], [86.56521110200003, 25.915798950000067], [86.56877938700006, 25.915895098000078], [86.56867391300005, 25.917271639000035], [86.56888272800006, 25.91911764300005], [86.56983525400005, 25.920598291000033], [86.57049368500003, 25.921266544000048], [86.57132195200006, 25.921862600000054], [86.57248954900007, 25.92248135400007], [86.57336763900008, 25.923045822000063], [86.57358188800004, 25.923930471000062], [86.57362642700008, 25.92490536300005], [86.57419544000004, 25.924896536000062], [86.57492433000004, 25.92431911500006], [86.57592299600003, 25.923127931000067], [86.57629742800003, 25.922739920000026]]]]}}, {"type": "Feature", "properties": {"OBJECTID": 8391, "GPCODE": "97554", "GPNAME_1": "BARA", "DIST_CEN_C": "12", "BLK_NAME": "SATAR KATAIYA", "ST_NAME": "BIHAR", "ST_CODE_1": "10", "GPCODE2011": "100041", "REMARKS": "FINALIZED", "MAP_STATUS": "COMPLETED", "BLK_C_2001": "120002", "BLK_C_2011": "01172", "DIST_NAME": "SAHARSA", "code2011": 0.0, "Shape_Leng": 0.13794367403, "Shape_Area": 0.00086998974, "Area": 9.64865}, "geometry": {"type": "MultiPolygon", "coordinates": [[[[86.51291913900008, 25.933393527000078], [86.51410997400006, 25.933343715000035], [86.51558294300008, 25.93414527300007], [86.51618387800005, 25.934228071000064], [86.51705603700003, 25.93494690500006], [86.51839347900005, 25.935430461000067], [86.51970335500005, 25.935375624000073], [86.52087213800007, 25.93489499900005], [86.52153693500009, 25.93389602800005], [86.52241779900004, 25.932456410000043], [86.52319617800003, 25.93134481900006], [86.52710123800006, 25.92837562400007], [86.53322676200008, 25.92682393900003], [86.53602916900007, 25.925627242000076], [86.54000013700005, 25.923949814000025], [86.54099599900007, 25.92360244100007], [86.54140686900007, 25.923459121000064], [86.54207698100004, 25.92256776800008], [86.54249448600007, 25.922550225000066], [86.54126054000005, 25.919235849000074], [86.54054598600004, 25.918766387000062], [86.54034887100005, 25.918961915000068], [86.53965992600007, 25.91899085400007], [86.53948061500006, 25.91818676300005], [86.53941980700006, 25.917003014000045], [86.53942780200003, 25.91581637400003], [86.53906587900008, 25.91476403200005], [86.53902898700005, 25.91477171300005], [86.53772643700006, 25.914951217000066], [86.53462312600004, 25.915019053000037], [86.52625387100005, 25.91438068100007], [86.52576709100003, 25.914343537000036], [86.51788457400005, 25.913741849000075], [86.51414594300007, 25.913784574000033], [86.51373294200005, 25.912286006000045], [86.51115989100003, 25.91187344100007], [86.50820053600006, 25.911959129000024], [86.50718451500006, 25.913863760000027], [86.50128891000008, 25.913930822000054], [86.50191103500003, 25.915167764000046], [86.50204011700004, 25.915808754000068], [86.50195416700006, 25.916873742000064], [86.50151929700007, 25.917563978000032], [86.50002677600008, 25.917837949000045], [86.49911334400008, 25.917986144000054], [86.49877881100008, 25.91816635300006], [86.49760715500008, 25.919181783000056], [86.49743253500003, 25.919661650000023], [86.49729820800007, 25.920172716000025], [86.49686842400007, 25.920596087000035], [86.49655622100005, 25.920810911000046], [86.49636908700006, 25.92105164700007], [86.49632737100006, 25.92134986600007], [86.49623749200003, 25.921819932000062], [86.49618187800007, 25.922231004000025], [86.49593171800007, 25.922643838000056], [86.49557513000008, 25.922913102000052], [86.49529841200007, 25.923172770000065], [86.49503018900003, 25.92377065200003], [86.49471574700004, 25.92424722800007], [86.49418937000007, 25.92497376700004], [86.49380739500003, 25.925671993000037], [86.49354419000008, 25.927231025000026], [86.49345221700008, 25.92750260200006], [86.49315596700006, 25.927802960000065], [86.49275589500007, 25.92821255100006], [86.49245972100005, 25.928526443000067], [86.49234032900006, 25.929037338000057], [86.49231598700004, 25.929574571000046], [86.49244496700004, 25.929970574000038], [86.49257449400005, 25.930425223000043], [86.49254898400005, 25.93084967900006], [86.49245697600008, 25.931116651000025], [86.49220969500004, 25.93133087500007], [86.49175722500007, 25.931506220000074], [86.49130098600006, 25.93178542800007], [86.49168207900004, 25.93242742500007], [86.49271618300008, 25.934882479000066], [86.49336110900003, 25.93545452500007], [86.49411580000003, 25.936025675000053], [86.49431194500005, 25.937106965000055], [86.49451036300007, 25.93841841300008], [86.49499812700003, 25.938752661000024], [86.49578923700005, 25.93898500800003], [86.49597896600005, 25.939457219000076], [86.49625233300009, 25.94029876700006], [86.49723713100008, 25.94137782000007], [86.49763883000008, 25.941632114000072], [86.49789812500006, 25.941511326000068], [86.49833888300003, 25.941321533000064], [86.49910053000008, 25.940876673000048], [86.50134121600007, 25.94035146400006], [86.50418273900004, 25.93990916200005], [86.50891659100006, 25.936798], [86.50982514800006, 25.93589674800006], [86.51047902200008, 25.934682490000057], [86.51186395400003, 25.93376139700007], [86.51291913900008, 25.933393527000078]]]]}}, {"type": "Feature", "properties": {"OBJECTID": 8393, "GPCODE": "97556", "GPNAME_1": "BHELWA", "DIST_CEN_C": "12", "BLK_NAME": "SATAR KATAIYA", "ST_NAME": "BIHAR", "ST_CODE_1": "10", "GPCODE2011": "100043", "REMARKS": "FINALIZED", "MAP_STATUS": "COMPLETED", "BLK_C_2001": "120002", "BLK_C_2011": "01172", "DIST_NAME": "SAHARSA", "code2011": 0.0, "Shape_Leng": 0.20395664225, "Shape_Area": 0.00114079976, "Area": 12.6527}, "geometry": {"type": "MultiPolygon", "coordinates": [[[[86.57849152500006, 25.94075747000005], [86.57959017100006, 25.939543728000046], [86.58062380200005, 25.938515090000067], [86.58111807200004, 25.938361756000063], [86.58200649700007, 25.938569664000056], [86.58363872100006, 25.938385073000063], [86.58526607500005, 25.938065094000024], [86.58596995700003, 25.938047207000068], [86.58690858200004, 25.93728025000007], [86.58723812600005, 25.936788379000063], [86.58732324400006, 25.93601211400005], [86.58716408700008, 25.934048822000022], [86.58780814500005, 25.933737524000037], [86.58789802700005, 25.933435210000027], [86.58812273800004, 25.933173520000025], [86.58910596400005, 25.933349745000044], [86.59002441900003, 25.93332745600003], [86.59064335100004, 25.933007170000053], [86.59208601600005, 25.93263736600005], [86.59342384400009, 25.93192908000003], [86.59518089700003, 25.931369828000072], [86.59647869100007, 25.931198617000064], [86.59825551800003, 25.931374965000032], [86.60034691700008, 25.93102327500003], [86.60094591000006, 25.931091093000077], [86.60241346500004, 25.93009842400005], [86.60156528300007, 25.928130542000076], [86.60134594500005, 25.926898351000034], [86.60151085200005, 25.92583776300006], [86.60119655600005, 25.924948637000057], [86.60218988600008, 25.924574203000077], [86.60350748300004, 25.92437583900005], [86.60520463400007, 25.92341475300003], [86.60610799100004, 25.92291838400007], [86.60777498500005, 25.922683882000058], [86.61045016100007, 25.922499127000037], [86.61248150800003, 25.922269183000026], [86.61428316100006, 25.921799915000065], [86.61524643000007, 25.92140281500008], [86.61800147700006, 25.921032901000046], [86.61871507900008, 25.92110968700007], [86.62177449700005, 25.92076222700007], [86.62345641000007, 25.92079384500005], [86.62520821300006, 25.92085710200007], [86.62692502900006, 25.921398666000073], [86.62838230700004, 25.921642335000058], [86.62899124200004, 25.921664858000042], [86.62865684200005, 25.92064943300005], [86.62862181800006, 25.920049190000043], [86.62875656400007, 25.91947598300004], [86.62918575200007, 25.91920966600003], [86.62932051400009, 25.918785486000047], [86.63005913700005, 25.918081376000032], [86.63025368400008, 25.917232890000037], [86.63029353000007, 25.91612259200008], [86.63041324300008, 25.91409159500006], [86.63080737100006, 25.912886624000066], [86.63118664000007, 25.911699600000077], [86.63152084400008, 25.910345568000025], [86.63141597300006, 25.909456500000033], [86.63126631900008, 25.908996165000076], [86.63119632900003, 25.907001329000025], [86.63122615200007, 25.90559320400007], [86.63171503100006, 25.903945844000077], [86.63196447400009, 25.902239783000027], [86.63170981100006, 25.899405502000036], [86.63152509200006, 25.89848482700006], [86.63101100700004, 25.896841959000028], [86.63022260400004, 25.89709024700005], [86.62916486600005, 25.89753255900007], [86.62665996900006, 25.89783052300004], [86.62496338200003, 25.897753799000043], [86.62354630900006, 25.89733403400004], [86.62309223500006, 25.89737914500006], [86.62250345000007, 25.897130910000044], [86.62152043300006, 25.897099318000073], [86.61879594100003, 25.897541526000055], [86.61677506600006, 25.898096546000033], [86.61456948200004, 25.89840332800003], [86.61244384900004, 25.898443806000046], [86.60989897600007, 25.898967110000058], [86.60785300500004, 25.899269228000037], [86.60380621400003, 25.899187477000055], [86.60488855700004, 25.90204450600004], [86.60571667700003, 25.904075611000053], [86.60615566400008, 25.904928593000022], [86.60551189700004, 25.905239969000036], [86.60444891300006, 25.90537975500007], [86.60381521800008, 25.905388677000076], [86.60335609600008, 25.90520358300006], [86.60224850900005, 25.90417889500003], [86.60191909500008, 25.904169746000036], [86.60018235500007, 25.90517597300004], [86.59974311700006, 25.905843857000036], [86.59875986500003, 25.906926806000058], [86.59791614900007, 25.908271679000052], [86.59747196400008, 25.908447546000048], [86.59506662300004, 25.90885783500005], [86.59427804800004, 25.908934346000024], [86.59225194800007, 25.909313052000073], [86.59243141800005, 25.90991335500007], [86.59268038900007, 25.912066206000077], [86.59297951500008, 25.913275789000068], [86.59341348400005, 25.913948391000076], [86.59405223600004, 25.91418771000008], [86.59468597100005, 25.914422540000032], [86.59501512800006, 25.91519886800006], [86.59539930300008, 25.91551942600006], [86.59646237400005, 25.915469967000035], [86.59668660700004, 25.91665250400007], [86.59710072100006, 25.91735209500007], [86.59720537100009, 25.918029153000077], [86.59699061700007, 25.91885947000003], [86.59486414500003, 25.920474830000046], [86.59378609400005, 25.920483648000072], [86.59291242100005, 25.921711020000032], [86.59220850800006, 25.922491670000056], [86.59162445200008, 25.92282550400006], [86.59107038100007, 25.922996881000074], [86.58703273500004, 25.923162870000056], [86.58511115000005, 25.923442179000062], [86.58389328800007, 25.923599787000057], [86.58004022600005, 25.92371145900006], [86.57828342100004, 25.923850811000023], [86.57773952100007, 25.92343094900008], [86.57738541700007, 25.92279896200006], [86.57696631000005, 25.92260021900006], [86.57629742800003, 25.922739920000026], [86.57592299600003, 25.923127931000067], [86.57492433000004, 25.92431911500006], [86.57419544000004, 25.924896536000062], [86.57362642700008, 25.92490536300005], [86.57235341100005, 25.925514219000036], [86.57197402100007, 25.925879586000065], [86.57180402200004, 25.926538494000056], [86.57250704600006, 25.928122862000066], [86.57274599000004, 25.929499502000056], [86.57320472900005, 25.930700153000032], [86.57439688400007, 25.932542015000024], [86.57435663100006, 25.933227958000032], [86.57392200700008, 25.934107943000072], [86.57331752000005, 25.935466209000026], [86.57279289000007, 25.93668460200007], [86.57270277400005, 25.93714487400007], [86.57278738200006, 25.937749649000068], [86.57299685400005, 25.93811530200003], [86.57317125900005, 25.93880590400005], [86.57366517600008, 25.939347717000032], [86.57393473500008, 25.939428994000025], [86.57494339800007, 25.93848609300005], [86.57519805200008, 25.938468156000056], [86.57529772700008, 25.93875702200006], [86.57527239300003, 25.939573949000078], [86.57502265800008, 25.940097328000036], [86.57502751800007, 25.940467472000023], [86.57522207000005, 25.94062099200005], [86.57596588600006, 25.94044516500003], [86.57636526200008, 25.94049949500004], [86.57676438200008, 25.940982579000035], [86.57681904500004, 25.941569275000063], [86.57710850600006, 25.94179504600004], [86.57750272300007, 25.941917011000044], [86.57799209500007, 25.941479386000026], [86.57849152500006, 25.94075747000005]]]]}}, {"type": "Feature", "properties": {"OBJECTID": 8394, "GPCODE": "97560", "GPNAME_1": "OKAHI", "DIST_CEN_C": "12", "BLK_NAME": "SATAR KATAIYA", "ST_NAME": "BIHAR", "ST_CODE_1": "10", "GPCODE2011": "100047", "REMARKS": "FINALIZED", "MAP_STATUS": "COMPLETED", "BLK_C_2001": "120002", "BLK_C_2011": "01172", "DIST_NAME": "SAHARSA", "code2011": 0.0, "Shape_Leng": 0.11428537433, "Shape_Area": 0.00062080055, "Area": 6.8846}, "geometry": {"type": "MultiPolygon", "coordinates": [[[[86.55392906400004, 25.946781642000076], [86.55622565800007, 25.946326878000036], [86.55773795400006, 25.94664358800003], [86.55824232300006, 25.94632338300005], [86.55887645800004, 25.94604836700006], [86.55995526000004, 25.94502433300005], [86.56093416700008, 25.944009288000075], [86.56132861600008, 25.943946249000078], [86.56191732900004, 25.944564876000072], [86.56392418900003, 25.944087296000077], [86.56558669500004, 25.943591511000022], [86.56711949600003, 25.94304609900007], [86.56760882100008, 25.942626563000033], [86.56780872900003, 25.94223848100006], [86.56751458000008, 25.941520782000055], [86.56722528100005, 25.941064821000055], [86.56712088600005, 25.940026703000058], [86.56862832400003, 25.94007245100005], [86.56958169100005, 25.94032107000004], [86.57020057300008, 25.940357406000032], [86.57222259600007, 25.93943743600005], [86.57317125900005, 25.93880590400005], [86.57299685400005, 25.93811530200003], [86.57278738200006, 25.937749649000068], [86.57270277400005, 25.93714487400007], [86.57279289000007, 25.93668460200007], [86.57331752000005, 25.935466209000026], [86.57392200700008, 25.934107943000072], [86.57435663100006, 25.933227958000032], [86.57439688400007, 25.932542015000024], [86.57320472900005, 25.930700153000032], [86.57274599000004, 25.929499502000056], [86.57250704600006, 25.928122862000066], [86.57180402200004, 25.926538494000056], [86.57197402100007, 25.925879586000065], [86.57235341100005, 25.925514219000036], [86.57362642700008, 25.92490536300005], [86.57358188800004, 25.923930471000062], [86.57336763900008, 25.923045822000063], [86.57248954900007, 25.92248135400007], [86.57132195200006, 25.921862600000054], [86.57049368500003, 25.921266544000048], [86.56983525400005, 25.920598291000033], [86.56888272800006, 25.91911764300005], [86.56867391300005, 25.917271639000035], [86.56877938700006, 25.915895098000078], [86.56521110200003, 25.915798950000067], [86.56381847800003, 25.916299312000035], [86.56248070600003, 25.91701637600005], [86.56119790700006, 25.917286611000065], [86.56028424500005, 25.91794507000003], [86.55983530300006, 25.91766059300005], [86.55940122500004, 25.917470816000048], [86.55816812800003, 25.91802989200005], [86.55743952500006, 25.91808369900008], [86.55635684200007, 25.91747396900007], [86.55423634200008, 25.91654770400004], [86.55218071500008, 25.915680114000054], [86.55067322000008, 25.91635180800006], [86.54940017600006, 25.916992073000074], [86.54870139400003, 25.91712259700006], [86.54794387200008, 25.916966332000072], [86.54941483700009, 25.92145282000007], [86.55023590200005, 25.923956943000064], [86.55196955900004, 25.92694535800007], [86.55335370900008, 25.928621795000026], [86.55381462500009, 25.929144335000046], [86.55381465900007, 25.929144375000078], [86.55299610100008, 25.92927890200008], [86.55162854900004, 25.92923310900005], [86.55091962100005, 25.929444841000077], [86.55037028600003, 25.929927458000066], [86.54923665700005, 25.930955863000065], [86.54865763400005, 25.931077478000077], [86.54798871700007, 25.931239619000053], [86.54756418300008, 25.931631965000065], [86.54742905900008, 25.932205096000075], [86.54807722300006, 25.933225427000025], [86.54813543600005, 25.935834111000077], [86.54778058000005, 25.93663273900006], [86.54779456100005, 25.93825298400003], [86.54809867400007, 25.938695462000055], [86.54872244100005, 25.93900725000003], [86.54945586600007, 25.93950406400006], [86.54989476600008, 25.940221876000066], [86.55008359700008, 25.941521797000064], [86.55033232100004, 25.942916550000064], [86.55058626600004, 25.943977209000025], [86.55156405500009, 25.94493005000004], [86.55194804800004, 25.94553052300006], [86.55197731300007, 25.946708483000066], [86.55233140000007, 25.947218663000058], [86.55260087000005, 25.947349624000026], [86.55311019800007, 25.947101712000062], [86.55392906400004, 25.946781642000076]]]]}}, {"type": "Feature", "properties": {"OBJECTID": 8396, "GPCODE": "97559", "GPNAME_1": "BISHANPUR", "DIST_CEN_C": "12", "BLK_NAME": "SATAR KATAIYA", "ST_NAME": "BIHAR", "ST_CODE_1": "10", "GPCODE2011": "100046", "REMARKS": "FINALIZED", "MAP_STATUS": "COMPLETED", "BLK_C_2001": "120002", "BLK_C_2011": "01172", "DIST_NAME": "SAHARSA", "code2011": 0.0, "Shape_Leng": 0.1448945482, "Shape_Area": 0.00098622319, "Area": 10.9366}, "geometry": {"type": "MultiPolygon", "coordinates": [[[[86.59885566500003, 25.94942339800008], [86.59966944600006, 25.948845868000035], [86.60038841900007, 25.94816901100006], [86.60153679300004, 25.947266530000036], [86.60239040800008, 25.94708619900007], [86.60366841200005, 25.946571858000027], [86.60426757500005, 25.946080033000044], [86.60561543800009, 25.945353544000056], [86.60706316400007, 25.944979157000034], [86.60902497700005, 25.944672464000064], [86.60992849100006, 25.944478552000078], [86.61088697300005, 25.944189736000055], [86.61216990900004, 25.94395971600005], [86.61321320700006, 25.94329186400006], [86.61456107300006, 25.94224937200005], [86.61510021100008, 25.942240378000065], [86.61573408700008, 25.942529278000052], [86.61629322400006, 25.942926534000037], [86.61704693500008, 25.943621586000063], [86.61825482900008, 25.94452879200003], [86.61903358600006, 25.944921494000027], [86.61983718900007, 25.945074953000073], [86.62003697300008, 25.944379910000066], [86.62042633800007, 25.943581110000025], [86.62203370000003, 25.942669452000075], [86.62271750000008, 25.942705583000077], [86.62349130100006, 25.943102804000034], [86.62483402000004, 25.94415887100007], [86.62592729300007, 25.94468690900004], [86.62666110800006, 25.94475009200005], [86.62757454600006, 25.94449283800003], [86.62868270600006, 25.94386098800004], [86.63253622300005, 25.941364983000028], [86.63353940800005, 25.940602170000034], [86.63392874100003, 25.940060582000058], [86.63436294200005, 25.939117343000078], [86.63487689600004, 25.93766402800003], [86.635356, 25.936531158000037], [86.63635402100005, 25.934121041000026], [86.63708257700006, 25.932496182000023], [86.63773631000004, 25.930952613000045], [86.63847971500007, 25.92916979200004], [86.63904361400006, 25.927820335000035], [86.63825994900003, 25.927418728000077], [86.63760103400006, 25.92688174500006], [86.63646292900006, 25.92573996400006], [86.63515027500006, 25.924760628000058], [86.63405714000004, 25.923546728000076], [86.63376259100005, 25.922833660000038], [86.63321854400004, 25.92234619900006], [86.63281924200004, 25.922165733000043], [86.63019402000003, 25.921926622000058], [86.62899124200004, 25.921664858000042], [86.62838230700004, 25.921642335000058], [86.62692502900006, 25.921398666000073], [86.62520821300006, 25.92085710200007], [86.62345641000007, 25.92079384500005], [86.62177449700005, 25.92076222700007], [86.61871507900008, 25.92110968700007], [86.61800147700006, 25.921032901000046], [86.61524643000007, 25.92140281500008], [86.61428316100006, 25.921799915000065], [86.61248150800003, 25.922269183000026], [86.61045016100007, 25.922499127000037], [86.60777498500005, 25.922683882000058], [86.60610799100004, 25.92291838400007], [86.60520463400007, 25.92341475300003], [86.60350748300004, 25.92437583900005], [86.60218988600008, 25.924574203000077], [86.60119655600005, 25.924948637000057], [86.60151085200005, 25.92583776300006], [86.60134594500005, 25.926898351000034], [86.60156528300007, 25.928130542000076], [86.60241346500004, 25.93009842400005], [86.60094591000006, 25.931091093000077], [86.60034691700008, 25.93102327500003], [86.59825551800003, 25.931374965000032], [86.59647869100007, 25.931198617000064], [86.59518089700003, 25.931369828000072], [86.59342384400009, 25.93192908000003], [86.59208601600005, 25.93263736600005], [86.59064335100004, 25.933007170000053], [86.59002441900003, 25.93332745600003], [86.58910596400005, 25.933349745000044], [86.58812273800004, 25.933173520000025], [86.58789802700005, 25.933435210000027], [86.58780814500005, 25.933737524000037], [86.58716408700008, 25.934048822000022], [86.58732324400006, 25.93601211400005], [86.58723812600005, 25.936788379000063], [86.58690858200004, 25.93728025000007], [86.58596995700003, 25.938047207000068], [86.58526607500005, 25.938065094000024], [86.58568485700005, 25.939640327000063], [86.58567471000003, 25.94010965800004], [86.58498566400004, 25.940849657000058], [86.58483073800005, 25.941454424000028], [86.58507517500004, 25.941910319000044], [86.58571884100007, 25.94255131400007], [86.58611318300007, 25.942628214000024], [86.58640750900008, 25.943233047000035], [86.58718121500004, 25.94330992500005], [86.58775014600008, 25.94389227100004], [86.58781482000006, 25.94432104200007], [86.58826394200008, 25.944808614000067], [86.58835356800006, 25.94585121500006], [86.58880267600006, 25.946320641000057], [86.58893730000005, 25.946911963000048], [86.59000547000005, 25.94711526100008], [86.59122846800005, 25.947160765000035], [86.59247130300008, 25.947661978000042], [86.59278584300006, 25.94771617500004], [86.59414866000003, 25.947355453000057], [86.59468774400005, 25.94759475400008], [86.59560604500007, 25.948678151000024], [86.59577069600005, 25.948894806000055], [86.59614507000003, 25.948876831000064], [86.59669412400007, 25.949432079000076], [86.59725319600005, 25.94970294500007], [86.59799692800004, 25.94966250300007], [86.59885566500003, 25.94942339800008]]]]}}, {"type": "Feature", "properties": {"OBJECTID": 8401, "GPCODE": "97557", "GPNAME_1": "BIHRA", "DIST_CEN_C": "12", "BLK_NAME": "SATAR KATAIYA", "ST_NAME": "BIHAR", "ST_CODE_1": "10", "GPCODE2011": "100044", "REMARKS": "FINALIZED", "MAP_STATUS": "COMPLETED", "BLK_C_2001": "120002", "BLK_C_2011": "01172", "DIST_NAME": "SAHARSA", "code2011": 0.0, "Shape_Leng": 0.22138245333, "Shape_Area": 0.00107968867, "Area": 11.9715}, "geometry": {"type": "MultiPolygon", "coordinates": [[[[86.52612593000003, 25.962778198000024], [86.52686990000007, 25.962711012000057], [86.52825273300004, 25.96281570900004], [86.52884199400006, 25.962608558000056], [86.52911698100007, 25.962211496000066], [86.52939204600005, 25.96156179700006], [86.53070103400006, 25.960416348000024], [86.53123529800007, 25.960281305000024], [86.53172950200008, 25.96030865700004], [86.53268790300007, 25.960584553000047], [86.53409028700008, 25.961248905000048], [86.53457456000007, 25.961267271000054], [86.53560309300008, 25.961087345000067], [86.53633213100005, 25.960947888000078], [86.53703589900005, 25.961201103000064], [86.53794407100008, 25.961883123000064], [86.53879726000008, 25.962520015000052], [86.53973566800005, 25.96278685300007], [86.54082410700005, 25.962801014000036], [86.54186787500004, 25.962287092000054], [86.54275674000007, 25.962093552000056], [86.54352055800007, 25.96205787300005], [86.54454886100007, 25.962279644000034], [86.54530752400007, 25.962623077000046], [86.54607610600004, 25.963020614000072], [86.54716953200005, 25.962985063000076], [86.54865289300005, 25.962047185000074], [86.54980156300007, 25.961420394000072], [86.55211879300003, 25.96027076000007], [86.55311251600006, 25.96000496100004], [86.55464030500008, 25.95983420300007], [86.55588361400004, 25.95946918800007], [86.55705692200007, 25.95937503400006], [86.55878434500005, 25.95921332900008], [86.55997273100007, 25.95896111500008], [86.56078668500004, 25.958501134000073], [86.56242948200008, 25.958014424000055], [86.56382745000008, 25.957829978000063], [86.56550018200005, 25.957122124000023], [86.56684345000008, 25.956499799000028], [86.56835167700007, 25.955408242000033], [86.56915560600004, 25.954871454000056], [86.57019926400005, 25.954258050000078], [86.57078360200006, 25.95377988300004], [86.57256112700009, 25.952986199000065], [86.57383931100009, 25.952643693000027], [86.57612107000006, 25.95167413300004], [86.57835301700004, 25.950524], [86.57976095800007, 25.94996486100007], [86.58123371500005, 25.949753147000024], [86.58176300900004, 25.949310971000045], [86.58307615500007, 25.948810424000044], [86.58509812500006, 25.947845165000047], [86.58604673800005, 25.947561068000027], [86.58893730000005, 25.946911963000048], [86.58880267600006, 25.946320641000057], [86.58835356800006, 25.94585121500006], [86.58826394200008, 25.944808614000067], [86.58781482000006, 25.94432104200007], [86.58775014600008, 25.94389227100004], [86.58718121500004, 25.94330992500005], [86.58640750900008, 25.943233047000035], [86.58611318300007, 25.942628214000024], [86.58571884100007, 25.94255131400007], [86.58507517500004, 25.941910319000044], [86.58483073800005, 25.941454424000028], [86.58498566400004, 25.940849657000058], [86.58567471000003, 25.94010965800004], [86.58568485700005, 25.939640327000063], [86.58526607500005, 25.938065094000024], [86.58363872100006, 25.938385073000063], [86.58200649700007, 25.938569664000056], [86.58111807200004, 25.938361756000063], [86.58062380200005, 25.938515090000067], [86.57959017100006, 25.939543728000046], [86.57849152500006, 25.94075747000005], [86.57799209500007, 25.941479386000026], [86.57750272300007, 25.941917011000044], [86.57710850600006, 25.94179504600004], [86.57681904500004, 25.941569275000063], [86.57676438200008, 25.940982579000035], [86.57636526200008, 25.94049949500004], [86.57596588600006, 25.94044516500003], [86.57522207000005, 25.94062099200005], [86.57502751800007, 25.940467472000023], [86.57502265800008, 25.940097328000036], [86.57527239300003, 25.939573949000078], [86.57529772700008, 25.93875702200006], [86.57519805200008, 25.938468156000056], [86.57494339800007, 25.93848609300005], [86.57393473500008, 25.939428994000025], [86.57366517600008, 25.939347717000032], [86.57317125900005, 25.93880590400005], [86.57222259600007, 25.93943743600005], [86.57020057300008, 25.940357406000032], [86.56958169100005, 25.94032107000004], [86.56862832400003, 25.94007245100005], [86.56712088600005, 25.940026703000058], [86.56722528100005, 25.941064821000055], [86.56751458000008, 25.941520782000055], [86.56780872900003, 25.94223848100006], [86.56760882100008, 25.942626563000033], [86.56711949600003, 25.94304609900007], [86.56558669500004, 25.943591511000022], [86.56392418900003, 25.944087296000077], [86.56191732900004, 25.944564876000072], [86.56132861600008, 25.943946249000078], [86.56093416700008, 25.944009288000075], [86.55995526000004, 25.94502433300005], [86.55887645800004, 25.94604836700006], [86.55824232300006, 25.94632338300005], [86.55773795400006, 25.94664358800003], [86.55622565800007, 25.946326878000036], [86.55392906400004, 25.946781642000076], [86.55311019800007, 25.947101712000062], [86.55260087000005, 25.947349624000026], [86.55233140000007, 25.947218663000058], [86.55197731300007, 25.946708483000066], [86.55089455100006, 25.949157267000032], [86.54997351100008, 25.95022608100004], [86.54821817800007, 25.95088852300006], [86.54641761200008, 25.950669953000045], [86.54536813900006, 25.949242454000057], [86.54369208800006, 25.948282814000038], [86.53896211800009, 25.94804004200006], [86.53002701600008, 25.948267772000065], [86.52009527000007, 25.94809527500007], [86.51425171800008, 25.948339814000065], [86.51297574000006, 25.94883471600008], [86.51189204100007, 25.949910094000074], [86.51067612900005, 25.951579609000078], [86.50987201100008, 25.951760309000065], [86.49873525500004, 25.952811309000026], [86.49873525600003, 25.952811534000034], [86.49878160700007, 25.962435167000024], [86.49923674700005, 25.96233366200005], [86.49998538300008, 25.96216670000007], [86.50149377200006, 25.96159489100006], [86.50317155800008, 25.96129386000007], [86.50492939100008, 25.96081696300007], [86.50607815300003, 25.960375621000026], [86.50690205400008, 25.960249931000078], [86.50823496400005, 25.96026], [86.51006683900005, 25.960631603000024], [86.51110521100009, 25.96072717800007], [86.51232843300005, 25.960692063000067], [86.51335722700009, 25.960264063000068], [86.51514963200003, 25.96018872800005], [86.51817487300008, 25.960371518000045], [86.51895868700007, 25.960408157000074], [86.51962729300004, 25.960832939000056], [86.52020599200006, 25.961383975000047], [86.52080424700006, 25.96236826200004], [86.52138281500004, 25.96299601900006], [86.52194182200003, 25.96312273700005], [86.52299010100006, 25.963367206000044], [86.52366357200003, 25.96394990400006], [86.52492243100005, 25.963174551000066], [86.52612593000003, 25.962778198000024]]]]}}, {"type": "Feature", "properties": {"OBJECTID": 8402, "GPCODE": "97562", "GPNAME_1": "PATORI", "DIST_CEN_C": "12", "BLK_NAME": "SATAR KATAIYA", "ST_NAME": "BIHAR", "ST_CODE_1": "10", "GPCODE2011": "100049", "REMARKS": "FINALIZED", "MAP_STATUS": "COMPLETED", "BLK_C_2001": "120002", "BLK_C_2011": "01172", "DIST_NAME": "SAHARSA", "code2011": 0.0, "Shape_Leng": 0.12029250429, "Shape_Area": 0.0005003767, "Area": 5.54749}, "geometry": {"type": "MultiPolygon", "coordinates": [[[[86.54386300900006, 25.972452012000076], [86.54499647700004, 25.972321776000058], [86.54712836300007, 25.972557576000042], [86.54783772600007, 25.972052518000055], [86.54807272200009, 25.971443339000075], [86.54784874400008, 25.970342017000064], [86.54801369500007, 25.97012997400003], [86.54853822100006, 25.969724046000067], [86.54924713200006, 25.969828247000066], [86.55074944100005, 25.970731675000025], [86.55255605600007, 25.972009756000034], [86.55383375100007, 25.972899485000028], [86.55442772300006, 25.97325634300006], [86.55551135900004, 25.97298159500008], [86.55644052700006, 25.972196745000076], [86.55728451400006, 25.97184512700005], [86.55797875900004, 25.97138956300006], [86.55864288700008, 25.971403414000065], [86.55944681400007, 25.971178176000024], [86.56014616600004, 25.970519487000047], [86.56039688100003, 25.968619559000047], [86.56064675400006, 25.968132225000033], [86.56161055400008, 25.967879977000052], [86.56382258300005, 25.967434119000075], [86.56610930900007, 25.96721386100006], [86.56782677400008, 25.96730935200003], [86.56897022600003, 25.967111191000072], [86.56930495700004, 25.966673589000038], [86.56953011900004, 25.965680720000023], [86.56914146300005, 25.963988160000042], [86.56853241700009, 25.963789301000077], [86.56807374700008, 25.962516451000056], [86.56816917800006, 25.96123469300005], [86.56872378000008, 25.960201402000052], [86.56894391700007, 25.959267226000065], [86.56893923400008, 25.95862187800003], [86.56861988000009, 25.958283239000025], [86.56732704100006, 25.957975889000068], [86.56603919500003, 25.957542045000025], [86.56550018200005, 25.957122124000023], [86.56382745000008, 25.957829978000063], [86.56242948200008, 25.958014424000055], [86.56078668500004, 25.958501134000073], [86.55997273100007, 25.95896111500008], [86.55878434500005, 25.95921332900008], [86.55705692200007, 25.95937503400006], [86.55588361400004, 25.95946918800007], [86.55464030500008, 25.95983420300007], [86.55311251600006, 25.96000496100004], [86.55211879300003, 25.96027076000007], [86.54980156300007, 25.961420394000072], [86.54865289300005, 25.962047185000074], [86.54716953200005, 25.962985063000076], [86.54607610600004, 25.963020614000072], [86.54530752400007, 25.962623077000046], [86.54454886100007, 25.962279644000034], [86.54352055800007, 25.96205787300005], [86.54275674000007, 25.962093552000056], [86.54186787500004, 25.962287092000054], [86.54082410700005, 25.962801014000036], [86.53973566800005, 25.96278685300007], [86.53879726000008, 25.962520015000052], [86.53794407100008, 25.961883123000064], [86.53703589900005, 25.961201103000064], [86.53633213100005, 25.960947888000078], [86.53560309300008, 25.961087345000067], [86.53457456000007, 25.961267271000054], [86.53409028700008, 25.961248905000048], [86.53268790300007, 25.960584553000047], [86.53172950200008, 25.96030865700004], [86.53123529800007, 25.960281305000024], [86.53070103400006, 25.960416348000024], [86.52939204600005, 25.96156179700006], [86.52911698100007, 25.962211496000066], [86.52884199400006, 25.962608558000056], [86.52825273300004, 25.96281570900004], [86.52686990000007, 25.962711012000057], [86.52612593000003, 25.962778198000024], [86.52492243100005, 25.963174551000066], [86.52366357200003, 25.96394990400006], [86.52366272300009, 25.964960836000046], [86.52403641700005, 25.965904412000043], [86.52450504400008, 25.966676479000057], [86.52481368800005, 25.96772823200007], [86.52518735100006, 25.96873047300005], [86.52522672400005, 25.969402906000028], [86.52499129600005, 25.970391151000058], [86.52492060000003, 25.971325338000042], [86.52537421000005, 25.97216968300006], [86.52607779400006, 25.97275230500003], [86.52778468400004, 25.97355684000007], [86.52876331400006, 25.973611610000034], [86.52940628400006, 25.974952531000042], [86.53005440300007, 25.97628430000003], [86.53042848300004, 25.976749380000058], [86.53075828900006, 25.97647887000005], [86.53181710900003, 25.976150071000063], [86.53298610900003, 25.975365536000027], [86.53400477700006, 25.975235315000077], [86.53511350800005, 25.974906516000033], [86.53621734200004, 25.974397214000078], [86.53703129900003, 25.974284865000072], [86.53872890600007, 25.974272373000076], [86.54067153700004, 25.973831163000057], [86.54210989300003, 25.97324532600004], [86.54386300900006, 25.972452012000076]]]]}}, {"type": "Feature", "properties": {"OBJECTID": 8404, "GPCODE": "97565", "GPNAME_1": "SATTAR", "DIST_CEN_C": "12", "BLK_NAME": "SATAR KATAIYA", "ST_NAME": "BIHAR", "ST_CODE_1": "10", "GPCODE2011": "100052", "REMARKS": "FINALIZED", "MAP_STATUS": "COMPLETED", "BLK_C_2001": "120002", "BLK_C_2011": "01172", "DIST_NAME": "SAHARSA", "code2011": 0.0, "Shape_Leng": 0.18725179394, "Shape_Area": 0.00130833019, "Area": 14.5057}, "geometry": {"type": "MultiPolygon", "coordinates": [[[[86.61940682200003, 25.974501099000065], [86.62009091100003, 25.973828596000033], [86.62282715600008, 25.97144120100006], [86.62477938100005, 25.970150432000025], [86.62618233500007, 25.969428348000065], [86.62752040000004, 25.96922525100007], [86.62886347300008, 25.969157506000045], [86.63051609700005, 25.96955910300005], [86.63255327400003, 25.969960702000037], [86.63421590300004, 25.97005540600003], [86.63480502100003, 25.969847763000075], [86.63550397200004, 25.969450495000046], [86.63590339800004, 25.969116549000034], [86.63632267000008, 25.968358264000074], [86.63632761100007, 25.966968206000047], [86.63579310900008, 25.96514945200005], [86.63519383000005, 25.96318627100004], [86.63478440100005, 25.962319697000055], [86.63387559200004, 25.96122755300007], [86.63256756500004, 25.96023023400005], [86.63122947800008, 25.95927351100005], [86.62971671300005, 25.958379937000075], [86.62877809700007, 25.95768038400007], [86.62720053600003, 25.956795898000053], [86.62621702000007, 25.955920295000055], [86.62505378000003, 25.95486425300004], [86.62395546200008, 25.953573430000063], [86.62319172700006, 25.952783604000047], [86.62239292300006, 25.951619201000028], [86.62164420300007, 25.950698492000072], [86.62120489900008, 25.949660454000025], [86.62060587900004, 25.948802914000055], [86.62013169700003, 25.948053722000054], [86.61991208800004, 25.94727289100007], [86.61980727100007, 25.946532771000022], [86.61983718900007, 25.945074953000073], [86.61903358600006, 25.944921494000027], [86.61825482900008, 25.94452879200003], [86.61704693500008, 25.943621586000063], [86.61629322400006, 25.942926534000037], [86.61573408700008, 25.942529278000052], [86.61510021100008, 25.942240378000065], [86.61456107300006, 25.94224937200005], [86.61321320700006, 25.94329186400006], [86.61216990900004, 25.94395971600005], [86.61088697300005, 25.944189736000055], [86.60992849100006, 25.944478552000078], [86.60902497700005, 25.944672464000064], [86.60706316400007, 25.944979157000034], [86.60561543800009, 25.945353544000056], [86.60426757500005, 25.946080033000044], [86.60366841200005, 25.946571858000027], [86.60239040800008, 25.94708619900007], [86.60153679300004, 25.947266530000036], [86.60038841900007, 25.94816901100006], [86.59966944600006, 25.948845868000035], [86.59885566500003, 25.94942339800008], [86.59799692800004, 25.94966250300007], [86.59725319600005, 25.94970294500007], [86.59669412400007, 25.949432079000076], [86.59614507000003, 25.948876831000064], [86.59577069600005, 25.948894806000055], [86.59560604500007, 25.948678151000024], [86.59468774400005, 25.94759475400008], [86.59414866000003, 25.947355453000057], [86.59278584300006, 25.94771617500004], [86.59247130300008, 25.947661978000042], [86.59122846800005, 25.947160765000035], [86.59000547000005, 25.94711526100008], [86.58893730000005, 25.946911963000048], [86.58604673800005, 25.947561068000027], [86.58509812500006, 25.947845165000047], [86.58307615500007, 25.948810424000044], [86.58176300900004, 25.949310971000045], [86.58123371500005, 25.949753147000024], [86.57976095800007, 25.94996486100007], [86.57835301700004, 25.950524], [86.57612107000006, 25.95167413300004], [86.57383931100009, 25.952643693000027], [86.57256112700009, 25.952986199000065], [86.57078360200006, 25.95377988300004], [86.57019926400005, 25.954258050000078], [86.56915560600004, 25.954871454000056], [86.56835167700007, 25.955408242000033], [86.56684345000008, 25.956499799000028], [86.56550018200005, 25.957122124000023], [86.56603919500003, 25.957542045000025], [86.56732704100006, 25.957975889000068], [86.56861988000009, 25.958283239000025], [86.56893923400008, 25.95862187800003], [86.56894391700007, 25.959267226000065], [86.56872378000008, 25.960201402000052], [86.56816917800006, 25.96123469300005], [86.56807374700008, 25.962516451000056], [86.56853241700009, 25.963789301000077], [86.56914146300005, 25.963988160000042], [86.56960584800004, 25.96371759500005], [86.57015529500006, 25.963225803000057], [86.57106396900008, 25.963248717000056], [86.57173795100005, 25.963154244000066], [86.57213743900007, 25.96296478800008], [86.57247196800006, 25.963032643000076], [86.57376940300009, 25.96439607900004], [86.57398881700004, 25.96518598800003], [86.57463255900007, 25.965813479000076], [86.57518666500005, 25.966021357000045], [86.57562092300003, 25.966350894000072], [86.57550565700006, 25.96729870100006], [86.57577010500006, 25.96769591700007], [86.57645902000007, 25.96793530900004], [86.57670342800003, 25.968616952000048], [86.57713230300004, 25.969835588000024], [86.57732696200009, 25.97013812000006], [86.57766636900004, 25.970372831000077], [86.57828552400008, 25.97017896600005], [86.57891985200007, 25.969610524000075], [86.57945408000006, 25.969533987000034], [86.57965921600004, 25.968419268000048], [86.57997401400007, 25.96786873800005], [86.58066813300007, 25.967548555000064], [86.58169166000005, 25.96736835300004], [86.58275518700003, 25.967228728000066], [86.58357916700004, 25.96694918600008], [86.58419817900005, 25.96695387500006], [86.58493194100004, 25.967518205000033], [86.58578571400005, 25.967523001000075], [86.58697902700004, 25.96744205500005], [86.58861670300007, 25.967410828000027], [86.58953034800004, 25.967271234000066], [86.59053894400006, 25.967284927000037], [86.59107325000008, 25.96679314800008], [86.59166244800008, 25.96678875300006], [86.59281073000005, 25.967046303000075], [86.59315518700004, 25.96688841100007], [86.59359466000006, 25.96650941000007], [86.59448831600008, 25.966690136000068], [86.59628577700005, 25.96641968700004], [86.59663536200009, 25.966130876000022], [86.59745917400005, 25.96621231000006], [86.59833282300008, 25.96640205800003], [86.59897193300003, 25.96612234400004], [86.59925166400006, 25.96573425300005], [86.59944143000007, 25.965088860000037], [86.59967617500007, 25.964890379000053], [86.60010557000004, 25.964926525000067], [86.60044493500004, 25.965210926000054], [86.60039481600006, 25.966501661000052], [86.60041966300008, 25.96715159100006], [86.60073913000008, 25.967566884000064], [86.60031953700008, 25.968415247000053], [86.60006478900004, 25.968988421000063], [86.60025922700004, 25.97046423200004], [86.60063343200005, 25.97162424800007], [86.60124753100007, 25.97163782800004], [86.60228130000007, 25.970708263000063], [86.60288549400008, 25.97044659200003], [86.60388406400006, 25.970207619000064], [86.60442827600008, 25.97041977600003], [86.60515216000005, 25.97129997600007], [86.60590098900008, 25.971814574000064], [86.60668487800007, 25.97201324200006], [86.60823268100006, 25.97224360200005], [86.60944591500004, 25.972690586000056], [86.61011489200007, 25.973101344000042], [86.61040442900008, 25.97316909400007], [86.61117844500006, 25.972947987000055], [86.61151789900003, 25.972984143000076], [86.61224185900005, 25.97350768700005], [86.61266627800006, 25.973616035000077], [86.61373483100004, 25.973507854000047], [86.61410421900007, 25.974017892000063], [86.61460352800003, 25.974618107000026], [86.61503285600008, 25.97471297800007], [86.61586176700007, 25.97463632700004], [86.61634608200006, 25.974428696000075], [86.61749945900004, 25.97435658300003], [86.61940682200003, 25.974501099000065]]]]}}, {"type": "Feature", "properties": {"OBJECTID": 8406, "GPCODE": "97561", "GPNAME_1": "PANCHGACHHIYA", "DIST_CEN_C": "12", "BLK_NAME": "SATAR KATAIYA", "ST_NAME": "BIHAR", "ST_CODE_1": "10", "GPCODE2011": "100048", "REMARKS": "FINALIZED", "MAP_STATUS": "COMPLETED", "BLK_C_2001": "120002", "BLK_C_2011": "01172", "DIST_NAME": "SAHARSA", "code2011": 0.0, "Shape_Leng": 0.09315297905, "Shape_Area": 0.0004151119, "Area": 4.60182}, "geometry": {"type": "MultiPolygon", "coordinates": [[[[86.57701132000005, 25.985482826000066], [86.57727111900005, 25.984959408000066], [86.57771568300006, 25.984797052000033], [86.57871446500008, 25.984643987000027], [86.58032222500003, 25.984833965000064], [86.58121110500008, 25.984798166000076], [86.58221995700006, 25.98444193800003], [86.58318898000005, 25.98359372400006], [86.58323439900005, 25.982072780000067], [86.58354421100006, 25.98153581400004], [86.58419862700003, 25.980732662000037], [86.58434371500005, 25.979802937000045], [86.58399947600003, 25.97880998900007], [86.58352036700006, 25.97813284500006], [86.58296139700008, 25.977365500000076], [86.58298652700006, 25.97686451100003], [86.58328616500006, 25.97665696100006], [86.58388551100006, 25.976422467000077], [86.58415520100004, 25.976201352000032], [86.58371612700006, 25.975041377000025], [86.58338214800006, 25.973592547000067], [86.58205907000007, 25.97338007600007], [86.58182441800005, 25.973149790000036], [86.58181964000005, 25.972748151000076], [86.58223418100005, 25.972211180000045], [86.58211944200008, 25.972039653000024], [86.58159522500006, 25.971904126000027], [86.58057182500005, 25.971596917000056], [86.58010762300006, 25.971181530000024], [86.57975331800003, 25.970572138000023], [86.57945408000006, 25.969533987000034], [86.57891985200007, 25.969610524000075], [86.57828552400008, 25.97017896600005], [86.57766636900004, 25.970372831000077], [86.57732696200009, 25.97013812000006], [86.57713230300004, 25.969835588000024], [86.57670342800003, 25.968616952000048], [86.57645902000007, 25.96793530900004], [86.57577010500006, 25.96769591700007], [86.57550565700006, 25.96729870100006], [86.57562092300003, 25.966350894000072], [86.57518666500005, 25.966021357000045], [86.57463255900007, 25.965813479000076], [86.57398881700004, 25.96518598800003], [86.57376940300009, 25.96439607900004], [86.57247196800006, 25.963032643000076], [86.57213743900007, 25.96296478800008], [86.57173795100005, 25.963154244000066], [86.57106396900008, 25.963248717000056], [86.57015529500006, 25.963225803000057], [86.56960584800004, 25.96371759500005], [86.56914146300005, 25.963988160000042], [86.56953011900004, 25.965680720000023], [86.56930495700004, 25.966673589000038], [86.56897022600003, 25.967111191000072], [86.56782677400008, 25.96730935200003], [86.56610930900007, 25.96721386100006], [86.56382258300005, 25.967434119000075], [86.56161055400008, 25.967879977000052], [86.56064675400006, 25.968132225000033], [86.56039688100003, 25.968619559000047], [86.56014616600004, 25.970519487000047], [86.55944681400007, 25.971178176000024], [86.55864288700008, 25.971403414000065], [86.55797875900004, 25.97138956300006], [86.55728451400006, 25.97184512700005], [86.55644052700006, 25.972196745000076], [86.55551135900004, 25.97298159500008], [86.55583568800006, 25.97336536100005], [86.55633905100007, 25.975076134000062], [86.55688235900004, 25.976737238000055], [86.55701170800006, 25.97755867400008], [86.55694144400007, 25.97814085300007], [86.55723007100005, 25.97990560200003], [86.55769349300004, 25.981593823000026], [86.55808734100003, 25.98272675000004], [86.55851140700008, 25.98340397800007], [86.55882082400007, 25.983729052000058], [86.55952473100007, 25.984040830000026], [86.56045859500006, 25.983932890000062], [86.56100269000007, 25.984271654000054], [86.56209639300005, 25.983902038000053], [86.56315522300008, 25.983577539000066], [86.56404439900007, 25.982828690000076], [86.56503298400008, 25.983181130000048], [86.56611153000006, 25.98308686000007], [86.56714038300004, 25.98273071600005], [86.56834395100003, 25.98241527600004], [86.56990213700004, 25.981865209000034], [86.57061630400005, 25.981666912000037], [86.57123071300003, 25.981233909000025], [86.57169983100005, 25.98173052900006], [86.57329182600006, 25.983716935000075], [86.57436987100004, 25.98518861900004], [86.57499384900007, 25.98567620700004], [86.57587772700003, 25.985450830000048], [86.57701132000005, 25.985482826000066]]]]}}, {"type": "Feature", "properties": {"OBJECTID": 8407, "GPCODE": "97555", "GPNAME_1": "BARAHSHER", "DIST_CEN_C": "12", "BLK_NAME": "SATAR KATAIYA", "ST_NAME": "BIHAR", "ST_CODE_1": "10", "GPCODE2011": "100042", "REMARKS": "FINALIZED", "MAP_STATUS": "COMPLETED", "BLK_C_2001": "120002", "BLK_C_2011": "01172", "DIST_NAME": "SAHARSA", "code2011": 0.0, "Shape_Leng": 0.17221233321, "Shape_Area": 0.00116024355, "Area": 12.8607}, "geometry": {"type": "MultiPolygon", "coordinates": [[[[86.55749305600006, 26.00949875500004], [86.55427878900008, 26.00573324900006], [86.55634201000004, 26.004795543000057], [86.55764514800006, 26.00543245800003], [86.55903866000006, 26.005360909000046], [86.55926371700008, 26.00483752200006], [86.55911931600008, 26.003885127000046], [86.55962400300007, 26.003420515000073], [86.56033816400009, 26.00347048100008], [86.56091771600006, 26.003159281000023], [86.56117313500005, 26.001778365000064], [86.56157307800004, 26.001002348000043], [86.56190777500007, 26.000907666000046], [86.56196294200004, 26.00042025500005], [86.56197300200006, 26.00035250700006], [86.56202310300006, 25.999901228000056], [86.56238306500006, 25.999170270000036], [86.56342195700006, 25.998958611000035], [86.56388148300005, 25.998782775000052], [86.56398683500004, 25.99784407800007], [86.56410691000008, 25.997483055000032], [86.56458655600005, 25.997171903000037], [86.56560057600007, 25.99663073000005], [86.56611981200007, 25.99689721200008], [86.56650433000004, 25.99689730800003], [86.56736346400004, 25.99661334700005], [86.56775310700004, 25.996333700000037], [86.56929143800005, 25.995932587000027], [86.57022539800005, 25.995779551000055], [86.57092473000006, 25.99548195500006], [86.57136425900006, 25.995306110000058], [86.57233313600005, 25.995211638000058], [86.57370670700004, 25.99458478500003], [86.57365707900004, 25.99388074700005], [86.57411165900004, 25.99356049000005], [86.57525541600006, 25.993249460000072], [86.57771243100007, 25.993038169000044], [86.57853658100004, 25.992726978000064], [86.57877129500008, 25.992542076000063], [86.57867166500006, 25.992081636000023], [86.57825733700008, 25.991526451000027], [86.57837731800004, 25.991282752000075], [86.57873701100004, 25.990948896000077], [86.57872727500006, 25.990100416000075], [86.57821835600004, 25.989012555000045], [86.57786932400006, 25.987766803000056], [86.57777968600004, 25.987103318000038], [86.57766524200008, 25.986074318000078], [86.57701132000005, 25.985482826000066], [86.57587772700003, 25.985450830000048], [86.57499384900007, 25.98567620700004], [86.57436987100004, 25.98518861900004], [86.57329182600006, 25.983716935000075], [86.57169983100005, 25.98173052900006], [86.57123071300003, 25.981233909000025], [86.57061630400005, 25.981666912000037], [86.56990213700004, 25.981865209000034], [86.56834395100003, 25.98241527600004], [86.56714038300004, 25.98273071600005], [86.56611153000006, 25.98308686000007], [86.56503298400008, 25.983181130000048], [86.56404439900007, 25.982828690000076], [86.56315522300008, 25.983577539000066], [86.56209639300005, 25.983902038000053], [86.56100269000007, 25.984271654000054], [86.56045859500006, 25.983932890000062], [86.55952473100007, 25.984040830000026], [86.55882082400007, 25.983729052000058], [86.55851140700008, 25.98340397800007], [86.55808734100003, 25.98272675000004], [86.55769349300004, 25.981593823000026], [86.55723007100005, 25.97990560200003], [86.55694144400007, 25.97814085300007], [86.55701170800006, 25.97755867400008], [86.55688235900004, 25.976737238000055], [86.55633905100007, 25.975076134000062], [86.55583568800006, 25.97336536100005], [86.55551135900004, 25.97298159500008], [86.55442772300006, 25.97325634300006], [86.55383375100007, 25.972899485000028], [86.55255605600007, 25.972009756000034], [86.55074944100005, 25.970731675000025], [86.54924713200006, 25.969828247000066], [86.54853822100006, 25.969724046000067], [86.54801369500007, 25.97012997400003], [86.54784874400008, 25.970342017000064], [86.54807272200009, 25.971443339000075], [86.54783772600007, 25.972052518000055], [86.54712836300007, 25.972557576000042], [86.54499647700004, 25.972321776000058], [86.54386300900006, 25.972452012000076], [86.54210989300003, 25.97324532600004], [86.54067153700004, 25.973831163000057], [86.53872890600007, 25.974272373000076], [86.53703129900003, 25.974284865000072], [86.53621734200004, 25.974397214000078], [86.53511350800005, 25.974906516000033], [86.53400477700006, 25.975235315000077], [86.53298610900003, 25.975365536000027], [86.53181710900003, 25.976150071000063], [86.53075828900006, 25.97647887000005], [86.53042848300004, 25.976749380000058], [86.53121650900005, 25.97789623500006], [86.53121128100008, 25.978171557000053], [86.53015691600007, 25.979159323000033], [86.52866298500004, 25.98040395000004], [86.52786812900007, 25.981558758000062], [86.52752207300006, 25.983332268000026], [86.52742624000007, 25.984568758000023], [86.52749991400003, 25.986076285000024], [86.52815337100003, 25.986911597000073], [86.52867205700005, 25.987670218000062], [86.52983994000004, 25.988519422000024], [86.52985386900008, 25.98986892000005], [86.53014302600008, 25.990487402000042], [86.53046227600004, 25.990862218000075], [86.53082664900006, 25.991101597000068], [86.53120101100006, 25.991241735000074], [86.53229453700004, 25.99149521000004], [86.53302302000003, 25.99220873200005], [86.53357673900007, 25.99297185300003], [86.53369614000007, 25.993590264000034], [86.53367064000008, 25.994343873000048], [86.53409458000004, 25.995048241000063], [86.53440392500005, 25.99535079800006], [86.53507775000008, 25.995807068000033], [86.53545685400007, 25.99641209600003], [86.53574087600003, 25.997378086000026], [86.53620963900005, 25.99824035900008], [86.53761227900009, 25.999170926000033], [86.53803142100008, 25.999672129000032], [86.53839048800006, 26.000344854000048], [86.53898161400008, 26.004822282000077], [86.53938445900008, 26.007214574000045], [86.54522810100008, 26.006978696000033], [86.54697075100006, 26.007575407000047], [86.54807380100004, 26.008794487000046], [86.55100520800005, 26.009324062000076], [86.55264787000004, 26.010200473000054], [86.55286672300008, 26.011856960000046], [86.55410492400006, 26.012611296000046], [86.55520298000005, 26.01395671000006], [86.55551704300007, 26.01490463400006], [86.55667587200008, 26.014841971000067], [86.55778062600007, 26.013335079000058], [86.55902513500007, 26.011674844000026], [86.55873610800006, 26.01059610300007], [86.55749305600006, 26.00949875500004]]]]}}, {"type": "Feature", "properties": {"OBJECTID": 8408, "GPCODE": "97558", "GPNAME_1": "BIJALPUR", "DIST_CEN_C": "12", "BLK_NAME": "SATAR KATAIYA", "ST_NAME": "BIHAR", "ST_CODE_1": "10", "GPCODE2011": "100045", "REMARKS": "FINALIZED", "MAP_STATUS": "COMPLETED", "BLK_C_2001": "120002", "BLK_C_2011": "01172", "DIST_NAME": "SAHARSA", "code2011": 0.0, "Shape_Leng": 0.17384811743, "Shape_Area": 0.00103700857, "Area": 11.4952}, "geometry": {"type": "MultiPolygon", "coordinates": [[[[86.59909534100007, 25.996879759000024], [86.59930513800003, 25.996766982000054], [86.60010411300004, 25.996929588000057], [86.60090804800006, 25.997268260000055], [86.60188694200008, 25.99708789500005], [86.60348004900004, 25.996799245000034], [86.60509325200007, 25.996393311000077], [86.60584726300004, 25.996853714000054], [86.60660139000004, 25.996682388000067], [86.60671637900003, 25.995874483000023], [86.60750044800005, 25.995761749000053], [86.60805478300006, 25.995585810000023], [86.60835948100004, 25.99529704300005], [86.60828958400003, 25.994863725000073], [86.60891376200004, 25.995143669000072], [86.60941311200008, 25.99559054300005], [86.61003226100007, 25.996479669000053], [86.61031188300007, 25.996565432000068], [86.61175016200008, 25.996651302000032], [86.61251921700006, 25.996877098000027], [86.61314355900004, 25.996610858000054], [86.61388269500009, 25.99575342600008], [86.61421233700008, 25.995478140000046], [86.61488648100004, 25.99534277300006], [86.61526611200009, 25.99513517500003], [86.61559564900006, 25.995753550000074], [86.61590024800006, 25.99582571700006], [86.61679416300007, 25.99572650700003], [86.61726866800007, 25.99517594100007], [86.61740850400008, 25.994850962000044], [86.61795279900008, 25.994833], [86.61808774300005, 25.994196557000066], [86.61827745500005, 25.993966441000055], [86.61883179300008, 25.99385364400007], [86.61908653600005, 25.99349255900006], [86.61896168400006, 25.992941938000058], [86.61901664600003, 25.992070901000034], [86.61919146700006, 25.99060863400007], [86.61976589400007, 25.98879441100007], [86.62044498800003, 25.987147136000033], [86.62084954800008, 25.986050414000033], [86.62093442000008, 25.98523354500003], [86.62073471000008, 25.984511386000065], [86.62008064500003, 25.983333472000027], [86.61919185400006, 25.98234052300006], [86.61752412300007, 25.980869124000037], [86.61640568300004, 25.979533163000042], [86.61609119200006, 25.978725243000042], [86.61603630200005, 25.976987664000035], [86.61670050200007, 25.97624759100006], [86.61777899400005, 25.975669882000034], [86.61868776600005, 25.975128389000076], [86.61940682200003, 25.974501099000065], [86.61749945900004, 25.97435658300003], [86.61634608200006, 25.974428696000075], [86.61586176700007, 25.97463632700004], [86.61503285600008, 25.97471297800007], [86.61460352800003, 25.974618107000026], [86.61410421900007, 25.974017892000063], [86.61373483100004, 25.973507854000047], [86.61266627800006, 25.973616035000077], [86.61224185900005, 25.97350768700005], [86.61151789900003, 25.972984143000076], [86.61117844500006, 25.972947987000055], [86.61040442900008, 25.97316909400007], [86.61011489200007, 25.973101344000042], [86.60944591500004, 25.972690586000056], [86.60823268100006, 25.97224360200005], [86.60668487800007, 25.97201324200006], [86.60590098900008, 25.971814574000064], [86.60515216000005, 25.97129997600007], [86.60442827600008, 25.97041977600003], [86.60388406400006, 25.970207619000064], [86.60288549400008, 25.97044659200003], [86.60228130000007, 25.970708263000063], [86.60124753100007, 25.97163782800004], [86.60063343200005, 25.97162424800007], [86.60025922700004, 25.97046423200004], [86.60006478900004, 25.968988421000063], [86.60031953700008, 25.968415247000053], [86.60073913000008, 25.967566884000064], [86.60041966300008, 25.96715159100006], [86.60039481600006, 25.966501661000052], [86.60044493500004, 25.965210926000054], [86.60010557000004, 25.964926525000067], [86.59967617500007, 25.964890379000053], [86.59944143000007, 25.965088860000037], [86.59925166400006, 25.96573425300005], [86.59897193300003, 25.96612234400004], [86.59833282300008, 25.96640205800003], [86.59745917400005, 25.96621231000006], [86.59663536200009, 25.966130876000022], [86.59628577700005, 25.96641968700004], [86.59448831600008, 25.966690136000068], [86.59359466000006, 25.96650941000007], [86.59315518700004, 25.96688841100007], [86.59281073000005, 25.967046303000075], [86.59166244800008, 25.96678875300006], [86.59107325000008, 25.96679314800008], [86.59053894400006, 25.967284927000037], [86.58953034800004, 25.967271234000066], [86.58861670300007, 25.967410828000027], [86.58697902700004, 25.96744205500005], [86.58578571400005, 25.967523001000075], [86.58493194100004, 25.967518205000033], [86.58419817900005, 25.96695387500006], [86.58357916700004, 25.96694918600008], [86.58275518700003, 25.967228728000066], [86.58169166000005, 25.96736835300004], [86.58066813300007, 25.967548555000064], [86.57997401400007, 25.96786873800005], [86.57965921600004, 25.968419268000048], [86.57945408000006, 25.969533987000034], [86.57975331800003, 25.970572138000023], [86.58010762300006, 25.971181530000024], [86.58057182500005, 25.971596917000056], [86.58159522500006, 25.971904126000027], [86.58211944200008, 25.972039653000024], [86.58223418100005, 25.972211180000045], [86.58181964000005, 25.972748151000076], [86.58182441800005, 25.973149790000036], [86.58205907000007, 25.97338007600007], [86.58338214800006, 25.973592547000067], [86.58371612700006, 25.975041377000025], [86.58415520100004, 25.976201352000032], [86.58388551100006, 25.976422467000077], [86.58328616500006, 25.97665696100006], [86.58298652700006, 25.97686451100003], [86.58296139700008, 25.977365500000076], [86.58352036700006, 25.97813284500006], [86.58399947600003, 25.97880998900007], [86.58434371500005, 25.979802937000045], [86.58419862700003, 25.980732662000037], [86.58354421100006, 25.98153581400004], [86.58323439900005, 25.982072780000067], [86.58318898000005, 25.98359372400006], [86.58221995700006, 25.98444193800003], [86.58121110500008, 25.984798166000076], [86.58032222500003, 25.984833965000064], [86.57871446500008, 25.984643987000027], [86.57771568300006, 25.984797052000033], [86.57727111900005, 25.984959408000066], [86.57701132000005, 25.985482826000066], [86.57766524200008, 25.986074318000078], [86.57777968600004, 25.987103318000038], [86.57786932400006, 25.987766803000056], [86.57821835600004, 25.989012555000045], [86.57872727500006, 25.990100416000075], [86.57873701100004, 25.990948896000077], [86.57837731800004, 25.991282752000075], [86.57825733700008, 25.991526451000027], [86.57867166500006, 25.992081636000023], [86.57877129500008, 25.992542076000063], [86.57853658100004, 25.992726978000064], [86.57771243100007, 25.993038169000044], [86.57525541600006, 25.993249460000072], [86.57411165900004, 25.99356049000005], [86.57365707900004, 25.99388074700005], [86.57370670700004, 25.99458478500003], [86.57394630700009, 25.994882750000045], [86.57302191900004, 25.99595658900006], [86.57306178400006, 25.99624096900004], [86.57339627700009, 25.996525353000038], [86.57433021200006, 25.996430962000034], [86.57542395300004, 25.996088334000035], [86.57657767500007, 25.99595785200006], [86.57749168900006, 25.995764078000036], [86.57814583900006, 25.995759761000045], [86.57921449400004, 25.995976753000036], [86.58001338300005, 25.996301929000026], [86.58065250600004, 25.996739948000027], [86.58146662800004, 25.996451270000023], [86.58203589700008, 25.996401801000047], [86.58286488400006, 25.99645169300004], [86.58378865700007, 25.99685814700007], [86.58470244300008, 25.997309779000034], [86.58511189200004, 25.997318906000032], [86.58606094800007, 25.99695358400004], [86.58713457600004, 25.996994492000056], [86.58787358800004, 25.997522755000034], [86.58828805500008, 25.997504768000056], [86.58915711000003, 25.997279302000038], [86.59031088500006, 25.996589114000074], [86.59111501700005, 25.99624177100003], [86.59221378400008, 25.99607951200005], [86.59288302800007, 25.996030102000077], [86.59331243100007, 25.996097860000077], [86.59369693200006, 25.996278498000038], [86.59382167200005, 25.99655375800006], [86.59367180900006, 25.996928318000073], [86.59359678000004, 25.997230728000034], [86.59384143800008, 25.997591815000078], [86.59451073300005, 25.997167731000047], [86.59538972600006, 25.99702801500007], [86.59578434000008, 25.996662525000033], [86.59593925600007, 25.996328548000065], [86.59628879200005, 25.99632415700006], [86.59660842700004, 25.99648211500005], [86.59684296400007, 25.996974133000037], [86.59677798000007, 25.997375772000055], [86.59735711600007, 25.998328161000074], [86.59787134800007, 25.998779597000066], [86.59838575700007, 25.998937685000044], [86.59896005700006, 25.99884750900003], [86.59945448900004, 25.998671561000037], [86.59973924100007, 25.998382829000036], [86.59960452500007, 25.99773287100004], [86.59916518700004, 25.99717318000006], [86.59909534100007, 25.996879759000024]]]]}}, {"type": "Feature", "properties": {"OBJECTID": 8410, "GPCODE": "97563", "GPNAME_1": "PURIKH", "DIST_CEN_C": "12", "BLK_NAME": "SATAR KATAIYA", "ST_NAME": "BIHAR", "ST_CODE_1": "10", "GPCODE2011": "100050", "REMARKS": "FINALIZED", "MAP_STATUS": "COMPLETED", "BLK_C_2001": "120002", "BLK_C_2011": "01172", "DIST_NAME": "SAHARSA", "code2011": 0.0, "Shape_Leng": 0.14498625564, "Shape_Area": 0.00079755308, "Area": 8.83889}, "geometry": {"type": "MultiPolygon", "coordinates": [[[[86.57696661200004, 26.022698553000055], [86.58123780600005, 26.021463331000064], [86.58348559200005, 26.021594854000057], [86.58770143500004, 26.02137487500005], [86.58492029300004, 26.018241983000053], [86.58254255600008, 26.018661012000052], [86.58261820200005, 26.016417974000035], [86.58238917600005, 26.01432834600007], [86.58361868600008, 26.01198635700007], [86.58463371900007, 26.008565630000078], [86.58497363300006, 26.00776243300004], [86.58592256400004, 26.007875488000025], [86.58670672700003, 26.007871168000065], [86.58734614700006, 26.007433556000024], [86.58774594800008, 26.006688973000053], [86.58879976400004, 26.006526803000042], [86.58909462500003, 26.005881516000045], [86.58983900300007, 26.005290436000053], [86.58986417800008, 26.004676631000052], [86.58909075700006, 26.002225773000077], [86.58875665500005, 26.00050169600007], [86.58865188400006, 26.00000970700006], [86.58874691900007, 25.99964861500007], [86.58914159000005, 25.999210934000075], [86.59002571200006, 25.998520641000027], [86.59044033000004, 25.998186830000066], [86.59131932300005, 25.99806067700007], [86.59288749800004, 25.99804746700005], [86.59344185700007, 25.997839991000035], [86.59384143800008, 25.997591815000078], [86.59359678000004, 25.997230728000034], [86.59367180900006, 25.996928318000073], [86.59382167200005, 25.99655375800006], [86.59369693200006, 25.996278498000038], [86.59331243100007, 25.996097860000077], [86.59288302800007, 25.996030102000077], [86.59221378400008, 25.99607951200005], [86.59111501700005, 25.99624177100003], [86.59031088500006, 25.996589114000074], [86.58915711000003, 25.997279302000038], [86.58828805500008, 25.997504768000056], [86.58787358800004, 25.997522755000034], [86.58713457600004, 25.996994492000056], [86.58606094800007, 25.99695358400004], [86.58511189200004, 25.997318906000032], [86.58470244300008, 25.997309779000034], [86.58378865700007, 25.99685814700007], [86.58286488400006, 25.99645169300004], [86.58203589700008, 25.996401801000047], [86.58146662800004, 25.996451270000023], [86.58065250600004, 25.996739948000027], [86.58001338300005, 25.996301929000026], [86.57921449400004, 25.995976753000036], [86.57814583900006, 25.995759761000045], [86.57749168900006, 25.995764078000036], [86.57657767500007, 25.99595785200006], [86.57542395300004, 25.996088334000035], [86.57433021200006, 25.996430962000034], [86.57339627700009, 25.996525353000038], [86.57306178400006, 25.99624096900004], [86.57302191900004, 25.99595658900006], [86.57394630700009, 25.994882750000045], [86.57370670700004, 25.99458478500003], [86.57233313600005, 25.995211638000058], [86.57136425900006, 25.995306110000058], [86.57092473000006, 25.99548195500006], [86.57022539800005, 25.995779551000055], [86.56929143800005, 25.995932587000027], [86.56775310700004, 25.996333700000037], [86.56736346400004, 25.99661334700005], [86.56650433000004, 25.99689730800003], [86.56611981200007, 25.99689721200008], [86.56560057600007, 25.99663073000005], [86.56458655600005, 25.997171903000037], [86.56410691000008, 25.997483055000032], [86.56398683500004, 25.99784407800007], [86.56388148300005, 25.998782775000052], [86.56342195700006, 25.998958611000035], [86.56238306500006, 25.999170270000036], [86.56202310300006, 25.999901228000056], [86.56197300200006, 26.00035250700006], [86.56196294200004, 26.00042025500005], [86.56190777500007, 26.000907666000046], [86.56157307800004, 26.001002348000043], [86.56117313500005, 26.001778365000064], [86.56091771600006, 26.003159281000023], [86.56033816400009, 26.00347048100008], [86.55962400300007, 26.003420515000073], [86.55911931600008, 26.003885127000046], [86.55926371700008, 26.00483752200006], [86.55903866000006, 26.005360909000046], [86.55764514800006, 26.00543245800003], [86.55634201000004, 26.004795543000057], [86.55427878900008, 26.00573324900006], [86.55749305600006, 26.00949875500004], [86.55873610800006, 26.01059610300007], [86.55902513500007, 26.011674844000026], [86.55778062600007, 26.013335079000058], [86.55667587200008, 26.014841971000067], [86.55551704300007, 26.01490463400006], [86.55537103600005, 26.01699412800008], [86.55616932100008, 26.018587730000036], [86.55508995100007, 26.019304808000072], [86.55552292600004, 26.021972257000073], [86.55635649800007, 26.02313252400006], [86.55872331300003, 26.024708736000036], [86.55901673200003, 26.027073791000078], [86.56035033200004, 26.02736771900004], [86.56466635200007, 26.027234227000065], [86.56731890200007, 26.02700062200006], [86.57057152200008, 26.025553149000075], [86.57255555000006, 26.023536531000047], [86.57696661200004, 26.022698553000055]]]]}}, {"type": "Feature", "properties": {"OBJECTID": 8413, "GPCODE": "97564", "GPNAME_1": "RAKIYA", "DIST_CEN_C": "12", "BLK_NAME": "SATAR KATAIYA", "ST_NAME": "BIHAR", "ST_CODE_1": "10", "GPCODE2011": "100051", "REMARKS": "FINALIZED", "MAP_STATUS": "COMPLETED", "BLK_C_2001": "120002", "BLK_C_2011": "01172", "DIST_NAME": "SAHARSA", "code2011": 0.0, "Shape_Leng": 0.17910989629, "Shape_Area": 0.0011880128, "Area": 13.1661}, "geometry": {"type": "MultiPolygon", "coordinates": [[[[86.64797165600004, 26.020497850000027], [86.64698196400008, 26.017460592000077], [86.64595738300005, 26.014066814000046], [86.64522283700006, 26.012315803000035], [86.64377412100004, 26.01057847800007], [86.63997291700008, 26.00862015900003], [86.63822480300007, 26.00774480700005], [86.63439885900004, 26.006057175000024], [86.63040828900006, 26.00536230700004], [86.62714197500009, 26.004838880000023], [86.62559866800007, 26.003994926000075], [86.62517901000007, 26.003632355000036], [86.62412036900008, 26.002717713000038], [86.62410894800007, 26.002694860000076], [86.62300165400006, 26.00047913800006], [86.62219259500006, 25.999851781000075], [86.62130372000007, 25.998732491000055], [86.62018006800008, 25.997215993000054], [86.61954088900006, 25.99592969400004], [86.61925624700007, 25.99443132400006], [86.61908653600005, 25.99349255900006], [86.61883179300008, 25.99385364400007], [86.61827745500005, 25.993966441000055], [86.61808774300005, 25.994196557000066], [86.61795279900008, 25.994833], [86.61740850400008, 25.994850962000044], [86.61726866800007, 25.99517594100007], [86.61679416300007, 25.99572650700003], [86.61590024800006, 25.99582571700006], [86.61559564900006, 25.995753550000074], [86.61526611200009, 25.99513517500003], [86.61488648100004, 25.99534277300006], [86.61421233700008, 25.995478140000046], [86.61388269500009, 25.99575342600008], [86.61314355900004, 25.996610858000054], [86.61251921700006, 25.996877098000027], [86.61175016200008, 25.996651302000032], [86.61031188300007, 25.996565432000068], [86.61003226100007, 25.996479669000053], [86.60941311200008, 25.99559054300005], [86.60891376200004, 25.995143669000072], [86.60828958400003, 25.994863725000073], [86.60835948100004, 25.99529704300005], [86.60805478300006, 25.995585810000023], [86.60750044800005, 25.995761749000053], [86.60671637900003, 25.995874483000023], [86.60660139000004, 25.996682388000067], [86.60584726300004, 25.996853714000054], [86.60509325200007, 25.996393311000077], [86.60348004900004, 25.996799245000034], [86.60188694200008, 25.99708789500005], [86.60090804800006, 25.997268260000055], [86.60010411300004, 25.996929588000057], [86.59930513800003, 25.996766982000054], [86.59909534100007, 25.996879759000024], [86.59916518700004, 25.99717318000006], [86.59960452500007, 25.99773287100004], [86.59973924100007, 25.998382829000036], [86.59945448900004, 25.998671561000037], [86.59896005700006, 25.99884750900003], [86.59838575700007, 25.998937685000044], [86.59787134800007, 25.998779597000066], [86.59735711600007, 25.998328161000074], [86.59677798000007, 25.997375772000055], [86.59684296400007, 25.996974133000037], [86.59660842700004, 25.99648211500005], [86.59628879200005, 25.99632415700006], [86.59593925600007, 25.996328548000065], [86.59578434000008, 25.996662525000033], [86.59538972600006, 25.99702801500007], [86.59451073300005, 25.997167731000047], [86.59384143800008, 25.997591815000078], [86.59344185700007, 25.997839991000035], [86.59288749800004, 25.99804746700005], [86.59131932300005, 25.99806067700007], [86.59044033000004, 25.998186830000066], [86.59002571200006, 25.998520641000027], [86.58914159000005, 25.999210934000075], [86.58874691900007, 25.99964861500007], [86.58865188400006, 26.00000970700006], [86.58875665500005, 26.00050169600007], [86.58909075700006, 26.002225773000077], [86.58986417800008, 26.004676631000052], [86.58983900300007, 26.005290436000053], [86.58909462500003, 26.005881516000045], [86.58879976400004, 26.006526803000042], [86.58774594800008, 26.006688973000053], [86.58734614700006, 26.007433556000024], [86.58670672700003, 26.007871168000065], [86.58592256400004, 26.007875488000025], [86.58497363300006, 26.00776243300004], [86.58463371900007, 26.008565630000078], [86.58361868600008, 26.01198635700007], [86.58238917600005, 26.01432834600007], [86.58261820200005, 26.016417974000035], [86.58254255600008, 26.018661012000052], [86.58492029300004, 26.018241983000053], [86.58770143500004, 26.02137487500005], [86.59082832700005, 26.02140272300005], [86.59182713100006, 26.02219277200004], [86.59605353700005, 26.019878434000077], [86.59907555100006, 26.01963978300006], [86.60390075800007, 26.019193791000077], [86.61022440400006, 26.01910434100006], [86.61380602500003, 26.01636510000003], [86.61794669900007, 26.018725820000043], [86.61854101900008, 26.019610432000036], [86.61953997000006, 26.021140418000073], [86.62083363800008, 26.020878694000032], [86.62333118400005, 26.019443558000034], [86.62391563400007, 26.019926462000058], [86.62638819700004, 26.021867154000063], [86.63050909000003, 26.02238151000006], [86.63510971500006, 26.02322973300005], [86.63941025200006, 26.02159110200006], [86.64379088800007, 26.021148355000037], [86.64797165600004, 26.020497850000027]]]]}}, {"type": "Feature", "properties": {"OBJECTID": 8414, "GPCODE": "97567", "GPNAME_1": "SIHOUL", "DIST_CEN_C": "12", "BLK_NAME": "SATAR KATAIYA", "ST_NAME": "BIHAR", "ST_CODE_1": "10", "GPCODE2011": "100054", "REMARKS": "FINALIZED", "MAP_STATUS": "COMPLETED", "BLK_C_2001": "120002", "BLK_C_2011": "01172", "DIST_NAME": "SAHARSA", "code2011": 0.0, "Shape_Leng": 0.15195996356, "Shape_Area": 0.00091703409, "Area": 10.1691}, "geometry": {"type": "MultiPolygon", "coordinates": [[[[86.55089455100006, 25.949157267000032], [86.55197731300007, 25.946708483000066], [86.55194804800004, 25.94553052300006], [86.55156405500009, 25.94493005000004], [86.55058626600004, 25.943977209000025], [86.55033232100004, 25.942916550000064], [86.55008359700008, 25.941521797000064], [86.54989476600008, 25.940221876000066], [86.54945586600007, 25.93950406400006], [86.54872244100005, 25.93900725000003], [86.54809867400007, 25.938695462000055], [86.54779456100005, 25.93825298400003], [86.54778058000005, 25.93663273900006], [86.54813543600005, 25.935834111000077], [86.54807722300006, 25.933225427000025], [86.54742905900008, 25.932205096000075], [86.54687938800004, 25.93242024400007], [86.54581878000005, 25.932680816000072], [86.54544489300008, 25.93237260500007], [86.54588250000006, 25.931598500000064], [86.54656921400004, 25.931029719000037], [86.54654705600007, 25.93059886800006], [86.54561379500007, 25.92869462300007], [86.54432896100008, 25.92691327800003], [86.54099602900004, 25.923602472000027], [86.54099599900007, 25.92360244100007], [86.54000013700005, 25.923949814000025], [86.53602916900007, 25.925627242000076], [86.53322676200008, 25.92682393900003], [86.52710123800006, 25.92837562400007], [86.52319617800003, 25.93134481900006], [86.52241779900004, 25.932456410000043], [86.52153693500009, 25.93389602800005], [86.52087213800007, 25.93489499900005], [86.51970335500005, 25.935375624000073], [86.51839347900005, 25.935430461000067], [86.51705603700003, 25.93494690500006], [86.51618387800005, 25.934228071000064], [86.51558294300008, 25.93414527300007], [86.51410997400006, 25.933343715000035], [86.51291913900008, 25.933393527000078], [86.51186395400003, 25.93376139700007], [86.51047902200008, 25.934682490000057], [86.50982514800006, 25.93589674800006], [86.50891659100006, 25.936798], [86.50418273900004, 25.93990916200005], [86.50134121600007, 25.94035146400006], [86.49910053000008, 25.940876673000048], [86.49833888300003, 25.941321533000064], [86.49789812500006, 25.941511326000068], [86.49763883000008, 25.941632114000072], [86.49723713100008, 25.94137782000007], [86.49711802800005, 25.94238512800007], [86.49690766900005, 25.94421898300004], [86.49688734200004, 25.94465694400003], [86.49687170300007, 25.952893800000027], [86.49687170400006, 25.952893833000076], [86.49711835400007, 25.952836183000045], [86.49763825900004, 25.95291479100007], [86.49873525500004, 25.952811309000026], [86.50987201100008, 25.951760309000065], [86.51067612900005, 25.951579609000078], [86.51189204100007, 25.949910094000074], [86.51297574000006, 25.94883471600008], [86.51425171800008, 25.948339814000065], [86.52009527000007, 25.94809527500007], [86.53002701600008, 25.948267772000065], [86.53896211800009, 25.94804004200006], [86.54369208800006, 25.948282814000038], [86.54536813900006, 25.949242454000057], [86.54641761200008, 25.950669953000045], [86.54821817800007, 25.95088852300006], [86.54997351100008, 25.95022608100004], [86.55089455100006, 25.949157267000032]]]]}}]}