{"type": "FeatureCollection", "features": [{"type": "Feature", "properties": {"OBJECTID": 8345, "GPCODE": "97539", "GPNAME_1": "KISHANPUR", "DIST_CEN_C": "12", "BLK_NAME": "PATARGHAT", "ST_NAME": "BIHAR", "ST_CODE_1": "10", "GPCODE2011": "100026", "REMARKS": "FINALIZED", "MAP_STATUS": "COMPLETED", "BLK_C_2001": "120006", "BLK_C_2011": "01176", "DIST_NAME": "SAHARSA", "code2011": 0.0, "Shape_Leng": 0.20567109722, "Shape_Area": 0.0013751915, "Area": 15.2672}, "geometry": {"type": "MultiPolygon", "coordinates": [[[[86.82670652100006, 25.805801005000035], [86.82871624100005, 25.804695862000074], [86.82998268400007, 25.804759457000046], [86.83141853900008, 25.80489077200008], [86.83338834300008, 25.804015778000064], [86.83454516800003, 25.803673109000044], [86.83552760400005, 25.802883570000063], [86.83665955700008, 25.80232420300007], [86.83717818900004, 25.801994826000055], [86.83717850600004, 25.80112832100008], [86.83671017900008, 25.800058471000057], [86.83759310600004, 25.798289527000065], [86.83887484900004, 25.797129924000046], [86.83916940400007, 25.795771537000064], [86.84097920000005, 25.79557789200004], [86.84406045600008, 25.794635245000052], [86.84616940600006, 25.79422948100006], [86.85040742200005, 25.79288985900007], [86.85094066900007, 25.793914441000027], [86.85151386100006, 25.79433423100005], [86.85239622700004, 25.794591711000066], [86.85326874700007, 25.794465471000024], [86.85433078700004, 25.793571972000052], [86.85502857900008, 25.794650734000072], [86.85598082300004, 25.794903641000076], [86.85754128000008, 25.795061737000026], [86.85958023500007, 25.795558450000044], [86.85977979500007, 25.795034961000056], [86.86144006800004, 25.79396993000006], [86.86068244900008, 25.79260687200008], [86.86139545400005, 25.791708820000053], [86.86224306000008, 25.790391009000075], [86.86311051200005, 25.790097641000045], [86.86326519200009, 25.789100220000023], [86.86310570100005, 25.78781846100003], [86.86276677700005, 25.787159449000058], [86.85944718500008, 25.782984337000073], [86.86023985500003, 25.78200953000004], [86.86030475200005, 25.781495016000065], [86.85957706600004, 25.780799898000055], [86.85894908000006, 25.779472929000065], [86.85782252000007, 25.77933293500007], [86.85668111600006, 25.77827208100007], [86.85643712300003, 25.776963267000042], [86.85666175900008, 25.77442678700004], [86.85732490800007, 25.77328045300004], [86.85576470200004, 25.77362332000007], [86.85227032400007, 25.774317840000037], [86.84882076500008, 25.774940108000067], [86.84601920400007, 25.775634643000046], [86.84475808500008, 25.77562530800003], [86.84235546400004, 25.775755649000075], [86.84213559800008, 25.777542926000024], [86.84147711800006, 25.779298462000042], [86.83998687300004, 25.77866619300005], [86.83831710100003, 25.778133283000045], [86.83775864700004, 25.77871988100003], [86.83795272800006, 25.779735380000034], [86.83772828100007, 25.78016413100005], [86.83674116700007, 25.780515868000066], [86.83598831700004, 25.780872223000074], [86.83495088600006, 25.782469626000022], [86.83470631800003, 25.78353471400004], [86.83467615500007, 25.784351597000068], [86.83417719500005, 25.785678435000023], [86.83071737800003, 25.786038459000054], [86.83044800200008, 25.786381377000055], [86.83030328300003, 25.786868793000053], [86.83017346300005, 25.787469049000038], [86.82940065500009, 25.787771156000076], [86.82762587600007, 25.787847337000073], [86.82698261300004, 25.788307445000044], [86.82508792800007, 25.78899290100003], [86.82381654300008, 25.789276787000063], [86.82069580000007, 25.78920789400007], [86.81924509800007, 25.789139689000024], [86.81698690500008, 25.788786748000064], [86.81344735900007, 25.788767205000056], [86.81242036700007, 25.788965395000048], [86.81118391600006, 25.789037058000076], [86.80984271200003, 25.78950582500005], [86.80923944300008, 25.78943790900007], [86.80816813200005, 25.78850768600006], [86.80501167900007, 25.789905318000024], [86.80436833400006, 25.790378872000076], [86.80334626800004, 25.790450579000037], [86.80265797100003, 25.791050548000044], [86.80156072700004, 25.791690876000075], [86.80012990200004, 25.79173981300005], [86.79932210600003, 25.791969507000033], [86.79875857000007, 25.792339320000053], [86.79775571300007, 25.793507764000026], [86.79654379400006, 25.794315014000063], [86.79496299600004, 25.794914426000048], [86.79330744700007, 25.79536029800005], [86.79319729900004, 25.796122981000053], [86.79331630300004, 25.796958009000036], [86.79380900700005, 25.798352924000028], [86.79416686800005, 25.800018478000027], [86.79460467700005, 25.80136825200003], [86.79485266100005, 25.803430940000055], [86.79481232700005, 25.804094398000075], [86.79446782100007, 25.804685471000028], [86.79384411000007, 25.80540720600004], [86.79340467300005, 25.80647214000004], [86.79235238600006, 25.806746830000066], [86.79229227400003, 25.807184626000037], [86.79228684700007, 25.807775809000077], [86.79320420300007, 25.807898244000057], [86.79375705500007, 25.80880569900006], [86.79439024900006, 25.80890083500003], [86.79689314800004, 25.809051166000074], [86.79790537800005, 25.809051699000065], [86.79893242300005, 25.809219235000057], [86.80270129000007, 25.81034043300008], [86.80645480500004, 25.81223785800006], [86.80973945700003, 25.814599831000066], [86.81210657000008, 25.81721407200007], [86.81303889300005, 25.817485247000036], [86.81417043300007, 25.818415463000065], [86.81488340900006, 25.818501496000067], [86.81842932000006, 25.817401696000047], [86.81992564800004, 25.816589837000038], [86.82249458200005, 25.814451469000062], [86.82282405400008, 25.813490302000048], [86.82223765400005, 25.80910771300006], [86.82326485600004, 25.808796611000048], [86.82487111300009, 25.807100215000048], [86.82670652100006, 25.805801005000035]]]]}}, {"type": "Feature", "properties": {"OBJECTID": 8346, "GPCODE": "97538", "GPNAME_1": "JAMHRA", "DIST_CEN_C": "12", "BLK_NAME": "PATARGHAT", "ST_NAME": "BIHAR", "ST_CODE_1": "10", "GPCODE2011": "100025", "REMARKS": "FINALIZED", "MAP_STATUS": "COMPLETED", "BLK_C_2001": "120006", "BLK_C_2011": "01176", "DIST_NAME": "SAHARSA", "code2011": 0.0, "Shape_Leng": 0.1800542129, "Shape_Area": 0.00136377645, "Area": 15.1426}, "geometry": {"type": "MultiPolygon", "coordinates": [[[[86.79775571300007, 25.793507764000026], [86.79875857000007, 25.792339320000053], [86.79932210600003, 25.791969507000033], [86.80012990200004, 25.79173981300005], [86.80156072700004, 25.791690876000075], [86.80265797100003, 25.791050548000044], [86.80334626800004, 25.790450579000037], [86.80436833400006, 25.790378872000076], [86.80501167900007, 25.789905318000024], [86.80816813200005, 25.78850768600006], [86.80923944300008, 25.78943790900007], [86.80984271200003, 25.78950582500005], [86.81118391600006, 25.789037058000076], [86.81242036700007, 25.788965395000048], [86.81344735900007, 25.788767205000056], [86.81698690500008, 25.788786748000064], [86.81924509800007, 25.789139689000024], [86.82069580000007, 25.78920789400007], [86.82381654300008, 25.789276787000063], [86.82508792800007, 25.78899290100003], [86.82698261300004, 25.788307445000044], [86.82762587600007, 25.787847337000073], [86.82940065500009, 25.787771156000076], [86.83017346300005, 25.787469049000038], [86.83030328300003, 25.786868793000053], [86.83044800200008, 25.786381377000055], [86.83071737800003, 25.786038459000054], [86.83417719500005, 25.785678435000023], [86.83467615500007, 25.784351597000068], [86.83470631800003, 25.78353471400004], [86.83495088600006, 25.782469626000022], [86.83598831700004, 25.780872223000074], [86.83674116700007, 25.780515868000066], [86.83772828100007, 25.78016413100005], [86.83795272800006, 25.779735380000034], [86.83775864700004, 25.77871988100003], [86.83831710100003, 25.778133283000045], [86.83748467900006, 25.777952479000078], [86.83603906800005, 25.777906966000046], [86.83463844000005, 25.777802806000068], [86.83328736300007, 25.778163518000042], [86.83115381900006, 25.77851041400004], [86.82941409500006, 25.778338378000058], [86.82772934400003, 25.778157277000048], [86.82642880100008, 25.776848019000056], [86.82561212300004, 25.774762569000075], [86.82550775700008, 25.77393657500005], [86.82505942700004, 25.77328201000006], [86.82390834100005, 25.772396935000074], [86.82368444300005, 25.771607046000042], [86.82333556900005, 25.771318075000067], [86.81979158400009, 25.771402530000046], [86.81904375800008, 25.771605386000033], [86.81814162200004, 25.77154637600006], [86.81504101600007, 25.77186102400003], [86.81243904100006, 25.772017882000057], [86.81169142600004, 25.771809921000056], [86.81057026700006, 25.771254343000066], [86.80848279100007, 25.769321655000056], [86.80741165500007, 25.768391414000064], [86.80599661600007, 25.767370741000036], [86.80396389000003, 25.76588939100003], [86.80315735600004, 25.764336403000073], [86.80207618200006, 25.763609234000057], [86.79997299300004, 25.763436658000046], [86.79860226200003, 25.76351723700003], [86.79690799300005, 25.762929599000074], [86.79558748900007, 25.762450433000026], [86.79548367300004, 25.761159547000034], [86.79570842300006, 25.760433012000078], [86.79522025800009, 25.760031138000045], [86.79098354700005, 25.76039883800007], [86.78999168600006, 25.760416272000043], [86.78697628100008, 25.760549868000055], [86.78600911200004, 25.760887796000077], [86.78524118900003, 25.76137022200004], [86.78495633300008, 25.76238107100005], [86.78453717300005, 25.762954028000024], [86.78358972700005, 25.763580802000035], [86.78229786800006, 25.764780483000038], [86.77887009100004, 25.769381829000054], [86.77771296100008, 25.77020701200007], [86.77573409400009, 25.770282387000066], [86.77457255600007, 25.770426042000054], [86.77067824400007, 25.772088761000077], [86.76835036300008, 25.772163762000048], [86.76829999500006, 25.77282268400006], [86.76850370000005, 25.77358560400006], [86.76888225200008, 25.77384760600006], [86.76865192800005, 25.77502995900005], [86.76999167600007, 25.77633078200006], [86.77045465300006, 25.777044180000075], [86.77053349100004, 25.77811837300004], [86.76984470400004, 25.779124377000073], [86.76995882600005, 25.77976535700003], [86.77040098100008, 25.781494273000078], [86.77203453800007, 25.783246570000074], [86.77349947800008, 25.783956208000063], [86.77488965000003, 25.784855358000073], [86.77707268200004, 25.785299139000074], [86.77799853900007, 25.787109574000056], [86.77836977400005, 25.790354903000036], [86.77945156600003, 25.790418844000044], [86.78026439900003, 25.790130446000035], [86.78096246500007, 25.789918810000074], [86.78186994500004, 25.789820097000074], [86.78238831300007, 25.789847511000062], [86.78273231100007, 25.789942500000052], [86.78385330200007, 25.790859391000026], [86.78632407500004, 25.79345163100004], [86.78690234300007, 25.793609899000046], [86.78810381700004, 25.793597074000047], [86.79003350400006, 25.793201100000033], [86.79068151100006, 25.79325110800005], [86.79116006700008, 25.793422835000058], [86.79195695400006, 25.794502043000023], [86.79330744700007, 25.79536029800005], [86.79496299600004, 25.794914426000048], [86.79654379400006, 25.794315014000063], [86.79775571300007, 25.793507764000026]]]]}}, {"type": "Feature", "properties": {"OBJECTID": 8349, "GPCODE": "97542", "GPNAME_1": "PATARGHAT", "DIST_CEN_C": "12", "BLK_NAME": "PATARGHAT", "ST_NAME": "BIHAR", "ST_CODE_1": "10", "GPCODE2011": "100029", "REMARKS": "FINALIZED", "MAP_STATUS": "COMPLETED", "BLK_C_2001": "120006", "BLK_C_2011": "01176", "DIST_NAME": "SAHARSA", "code2011": 0.0, "Shape_Leng": 0.13262021537, "Shape_Area": 0.00066480798, "Area": 7.38048}, "geometry": {"type": "MultiPolygon", "coordinates": [[[[86.77816187700006, 25.81330947500004], [86.77833758900005, 25.811883377000072], [86.77960408300004, 25.811897730000055], [86.77995293300006, 25.812069433000033], [86.78025656400007, 25.812751140000046], [86.78382165300008, 25.812902359000077], [86.78549705700004, 25.81296211500006], [86.78575678200008, 25.812375503000055], [86.78553895200008, 25.810213488000045], [86.78569397500007, 25.809554708000064], [86.78636225900004, 25.809361027000023], [86.78740430900007, 25.809411269000066], [86.78953351200005, 25.809227512000064], [86.79047110100004, 25.809011463000047], [86.79131422600005, 25.80838453700005], [86.79228684700007, 25.807775809000077], [86.79229227400003, 25.807184626000037], [86.79235238600006, 25.806746830000066], [86.79340467300005, 25.80647214000004], [86.79384411000007, 25.80540720600004], [86.79446782100007, 25.804685471000028], [86.79481232700005, 25.804094398000075], [86.79485266100005, 25.803430940000055], [86.79460467700005, 25.80136825200003], [86.79416686800005, 25.800018478000027], [86.79380900700005, 25.798352924000028], [86.79331630300004, 25.796958009000036], [86.79319729900004, 25.796122981000053], [86.79330744700007, 25.79536029800005], [86.79195695400006, 25.794502043000023], [86.79116006700008, 25.793422835000058], [86.79068151100006, 25.79325110800005], [86.79003350400006, 25.793201100000033], [86.78810381700004, 25.793597074000047], [86.78690234300007, 25.793609899000046], [86.78632407500004, 25.79345163100004], [86.78385330200007, 25.790859391000026], [86.78273231100007, 25.789942500000052], [86.78238831300007, 25.789847511000062], [86.78186994500004, 25.789820097000074], [86.78096246500007, 25.789918810000074], [86.78026439900003, 25.790130446000035], [86.77945156600003, 25.790418844000044], [86.77836977400005, 25.790354903000036], [86.77799853900007, 25.787109574000056], [86.77707268200004, 25.785299139000074], [86.77488965000003, 25.784855358000073], [86.77349947800008, 25.783956208000063], [86.77203453800007, 25.783246570000074], [86.77040098100008, 25.781494273000078], [86.76995882600005, 25.77976535700003], [86.76984470400004, 25.779124377000073], [86.77053349100004, 25.77811837300004], [86.77045465300006, 25.777044180000075], [86.76999167600007, 25.77633078200006], [86.76865192800005, 25.77502995900005], [86.76717048700004, 25.77614359900008], [86.76662650800006, 25.77681119400006], [86.76633176200005, 25.777537584000072], [86.76603142100004, 25.77896359400006], [86.76606539200003, 25.779979123000032], [86.76573060400005, 25.780890572000033], [86.76503112900008, 25.782641161000072], [86.76446170700007, 25.783809693000023], [86.76446640200004, 25.784193353000035], [86.76396674500006, 25.78538445600003], [86.76459881800008, 25.786540425000055], [86.76428426700005, 25.787059200000044], [86.76399491600006, 25.787293610000063], [86.76337128900008, 25.78779413600006], [86.76320605800004, 25.788561308000055], [86.76382756500004, 25.79039417100006], [86.76406438600009, 25.793048148000025], [86.76392418300009, 25.79373860000004], [86.76366898800006, 25.794722294000053], [86.76441097100007, 25.795670632000054], [86.76417037900006, 25.79704252500005], [86.76399988000009, 25.79809401700004], [86.76409942700008, 25.798288112000023], [86.76504162900005, 25.798361082000042], [86.76552465000003, 25.799092591000033], [86.76620237100008, 25.799445126000023], [86.76860952800007, 25.80046239400008], [86.76974055700003, 25.80132523700007], [86.77067186000005, 25.80249486500003], [86.77105978700007, 25.803695696000034], [86.77096830200009, 25.80563187100006], [86.77081668800008, 25.808064416000036], [86.77077630000008, 25.80861050200008], [86.77060633600007, 25.809052700000052], [86.77053579600005, 25.809937253000044], [86.77024126500004, 25.81032969300003], [86.76904400200004, 25.811064491000025], [86.76717873800004, 25.81145121000003], [86.76635568700004, 25.811856870000042], [86.76535193300003, 25.81351692800007], [86.76581048900005, 25.813688865000074], [86.76725645500005, 25.813820793000048], [86.76933063500007, 25.813908050000066], [86.77125020600005, 25.81409449800003], [86.77455646300007, 25.813686063000034], [86.77754344500005, 25.813480496000068], [86.77816187700006, 25.81330947500004]]]]}}, {"type": "Feature", "properties": {"OBJECTID": 8355, "GPCODE": "97536", "GPNAME_1": "GOLMA  EAST", "DIST_CEN_C": "12", "BLK_NAME": "PATARGHAT", "ST_NAME": "BIHAR", "ST_CODE_1": "10", "GPCODE2011": "100023", "REMARKS": "FINALIZED", "MAP_STATUS": "COMPLETED", "BLK_C_2001": "120006", "BLK_C_2011": "01176", "DIST_NAME": "SAHARSA", "code2011": 0.0, "Shape_Leng": 0.20068817751, "Shape_Area": 0.00173797472, "Area": 19.2949}, "geometry": {"type": "MultiPolygon", "coordinates": [[[[86.73131994700003, 25.774254023000026], [86.73485609000005, 25.77598417300004], [86.73760399500009, 25.779113731000052], [86.73508508200007, 25.792700592000074], [86.73241350800004, 25.79666978800003], [86.72874963600003, 25.800104669000063], [86.72407208700008, 25.803722039000036], [86.72455655900006, 25.804728203000025], [86.72483628500004, 25.805256100000065], [86.72501191000003, 25.806618935000074], [86.72509282000004, 25.80789162900004], [86.72457035000008, 25.809200909000026], [86.72441632000005, 25.809868969000036], [86.72366409000006, 25.810614104000024], [86.72230376900006, 25.811779500000057], [86.72187520200004, 25.81202803700006], [86.72207001300006, 25.812497243000053], [86.72224540400003, 25.813526161000027], [86.72234142000008, 25.815020013000037], [86.72246695600006, 25.816089588000068], [86.72268210300007, 25.817059765000067], [86.72326636900004, 25.817975575000048], [86.72362077900004, 25.818485320000036], [86.72457322700006, 25.818520790000036], [86.72665298300006, 25.818884911000055], [86.72762545000006, 25.81910087400007], [86.72921135100006, 25.819230696000034], [86.73092694100006, 25.819509278000055], [86.73186443800006, 25.819544706000045], [86.73275197800007, 25.81948989700004], [86.73414308700006, 25.819317298000044], [86.73493056300003, 25.81890598800004], [86.73599246600008, 25.818580249000036], [86.73659572200006, 25.818534688000057], [86.73749310200003, 25.81828119000005], [86.73880415500008, 25.817932665000058], [86.74112751900003, 25.81750654600006], [86.74174579400005, 25.81745644500006], [86.74318651800007, 25.817112302000055], [86.74454763400007, 25.81694864700006], [86.74544976600004, 25.81656427300004], [86.74640627400004, 25.815678905000027], [86.74712901400005, 25.815416527000025], [86.74755775800008, 25.815298811000048], [86.74761153500003, 25.81531112400006], [86.75016089300004, 25.816149508000024], [86.75106789800003, 25.816673812000033], [86.75194984300003, 25.817297396000072], [86.75278140900008, 25.818435427000054], [86.75422747600004, 25.81853596800005], [86.75696023900008, 25.818366713000046], [86.75876537400006, 25.818363643000055], [86.76024663400005, 25.818026331000056], [86.76006870400005, 25.816374288000077], [86.76028405600005, 25.815426709000064], [86.76161539000003, 25.81538708200003], [86.76264826400006, 25.81465221700006], [86.76356582600005, 25.814594267000075], [86.76413427400007, 25.814572128000066], [86.76506740800005, 25.813814593000075], [86.76535193300003, 25.81351692800007], [86.76635568700004, 25.811856870000042], [86.76717873800004, 25.81145121000003], [86.76904400200004, 25.811064491000025], [86.77024126500004, 25.81032969300003], [86.77053579600005, 25.809937253000044], [86.77060633600007, 25.809052700000052], [86.77077630000008, 25.80861050200008], [86.77081668800008, 25.808064416000036], [86.77096830200009, 25.80563187100006], [86.77105978700007, 25.803695696000034], [86.77067186000005, 25.80249486500003], [86.76974055700003, 25.80132523700007], [86.76860952800007, 25.80046239400008], [86.76620237100008, 25.799445126000023], [86.76552465000003, 25.799092591000033], [86.76504162900005, 25.798361082000042], [86.76409942700008, 25.798288112000023], [86.76399988000009, 25.79809401700004], [86.76417037900006, 25.79704252500005], [86.76441097100007, 25.795670632000054], [86.76366898800006, 25.794722294000053], [86.76392418300009, 25.79373860000004], [86.76406438600009, 25.793048148000025], [86.76382756500004, 25.79039417100006], [86.76320605800004, 25.788561308000055], [86.76337128900008, 25.78779413600006], [86.76399491600006, 25.787293610000063], [86.76428426700005, 25.787059200000044], [86.76459881800008, 25.786540425000055], [86.76396674500006, 25.78538445600003], [86.76446640200004, 25.784193353000035], [86.76446170700007, 25.783809693000023], [86.76503112900008, 25.782641161000072], [86.76573060400005, 25.780890572000033], [86.76606539200003, 25.779979123000032], [86.76603142100004, 25.77896359400006], [86.76633176200005, 25.777537584000072], [86.76662650800006, 25.77681119400006], [86.76717048700004, 25.77614359900008], [86.76865192800005, 25.77502995900005], [86.76888225200008, 25.77384760600006], [86.76850370000005, 25.77358560400006], [86.76829999500006, 25.77282268400006], [86.76835036300008, 25.772163762000048], [86.76797833400008, 25.77016407600007], [86.76678397100005, 25.768064483000046], [86.76593222700006, 25.76734173500006], [86.76451142400003, 25.76767015300004], [86.76073274700008, 25.768208788000038], [86.76027450700008, 25.767888049000078], [86.75811685400004, 25.76727703000006], [86.75686082800007, 25.767154101000074], [86.75579378600008, 25.76756397500003], [86.75269684700004, 25.769199701000048], [86.75104171300006, 25.769532274000028], [86.74829364600004, 25.771064506000073], [86.74761313700003, 25.771153180000056], [86.74754180400004, 25.771158670000034], [86.74602716000004, 25.77175122600005], [86.74487577300005, 25.77186050000006], [86.74325143300007, 25.772439546000044], [86.74182594000007, 25.772585096000057], [86.74097810400008, 25.772066739000024], [86.74035436100007, 25.77142637000003], [86.73934559400004, 25.769445760000053], [86.73831764900007, 25.768264101000057], [86.73774415400004, 25.767984773000023], [86.73463919000005, 25.768244389000074], [86.73359774900007, 25.768597174000035], [86.73314451500005, 25.768949538000072], [86.73289582600006, 25.76959961800003], [86.73279181700008, 25.770303864000027], [86.73242363400004, 25.771026180000035], [86.73163650400005, 25.77155033500003], [86.73126852300004, 25.772444258000064], [86.73131994700003, 25.774254023000026]]]]}}, {"type": "Feature", "properties": {"OBJECTID": 8359, "GPCODE": "97540", "GPNAME_1": "PAMA", "DIST_CEN_C": "12", "BLK_NAME": "PATARGHAT", "ST_NAME": "BIHAR", "ST_CODE_1": "10", "GPCODE2011": "100027", "REMARKS": "FINALIZED", "MAP_STATUS": "COMPLETED", "BLK_C_2001": "120006", "BLK_C_2011": "01176", "DIST_NAME": "SAHARSA", "code2011": 0.0, "Shape_Leng": 0.15493667611, "Shape_Area": 0.00085681203, "Area": 9.51098}, "geometry": {"type": "MultiPolygon", "coordinates": [[[[86.82925201200004, 25.82522255600003], [86.83048381400005, 25.824947571000052], [86.83324145200004, 25.825183147000075], [86.83443839400007, 25.82503448400007], [86.83613383700003, 25.82507108200008], [86.83721599600005, 25.82511647000007], [86.84128024200004, 25.824982092000027], [86.84215297400004, 25.82472501600006], [86.84320020200005, 25.824874244000057], [86.84549899600006, 25.82513190700007], [86.84646677500007, 25.823859423000044], [86.84684602100003, 25.822681466000063], [86.84729019800005, 25.820808550000038], [86.84747508200007, 25.819495252000024], [86.84808356500008, 25.818511427000033], [86.84838295100008, 25.817599796000025], [86.84872722800003, 25.816936387000055], [86.84956516300008, 25.81594816200004], [86.85102634400005, 25.814675648000048], [86.85226314200008, 25.81400792000005], [86.85396339100004, 25.814274408000074], [86.85704006700007, 25.814049172000068], [86.85850606600007, 25.813584456000058], [86.85943849500006, 25.81316029900006], [86.86100442200006, 25.811869707000028], [86.86064038100005, 25.811625983000056], [86.85793282500003, 25.81226200100008], [86.85701533200006, 25.812636482000073], [86.85591334900005, 25.81269952200006], [86.85595871200007, 25.80937775500007], [86.85561488000008, 25.807631092000065], [86.85581465600006, 25.805270612000072], [86.85666732300007, 25.805275308000034], [86.85694660900003, 25.80456674100003], [86.85711644000008, 25.802264965000063], [86.85703201300004, 25.800039894000065], [86.85739602700005, 25.799362962000032], [86.85858279900003, 25.79860479200005], [86.85996391100008, 25.797855819000063], [86.85958023500007, 25.795558450000044], [86.85754128000008, 25.795061737000026], [86.85598082300004, 25.794903641000076], [86.85502857900008, 25.794650734000072], [86.85433078700004, 25.793571972000052], [86.85326874700007, 25.794465471000024], [86.85239622700004, 25.794591711000066], [86.85151386100006, 25.79433423100005], [86.85094066900007, 25.793914441000027], [86.85040742200005, 25.79288985900007], [86.84616940600006, 25.79422948100006], [86.84406045600008, 25.794635245000052], [86.84097920000005, 25.79557789200004], [86.83916940400007, 25.795771537000064], [86.83887484900004, 25.797129924000046], [86.83759310600004, 25.798289527000065], [86.83671017900008, 25.800058471000057], [86.83717850600004, 25.80112832100008], [86.83717818900004, 25.801994826000055], [86.83665955700008, 25.80232420300007], [86.83552760400005, 25.802883570000063], [86.83454516800003, 25.803673109000044], [86.83338834300008, 25.804015778000064], [86.83141853900008, 25.80489077200008], [86.82998268400007, 25.804759457000046], [86.82871624100005, 25.804695862000074], [86.82670652100006, 25.805801005000035], [86.82487111300009, 25.807100215000048], [86.82326485600004, 25.808796611000048], [86.82223765400005, 25.80910771300006], [86.82282405400008, 25.813490302000048], [86.82249458200005, 25.814451469000062], [86.81992564800004, 25.816589837000038], [86.81842932000006, 25.817401696000047], [86.81488340900006, 25.818501496000067], [86.81417043300007, 25.818415463000065], [86.81303889300005, 25.817485247000036], [86.81210657000008, 25.81721407200007], [86.81252942200007, 25.81911881900004], [86.81334139700004, 25.82081620100007], [86.81383975700004, 25.821488858000066], [86.81438314900004, 25.821692220000045], [86.81543536100008, 25.82175132200007], [86.81605361800007, 25.82186434600004], [86.81467173900006, 25.823019265000028], [86.81510498300008, 25.824323758000048], [86.81804721000003, 25.824099302000036], [86.82120375100004, 25.82420881300004], [86.82441534800006, 25.823907572000053], [86.82633048800005, 25.82344787900007], [86.82697352600007, 25.824043860000074], [86.82647941300007, 25.825190044000067], [86.82925201200004, 25.82522255600003]]]]}}, {"type": "Feature", "properties": {"OBJECTID": 8360, "GPCODE": "97541", "GPNAME_1": "PASTPAR", "DIST_CEN_C": "12", "BLK_NAME": "PATARGHAT", "ST_NAME": "BIHAR", "ST_CODE_1": "10", "GPCODE2011": "100028", "REMARKS": "FINALIZED", "MAP_STATUS": "COMPLETED", "BLK_C_2001": "120006", "BLK_C_2011": "01176", "DIST_NAME": "SAHARSA", "code2011": 0.0, "Shape_Leng": 0.1880170819, "Shape_Area": 0.00129696242, "Area": 14.394}, "geometry": {"type": "MultiPolygon", "coordinates": [[[[86.84129112400007, 25.85830820700005], [86.84213917900007, 25.85780738300008], [86.84329147200003, 25.85783022000004], [86.84443382800004, 25.85764539200005], [86.84656387000007, 25.85726224900003], [86.84757651600006, 25.85684267700003], [86.84755688600006, 25.855479643000024], [86.84827576400005, 25.85272674500004], [86.84851551400004, 25.851232813000024], [86.84908439200007, 25.84964424800006], [86.84926920400005, 25.848543128000074], [86.84966830500008, 25.847888743000055], [86.85015723800007, 25.847568385000045], [86.85245665200006, 25.846887243000026], [86.85205801900008, 25.845190194000054], [86.85211310600005, 25.843949046000034], [86.85358478200004, 25.841426306000074], [86.85375473500005, 25.83927806300005], [86.85436829000008, 25.838555992000067], [86.85572493200004, 25.83833500700007], [86.85640825000007, 25.837933468000074], [86.85671760400004, 25.83719780200005], [86.85710215700004, 25.83342477000008], [86.85738656300003, 25.831791018000047], [86.85810500300005, 25.829611112000066], [86.86068838300008, 25.828433490000066], [86.86220956700004, 25.82747679000005], [86.86458846900007, 25.825057860000072], [86.86483787100008, 25.824353832000043], [86.86513218600004, 25.822309308000058], [86.86911659100008, 25.822286976000044], [86.87018367500008, 25.82212451600003], [86.86995938400008, 25.82129851700006], [86.87014886200006, 25.820070929000053], [86.87123099900003, 25.819010352000078], [86.87127094200008, 25.817493932000048], [86.87258738400004, 25.81685301400006], [86.87373921200003, 25.816496460000053], [86.87431267700003, 25.81597292400005], [86.87379906000007, 25.814564794000034], [86.87252754700006, 25.81465506400008], [86.87131091900005, 25.81446091600003], [86.87055295900007, 25.813788472000056], [86.86958066200003, 25.813635014000056], [86.86599544700005, 25.81357158000003], [86.86534737400007, 25.81255608300006], [86.86384652200007, 25.812361895000038], [86.86290898600004, 25.81373386200005], [86.86231059400006, 25.81423929300007], [86.86100442200006, 25.811869707000028], [86.85943849500006, 25.81316029900006], [86.85850606600007, 25.813584456000058], [86.85704006700007, 25.814049172000068], [86.85396339100004, 25.814274408000074], [86.85226314200008, 25.81400792000005], [86.85102634400005, 25.814675648000048], [86.84956516300008, 25.81594816200004], [86.84872722800003, 25.816936387000055], [86.84838295100008, 25.817599796000025], [86.84808356500008, 25.818511427000033], [86.84747508200007, 25.819495252000024], [86.84729019800005, 25.820808550000038], [86.84684602100003, 25.822681466000063], [86.84646677500007, 25.823859423000044], [86.84549899600006, 25.82513190700007], [86.84320020200005, 25.824874244000057], [86.84215297400004, 25.82472501600006], [86.84128024200004, 25.824982092000027], [86.83721599600005, 25.82511647000007], [86.83613383700003, 25.82507108200008], [86.83443839400007, 25.82503448400007], [86.83324145200004, 25.825183147000075], [86.83048381400005, 25.824947571000052], [86.82925201200004, 25.82522255600003], [86.82647941300007, 25.825190044000067], [86.82697352600007, 25.824043860000074], [86.82633048800005, 25.82344787900007], [86.82441534800006, 25.823907572000053], [86.82120375100004, 25.82420881300004], [86.81804721000003, 25.824099302000036], [86.81510498300008, 25.824323758000048], [86.81509470300006, 25.824869828000033], [86.81584179500004, 25.826747642000043], [86.81609009400006, 25.828945770000075], [86.81667745000004, 25.831094309000036], [86.81781446500008, 25.83130241500004], [86.81894627900004, 25.831690925000032], [86.81912563100008, 25.83224618400004], [86.81999717300005, 25.83478296800007], [86.82099951300006, 25.835058675000028], [86.82099419200006, 25.835694986000078], [86.82059005100007, 25.836114617000078], [86.82015581700006, 25.836877233000052], [86.82121805100007, 25.837107754000044], [86.82128762100007, 25.837595234000048], [86.82152671600005, 25.838231697000026], [86.82188058800006, 25.838922359000037], [86.82283762200007, 25.840168388000052], [86.82339072600007, 25.841364604000034], [86.82316084800004, 25.842434136000065], [86.82298090400008, 25.84323295200005], [86.82312953700006, 25.845485073000077], [86.82344343200003, 25.84639239300003], [86.82397571000007, 25.84968279800006], [86.82440403800007, 25.85129863800006], [86.82460301700007, 25.852494715000034], [86.82493163400005, 25.853898540000046], [86.82604880700006, 25.854286999000067], [86.82638280600008, 25.854846790000067], [86.82701122800006, 25.855081661000042], [86.82776926100007, 25.85535275600006], [86.82886657000006, 25.855533605000062], [86.83073708200004, 25.85552971000004], [86.83208872500006, 25.855985949000058], [86.83330576300006, 25.85615331200006], [86.83482678900003, 25.856997641000078], [86.83594409100004, 25.857286815000066], [86.83696673600008, 25.857079481000028], [86.83794412900005, 25.85782892800006], [86.83848286900007, 25.857847165000067], [86.84129112400007, 25.85830820700005]]]]}}, {"type": "Feature", "properties": {"OBJECTID": 8361, "GPCODE": "97532", "GPNAME_1": "BISHANPUR", "DIST_CEN_C": "12", "BLK_NAME": "PATARGHAT", "ST_NAME": "BIHAR", "ST_CODE_1": "10", "GPCODE2011": "100019", "REMARKS": "FINALIZED", "MAP_STATUS": "COMPLETED", "BLK_C_2001": "120006", "BLK_C_2011": "01176", "DIST_NAME": "SAHARSA", "code2011": 0.0, "Shape_Leng": 0.18208454762, "Shape_Area": 0.00091820394, "Area": 10.1903}, "geometry": {"type": "MultiPolygon", "coordinates": [[[[86.77866494800008, 25.839026518000026], [86.77945297000008, 25.838941241000043], [86.78056990300007, 25.839257901000053], [86.78214600400008, 25.839119010000047], [86.78444560100007, 25.838547292000044], [86.78820139900006, 25.83812986600003], [86.78908440700008, 25.83782345900005], [86.78959327800004, 25.837611674000073], [86.78989803000007, 25.83682652300007], [86.78790953000004, 25.834816889000024], [86.78799971100005, 25.834343064000052], [86.78888296100007, 25.833571821000078], [86.78854427000005, 25.833020998000052], [86.78809565500006, 25.832582934000072], [86.78779203900007, 25.831752292000033], [86.78877060700006, 25.830304153000043], [86.78890067400005, 25.829717490000064], [86.78855668500006, 25.82959994400005], [86.78772354700004, 25.83002365300007], [86.78634691400003, 25.830230456000038], [86.78560418000006, 25.82989604200003], [86.78473641800008, 25.829832284000076], [86.78398825700003, 25.830080099000043], [86.78367032900007, 25.828450584000052], [86.78375556300006, 25.82780526700003], [86.78410069200004, 25.82646501100004], [86.78401131500004, 25.825964010000064], [86.78108454600005, 25.82522193400007], [86.78084145900004, 25.823615033000067], [86.78054825000004, 25.822315041000024], [86.78038999800003, 25.820712730000025], [86.78194085700005, 25.820614447000025], [86.78122032200008, 25.817404957000065], [86.78082817700005, 25.815062348000026], [86.78025656400007, 25.812751140000046], [86.77995293300006, 25.812069433000033], [86.77960408300004, 25.811897730000055], [86.77833758900005, 25.811883377000072], [86.77816187700006, 25.81330947500004], [86.77754344500005, 25.813480496000068], [86.77455646300007, 25.813686063000034], [86.77125020600005, 25.81409449800003], [86.76933063500007, 25.813908050000066], [86.76725645500005, 25.813820793000048], [86.76581048900005, 25.813688865000074], [86.76535193300003, 25.81351692800007], [86.76506740800005, 25.813814593000075], [86.76413427400007, 25.814572128000066], [86.76356582600005, 25.814594267000075], [86.76264826400006, 25.81465221700006], [86.76161539000003, 25.81538708200003], [86.76028405600005, 25.815426709000064], [86.76006870400005, 25.816374288000077], [86.76024663400005, 25.818026331000056], [86.76090459000005, 25.818288642000027], [86.76171686000004, 25.818884986000057], [86.76257356600007, 25.819959788000062], [86.76366949600003, 25.82113868500005], [86.76530320200004, 25.823175382000045], [86.76632962100007, 25.824132978000023], [86.76700752300007, 25.824440363000065], [86.76795984500006, 25.82462158100003], [86.76854834000005, 25.824567881000064], [86.76925643500005, 25.82465415100006], [86.77008439500008, 25.824469718000046], [86.77092234400004, 25.82424919700003], [86.77118642000005, 25.824470484000074], [86.77117112600007, 25.824872137000057], [86.77088161100005, 25.82524657600004], [86.77022315500005, 25.825435611000046], [86.76876117400008, 25.826432012000055], [86.76827681900005, 25.82705903300007], [86.76584750500007, 25.827901186000076], [86.76565236500005, 25.82863675300007], [86.76540242300007, 25.829304510000043], [86.76686295700006, 25.829987134000078], [86.76814896800005, 25.83067402300003], [86.76833768300008, 25.831599418000053], [86.76846401700004, 25.835291401000063], [86.76693318600007, 25.835105226000053], [86.76586602900005, 25.834996055000033], [86.76491248700006, 25.836033394000026], [86.76221292600007, 25.837629040000024], [86.76134445400004, 25.838260199000047], [86.76152201000008, 25.840395200000046], [86.76054392500004, 25.840981097000054], [86.76064788200006, 25.841789044000052], [86.76029339300004, 25.842181478000043], [86.75898618900004, 25.842654268000047], [86.75720997900004, 25.843343438000034], [86.75657568300005, 25.844295183000042], [86.75657505500004, 25.844908978000035], [86.75674902000009, 25.84544619600007], [86.75655280000007, 25.847210718000042], [86.75655178600005, 25.84827589400004], [86.75510026800004, 25.84836498800007], [86.75502454100007, 25.84925396600005], [86.75516802600004, 25.850364359000025], [86.75580459100007, 25.852287540000077], [86.75585817300004, 25.85360098700005], [86.75626055100008, 25.855235141000037], [86.75633909700008, 25.856512406000036], [86.75636369700004, 25.85690512900004], [86.75848312800008, 25.857461947000047], [86.75981936500006, 25.858072291000042], [86.75952806600003, 25.86011663200003], [86.76319917400008, 25.860313511000072], [86.76428658200007, 25.86039557500004], [86.76541860600008, 25.860721454000043], [86.76529727100007, 25.86253116900008], [86.76545588600004, 25.863623480000058], [86.76640373200007, 25.863565503000075], [86.76960239900006, 25.862277066000047], [86.77212757700005, 25.86112352600003], [86.77585950600007, 25.860286599000062], [86.77546199400007, 25.858305003000055], [86.77516507100006, 25.855515592000074], [86.77526524100006, 25.85501021300007], [86.77715761600007, 25.85267814900004], [86.77702853700004, 25.851874717000044], [86.77652134800007, 25.850001336000048], [86.77786982300006, 25.84783590400008], [86.77800498600004, 25.847204086000033], [86.77770308900006, 25.844256709000035], [86.77889279500005, 25.840913183000055], [86.77866494800008, 25.839026518000026]]]]}}, {"type": "Feature", "properties": {"OBJECTID": 8383, "GPCODE": "97534", "GPNAME_1": "DHABAULI \u00a0\u00a0WEST", "DIST_CEN_C": "12", "BLK_NAME": "PATARGHAT", "ST_NAME": "BIHAR", "ST_CODE_1": "10", "GPCODE2011": "100021", "REMARKS": "FINALIZED", "MAP_STATUS": "COMPLETED", "BLK_C_2001": "120006", "BLK_C_2011": "01176", "DIST_NAME": "SAHARSA", "code2011": 0.0, "Shape_Leng": 0.1666435296, "Shape_Area": 0.0011256807, "Area": 12.4917}, "geometry": {"type": "MultiPolygon", "coordinates": [[[[86.81584179500004, 25.826747642000043], [86.81134979500007, 25.829686863000063], [86.80521078500004, 25.83168561100007], [86.80335480600007, 25.83454096400004], [86.79750133200008, 25.83753908500006], [86.78888296100007, 25.833571821000078], [86.78799971100005, 25.834343064000052], [86.78790953000004, 25.834816889000024], [86.78989803000007, 25.83682652300007], [86.78959327800004, 25.837611674000073], [86.78908440700008, 25.83782345900005], [86.78820139900006, 25.83812986600003], [86.78444560100007, 25.838547292000044], [86.78214600400008, 25.839119010000047], [86.78056990300007, 25.839257901000053], [86.77945297000008, 25.838941241000043], [86.77866494800008, 25.839026518000026], [86.77889279500005, 25.840913183000055], [86.77770308900006, 25.844256709000035], [86.77800498600004, 25.847204086000033], [86.77786982300006, 25.84783590400008], [86.77652134800007, 25.850001336000048], [86.77702853700004, 25.851874717000044], [86.77715761600007, 25.85267814900004], [86.77526524100006, 25.85501021300007], [86.77516507100006, 25.855515592000074], [86.77546199400007, 25.858305003000055], [86.77585950600007, 25.860286599000062], [86.77694263900008, 25.859411774000023], [86.77801520700007, 25.85924549200007], [86.77881862300006, 25.85892106700004], [86.77930298200005, 25.85823544400006], [86.78057002600008, 25.85817305200004], [86.78078385900005, 25.85900364400004], [86.78526817700003, 25.859191554000063], [86.78773712800006, 25.85944128400007], [86.78814592800006, 25.85978003100007], [86.78856453600008, 25.860321833000057], [86.78911314100003, 25.86047559000008], [86.79142289500004, 25.860291895000046], [86.79189622600006, 25.861023362000026], [86.79385202200007, 25.860424162000072], [86.79649515300008, 25.861468203000072], [86.79851495100007, 25.86224558600003], [86.79933268900004, 25.86273344400007], [86.80069425000005, 25.863113247000058], [86.80167706800006, 25.863100229000054], [86.80246479400006, 25.863773062000064], [86.80358139600008, 25.865046387000064], [86.80359102700004, 25.865642141000023], [86.80269781200008, 25.866074986000058], [86.80279226600004, 25.866648146000045], [86.80452220600006, 25.86854010500008], [86.80670116500005, 25.870436724000058], [86.80851597200007, 25.872382775000062], [86.80892009800004, 25.87224755400007], [86.81020786300007, 25.871164945000032], [86.81283204400006, 25.870791515000064], [86.81334127600007, 25.87002897800005], [86.81358193200003, 25.867691222000076], [86.81206363300004, 25.860667446000036], [86.81177809800005, 25.85681271900006], [86.81634666300005, 25.851815851000026], [86.81677496600008, 25.848817730000064], [86.81805987500007, 25.844106397000076], [86.82015581700006, 25.836877233000052], [86.82059005100007, 25.836114617000078], [86.82099419200006, 25.835694986000078], [86.82099951300006, 25.835058675000028], [86.81999717300005, 25.83478296800007], [86.81912563100008, 25.83224618400004], [86.81894627900004, 25.831690925000032], [86.81781446500008, 25.83130241500004], [86.81667745000004, 25.831094309000036], [86.81609009400006, 25.828945770000075], [86.81584179500004, 25.826747642000043]]]]}}, {"type": "Feature", "properties": {"OBJECTID": 8428, "GPCODE": "97537", "GPNAME_1": "GOLMA \u00a0WEST", "DIST_CEN_C": "12", "BLK_NAME": "PATARGHAT", "ST_NAME": "BIHAR", "ST_CODE_1": "10", "GPCODE2011": "100024", "REMARKS": "FINALIZED", "MAP_STATUS": "COMPLETED", "BLK_C_2001": "120006", "BLK_C_2011": "01176", "DIST_NAME": "SAHARSA", "code2011": 0.0, "Shape_Leng": 0.07766308453, "Shape_Area": 0.00032037632, "Area": 3.55701}, "geometry": {"type": "MultiPolygon", "coordinates": [[[[86.73131994700003, 25.774254023000026], [86.72802527600004, 25.77445953000006], [86.72733845200008, 25.775728250000043], [86.72737384300007, 25.77620214600006], [86.72758855400008, 25.776644241000042], [86.72755893700008, 25.77694666000008], [86.72668231300008, 25.777800299000035], [86.72683750800007, 25.778599075000045], [86.72657353700004, 25.778829461000043], [86.72584111200007, 25.77921358900005], [86.72584315800003, 25.781637241000055], [86.72570411900006, 25.78227823000003], [86.72546523900007, 25.78274325900003], [86.72355673000004, 25.783696862000056], [86.72334754000008, 25.78388203700007], [86.72329322300004, 25.78442816200004], [86.72346336600003, 25.785254018000046], [86.72366853700004, 25.78624233000005], [86.72362955800008, 25.787289376000047], [86.72382981600003, 25.788273201000038], [86.72393086700004, 25.789879889000076], [86.72195305800005, 25.79160527600004], [86.72065301500004, 25.792978197000025], [86.71918867900007, 25.794626449000077], [86.71872045600009, 25.79525861600007], [86.71839715200008, 25.796107353000025], [86.71830340800005, 25.79735757000003], [86.71826937900005, 25.79847237300004], [86.71838940300006, 25.798946200000046], [86.71927258800008, 25.799911482000027], [86.72040511200004, 25.800745773000074], [86.72221097800008, 25.80208495900007], [86.72301428900005, 25.802738907000048], [86.72407208700008, 25.803722039000036], [86.72874963600003, 25.800104669000063], [86.73241350800004, 25.79666978800003], [86.73508508200007, 25.792700592000074], [86.73760399500009, 25.779113731000052], [86.73485609000005, 25.77598417300004], [86.73131994700003, 25.774254023000026]]]]}}, {"type": "Feature", "properties": {"OBJECTID": 8433, "GPCODE": "97533", "GPNAME_1": "DHABAULI   SOUTH", "DIST_CEN_C": "12", "BLK_NAME": "PATARGHAT", "ST_NAME": "BIHAR", "ST_CODE_1": "10", "GPCODE2011": "100020", "REMARKS": "FINALIZED", "MAP_STATUS": "COMPLETED", "BLK_C_2001": "120006", "BLK_C_2011": "01176", "DIST_NAME": "SAHARSA", "code2011": 0.0, "Shape_Leng": 0.11370122513, "Shape_Area": 0.00069986341, "Area": 7.76811}, "geometry": {"type": "MultiPolygon", "coordinates": [[[[86.81584179500004, 25.826747642000043], [86.81509470300006, 25.824869828000033], [86.81510498300008, 25.824323758000048], [86.81467173900006, 25.823019265000028], [86.81605361800007, 25.82186434600004], [86.81543536100008, 25.82175132200007], [86.81438314900004, 25.821692220000045], [86.81383975700004, 25.821488858000066], [86.81334139700004, 25.82081620100007], [86.81252942200007, 25.81911881900004], [86.81210657000008, 25.81721407200007], [86.80973945700003, 25.814599831000066], [86.80645480500004, 25.81223785800006], [86.80270129000007, 25.81034043300008], [86.79893242300005, 25.809219235000057], [86.79790537800005, 25.809051699000065], [86.79689314800004, 25.809051166000074], [86.79439024900006, 25.80890083500003], [86.79375705500007, 25.80880569900006], [86.79320420300007, 25.807898244000057], [86.79228684700007, 25.807775809000077], [86.79131422600005, 25.80838453700005], [86.79047110100004, 25.809011463000047], [86.78953351200005, 25.809227512000064], [86.78740430900007, 25.809411269000066], [86.78636225900004, 25.809361027000023], [86.78569397500007, 25.809554708000064], [86.78553895200008, 25.810213488000045], [86.78575678200008, 25.812375503000055], [86.78549705700004, 25.81296211500006], [86.78382165300008, 25.812902359000077], [86.78025656400007, 25.812751140000046], [86.78082817700005, 25.815062348000026], [86.78122032200008, 25.817404957000065], [86.78194085700005, 25.820614447000025], [86.78038999800003, 25.820712730000025], [86.78054825000004, 25.822315041000024], [86.78084145900004, 25.823615033000067], [86.78108454600005, 25.82522193400007], [86.78401131500004, 25.825964010000064], [86.78410069200004, 25.82646501100004], [86.78375556300006, 25.82780526700003], [86.78367032900007, 25.828450584000052], [86.78398825700003, 25.830080099000043], [86.78473641800008, 25.829832284000076], [86.78560418000006, 25.82989604200003], [86.78634691400003, 25.830230456000038], [86.78772354700004, 25.83002365300007], [86.78855668500006, 25.82959994400005], [86.78890067400005, 25.829717490000064], [86.78877060700006, 25.830304153000043], [86.78779203900007, 25.831752292000033], [86.78809565500006, 25.832582934000072], [86.78854427000005, 25.833020998000052], [86.78888296100007, 25.833571821000078], [86.79750133200008, 25.83753908500006], [86.80335480600007, 25.83454096400004], [86.80521078500004, 25.83168561100007], [86.81134979500007, 25.829686863000063], [86.81584179500004, 25.826747642000043]]]]}}, {"type": "Feature", "properties": {"OBJECTID": 8434, "GPCODE": "97535", "GPNAME_1": "DHABAULI   EAST", "DIST_CEN_C": "12", "BLK_NAME": "PATARGHAT", "ST_NAME": "BIHAR", "ST_CODE_1": "10", "GPCODE2011": "100022", "REMARKS": "FINALIZED", "MAP_STATUS": "COMPLETED", "BLK_C_2001": "120006", "BLK_C_2011": "01176", "DIST_NAME": "SAHARSA", "code2011": 0.0, "Shape_Leng": 0.12814243082, "Shape_Area": 0.00052386979, "Area": 5.81287}, "geometry": {"type": "MultiPolygon", "coordinates": [[[[86.82015581700006, 25.836877233000052], [86.81805987500007, 25.844106397000076], [86.81677496600008, 25.848817730000064], [86.81634666300005, 25.851815851000026], [86.81177809800005, 25.85681271900006], [86.81206363300004, 25.860667446000036], [86.81358193200003, 25.867691222000076], [86.81491392700008, 25.867569888000048], [86.81910442100008, 25.867368446000057], [86.81965308900004, 25.86770264300003], [86.82012175400007, 25.86824447300006], [86.82069484100003, 25.869625695000025], [86.82594797700006, 25.86923038300006], [86.82594851700009, 25.86809309000006], [86.83155556700007, 25.86837468500005], [86.83256337600005, 25.86796878900003], [86.83461370100008, 25.86791974500005], [86.84044014300008, 25.86895475700004], [86.84100877000003, 25.869198650000044], [86.84145246800006, 25.870105932000058], [86.84216061800004, 25.87096805500005], [86.84357249400006, 25.870792392000055], [86.84319009800004, 25.863837329000035], [86.84571946900007, 25.86281789000003], [86.84878756000006, 25.86191130800006], [86.84868807900006, 25.860710788000063], [86.84905231200008, 25.860128601000042], [86.84895276600008, 25.85910863400005], [86.84815004600006, 25.85747009100004], [86.84757651600006, 25.85684267700003], [86.84656387000007, 25.85726224900003], [86.84443382800004, 25.85764539200005], [86.84329147200003, 25.85783022000004], [86.84213917900007, 25.85780738300008], [86.84129112400007, 25.85830820700005], [86.83848286900007, 25.857847165000067], [86.83794412900005, 25.85782892800006], [86.83696673600008, 25.857079481000028], [86.83594409100004, 25.857286815000066], [86.83482678900003, 25.856997641000078], [86.83330576300006, 25.85615331200006], [86.83208872500006, 25.855985949000058], [86.83073708200004, 25.85552971000004], [86.82886657000006, 25.855533605000062], [86.82776926100007, 25.85535275600006], [86.82701122800006, 25.855081661000042], [86.82638280600008, 25.854846790000067], [86.82604880700006, 25.854286999000067], [86.82493163400005, 25.853898540000046], [86.82460301700007, 25.852494715000034], [86.82440403800007, 25.85129863800006], [86.82397571000007, 25.84968279800006], [86.82344343200003, 25.84639239300003], [86.82312953700006, 25.845485073000077], [86.82298090400008, 25.84323295200005], [86.82316084800004, 25.842434136000065], [86.82339072600007, 25.841364604000034], [86.82283762200007, 25.840168388000052], [86.82188058800006, 25.838922359000037], [86.82152671600005, 25.838231697000026], [86.82128762100007, 25.837595234000048], [86.82121805100007, 25.837107754000044], [86.82015581700006, 25.836877233000052]]]]}}]}