{"type": "FeatureCollection", "features": [{"type": "Feature", "properties": {"OBJECTID": 7734, "GPCODE": "97805", "GPNAME_1": "CHAKSAHO", "DIST_CEN_C": "19", "BLK_NAME": "PATORI", "ST_NAME": "BIHAR", "ST_CODE_1": "10", "GPCODE2011": "100292", "REMARKS": "FINALIZED", "MAP_STATUS": "COMPLETED", "BLK_C_2001": "190009", "BLK_C_2011": "01292", "DIST_NAME": "SAMASTIPUR", "code2011": 0.0, "Shape_Leng": 0.21187713514, "Shape_Area": 0.00045972531, "Area": 5.11469}, "geometry": {"type": "MultiPolygon", "coordinates": [[[[85.63915302500004, 25.602425981000067], [85.63892736500009, 25.600373010000055], [85.63704088600008, 25.60037803800003], [85.63677939600007, 25.601073755000073], [85.63723610800008, 25.60534223700006], [85.63692002400006, 25.607635808000055], [85.63720362500004, 25.60913352800003], [85.63761660200004, 25.609100856000055], [85.63905393200008, 25.608695298000043], [85.63934262400005, 25.607173578000072], [85.63915302500004, 25.602425981000067]]], [[[85.63242066100008, 25.60779655300007], [85.63153448700007, 25.601525309000067], [85.63165159000005, 25.59607740100006], [85.63242133300008, 25.595520195000063], [85.63483401100007, 25.595130313000027], [85.63744636600006, 25.59492029000006], [85.63776701500007, 25.59401676500005], [85.63786451200008, 25.59340721500007], [85.63848347900006, 25.59241263800004], [85.64020396700005, 25.590381543000035], [85.64045381600005, 25.590696842000057], [85.64122460300007, 25.590514209000048], [85.64162139100006, 25.590084336000075], [85.64229217800005, 25.589744065000048], [85.64383383800003, 25.58937886600006], [85.64587432100006, 25.58935083600005], [85.64737913200008, 25.589865754000073], [85.64877752600006, 25.591328822000037], [85.64870858700004, 25.593044100000043], [85.64871146900003, 25.593924187000027], [85.64882606300006, 25.595458350000058], [85.64974924400008, 25.59615548200003], [85.65063242800005, 25.596839052000064], [85.65096908200007, 25.596278444000063], [85.65008754800004, 25.593130519000056], [85.64925391600008, 25.589409273000058], [85.64794378900007, 25.587539785000047], [85.64716528400004, 25.58539804800006], [85.64813868000005, 25.58327419400007], [85.64845994600006, 25.582618823000075], [85.65057220800009, 25.58177809800003], [85.65285960200004, 25.581207635000055], [85.65321442700008, 25.58016863100005], [85.65318420200003, 25.57858901800006], [85.65268604700003, 25.576942995000024], [85.65192610400004, 25.575906993000046], [85.65040703900007, 25.575505001000067], [85.64911566000006, 25.576253240000028], [85.64894538800007, 25.57744973700005], [85.64994478700004, 25.57868813300007], [85.65027011400008, 25.579228896000075], [85.65024714800006, 25.579793107000057], [85.64942641200008, 25.579930727000033], [85.64745948700005, 25.579575024000064], [85.64626469200005, 25.579442839000023], [85.64469320900008, 25.57827366400005], [85.64446064200007, 25.57565653100005], [85.64461298800006, 25.57355737200004], [85.64377085600006, 25.573198584000068], [85.64305162200003, 25.57392266000005], [85.64176484000006, 25.57609251100007], [85.64075377700004, 25.578893530000073], [85.64021221900003, 25.580677741000045], [85.63916311000008, 25.58250847100004], [85.63802230400006, 25.583707494000066], [85.63703051800007, 25.584815906000074], [85.63621351800003, 25.584569816000055], [85.63521707700005, 25.58423399000003], [85.63439439500007, 25.583762270000022], [85.63421593400005, 25.58243127800006], [85.63351712200006, 25.581756123000048], [85.63303574500009, 25.582186100000058], [85.63266429700008, 25.582773814000063], [85.63172484400008, 25.583114763000026], [85.63028518600004, 25.584246833000066], [85.62889905500003, 25.58500873500003], [85.62733756800003, 25.58541447600004], [85.62719256000008, 25.585198140000045], [85.62677550400008, 25.583917418000055], [85.62592425300005, 25.583842900000036], [85.62557149800006, 25.584055903000035], [85.62132847100008, 25.586359608000066], [85.61986311000004, 25.587270454000077], [85.61925139000004, 25.589027731000044], [85.62108554000008, 25.591478315000074], [85.62232704300004, 25.593799568000065], [85.62273719300003, 25.59443944700007], [85.62452016000003, 25.594804983000074], [85.62611103300009, 25.595789360000026], [85.62652630700006, 25.596510366000075], [85.62712065800008, 25.598724980000043], [85.62772491800007, 25.59935974600006], [85.62812330700007, 25.60101514300004], [85.62580054300008, 25.601553711000065], [85.62297902000006, 25.60177304000007], [85.62233354500006, 25.60228471100004], [85.62130608000007, 25.603244172000075], [85.61989956600007, 25.603915720000032], [85.61911930500008, 25.604319342000053], [85.61927112700005, 25.60514494000006], [85.62073986300004, 25.605249557000036], [85.62215666100008, 25.606234377000078], [85.62263237500008, 25.607167421000042], [85.62355487000008, 25.60767058400006], [85.62592144600006, 25.606784365000067], [85.62659727300007, 25.606408069000054], [85.62898102000008, 25.606243964000043], [85.63036304300005, 25.60567618700003], [85.63123778300007, 25.608368363000068], [85.63269129100007, 25.61148778200004], [85.63391723600006, 25.613484019000055], [85.63406832300006, 25.612490699000034], [85.63324300400006, 25.61123817400005], [85.63242066100008, 25.60779655300007]]], [[[85.63741362600007, 25.614057009000078], [85.63667647600005, 25.613928117000057], [85.63564672300004, 25.614142955000034], [85.63485841900007, 25.614830178000034], [85.63492239100003, 25.61492111900003], [85.63593007000009, 25.617107426000075], [85.63652251000008, 25.618653980000033], [85.63735312200004, 25.619987707000064], [85.63871036800003, 25.619424448000075], [85.63873333200007, 25.61881061400004], [85.63854111600006, 25.61789937900005], [85.63836120000008, 25.61613966400006], [85.63844983400008, 25.61581898600008], [85.63832698400006, 25.614803832000064], [85.63741362600007, 25.614057009000078]]]]}}, {"type": "Feature", "properties": {"OBJECTID": 7735, "GPCODE": "97810", "GPNAME_1": "HARPUR SAIDABAD", "DIST_CEN_C": "19", "BLK_NAME": "PATORI", "ST_NAME": "BIHAR", "ST_CODE_1": "10", "GPCODE2011": "100297", "REMARKS": "FINALIZED", "MAP_STATUS": "COMPLETED", "BLK_C_2001": "190009", "BLK_C_2011": "01292", "DIST_NAME": "SAMASTIPUR", "code2011": 0.0, "Shape_Leng": 0.10618857307, "Shape_Area": 0.00034608861, "Area": 3.85117}, "geometry": {"type": "MultiPolygon", "coordinates": [[[[85.56616556400007, 25.579046531000074], [85.56511909000005, 25.57662963000007], [85.56462660400007, 25.574798228000077], [85.56501379100007, 25.57441374900003], [85.56534065600005, 25.573821816000077], [85.56498095700005, 25.573294460000056], [85.56458696400006, 25.572970396000073], [85.56451827300003, 25.571435923000024], [85.56416589400004, 25.56798841600005], [85.56376522300008, 25.565100750000056], [85.56331658200008, 25.56289918300007], [85.56252946000006, 25.562544255000034], [85.56144364200009, 25.562131317000024], [85.56084953100003, 25.561356312000044], [85.56012788300006, 25.561299176000034], [85.55924336200007, 25.56174787300006], [85.55819495700007, 25.562345830000027], [85.55693708900003, 25.562745711000048], [85.55420891900008, 25.564159510000025], [85.54543473100006, 25.56753098300004], [85.54367168300007, 25.56894271500005], [85.54529237700007, 25.574382616000037], [85.54696045500003, 25.576807459000065], [85.54739090500004, 25.57782661300007], [85.55074504100008, 25.57777913800004], [85.55406339300004, 25.577420200000063], [85.55666055100005, 25.577175597000064], [85.55750672600004, 25.577264120000052], [85.55790290300007, 25.578445737000038], [85.55890903200003, 25.578795703000026], [85.56001941400007, 25.579028097000048], [85.56024470100004, 25.57953310700003], [85.56138709700008, 25.58059129000003], [85.56249690500005, 25.582507140000075], [85.56358129100005, 25.586106511000025], [85.56439631100005, 25.587580615000036], [85.56495130100006, 25.588549853000075], [85.56697274800007, 25.590729916000043], [85.56902776100009, 25.592408938000062], [85.57212404500007, 25.594442264000065], [85.57346014200004, 25.59526528300006], [85.57498871700005, 25.595464974000038], [85.57606272300006, 25.59507893400007], [85.57508586600005, 25.594580117000078], [85.57417288100004, 25.59378779000008], [85.57322397600007, 25.592607360000045], [85.57100786400008, 25.590251730000034], [85.56924404000006, 25.58765586800007], [85.56790081300005, 25.584088746000077], [85.56701620600006, 25.580813970000065], [85.56616556400007, 25.579046531000074]]]]}}, {"type": "Feature", "properties": {"OBJECTID": 7737, "GPCODE": "97812", "GPNAME_1": "HETANPUR", "DIST_CEN_C": "19", "BLK_NAME": "PATORI", "ST_NAME": "BIHAR", "ST_CODE_1": "10", "GPCODE2011": "100299", "REMARKS": "FINALIZED", "MAP_STATUS": "COMPLETED", "BLK_C_2001": "190009", "BLK_C_2011": "01292", "DIST_NAME": "SAMASTIPUR", "code2011": 0.0, "Shape_Leng": 0.11059856635, "Shape_Area": 0.00038456293, "Area": 4.27891}, "geometry": {"type": "MultiPolygon", "coordinates": [[[[85.57661716400008, 25.595786317000034], [85.57606272300006, 25.59507893400007], [85.57498871700005, 25.595464974000038], [85.57346014200004, 25.59526528300006], [85.57212404500007, 25.594442264000065], [85.56902776100009, 25.592408938000062], [85.56697274800007, 25.590729916000043], [85.56495130100006, 25.588549853000075], [85.56439631100005, 25.587580615000036], [85.56358129100005, 25.586106511000025], [85.56249690500005, 25.582507140000075], [85.56138709700008, 25.58059129000003], [85.56024470100004, 25.57953310700003], [85.56001941400007, 25.579028097000048], [85.55890903200003, 25.578795703000026], [85.55790290300007, 25.578445737000038], [85.55750672600004, 25.577264120000052], [85.55666055100005, 25.577175597000064], [85.55406339300004, 25.577420200000063], [85.55074504100008, 25.57777913800004], [85.54739090500004, 25.57782661300007], [85.54723274000008, 25.57826475300004], [85.54343205800006, 25.578804973000047], [85.53914763000006, 25.57896247000008], [85.53684530100008, 25.57974322900003], [85.53675758000008, 25.586739179000062], [85.53504056900005, 25.586742551000043], [85.53439963000005, 25.58723131100004], [85.53418889700004, 25.588594759000046], [85.53349592200004, 25.59019835400005], [85.53539801700003, 25.590551171000072], [85.53828946100003, 25.590491367000027], [85.53917870800007, 25.59187075400007], [85.54026220000009, 25.591254751000065], [85.54092246100004, 25.59055833800005], [85.54156993800007, 25.59074217600005], [85.54235157800008, 25.590848927000025], [85.54345602300003, 25.59064354900005], [85.54452062800004, 25.59046095100007], [85.54514268800006, 25.590405494000038], [85.54736179600008, 25.590139192000038], [85.54968608400003, 25.590148061000036], [85.55166800900008, 25.59058624100004], [85.55475844500006, 25.59048061200008], [85.55874014700004, 25.59051284800006], [85.56085707000005, 25.59115827100004], [85.56193294400003, 25.591453871000056], [85.56421233800006, 25.59334014800004], [85.56685768800008, 25.596164359000056], [85.56800068800004, 25.597371389000045], [85.56923754900004, 25.598284940000042], [85.57138733100004, 25.598131301000024], [85.57327167200003, 25.59735988700004], [85.57489285900004, 25.596823716000074], [85.57635948300003, 25.596202086000062], [85.57661716400008, 25.595786317000034]]]]}}, {"type": "Feature", "properties": {"OBJECTID": 7738, "GPCODE": "97814", "GPNAME_1": "INAETPUR", "DIST_CEN_C": "19", "BLK_NAME": "PATORI", "ST_NAME": "BIHAR", "ST_CODE_1": "10", "GPCODE2011": "100301", "REMARKS": "FINALIZED", "MAP_STATUS": "COMPLETED", "BLK_C_2001": "190009", "BLK_C_2011": "01292", "DIST_NAME": "SAMASTIPUR", "code2011": 0.0, "Shape_Leng": 0.10329387389, "Shape_Area": 0.00050318761, "Area": 5.59793}, "geometry": {"type": "MultiPolygon", "coordinates": [[[[85.54937631300004, 25.623552250000046], [85.54958789500006, 25.62255890700004], [85.54966430900004, 25.621281399000054], [85.549079, 25.62013168900006], [85.54784804200006, 25.617597732000036], [85.54630912900006, 25.613276967000047], [85.54527872400007, 25.611293183000043], [85.54475147100004, 25.60944826900004], [85.54482906700008, 25.608608626000034], [85.54468648700004, 25.607313602000033], [85.54482432600008, 25.606654341000024], [85.54524517600004, 25.605759894000073], [85.54532138900004, 25.604374078000035], [85.54610536100006, 25.603370513000073], [85.54599714800008, 25.601849728000047], [85.54643252600005, 25.60080629600003], [85.54677061200005, 25.598652710000067], [85.54673577700004, 25.59821659200003], [85.54643683800003, 25.594473970000024], [85.54639389200008, 25.593232845000045], [85.54584980900006, 25.592574998000032], [85.54494820700006, 25.59228798600003], [85.54446456900007, 25.591941380000037], [85.54452062800004, 25.59046095100007], [85.54345602300003, 25.59064354900005], [85.54235157800008, 25.590848927000025], [85.54156993800007, 25.59074217600005], [85.54092246100004, 25.59055833800005], [85.54026220000009, 25.591254751000065], [85.53917870800007, 25.59187075400007], [85.53828946100003, 25.590491367000027], [85.53539801700003, 25.590551171000072], [85.53349592200004, 25.59019835400005], [85.53022562500007, 25.590010559000063], [85.52894254600005, 25.590450786000076], [85.52965527300006, 25.597300750000045], [85.52831726400007, 25.597691441000052], [85.52945400700008, 25.60274432600005], [85.53117412200004, 25.606094478000045], [85.53279142500008, 25.610126368000067], [85.53451794700004, 25.616098743000066], [85.53404180300004, 25.61683082500008], [85.53506523000004, 25.62013261100003], [85.53715998100006, 25.623820482000042], [85.53791311300006, 25.624401182000042], [85.53914542700005, 25.625518096000064], [85.54022130200008, 25.62571005800004], [85.54209335100006, 25.625755913000035], [85.54525495900003, 25.625894043000073], [85.54552124000008, 25.62482379100004], [85.54589282300003, 25.624096423000026], [85.54707181900005, 25.62375105900003], [85.54937631300004, 25.623552250000046]]]]}}, {"type": "Feature", "properties": {"OBJECTID": 7739, "GPCODE": "97816", "GPNAME_1": "RUPAULI", "DIST_CEN_C": "19", "BLK_NAME": "PATORI", "ST_NAME": "BIHAR", "ST_CODE_1": "10", "GPCODE2011": "100303", "REMARKS": "FINALIZED", "MAP_STATUS": "COMPLETED", "BLK_C_2001": "190009", "BLK_C_2011": "01292", "DIST_NAME": "SAMASTIPUR", "code2011": 0.0, "Shape_Leng": 0.24386824642, "Shape_Area": 0.00084737021, "Area": 9.42697}, "geometry": {"type": "MultiPolygon", "coordinates": [[[[85.59586530200005, 25.625512251000032], [85.59642358700006, 25.624012524000022], [85.59588961600008, 25.62358049000005], [85.59547064300006, 25.62331073000007], [85.59463373100004, 25.62309599100007], [85.59457241500007, 25.62255455600007], [85.59492927300005, 25.622012150000046], [85.59471251200006, 25.62107385400003], [85.59407260900008, 25.620141126000078], [85.59309402800005, 25.619168555000044], [85.59162344200007, 25.618463364000036], [85.59069142500005, 25.618063875000075], [85.58853947300008, 25.61758136900005], [85.58746431400004, 25.617628981000053], [85.58629376600004, 25.61736541500005], [85.58662812700004, 25.615902322000068], [85.58662459900006, 25.614661175000037], [85.58715905400004, 25.613504469000077], [85.58789374300005, 25.612794223000037], [85.58896693400004, 25.612083122000058], [85.58962314100006, 25.611747577000074], [85.59128395700003, 25.611120853000045], [85.59345796900004, 25.610650891000034], [85.59541217500004, 25.609933247000072], [85.59629626900005, 25.61097367800005], [85.59688363700008, 25.610949751000078], [85.59773938500007, 25.61079430500007], [85.59827622200004, 25.610549228000025], [85.60000797000004, 25.61036910000007], [85.60015889400006, 25.61090132100003], [85.59938000700004, 25.611787837000065], [85.60025703500008, 25.612119723000035], [85.60087074100005, 25.612605693000035], [85.60207841100004, 25.615333333000024], [85.60254488600003, 25.61652831600003], [85.60328100300006, 25.616291783000065], [85.60334349800007, 25.615537927000048], [85.60417348200008, 25.615098153000076], [85.60500735900007, 25.614252087000068], [85.60487468900004, 25.613173723000045], [85.60503583900004, 25.612099123000064], [85.60554691100003, 25.61154274100005], [85.60609302600005, 25.61107203200004], [85.60768073600008, 25.611000442000034], [85.60856091700003, 25.610686937000025], [85.60902131300008, 25.609823754000047], [85.60928752100006, 25.608956531000047], [85.61073033700006, 25.608731827000042], [85.61109267900008, 25.608374385000047], [85.61151027900007, 25.60819729900004], [85.61260939200008, 25.607883135000066], [85.61341404800004, 25.60730340500004], [85.61552281800004, 25.60672948000007], [85.61538112300008, 25.60595352400003], [85.61482145900004, 25.605237345000035], [85.61429475500006, 25.605554597000037], [85.61376782400004, 25.605795139000065], [85.61318584900005, 25.605931939000072], [85.61312514400004, 25.60561160800006], [85.61312327000007, 25.604975281000065], [85.61332435800006, 25.603995371000053], [85.61277134500006, 25.603834293000034], [85.61285354600005, 25.603012574000047], [85.61212069500004, 25.602644326000075], [85.61129933500007, 25.602619298000036], [85.61071715400004, 25.602674867000076], [85.61030688800008, 25.601985325000044], [85.60954659400005, 25.60241147800008], [85.60887127600006, 25.60295023300006], [85.60726962200005, 25.60332875100005], [85.60659799900003, 25.603447766000045], [85.60569625500005, 25.603188182000054], [85.60585791000005, 25.602285133000066], [85.60665630700004, 25.601294722000034], [85.60671974700006, 25.600856718000045], [85.60643029700003, 25.600595663000036], [85.60594757300004, 25.600628468000025], [85.60530589200005, 25.600774487000024], [85.60505245200005, 25.600919478000037], [85.60482887300003, 25.60106449600005], [85.60467022000006, 25.601267955000026], [85.60386439100006, 25.601441442000066], [85.60365969000009, 25.59785830900006], [85.60459949000006, 25.59755362900006], [85.60553915700007, 25.597181256000056], [85.60771618700005, 25.59618748500003], [85.61178059000008, 25.59385315700007], [85.61374823200003, 25.59275146300007], [85.61468887800004, 25.592749140000024], [85.61527561200006, 25.592562609000026], [85.61624352800004, 25.591707195000026], [85.61703835100008, 25.591195207000055], [85.61809643100008, 25.590529097000058], [85.61925139000004, 25.589027731000044], [85.61986311000004, 25.587270454000077], [85.62132847100008, 25.586359608000066], [85.62557149800006, 25.584055903000035], [85.62592425300005, 25.583842900000036], [85.62677550400008, 25.583917418000055], [85.62719256000008, 25.585198140000045], [85.62733756800003, 25.58541447600004], [85.62889905500003, 25.58500873500003], [85.63028518600004, 25.584246833000066], [85.63172484400008, 25.583114763000026], [85.62951230200008, 25.580638220000026], [85.62746686400004, 25.579041218000043], [85.62482262300006, 25.576904166000077], [85.62227304700008, 25.57639159400003], [85.62097894000004, 25.57632719000003], [85.61950955600008, 25.575879538000038], [85.61796577300004, 25.575522427000067], [85.61699561500006, 25.575615088000063], [85.61700999300007, 25.577059330000054], [85.61592081000003, 25.577265150000073], [85.61507350000005, 25.57686108400003], [85.61375566600003, 25.577157770000042], [85.61381064600005, 25.57887269500003], [85.61416667300006, 25.581390244000033], [85.60761292900008, 25.581564426000057], [85.60549516800006, 25.582345812000028], [85.60509019300008, 25.583389449000038], [85.60460786700008, 25.585227554000028], [85.60428828000005, 25.586537216000067], [85.60358360100008, 25.58723395100003], [85.60353043300006, 25.589472753000052], [85.60354957200008, 25.590885401000037], [85.60169734400006, 25.590623527000048], [85.60044825500006, 25.590680735000035], [85.59747769100005, 25.590954072000045], [85.59560327100007, 25.59161298300006], [85.59636206300007, 25.59583116500005], [85.59659921900004, 25.598665027000038], [85.59346234000003, 25.600026417000038], [85.59093761000008, 25.601354744000048], [85.58971897300006, 25.601664493000044], [85.58894916100007, 25.602257490000056], [85.58777735000007, 25.603289329000063], [85.58667940900006, 25.604027474000077], [85.58639932500006, 25.605318985000054], [85.58636217700007, 25.60627591800005], [85.58599817600003, 25.607824815000072], [85.58600531100006, 25.608614656000043], [85.58580675400003, 25.608782138000038], [85.58522900200006, 25.608675084000026], [85.58478943700004, 25.608120996000025], [85.58379664900008, 25.607346977000077], [85.58275613400008, 25.607290626000065], [85.58119390400003, 25.607551410000042], [85.57995402700004, 25.607418857000027], [85.57917714800004, 25.60729876700003], [85.57850855500004, 25.60669542000005], [85.57800236100007, 25.60725172000008], [85.57741869900008, 25.608634143000074], [85.57664897200004, 25.609317324000074], [85.57705123800008, 25.610792355000058], [85.57748200700007, 25.61176176500004], [85.57796227300008, 25.612631773000032], [85.57834171600007, 25.61301904100003], [85.58008831600006, 25.612789426000063], [85.58061361300008, 25.613727065000035], [85.58076152400008, 25.61503559500005], [85.57998571800005, 25.61530365400006], [85.57846815600004, 25.615577813000073], [85.57795217300009, 25.61621541200003], [85.57777082000007, 25.617258373000027], [85.57754877700006, 25.617962960000057], [85.57740681200005, 25.618865992000053], [85.57740991700007, 25.61997628000006], [85.57712069400003, 25.621628824000027], [85.57993754700004, 25.62313445700005], [85.58152945300003, 25.624507420000043], [85.58371922600008, 25.624231639000072], [85.58512323400004, 25.624264512000025], [85.58709014400006, 25.62439537800003], [85.58749626800005, 25.62543250400006], [85.58901533700003, 25.62566372200007], [85.59094286200008, 25.625961638000035], [85.59301489500007, 25.626295310000046], [85.59490766200008, 25.626624820000075], [85.59586530200005, 25.625512251000032]]]]}}, {"type": "Feature", "properties": {"OBJECTID": 7742, "GPCODE": "97813", "GPNAME_1": "IMAN SARAI", "DIST_CEN_C": "19", "BLK_NAME": "PATORI", "ST_NAME": "BIHAR", "ST_CODE_1": "10", "GPCODE2011": "100300", "REMARKS": "FINALIZED", "MAP_STATUS": "COMPLETED", "BLK_C_2001": "190009", "BLK_C_2011": "01292", "DIST_NAME": "SAMASTIPUR", "code2011": 0.0, "Shape_Leng": 0.16230386779, "Shape_Area": 0.00034660117, "Area": 3.85542}, "geometry": {"type": "MultiPolygon", "coordinates": [[[[85.60583019400008, 25.618091009000068], [85.60707790000004, 25.61749671000007], [85.60749494500004, 25.61711658300004], [85.60987072200004, 25.615874062000046], [85.61108853600007, 25.615270769000063], [85.61223749600003, 25.614938417000076], [85.61239270500005, 25.616865279000024], [85.61302857000004, 25.61808229500008], [85.61388547800004, 25.618305883000062], [85.61569129900005, 25.617877101000033], [85.61837567900005, 25.616629184000033], [85.61913118700005, 25.616270674000077], [85.62055858200006, 25.61744060600006], [85.62176489600006, 25.61797007100006], [85.62256064200005, 25.61770181600008], [85.62370678700006, 25.61807347200005], [85.62527117500008, 25.618471141000043], [85.62646203200006, 25.618838210000035], [85.62623413300008, 25.620761440000024], [85.62659112300008, 25.621879828000033], [85.62706080000004, 25.622415765000028], [85.62970888600006, 25.622300567000025], [85.63206363100005, 25.62229441100004], [85.63436000700005, 25.62271720700005], [85.63783081400004, 25.62297430700005], [85.63794486000006, 25.621317575000035], [85.63735312200004, 25.619987707000064], [85.63652251000008, 25.618653980000033], [85.63593007000009, 25.617107426000075], [85.63492239100003, 25.61492111900003], [85.63485841900007, 25.614830178000034], [85.63479244500007, 25.61473638900003], [85.63391723600006, 25.613484019000055], [85.63315405000003, 25.614551205000055], [85.63268883000006, 25.61540542700004], [85.63257311300003, 25.616583682000055], [85.63198709700004, 25.617009515000063], [85.63110733500008, 25.61744056200007], [85.62987385500008, 25.617818390000025], [85.62887417500008, 25.61808725700007], [85.62775525200004, 25.61846478500007], [85.62771812800008, 25.617751732000045], [85.62774107800004, 25.615562668000052], [85.62739747200004, 25.613934310000047], [85.62539148100007, 25.610789088000047], [85.62462122700003, 25.609617596000078], [85.62355487000008, 25.60767058400006], [85.62233795500003, 25.608526665000056], [85.62243079500007, 25.609564560000024], [85.62210908500003, 25.61015209100003], [85.62208270500008, 25.611275990000024], [85.62199953200007, 25.613356810000028], [85.62148822000006, 25.613809463000052], [85.62040608400008, 25.614800633000073], [85.61934802900004, 25.615561601000024], [85.61824633400005, 25.615054305000058], [85.61712565000005, 25.614858608000077], [85.61648988000007, 25.615325046000066], [85.61605314100007, 25.615727829000036], [85.61531492700004, 25.615260326000055], [85.61421088000003, 25.613999272000058], [85.61386896200008, 25.612871836000068], [85.61403289200007, 25.61109764500003], [85.61449950500008, 25.610672235000038], [85.61429701100008, 25.60956692600007], [85.61358750900007, 25.608679610000024], [85.61341404800004, 25.60730340500004], [85.61260939200008, 25.607883135000066], [85.61151027900007, 25.60819729900004], [85.61109267900008, 25.608374385000047], [85.61073033700006, 25.608731827000042], [85.60928752100006, 25.608956531000047], [85.60902131300008, 25.609823754000047], [85.60856091700003, 25.610686937000025], [85.60768073600008, 25.611000442000034], [85.60609302600005, 25.61107203200004], [85.60554691100003, 25.61154274100005], [85.60503583900004, 25.612099123000064], [85.60487468900004, 25.613173723000045], [85.60500735900007, 25.614252087000068], [85.60417348200008, 25.615098153000076], [85.60334349800007, 25.615537927000048], [85.60328100300006, 25.616291783000065], [85.60254488600003, 25.61652831600003], [85.60207841100004, 25.615333333000024], [85.60087074100005, 25.612605693000035], [85.60025703500008, 25.612119723000035], [85.59938000700004, 25.611787837000065], [85.60015889400006, 25.61090132100003], [85.60000797000004, 25.61036910000007], [85.59827622200004, 25.610549228000025], [85.59773938500007, 25.61079430500007], [85.59688363700008, 25.610949751000078], [85.59629626900005, 25.61097367800005], [85.59541217500004, 25.609933247000072], [85.59345796900004, 25.610650891000034], [85.59128395700003, 25.611120853000045], [85.58962314100006, 25.611747577000074], [85.58896693400004, 25.612083122000058], [85.58789374300005, 25.612794223000037], [85.58715905400004, 25.613504469000077], [85.58662459900006, 25.614661175000037], [85.58662812700004, 25.615902322000068], [85.58629376600004, 25.61736541500005], [85.58746431400004, 25.617628981000053], [85.58853947300008, 25.61758136900005], [85.59069142500005, 25.618063875000075], [85.59162344200007, 25.618463364000036], [85.59309402800005, 25.619168555000044], [85.59407260900008, 25.620141126000078], [85.59471251200006, 25.62107385400003], [85.59492927300005, 25.622012150000046], [85.59457241500007, 25.62255455600007], [85.59463373100004, 25.62309599100007], [85.59547064300006, 25.62331073000007], [85.59588961600008, 25.62358049000005], [85.59642358700006, 25.624012524000022], [85.59791580100006, 25.623575729000038], [85.59916465100008, 25.623301953000066], [85.60089517700004, 25.622647848000042], [85.60196488000008, 25.62242867300006], [85.60273767800004, 25.621126925000056], [85.60327036100006, 25.619451172000026], [85.60583019400008, 25.618091009000068]]]]}}, {"type": "Feature", "properties": {"OBJECTID": 7743, "GPCODE": "97808", "GPNAME_1": "DHAMAUN NORTH", "DIST_CEN_C": "19", "BLK_NAME": "PATORI", "ST_NAME": "BIHAR", "ST_CODE_1": "10", "GPCODE2011": "100295", "REMARKS": "FINALIZED", "MAP_STATUS": "COMPLETED", "BLK_C_2001": "190009", "BLK_C_2011": "01292", "DIST_NAME": "SAMASTIPUR", "code2011": 0.0, "Shape_Leng": 0.16825481167, "Shape_Area": 0.00097455308, "Area": 10.8414}, "geometry": {"type": "MultiPolygon", "coordinates": [[[[85.57138733100004, 25.598131301000024], [85.57155979600003, 25.60151920800007], [85.57111364800005, 25.60300637100005], [85.56769317200008, 25.60300637100005], [85.56561114400006, 25.601667924000026], [85.56248810100004, 25.599585896000065], [85.55787789600004, 25.600032045000034], [85.55371383900007, 25.599585896000065], [85.55163181100005, 25.597503867000057], [85.54910363300007, 25.597503867000057], [85.54673577700004, 25.59821659200003], [85.54677061200005, 25.598652710000067], [85.54643252600005, 25.60080629600003], [85.54599714800008, 25.601849728000047], [85.54610536100006, 25.603370513000073], [85.54532138900004, 25.604374078000035], [85.54524517600004, 25.605759894000073], [85.54482432600008, 25.606654341000024], [85.54468648700004, 25.607313602000033], [85.54482906700008, 25.608608626000034], [85.54475147100004, 25.60944826900004], [85.54527872400007, 25.611293183000043], [85.54630912900006, 25.613276967000047], [85.54784804200006, 25.617597732000036], [85.549079, 25.62013168900006], [85.54966430900004, 25.621281399000054], [85.54958789500006, 25.62255890700004], [85.54937631300004, 25.623552250000046], [85.55050249900006, 25.623987776000035], [85.55162273300004, 25.623998949000054], [85.55308090100004, 25.623810898000045], [85.55481591900008, 25.62283242700005], [85.55571102000005, 25.62246040100007], [85.55681229900006, 25.622850818000074], [85.55904762400007, 25.62672309800007], [85.56142574600005, 25.626135783000052], [85.56503049100007, 25.626245398000037], [85.56569603800006, 25.62565277500005], [85.56728087200008, 25.624372038000047], [85.56850421900003, 25.623863845000074], [85.57024056300008, 25.623458352000057], [85.57164874100005, 25.623184519000063], [85.57438403200007, 25.622171969000078], [85.57712069400003, 25.621628824000027], [85.57740991700007, 25.61997628000006], [85.57740681200005, 25.618865992000053], [85.57754877700006, 25.617962960000057], [85.57777082000007, 25.617258373000027], [85.57795217300009, 25.61621541200003], [85.57846815600004, 25.615577813000073], [85.57998571800005, 25.61530365400006], [85.58076152400008, 25.61503559500005], [85.58061361300008, 25.613727065000035], [85.58008831600006, 25.612789426000063], [85.57834171600007, 25.61301904100003], [85.57796227300008, 25.612631773000032], [85.57748200700007, 25.61176176500004], [85.57705123800008, 25.610792355000058], [85.57664897200004, 25.609317324000074], [85.57741869900008, 25.608634143000074], [85.57800236100007, 25.60725172000008], [85.57850855500004, 25.60669542000005], [85.57917714800004, 25.60729876700003], [85.57995402700004, 25.607418857000027], [85.58119390400003, 25.607551410000042], [85.58275613400008, 25.607290626000065], [85.58379664900008, 25.607346977000077], [85.58478943700004, 25.608120996000025], [85.58522900200006, 25.608675084000026], [85.58580675400003, 25.608782138000038], [85.58600531100006, 25.608614656000043], [85.58599817600003, 25.607824815000072], [85.58636217700007, 25.60627591800005], [85.58639932500006, 25.605318985000054], [85.58667940900006, 25.604027474000077], [85.58777735000007, 25.603289329000063], [85.58894916100007, 25.602257490000056], [85.58971897300006, 25.601664493000044], [85.59093761000008, 25.601354744000048], [85.59346234000003, 25.600026417000038], [85.59659921900004, 25.598665027000038], [85.59636206300007, 25.59583116500005], [85.59560327100007, 25.59161298300006], [85.59166857900004, 25.592389445000038], [85.58542493600004, 25.59332014900008], [85.58032035100007, 25.594040306000068], [85.57606272300006, 25.59507893400007], [85.57661716400008, 25.595786317000034], [85.57635948300003, 25.596202086000062], [85.57489285900004, 25.596823716000074], [85.57327167200003, 25.59735988700004], [85.57138733100004, 25.598131301000024]]]]}}, {"type": "Feature", "properties": {"OBJECTID": 7746, "GPCODE": "97804", "GPNAME_1": "BAHADUR PUR PATORI", "DIST_CEN_C": "19", "BLK_NAME": "PATORI", "ST_NAME": "BIHAR", "ST_CODE_1": "10", "GPCODE2011": "100291", "REMARKS": "FINALIZED", "MAP_STATUS": "COMPLETED", "BLK_C_2001": "190009", "BLK_C_2011": "01292", "DIST_NAME": "SAMASTIPUR", "code2011": 0.0, "Shape_Leng": 0.13892998595, "Shape_Area": 0.00067115931, "Area": 7.46488}, "geometry": {"type": "MultiPolygon", "coordinates": [[[[85.62687614500004, 25.638086592000036], [85.62884194900005, 25.637815163000027], [85.62992761500004, 25.63788910200003], [85.63142880000004, 25.637126934000037], [85.63127899100004, 25.635403257000064], [85.63443524800005, 25.63529572300007], [85.63681737100006, 25.63443634300006], [85.63764801600007, 25.634181393000063], [85.63869857300006, 25.634178630000065], [85.63925311100007, 25.634781995000026], [85.64097102300008, 25.634827010000038], [85.64230335800005, 25.634218678000025], [85.64340736200006, 25.633813966000048], [85.64446181400007, 25.63350876100003], [85.64393588700005, 25.632548881000048], [85.64257901500008, 25.63175364400007], [85.64134245800005, 25.631170177000058], [85.63945766100005, 25.630322248000027], [85.63867240100006, 25.629182413000024], [85.63840366900007, 25.627689238000073], [85.63807610500004, 25.626467028000036], [85.63783081400004, 25.62297430700005], [85.63436000700005, 25.62271720700005], [85.63206363100005, 25.62229441100004], [85.62970888600006, 25.622300567000025], [85.62706080000004, 25.622415765000028], [85.62659112300008, 25.621879828000033], [85.62623413300008, 25.620761440000024], [85.62646203200006, 25.618838210000035], [85.62527117500008, 25.618471141000043], [85.62370678700006, 25.61807347200005], [85.62256064200005, 25.61770181600008], [85.62176489600006, 25.61797007100006], [85.62055858200006, 25.61744060600006], [85.61913118700005, 25.616270674000077], [85.61837567900005, 25.616629184000033], [85.61569129900005, 25.617877101000033], [85.61388547800004, 25.618305883000062], [85.61302857000004, 25.61808229500008], [85.61239270500005, 25.616865279000024], [85.61223749600003, 25.614938417000076], [85.61108853600007, 25.615270769000063], [85.60987072200004, 25.615874062000046], [85.60749494500004, 25.61711658300004], [85.60707790000004, 25.61749671000007], [85.60583019400008, 25.618091009000068], [85.60327036100006, 25.619451172000026], [85.60273767800004, 25.621126925000056], [85.60196488000008, 25.62242867300006], [85.60089517700004, 25.622647848000042], [85.59916465100008, 25.623301953000066], [85.59791580100006, 25.623575729000038], [85.59642358700006, 25.624012524000022], [85.59586530200005, 25.625512251000032], [85.59490766200008, 25.626624820000075], [85.59524643000003, 25.628420367000047], [85.59808923800006, 25.628440712000042], [85.60500539600008, 25.628721980000023], [85.60554848500004, 25.628851487000077], [85.60682565400003, 25.62974652500003], [85.60729570400008, 25.630449473000056], [85.60718302100008, 25.632724533000044], [85.60546225100006, 25.633369599000048], [85.60411854900008, 25.63354434100006], [85.60390795600006, 25.634745405000047], [85.60393557900005, 25.635666101000027], [85.60483354200005, 25.63624163000003], [85.60589561600005, 25.636776144000066], [85.60679485900005, 25.637775900000065], [85.61010174300003, 25.638052162000065], [85.61196871400006, 25.638002415000074], [85.61371952600007, 25.63740675500003], [85.61448888900009, 25.636651119000078], [85.61570673200004, 25.635993652000025], [85.61815271700004, 25.63805012800003], [85.61834282100006, 25.63831594900006], [85.61935271800007, 25.638065116000064], [85.61972990500004, 25.63764892200004], [85.61989714500004, 25.63700317400003], [85.62023011900004, 25.63681273900005], [85.62093707500009, 25.636774821000074], [85.62173422200004, 25.63696240300004], [85.62190261500007, 25.638248231000034], [85.62207393800009, 25.63892934200004], [85.62303609400004, 25.639306005000037], [85.62487197600007, 25.638845468000056], [85.62687614500004, 25.638086592000036]]]]}}, {"type": "Feature", "properties": {"OBJECTID": 7749, "GPCODE": "97820", "GPNAME_1": "TARA DHAMAUN", "DIST_CEN_C": "19", "BLK_NAME": "PATORI", "ST_NAME": "BIHAR", "ST_CODE_1": "10", "GPCODE2011": "100307", "REMARKS": "FINALIZED", "MAP_STATUS": "COMPLETED", "BLK_C_2001": "190009", "BLK_C_2011": "01292", "DIST_NAME": "SAMASTIPUR", "code2011": 0.0, "Shape_Leng": 0.07971984342, "Shape_Area": 0.00032609086, "Area": 3.62684}, "geometry": {"type": "MultiPolygon", "coordinates": [[[[85.56611041200006, 25.646814978000066], [85.56582805800008, 25.64547066700004], [85.56569411900006, 25.64377393600006], [85.56676732300008, 25.642891444000043], [85.56727371100004, 25.64233528400007], [85.56699412500006, 25.642056035000053], [85.56561479500004, 25.642036474000065], [85.56550940000005, 25.64171175000007], [85.56757598200005, 25.639901912000028], [85.56772761800005, 25.638904068000045], [85.56828721200003, 25.637765525000077], [85.56966514000004, 25.637297654000065], [85.57071351900004, 25.63646040800006], [85.57014535500008, 25.634398979000025], [85.56949963800008, 25.633123132000037], [85.56734843600003, 25.63111033200005], [85.56672629800005, 25.629279309000026], [85.56503049100007, 25.626245398000037], [85.56142574600005, 25.626135783000052], [85.55904762400007, 25.62672309800007], [85.55681229900006, 25.622850818000074], [85.55571102000005, 25.62246040100007], [85.55481591900008, 25.62283242700005], [85.55308090100004, 25.623810898000045], [85.55162273300004, 25.623998949000054], [85.55050249900006, 25.623987776000035], [85.55110177000006, 25.628653340000028], [85.55117643100004, 25.636574104000033], [85.55230680800008, 25.638611814000058], [85.55489039200006, 25.64229844500005], [85.55553817700007, 25.644436357000075], [85.55682317800006, 25.644578091000028], [85.55677042300005, 25.645354578000024], [85.55738288700007, 25.64537135200004], [85.55764312100007, 25.645880807000026], [85.55825567600004, 25.645906599000057], [85.55925147200008, 25.645904494000035], [85.56053152700008, 25.646037165000052], [85.56199446200003, 25.64756853800003], [85.56294234100005, 25.64826159200004], [85.56352988600008, 25.648237791000042], [85.56388721100006, 25.64779473300007], [85.56600846400005, 25.647790129000043], [85.56611041200006, 25.646814978000066]]]]}}, {"type": "Feature", "properties": {"OBJECTID": 7761, "GPCODE": "97818", "GPNAME_1": "SHIURA", "DIST_CEN_C": "19", "BLK_NAME": "PATORI", "ST_NAME": "BIHAR", "ST_CODE_1": "10", "GPCODE2011": "100305", "REMARKS": "FINALIZED", "MAP_STATUS": "COMPLETED", "BLK_C_2001": "190009", "BLK_C_2011": "01292", "DIST_NAME": "SAMASTIPUR", "code2011": 0.0, "Shape_Leng": 0.13637959744, "Shape_Area": 0.00036499783, "Area": 4.06045}, "geometry": {"type": "MultiPolygon", "coordinates": [[[[85.62355487000008, 25.60767058400006], [85.62263237500008, 25.607167421000042], [85.62215666100008, 25.606234377000078], [85.62073986300004, 25.605249557000036], [85.61927112700005, 25.60514494000006], [85.61911930500008, 25.604319342000053], [85.61989956600007, 25.603915720000032], [85.62130608000007, 25.603244172000075], [85.62233354500006, 25.60228471100004], [85.62297902000006, 25.60177304000007], [85.62580054300008, 25.601553711000065], [85.62812330700007, 25.60101514300004], [85.62772491800007, 25.59935974600006], [85.62712065800008, 25.598724980000043], [85.62652630700006, 25.596510366000075], [85.62611103300009, 25.595789360000026], [85.62452016000003, 25.594804983000074], [85.62273719300003, 25.59443944700007], [85.62232704300004, 25.593799568000065], [85.62108554000008, 25.591478315000074], [85.61925139000004, 25.589027731000044], [85.61809643100008, 25.590529097000058], [85.61703835100008, 25.591195207000055], [85.61624352800004, 25.591707195000026], [85.61527561200006, 25.592562609000026], [85.61468887800004, 25.592749140000024], [85.61374823200003, 25.59275146300007], [85.61178059000008, 25.59385315700007], [85.60771618700005, 25.59618748500003], [85.60553915700007, 25.597181256000056], [85.60459949000006, 25.59755362900006], [85.60365969000009, 25.59785830900006], [85.60386439100006, 25.601441442000066], [85.60467022000006, 25.601267955000026], [85.60482887300003, 25.60106449600005], [85.60505245200005, 25.600919478000037], [85.60530589200005, 25.600774487000024], [85.60594757300004, 25.600628468000025], [85.60643029700003, 25.600595663000036], [85.60671974700006, 25.600856718000045], [85.60665630700004, 25.601294722000034], [85.60585791000005, 25.602285133000066], [85.60569625500005, 25.603188182000054], [85.60659799900003, 25.603447766000045], [85.60726962200005, 25.60332875100005], [85.60887127600006, 25.60295023300006], [85.60954659400005, 25.60241147800008], [85.61030688800008, 25.601985325000044], [85.61071715400004, 25.602674867000076], [85.61129933500007, 25.602619298000036], [85.61212069500004, 25.602644326000075], [85.61285354600005, 25.603012574000047], [85.61277134500006, 25.603834293000034], [85.61332435800006, 25.603995371000053], [85.61312327000007, 25.604975281000065], [85.61312514400004, 25.60561160800006], [85.61318584900005, 25.605931939000072], [85.61376782400004, 25.605795139000065], [85.61429475500006, 25.605554597000037], [85.61482145900004, 25.605237345000035], [85.61538112300008, 25.60595352400003], [85.61552281800004, 25.60672948000007], [85.61341404800004, 25.60730340500004], [85.61358750900007, 25.608679610000024], [85.61429701100008, 25.60956692600007], [85.61449950500008, 25.610672235000038], [85.61403289200007, 25.61109764500003], [85.61386896200008, 25.612871836000068], [85.61421088000003, 25.613999272000058], [85.61531492700004, 25.615260326000055], [85.61605314100007, 25.615727829000036], [85.61648988000007, 25.615325046000066], [85.61712565000005, 25.614858608000077], [85.61824633400005, 25.615054305000058], [85.61934802900004, 25.615561601000024], [85.62040608400008, 25.614800633000073], [85.62148822000006, 25.613809463000052], [85.62199953200007, 25.613356810000028], [85.62208270500008, 25.611275990000024], [85.62210908500003, 25.61015209100003], [85.62243079500007, 25.609564560000024], [85.62233795500003, 25.608526665000056], [85.62355487000008, 25.60767058400006]]], [[[85.62355487000008, 25.60767058400006], [85.62462122700003, 25.609617596000078], [85.62539148100007, 25.610789088000047], [85.62739747200004, 25.613934310000047], [85.62774107800004, 25.615562668000052], [85.62771812800008, 25.617751732000045], [85.62775525200004, 25.61846478500007], [85.62887417500008, 25.61808725700007], [85.62987385500008, 25.617818390000025], [85.63110733500008, 25.61744056200007], [85.63198709700004, 25.617009515000063], [85.63257311300003, 25.616583682000055], [85.63268883000006, 25.61540542700004], [85.63315405000003, 25.614551205000055], [85.63391723600006, 25.613484019000055], [85.63269129100007, 25.61148778200004], [85.63123778300007, 25.608368363000068], [85.63036304300005, 25.60567618700003], [85.62898102000008, 25.606243964000043], [85.62659727300007, 25.606408069000054], [85.62592144600006, 25.606784365000067], [85.62355487000008, 25.60767058400006]]]]}}, {"type": "Feature", "properties": {"OBJECTID": 7776, "GPCODE": "97807", "GPNAME_1": "DARWA", "DIST_CEN_C": "19", "BLK_NAME": "PATORI", "ST_NAME": "BIHAR", "ST_CODE_1": "10", "GPCODE2011": "100294", "REMARKS": "FINALIZED", "MAP_STATUS": "COMPLETED", "BLK_C_2001": "190009", "BLK_C_2011": "01292", "DIST_NAME": "SAMASTIPUR", "code2011": 0.0, "Shape_Leng": 0.23349193133, "Shape_Area": 0.00179331945, "Area": 19.9403}, "geometry": {"type": "MultiPolygon", "coordinates": [[[[85.64947038700006, 25.681178500000044], [85.65402593400006, 25.680633312000055], [85.65636530600005, 25.680170967000038], [85.65899481800005, 25.678611123000053], [85.66133039500005, 25.677047480000056], [85.66454020100008, 25.674840333000077], [85.66804848400005, 25.672555642000077], [85.66892066500003, 25.671303014000046], [85.67013025200004, 25.671109966000074], [85.67167902300008, 25.671069380000063], [85.67238980600007, 25.67068822500005], [85.67418542100006, 25.67003758800007], [85.67688243300006, 25.667998725000075], [85.67892979300007, 25.666724463000037], [85.68089354000006, 25.665761934000045], [85.68071055000007, 25.66475593800004], [85.67955496100006, 25.660516822000034], [85.67828010900007, 25.65774039200005], [85.67643291800005, 25.653643200000033], [85.67600262200006, 25.648887398000056], [85.67593192900006, 25.647195124000064], [85.67698733700007, 25.64573873300003], [85.67715085500004, 25.64412704800003], [85.67671881100006, 25.641668555000024], [85.67688153900008, 25.639822139000046], [85.67704567300007, 25.638363767000044], [85.67813887600005, 25.636361219000037], [85.67856235700003, 25.635051125000075], [85.67881267300004, 25.63405293900007], [85.67770775400004, 25.632765370000072], [85.67685236000005, 25.63161695200006], [85.67541155200007, 25.631079527000054], [85.67354479500005, 25.631161715000076], [85.67261434200003, 25.631317816000035], [85.67210810800003, 25.63178417100005], [85.67050181100007, 25.633711471000026], [85.66940851500004, 25.635714061000044], [85.66830855300003, 25.637256212000068], [85.66780367300004, 25.63810166500008], [85.66357025300005, 25.639192404000028], [85.66051653500006, 25.640198419000058], [85.65636349500005, 25.64005662900007], [85.65212369300008, 25.640763424000056], [85.65135807500008, 25.63961004500004], [85.65057917900003, 25.635997059000033], [85.64812305200007, 25.635543373000075], [85.64557965100005, 25.63578050600006], [85.64617766200007, 25.637471310000024], [85.64737114300004, 25.64000911900007], [85.64720459700004, 25.640853527000047], [85.64577301400004, 25.643087042000047], [85.64518539000005, 25.644550989000038], [85.64416682700005, 25.646747187000074], [85.64347812400007, 25.647778076000066], [85.64231580300003, 25.648661310000023], [85.64121184400005, 25.649092988000064], [85.63747026500005, 25.64850271100005], [85.63392386100008, 25.64816460800006], [85.63195252500003, 25.648318689000064], [85.62948878200007, 25.648677172000077], [85.62653730600005, 25.64910899700004], [85.62438726400006, 25.64945760300003], [85.62138061900004, 25.649754103000078], [85.62122059400008, 25.651122072000078], [85.62095799900004, 25.653167241000062], [85.62123356700005, 25.655310359000055], [85.62210068600007, 25.65711351500005], [85.62317732000008, 25.657449290000045], [85.62360284800008, 25.65657261900003], [85.62548323300007, 25.65593586600005], [85.62644760700005, 25.655396359000065], [85.62779152600007, 25.655198771000073], [85.62886461300008, 25.654415219000043], [85.63020851800007, 25.654217610000046], [85.63084988400004, 25.653900032000024], [85.63399649800004, 25.65372481600008], [85.63477921600008, 25.65557324200006], [85.63583314500005, 25.658106959000065], [85.63589159200006, 25.659253172000035], [85.63584301200007, 25.66115338000003], [85.63678826100005, 25.662414591000072], [85.63757896500005, 25.665143132000026], [85.63508152100007, 25.665925994000077], [85.63497992100008, 25.66685145300005], [85.63343261500006, 25.667347490000054], [85.63186405100004, 25.667401307000034], [85.62980815000003, 25.66769996200003], [85.62742448300008, 25.66829742400006], [85.62528287300006, 25.668253311000058], [85.62523632100005, 25.669291513000076], [85.62491189000008, 25.670677945000023], [85.62482090300006, 25.67179156800006], [85.62480641000008, 25.67196896100006], [85.62497665300003, 25.67385514500006], [85.62627682700008, 25.673924025000076], [85.62865798400009, 25.67407576900007], [85.62960067100005, 25.674497580000036], [85.62950849900005, 25.67528767700003], [85.62930970600007, 25.67699419300004], [85.62894894600004, 25.67946395200005], [85.62850851900004, 25.681911265000053], [85.63479949400005, 25.681994118000034], [85.63869800100008, 25.681532512000047], [85.64192880600007, 25.680991258000063], [85.64258081200006, 25.68234807400006], [85.64621046900004, 25.68194558600004], [85.64947038700006, 25.681178500000044]]]]}}, {"type": "Feature", "properties": {"OBJECTID": 7777, "GPCODE": "97817", "GPNAME_1": "SHAHPUR UNDI", "DIST_CEN_C": "19", "BLK_NAME": "PATORI", "ST_NAME": "BIHAR", "ST_CODE_1": "10", "GPCODE2011": "100304", "REMARKS": "FINALIZED", "MAP_STATUS": "COMPLETED", "BLK_C_2001": "190009", "BLK_C_2011": "01292", "DIST_NAME": "SAMASTIPUR", "code2011": 0.0, "Shape_Leng": 0.155307866, "Shape_Area": 0.00062096349, "Area": 6.90586}, "geometry": {"type": "MultiPolygon", "coordinates": [[[[85.63195252500003, 25.648318689000064], [85.63392386100008, 25.64816460800006], [85.63747026500005, 25.64850271100005], [85.64121184400005, 25.649092988000064], [85.64231580300003, 25.648661310000023], [85.64347812400007, 25.647778076000066], [85.64416682700005, 25.646747187000074], [85.64518539000005, 25.644550989000038], [85.64577301400004, 25.643087042000047], [85.64720459700004, 25.640853527000047], [85.64737114300004, 25.64000911900007], [85.64617766200007, 25.637471310000024], [85.64557965100005, 25.63578050600006], [85.64446181400007, 25.63350876100003], [85.64340736200006, 25.633813966000048], [85.64230335800005, 25.634218678000025], [85.64097102300008, 25.634827010000038], [85.63925311100007, 25.634781995000026], [85.63869857300006, 25.634178630000065], [85.63764801600007, 25.634181393000063], [85.63681737100006, 25.63443634300006], [85.63443524800005, 25.63529572300007], [85.63127899100004, 25.635403257000064], [85.63142880000004, 25.637126934000037], [85.62992761500004, 25.63788910200003], [85.62884194900005, 25.637815163000027], [85.62687614500004, 25.638086592000036], [85.62487197600007, 25.638845468000056], [85.62303609400004, 25.639306005000037], [85.62207393800009, 25.63892934200004], [85.62190261500007, 25.638248231000034], [85.62173422200004, 25.63696240300004], [85.62093707500009, 25.636774821000074], [85.62023011900004, 25.63681273900005], [85.61989714500004, 25.63700317400003], [85.61972990500004, 25.63764892200004], [85.61935271800007, 25.638065116000064], [85.61834282100006, 25.63831594900006], [85.61815271700004, 25.63805012800003], [85.61570673200004, 25.635993652000025], [85.61448888900009, 25.636651119000078], [85.61371952600007, 25.63740675500003], [85.61196871400006, 25.638002415000074], [85.61010174300003, 25.638052162000065], [85.60679485900005, 25.637775900000065], [85.60589561600005, 25.636776144000066], [85.60483354200005, 25.63624163000003], [85.60393557900005, 25.635666101000027], [85.60390795600006, 25.634745405000047], [85.60411854900008, 25.63354434100006], [85.60546225100006, 25.633369599000048], [85.60718302100008, 25.632724533000044], [85.60729570400008, 25.630449473000056], [85.60682565400003, 25.62974652500003], [85.60554848500004, 25.628851487000077], [85.60500539600008, 25.628721980000023], [85.59808923800006, 25.628440712000042], [85.59524643000003, 25.628420367000047], [85.59469309500008, 25.629915577000077], [85.59384536600004, 25.63115872800006], [85.58989186400004, 25.634521428000028], [85.59096539800004, 25.635593097000026], [85.59425131900008, 25.637277940000047], [85.59633175200008, 25.638753343000076], [85.59757607400007, 25.63857442400007], [85.59858981300005, 25.639610068000025], [85.60034061900006, 25.64069806300006], [85.60063602200006, 25.641243485000075], [85.60092561600004, 25.641540735000035], [85.60142863300007, 25.64157555500003], [85.60329575500003, 25.641535026000042], [85.60587924900005, 25.641321091000066], [85.60609799900004, 25.642868686000043], [85.60614204900008, 25.64429475600008], [85.60663305100007, 25.645300031000033], [85.60704766000003, 25.647429317000046], [85.60747216500005, 25.647848040000042], [85.60986322900004, 25.648144564000063], [85.61292463600006, 25.647834611000064], [85.61424894200007, 25.64778621100004], [85.61519099600008, 25.64809070900003], [85.61568522600004, 25.64850468000003], [85.61611536000004, 25.64911289300005], [85.61740024400007, 25.649181931000044], [85.61944223200004, 25.649321198000052], [85.62138061900004, 25.649754103000078], [85.62438726400006, 25.64945760300003], [85.62653730600005, 25.64910899700004], [85.62948878200007, 25.648677172000077], [85.63195252500003, 25.648318689000064]]]]}}, {"type": "Feature", "properties": {"OBJECTID": 7778, "GPCODE": "97806", "GPNAME_1": "CHAKSALEM", "DIST_CEN_C": "19", "BLK_NAME": "PATORI", "ST_NAME": "BIHAR", "ST_CODE_1": "10", "GPCODE2011": "100293", "REMARKS": "FINALIZED", "MAP_STATUS": "COMPLETED", "BLK_C_2001": "190009", "BLK_C_2011": "01292", "DIST_NAME": "SAMASTIPUR", "code2011": 0.0, "Shape_Leng": 0.12791750639, "Shape_Area": 0.00049357929, "Area": 5.48919}, "geometry": {"type": "MultiPolygon", "coordinates": [[[[85.59719425400004, 25.654584210000053], [85.59846779000009, 25.654134310000074], [85.59857364500004, 25.654580838000072], [85.59928040400007, 25.654452777000074], [85.59945854600005, 25.654064258000062], [85.60147320900006, 25.653355361000024], [85.60377104700007, 25.652420078000034], [85.60681645200003, 25.65170404500003], [85.61049377700004, 25.650860054000077], [85.61310952200006, 25.649698106000073], [85.61611536000004, 25.64911289300005], [85.61568522600004, 25.64850468000003], [85.61519099600008, 25.64809070900003], [85.61424894200007, 25.64778621100004], [85.61292463600006, 25.647834611000064], [85.60986322900004, 25.648144564000063], [85.60747216500005, 25.647848040000042], [85.60704766000003, 25.647429317000046], [85.60663305100007, 25.645300031000033], [85.60614204900008, 25.64429475600008], [85.60609799900004, 25.642868686000043], [85.60587924900005, 25.641321091000066], [85.60329575500003, 25.641535026000042], [85.60142863300007, 25.64157555500003], [85.60092561600004, 25.641540735000035], [85.60063602200006, 25.641243485000075], [85.60034061900006, 25.64069806300006], [85.59858981300005, 25.639610068000025], [85.59757607400007, 25.63857442400007], [85.59633175200008, 25.638753343000076], [85.59425131900008, 25.637277940000047], [85.59096539800004, 25.635593097000026], [85.58989186400004, 25.634521428000028], [85.59384536600004, 25.63115872800006], [85.59469309500008, 25.629915577000077], [85.59524643000003, 25.628420367000047], [85.59490766200008, 25.626624820000075], [85.59301489500007, 25.626295310000046], [85.59094286200008, 25.625961638000035], [85.58901533700003, 25.62566372200007], [85.58749626800005, 25.62543250400006], [85.58709014400006, 25.62439537800003], [85.58512323400004, 25.624264512000025], [85.58371922600008, 25.624231639000072], [85.58152945300003, 25.624507420000043], [85.58253515200005, 25.626319548000026], [85.58391735300006, 25.630987736000066], [85.58433005300003, 25.632602527000074], [85.58433467600008, 25.634245339000074], [85.58378071400006, 25.635555503000035], [85.58352443900003, 25.636499386000025], [85.58366598500004, 25.637266331000035], [85.58339568300005, 25.638535259000037], [85.58363431000004, 25.640209163000065], [85.58397271200005, 25.643715202000067], [85.58358685300004, 25.644614282000077], [85.58363149200005, 25.646338252000078], [85.58415647500004, 25.647090767000066], [85.58484545500005, 25.64951737000007], [85.58431974300004, 25.65029493800006], [85.58399289800008, 25.650945542000045], [85.58382832800004, 25.65261587300006], [85.58451803800006, 25.653521511000065], [85.58838716100007, 25.65351262200005], [85.58873004100008, 25.655005751000033], [85.58914011100006, 25.657387839000023], [85.58970527900004, 25.658244058000037], [85.59034797500004, 25.658350882000036], [85.59122290500005, 25.657807175000073], [85.59115192300004, 25.657360587000028], [85.59167873900003, 25.657007328000077], [85.59309653300005, 25.65652106400006], [85.59433092800003, 25.656292438000037], [85.59546471100003, 25.65574371400004], [85.59574610500005, 25.65490804800004], [85.59691113800005, 25.654810461000068], [85.59719425400004, 25.654584210000053]]]]}}, {"type": "Feature", "properties": {"OBJECTID": 7780, "GPCODE": "97811", "GPNAME_1": "HASANPUR SURAT", "DIST_CEN_C": "19", "BLK_NAME": "PATORI", "ST_NAME": "BIHAR", "ST_CODE_1": "10", "GPCODE2011": "100298", "REMARKS": "FINALIZED", "MAP_STATUS": "COMPLETED", "BLK_C_2001": "190009", "BLK_C_2011": "01292", "DIST_NAME": "SAMASTIPUR", "code2011": 0.0, "Shape_Leng": 0.0831603107, "Shape_Area": 0.00030228709, "Area": 3.36209}, "geometry": {"type": "MultiPolygon", "coordinates": [[[[85.58382832800004, 25.65261587300006], [85.58399289800008, 25.650945542000045], [85.58431974300004, 25.65029493800006], [85.58484545500005, 25.64951737000007], [85.58415647500004, 25.647090767000066], [85.58363149200005, 25.646338252000078], [85.58358685300004, 25.644614282000077], [85.58397271200005, 25.643715202000067], [85.58363431000004, 25.640209163000065], [85.58339568300005, 25.638535259000037], [85.58366598500004, 25.637266331000035], [85.58352443900003, 25.636499386000025], [85.58378071400006, 25.635555503000035], [85.58433467600008, 25.634245339000074], [85.58433005300003, 25.632602527000074], [85.58391735300006, 25.630987736000066], [85.58253515200005, 25.626319548000026], [85.58152945300003, 25.624507420000043], [85.57993754700004, 25.62313445700005], [85.57712069400003, 25.621628824000027], [85.57438403200007, 25.622171969000078], [85.57164874100005, 25.623184519000063], [85.57024056300008, 25.623458352000057], [85.56850421900003, 25.623863845000074], [85.56728087200008, 25.624372038000047], [85.56569603800006, 25.62565277500005], [85.56503049100007, 25.626245398000037], [85.56672629800005, 25.629279309000026], [85.56734843600003, 25.63111033200005], [85.56949963800008, 25.633123132000037], [85.57014535500008, 25.634398979000025], [85.57071351900004, 25.63646040800006], [85.57333815300007, 25.636738887000035], [85.57495907200007, 25.639583277000042], [85.57609519000005, 25.641733618000046], [85.57669665700007, 25.643212616000028], [85.57739964400008, 25.643527026000072], [85.57861066300006, 25.64393048200003], [85.57971397200004, 25.644984115000057], [85.58066527700004, 25.64685501100007], [85.58098789200005, 25.64830311700007], [85.58172882100007, 25.65152843800007], [85.58196561200003, 25.65249824600005], [85.58286273000004, 25.65279865800005], [85.58382832800004, 25.65261587300006]]]]}}, {"type": "Feature", "properties": {"OBJECTID": 7787, "GPCODE": "97815", "GPNAME_1": "JORPURA", "DIST_CEN_C": "19", "BLK_NAME": "PATORI", "ST_NAME": "BIHAR", "ST_CODE_1": "10", "GPCODE2011": "100302", "REMARKS": "FINALIZED", "MAP_STATUS": "COMPLETED", "BLK_C_2001": "190009", "BLK_C_2011": "01292", "DIST_NAME": "SAMASTIPUR", "code2011": 0.0, "Shape_Leng": 0.12084596989, "Shape_Area": 0.00058914906, "Area": 6.55102}, "geometry": {"type": "MultiPolygon", "coordinates": [[[[85.61453270300007, 25.668989097000065], [85.61918555400007, 25.667790387000025], [85.62177033800003, 25.667815424000025], [85.62388134100007, 25.667611489000024], [85.62532942500007, 25.667215102000057], [85.62528287300006, 25.668253311000058], [85.62742448300008, 25.66829742400006], [85.62980815000003, 25.66769996200003], [85.63186405100004, 25.667401307000034], [85.63343261500006, 25.667347490000054], [85.63497992100008, 25.66685145300005], [85.63508152100007, 25.665925994000077], [85.63757896500005, 25.665143132000026], [85.63678826100005, 25.662414591000072], [85.63584301200007, 25.66115338000003], [85.63589159200006, 25.659253172000035], [85.63583314500005, 25.658106959000065], [85.63477921600008, 25.65557324200006], [85.63399649800004, 25.65372481600008], [85.63084988400004, 25.653900032000024], [85.63020851800007, 25.654217610000046], [85.62886461300008, 25.654415219000043], [85.62779152600007, 25.655198771000073], [85.62644760700005, 25.655396359000065], [85.62548323300007, 25.65593586600005], [85.62360284800008, 25.65657261900003], [85.62317732000008, 25.657449290000045], [85.62210068600007, 25.65711351500005], [85.62123356700005, 25.655310359000055], [85.62095799900004, 25.653167241000062], [85.62122059400008, 25.651122072000078], [85.62138061900004, 25.649754103000078], [85.61944223200004, 25.649321198000052], [85.61740024400007, 25.649181931000044], [85.61611536000004, 25.64911289300005], [85.61310952200006, 25.649698106000073], [85.61049377700004, 25.650860054000077], [85.60681645200003, 25.65170404500003], [85.60377104700007, 25.652420078000034], [85.60147320900006, 25.653355361000024], [85.59945854600005, 25.654064258000062], [85.59928040400007, 25.654452777000074], [85.59857364500004, 25.654580838000072], [85.59846779000009, 25.654134310000074], [85.59719425400004, 25.654584210000053], [85.59691113800005, 25.654810461000068], [85.59574610500005, 25.65490804800004], [85.59546471100003, 25.65574371400004], [85.59433092800003, 25.656292438000037], [85.59309653300005, 25.65652106400006], [85.59167873900003, 25.657007328000077], [85.59115192300004, 25.657360587000028], [85.59122290500005, 25.657807175000073], [85.59275887000007, 25.658593453000037], [85.59335958200006, 25.659657157000026], [85.59453603200006, 25.660083194000038], [85.59721996000007, 25.659986538000055], [85.59793347900006, 25.660454274000074], [85.59834369400005, 25.661116754000034], [85.59853756400008, 25.662691481000024], [85.59941071900005, 25.663249052000026], [85.60156435000005, 25.664038220000066], [85.60178314400008, 25.665621805000058], [85.60262450100004, 25.667204034000065], [85.60485016500007, 25.668719573000033], [85.60786809900009, 25.668676172000062], [85.61114495400005, 25.668604852000044], [85.61453270300007, 25.668989097000065]]]]}}, {"type": "Feature", "properties": {"OBJECTID": 7806, "GPCODE": "97819", "GPNAME_1": "SIRDILPUR", "DIST_CEN_C": "19", "BLK_NAME": "PATORI", "ST_NAME": "BIHAR", "ST_CODE_1": "10", "GPCODE2011": "100306", "REMARKS": "FINALIZED", "MAP_STATUS": "COMPLETED", "BLK_C_2001": "190009", "BLK_C_2011": "01292", "DIST_NAME": "SAMASTIPUR", "code2011": 0.0, "Shape_Leng": 0.10956449538, "Shape_Area": 0.0004632941, "Area": 5.15211}, "geometry": {"type": "MultiPolygon", "coordinates": [[[[85.56470445700006, 25.666947573000073], [85.56451321800006, 25.666171725000027], [85.56443109400004, 25.665260185000022], [85.56494759800006, 25.664731034000056], [85.56470610500008, 25.66378375800008], [85.56434535100004, 25.662967657000024], [85.56466285200008, 25.662475009000048], [85.56540536500006, 25.662694490000035], [85.56646680500006, 25.662926947000074], [85.56710851300005, 25.662654755000062], [85.56774968100007, 25.66218393400004], [85.56764358000004, 25.661619982000047], [85.56740085800004, 25.660234941000056], [85.56810096900006, 25.659452573000067], [85.56874365400006, 25.659559485000045], [85.57063173500006, 25.65984424900006], [85.57552469200004, 25.658998503000078], [85.57833123800003, 25.658211400000027], [85.58185882500004, 25.657093146000022], [85.58351909000004, 25.656033172000036], [85.58349619300003, 25.65494553700006], [85.58451803800006, 25.653521511000065], [85.58382832800004, 25.65261587300006], [85.58286273000004, 25.65279865800005], [85.58196561200003, 25.65249824600005], [85.58172882100007, 25.65152843800007], [85.58098789200005, 25.64830311700007], [85.58066527700004, 25.64685501100007], [85.57971397200004, 25.644984115000057], [85.57861066300006, 25.64393048200003], [85.57739964400008, 25.643527026000072], [85.57669665700007, 25.643212616000028], [85.57609519000005, 25.641733618000046], [85.57495907200007, 25.639583277000042], [85.57333815300007, 25.636738887000035], [85.57071351900004, 25.63646040800006], [85.56966514000004, 25.637297654000065], [85.56828721200003, 25.637765525000077], [85.56772761800005, 25.638904068000045], [85.56757598200005, 25.639901912000028], [85.56550940000005, 25.64171175000007], [85.56561479500004, 25.642036474000065], [85.56699412500006, 25.642056035000053], [85.56727371100004, 25.64233528400007], [85.56676732300008, 25.642891444000043], [85.56569411900006, 25.64377393600006], [85.56582805800008, 25.64547066700004], [85.56611041200006, 25.646814978000066], [85.56600846400005, 25.647790129000043], [85.56388721100006, 25.64779473300007], [85.56352988600008, 25.648237791000042], [85.56294234100005, 25.64826159200004], [85.56199446200003, 25.64756853800003], [85.56053152700008, 25.646037165000052], [85.55925147200008, 25.645904494000035], [85.55825567600004, 25.645906599000057], [85.55764312100007, 25.645880807000026], [85.55738288700007, 25.64537135200004], [85.55677042300005, 25.645354578000024], [85.55575794200007, 25.646670060000076], [85.55479571700005, 25.648129890000064], [85.55485360300008, 25.65133423900005], [85.55512956000007, 25.654104854000025], [85.55572737200004, 25.656143696000072], [85.55701287800008, 25.656434327000056], [85.55728407500004, 25.65730936700004], [85.55809038600006, 25.65909494400006], [85.55911194600003, 25.661277288000065], [85.55992039500006, 25.66190738000006], [85.56158013300006, 25.66244097200007], [85.56180215500007, 25.663555269000028], [85.56245423700005, 25.667245844000036], [85.56336489200004, 25.667000142000063], [85.56470445700006, 25.666947573000073]]]]}}, {"type": "Feature", "properties": {"OBJECTID": 8091, "GPCODE": "97809", "GPNAME_1": "DHAMAUN SOUTH", "DIST_CEN_C": "19", "BLK_NAME": "PATORI", "ST_NAME": "BIHAR", "ST_CODE_1": "10", "GPCODE2011": "100296", "REMARKS": "FINALIZED", "MAP_STATUS": "COMPLETED", "BLK_C_2001": "190009", "BLK_C_2011": "01292", "DIST_NAME": "SAMASTIPUR", "code2011": 0.0, "Shape_Leng": 0.07003195135, "Shape_Area": 0.00019353471, "Area": 2.15322}, "geometry": {"type": "MultiPolygon", "coordinates": [[[[85.57138733100004, 25.598131301000024], [85.56923754900004, 25.598284940000042], [85.56800068800004, 25.597371389000045], [85.56685768800008, 25.596164359000056], [85.56421233800006, 25.59334014800004], [85.56193294400003, 25.591453871000056], [85.56085707000005, 25.59115827100004], [85.55874014700004, 25.59051284800006], [85.55475844500006, 25.59048061200008], [85.55166800900008, 25.59058624100004], [85.54968608400003, 25.590148061000036], [85.54736179600008, 25.590139192000038], [85.54514268800006, 25.590405494000038], [85.54452062800004, 25.59046095100007], [85.54446456900007, 25.591941380000037], [85.54494820700006, 25.59228798600003], [85.54584980900006, 25.592574998000032], [85.54639389200008, 25.593232845000045], [85.54643683800003, 25.594473970000024], [85.54673577700004, 25.59821659200003], [85.54910363300007, 25.597503867000057], [85.55163181100005, 25.597503867000057], [85.55371383900007, 25.599585896000065], [85.55787789600004, 25.600032045000034], [85.56248810100004, 25.599585896000065], [85.56561114400006, 25.601667924000026], [85.56769317200008, 25.60300637100005], [85.57111364800005, 25.60300637100005], [85.57155979600003, 25.60151920800007], [85.57138733100004, 25.598131301000024]]]]}}]}