{"type": "FeatureCollection", "features": [{"type": "Feature", "properties": {"OBJECTID": 3173, "GPCODE": "98249", "GPNAME_1": "GANGAULI", "DIST_CEN_C": "17", "BLK_NAME": "MASHRAKH", "ST_NAME": "BIHAR", "ST_CODE_1": "10", "GPCODE2011": "100736", "REMARKS": "FINALIZED", "MAP_STATUS": "COMPLETED", "BLK_C_2001": "170001", "BLK_C_2011": "01248", "DIST_NAME": "SARAN", "code2011": 0.0, "Shape_Leng": 0.16010918242, "Shape_Area": 0.00075078374, "Area": 8.32489}, "geometry": {"type": "MultiPolygon", "coordinates": [[[[84.77688313300007, 26.11184111400007], [84.77780864500005, 26.111659151000026], [84.78038193600008, 26.111947308000026], [84.78574483800008, 26.110940225000036], [84.78586514700004, 26.107032357000037], [84.78515541100006, 26.103216581000027], [84.78300933500003, 26.099860974000023], [84.78280646400003, 26.098091175000036], [84.78323082600008, 26.09567356100007], [84.78076605500007, 26.093336874000045], [84.78182720900008, 26.091674950000026], [84.78239646100008, 26.09054861900006], [84.78756848400008, 26.084423050000055], [84.78963258400006, 26.08312984400004], [84.79149652400008, 26.080626540000026], [84.79160980100005, 26.07848775000008], [84.78984425400006, 26.074988954000048], [84.78861527400005, 26.073635671000034], [84.78758869400008, 26.07288772900006], [84.78681950500004, 26.072790480000037], [84.78470462600006, 26.073063495000042], [84.78352118300006, 26.072829453000054], [84.78305852700004, 26.072313541000028], [84.78208905400004, 26.071055710000053], [84.78129482700007, 26.069703765000042], [84.77861653300005, 26.069649897000033], [84.77625074700006, 26.068942633000063], [84.77476737100005, 26.066288574000055], [84.77420739200005, 26.06512235100007], [84.77322853600003, 26.064979264000044], [84.77100847200006, 26.066555951000055], [84.76831611300008, 26.07119997700005], [84.76927887500005, 26.075296550000076], [84.76916603300003, 26.077250290000052], [84.76854522900004, 26.078737509000064], [84.76915463700004, 26.080039286000044], [84.77028371500006, 26.081347350000044], [84.77202916000005, 26.082282814000052], [84.77243829500009, 26.083678700000064], [84.76980590200003, 26.08455450100007], [84.76855852700004, 26.08650453200005], [84.76660057300006, 26.087427585000057], [84.76430139400009, 26.088679052000032], [84.76388805600004, 26.089517052000076], [84.76377892500005, 26.09054117200003], [84.76423809400006, 26.09189209400006], [84.76443711700006, 26.09333242100007], [84.76412611200004, 26.094820722000065], [84.76215915200004, 26.09667787500007], [84.76188901100005, 26.099141150000037], [84.76302398200005, 26.099050170000055], [84.76559659800006, 26.09942888100005], [84.76734644600003, 26.100549543000056], [84.77002520800005, 26.100653221000073], [84.77218340500008, 26.100940208000054], [84.77558507500004, 26.101511080000023], [84.77475503000005, 26.102808091000043], [84.77279379600003, 26.10326638400005], [84.77299192400005, 26.10494594200003], [84.77427213100003, 26.107274347000043], [84.77384299500005, 26.110811132000038], [84.77207829300005, 26.114528576000055], [84.77259161800004, 26.114900289000047], [84.77269360600008, 26.115645304000054], [84.77247383500008, 26.118063581000058], [84.77500450400004, 26.117792123000072], [84.77541824200006, 26.116863806000026], [84.77573305500005, 26.11565538700006], [84.77635624400006, 26.114817945000027], [84.77687308100008, 26.114354786000035], [84.77708025300007, 26.11379590100006], [84.77666753800008, 26.113239427000053], [84.77615424200008, 26.11286321600005], [84.77626218000006, 26.112118862000045], [84.77688313300007, 26.11184111400007]]]]}}, {"type": "Feature", "properties": {"OBJECTID": 3174, "GPCODE": "98250", "GPNAME_1": "JAJAULI", "DIST_CEN_C": "17", "BLK_NAME": "MASHRAKH", "ST_NAME": "BIHAR", "ST_CODE_1": "10", "GPCODE2011": "100737", "REMARKS": "FINALIZED", "MAP_STATUS": "COMPLETED", "BLK_C_2001": "170001", "BLK_C_2011": "01248", "DIST_NAME": "SARAN", "code2011": 0.0, "Shape_Leng": 0.12882445999, "Shape_Area": 0.00076023001, "Area": 8.42761}, "geometry": {"type": "MultiPolygon", "coordinates": [[[[84.75084416300007, 26.138849374000074], [84.75178571300006, 26.13730919300008], [84.75290126700008, 26.135986169000034], [84.75465999100004, 26.13392082300004], [84.75318018200005, 26.130336853000074], [84.75210263200006, 26.126221858000065], [84.75180450200008, 26.123431725000046], [84.75206063200005, 26.120783481000046], [84.75018274100006, 26.120357252000076], [84.74825915100007, 26.118906476000063], [84.74785843400008, 26.117022116000044], [84.74777891500008, 26.11664826200007], [84.74761851300008, 26.11555552300007], [84.74785844400003, 26.114691020000066], [84.74814149800005, 26.11367093800004], [84.74871030300005, 26.112743221000073], [84.74785842700004, 26.111136198000054], [84.74727713700008, 26.110039510000036], [84.74560665000007, 26.106752722000067], [84.74483656000007, 26.105657808000046], [84.74417402000006, 26.103958662000025], [84.74226072600004, 26.102534827000056], [84.73770321100005, 26.105704868000032], [84.73450023300006, 26.10773788000006], [84.73206934700005, 26.110333169000057], [84.73021291800006, 26.110746133000077], [84.72989008400003, 26.113673882000057], [84.72918889500005, 26.115111039000055], [84.72806920000005, 26.11620365500005], [84.72427851600008, 26.117629540000053], [84.72138928400005, 26.118688508000048], [84.71798659000007, 26.120490268000026], [84.71635852200006, 26.12342216500008], [84.71624031800008, 26.123635025000056], [84.71710799200008, 26.125726522000036], [84.71694698400006, 26.127075389000026], [84.71694289300007, 26.12795985200006], [84.71740458600004, 26.128701744000068], [84.71827697600008, 26.12926452800008], [84.72044177400005, 26.129272505000074], [84.72384398200006, 26.12872535200006], [84.72776338900007, 26.127670028000068], [84.72904830200008, 26.127674719000026], [84.73085309300006, 26.127681219000067], [84.73280694900006, 26.129037673000028], [84.73258296900008, 26.133360321000055], [84.73210794700003, 26.135637668000072], [84.73199750400005, 26.136891865000052], [84.73199377600008, 26.13773121400004], [84.73297051900005, 26.13847492600007], [84.73740413100006, 26.137655881000057], [84.73920740400007, 26.136917625000024], [84.74065376200008, 26.136597751000068], [84.74276124600004, 26.13716484500003], [84.74368803700008, 26.13791277200005], [84.74548550300005, 26.138519260000066], [84.74785820000005, 26.13806336600004], [84.74832281700003, 26.13797412300005], [84.74997200400009, 26.13816490000005], [84.75084416300007, 26.138849374000074]]]]}}, {"type": "Feature", "properties": {"OBJECTID": 3176, "GPCODE": "98248", "GPNAME_1": "DURGAULI", "DIST_CEN_C": "17", "BLK_NAME": "MASHRAKH", "ST_NAME": "BIHAR", "ST_CODE_1": "10", "GPCODE2011": "100735", "REMARKS": "FINALIZED", "MAP_STATUS": "COMPLETED", "BLK_C_2001": "170001", "BLK_C_2011": "01248", "DIST_NAME": "SARAN", "code2011": 0.0, "Shape_Leng": 0.13895314705, "Shape_Area": 0.00071347578, "Area": 7.90825}, "geometry": {"type": "MultiPolygon", "coordinates": [[[[84.77492097000004, 26.154365952000035], [84.77638386100006, 26.151432060000047], [84.77447503300004, 26.15110085500004], [84.77422506100004, 26.149840905000076], [84.77346186200003, 26.146909433000076], [84.77321494400007, 26.14490485600004], [84.77249984900004, 26.143692994000048], [84.77204180400008, 26.14197200700005], [84.77178327500008, 26.141596648000075], [84.77131830800005, 26.141595034000034], [84.76966831500005, 26.14280354600004], [84.76837617500007, 26.143309226000042], [84.76781323300008, 26.14279736800006], [84.76768975400006, 26.14121286200003], [84.76789965400008, 26.140004102000034], [84.76698271900005, 26.13804694600003], [84.76606360800008, 26.13539465100007], [84.76643896700006, 26.132882203000065], [84.77150026300006, 26.13006490300006], [84.77397455800008, 26.12895392100006], [84.77634582000007, 26.12859169500007], [84.77759248100006, 26.126921417000062], [84.77800844300003, 26.125433499000053], [84.77688527900006, 26.123755509000034], [84.77616405900005, 26.12282346300003], [84.77607089300005, 26.121144307000066], [84.77555933900004, 26.120307731000025], [84.77453022600008, 26.120119241000054], [84.77360258600004, 26.119556611000064], [84.77247383500008, 26.118063581000058], [84.77269360600008, 26.115645304000054], [84.77259161800004, 26.114900289000047], [84.77207829300005, 26.114528576000055], [84.76877438100007, 26.115632232000053], [84.76362020900007, 26.116874145000054], [84.76235146700003, 26.117840125000043], [84.75745027000005, 26.119497782000053], [84.75206063200005, 26.120783481000046], [84.75180450200008, 26.123431725000046], [84.75210263200006, 26.126221858000065], [84.75318018200005, 26.130336853000074], [84.75465999100004, 26.13392082300004], [84.75290126700008, 26.135986169000034], [84.75178571300006, 26.13730919300008], [84.75084416300007, 26.138849374000074], [84.75217467700008, 26.141101443000025], [84.75437463700007, 26.144687848000046], [84.75521841100004, 26.146184508000033], [84.75513992600008, 26.14819708500005], [84.75569043200005, 26.151642351000078], [84.75750235300006, 26.15601715500003], [84.76077666800006, 26.155103119000046], [84.76190689200007, 26.156311929000026], [84.76288715600003, 26.156270145000065], [84.76433009700008, 26.15562065900008], [84.76681082600004, 26.154329234000045], [84.76835674300008, 26.15414486900005], [84.77149824600008, 26.155134669000063], [84.77360533100006, 26.155931375000023], [84.77388729000006, 26.156677029000036], [84.77492097000004, 26.154365952000035]]]]}}, {"type": "Feature", "properties": {"OBJECTID": 3177, "GPCODE": "98247", "GPNAME_1": "DUMARSHAN", "DIST_CEN_C": "17", "BLK_NAME": "MASHRAKH", "ST_NAME": "BIHAR", "ST_CODE_1": "10", "GPCODE2011": "100734", "REMARKS": "FINALIZED", "MAP_STATUS": "COMPLETED", "BLK_C_2001": "170001", "BLK_C_2011": "01248", "DIST_NAME": "SARAN", "code2011": 0.0, "Shape_Leng": 0.10786556633, "Shape_Area": 0.00038394267, "Area": 4.25442}, "geometry": {"type": "MultiPolygon", "coordinates": [[[[84.79778949800004, 26.172739125000078], [84.80047318100003, 26.17200285200005], [84.80219343100003, 26.17206241300005], [84.80296783800009, 26.17229492000007], [84.80332794500004, 26.17229608100007], [84.80549720600004, 26.171327959000052], [84.80833899600003, 26.169752698000025], [84.81094773100006, 26.168925771000033], [84.81249611900006, 26.16814069800006], [84.81456630400004, 26.165538450000042], [84.81601632400003, 26.164288249000037], [84.81510208100008, 26.16130687800006], [84.81433539500006, 26.159021015000064], [84.81493811000007, 26.156973909000044], [84.81440010200004, 26.156408156000055], [84.81187468000007, 26.156400529000052], [84.80837196300007, 26.15564512700007], [84.80579798100007, 26.155267141000024], [84.80476603400007, 26.154424514000027], [84.80198278700004, 26.155160541000043], [84.80206403800008, 26.160093502000052], [84.80154750500003, 26.160462005000056], [84.79917310100006, 26.16147900800007], [84.79648683300007, 26.162959872000044], [84.79379477200007, 26.165929903000062], [84.79126710700007, 26.166454463000036], [84.79060453400007, 26.16449822100003], [84.78879694900007, 26.16505199900007], [84.78519096200006, 26.16508555100006], [84.77874485300003, 26.166228938000074], [84.77590565500003, 26.167104162000044], [84.77627828400006, 26.17017417900007], [84.77653113200006, 26.17198929700004], [84.78286933100009, 26.171639949000053], [84.78838758500007, 26.171238], [84.78829222500008, 26.17512787800007], [84.79335180100009, 26.173095158000024], [84.79778949800004, 26.172739125000078]]]]}}, {"type": "Feature", "properties": {"OBJECTID": 3179, "GPCODE": "98246", "GPNAME_1": "CHAND KUDARIYA", "DIST_CEN_C": "17", "BLK_NAME": "MASHRAKH", "ST_NAME": "BIHAR", "ST_CODE_1": "10", "GPCODE2011": "100733", "REMARKS": "FINALIZED", "MAP_STATUS": "COMPLETED", "BLK_C_2001": "170001", "BLK_C_2011": "01248", "DIST_NAME": "SARAN", "code2011": 0.0, "Shape_Leng": 0.1373293172, "Shape_Area": 0.00074981637, "Area": 8.3067}, "geometry": {"type": "MultiPolygon", "coordinates": [[[[84.77017722000005, 26.212846728000045], [84.77399117400006, 26.212484802000063], [84.77826510900007, 26.213428519000047], [84.78053113900006, 26.21353071900006], [84.78177086400007, 26.21255545500003], [84.78472414300006, 26.208431174000054], [84.78778080300003, 26.204672720000076], [84.78904349100003, 26.20416681200004], [84.79026805500007, 26.201900729000045], [84.79022352400006, 26.200506060000066], [84.78976682400008, 26.198315844000035], [84.78923146300008, 26.195800379000048], [84.78822184900008, 26.190494384000033], [84.78782839700006, 26.187501006000048], [84.78814994000004, 26.18461823000007], [84.78827613200008, 26.17922111300004], [84.78829222500008, 26.17512787800007], [84.78838758500007, 26.171238], [84.78286933100009, 26.171639949000053], [84.77653113200006, 26.17198929700004], [84.77644539600004, 26.173401514000034], [84.77644182300008, 26.174286035000023], [84.77658842900007, 26.176376100000027], [84.77708674100006, 26.180565775000048], [84.77723540500006, 26.182145776000027], [84.77688368600008, 26.183773853000048], [84.77600993100003, 26.18461936700004], [84.77200390700006, 26.18693930300003], [84.77044055000005, 26.18882960600007], [84.76825836000006, 26.191552595000076], [84.77056858300006, 26.193000011000038], [84.77293357400004, 26.194497167000065], [84.77411384200008, 26.195800791000067], [84.77389340600007, 26.198358922000068], [84.76966860600004, 26.19899471000008], [84.76637092100003, 26.199213867000026], [84.76291834200003, 26.199391753000043], [84.76193496700006, 26.20008340700008], [84.76097608200007, 26.20207940000006], [84.76065358600005, 26.20505228500008], [84.76111306800004, 26.20882670900005], [84.76234897600006, 26.21119505000007], [84.76278583200008, 26.212032054000076], [84.76293411000006, 26.213657227000056], [84.76349964500008, 26.21482347500006], [84.76416381300004, 26.215150652000034], [84.76560972500005, 26.215155587000027], [84.76907032600008, 26.21312277900006], [84.77017722000005, 26.212846728000045]]]]}}, {"type": "Feature", "properties": {"OBJECTID": 3205, "GPCODE": "98258", "GPNAME_1": "SEMARI", "DIST_CEN_C": "17", "BLK_NAME": "MASHRAKH", "ST_NAME": "BIHAR", "ST_CODE_1": "10", "GPCODE2011": "100745", "REMARKS": "FINALIZED", "MAP_STATUS": "COMPLETED", "BLK_C_2001": "170001", "BLK_C_2011": "01248", "DIST_NAME": "SARAN", "code2011": 0.0, "Shape_Leng": 0.16189246947, "Shape_Area": 0.00054254422, "Area": 6.01806}, "geometry": {"type": "MultiPolygon", "coordinates": [[[[84.75135786200008, 26.061213656000064], [84.75694099000003, 26.059599131000027], [84.76230741600006, 26.059617322000065], [84.76494310500004, 26.059021526000038], [84.76835303000007, 26.05726383600006], [84.77331658000008, 26.055556274000025], [84.77538167000006, 26.055174928000042], [84.77456194700005, 26.054007908000074], [84.77238523500006, 26.05111232300004], [84.76790736700008, 26.050167824000027], [84.76673236500005, 26.047938888000033], [84.76782062400008, 26.04570859200004], [84.77122807200004, 26.04321071800007], [84.77180124500006, 26.042328006000048], [84.77165274900005, 26.04074341000006], [84.77108830300006, 26.03948690200008], [84.77052717800007, 26.03865012800003], [84.76931858800003, 26.03855132800004], [84.76668777700007, 26.039287264000052], [84.76602238400005, 26.038310156000023], [84.76504530200003, 26.037792418000038], [84.76386193700006, 26.03764853000007], [84.76247207700004, 26.03787849400004], [84.76051536100005, 26.038706862000026], [84.75979853300004, 26.03689015200007], [84.75857519700008, 26.034331605000034], [84.75656521100007, 26.03473996500003], [84.75460879400003, 26.035477859000025], [84.75286802900007, 26.037204944000052], [84.74831824600005, 26.039251656000033], [84.74785923300004, 26.039746222000076], [84.74737465200008, 26.040268351000066], [84.74592855200007, 26.040800325000077], [84.74520892200007, 26.042025398000078], [84.74201479300007, 26.04359378600003], [84.74087507300004, 26.04488950800004], [84.73890798900004, 26.048041667000064], [84.73786778200008, 26.05038367700007], [84.73651636100004, 26.053426237000053], [84.73679583700005, 26.05564472800006], [84.73731323900006, 26.059751840000047], [84.74334922000008, 26.057439948000024], [84.74785909700006, 26.054957234000028], [84.74788675700006, 26.05494203300003], [84.75098446500004, 26.053792908000048], [84.74990977900006, 26.05155528000006], [84.74865085500005, 26.051505716000065], [84.74803350500008, 26.050989163000054], [84.74824094900004, 26.050385085000073], [84.74860286700005, 26.049876359000052], [84.75268545300008, 26.046167242000024], [84.75402675700008, 26.045616771000027], [84.75403120800007, 26.04454712100005], [84.75398456900007, 26.043757199000027], [84.75705178800007, 26.04143901300006], [84.75823683700008, 26.045996740000078], [84.75869061600008, 26.048606832000075], [84.75970261500004, 26.05275770800006], [84.75681411800008, 26.05288782100007], [84.75469487200007, 26.054279604000044], [84.75370696200008, 26.055115604000036], [84.75231470500006, 26.055900591000068], [84.75060848000004, 26.056454332000044], [84.75085618000008, 26.058134022000047], [84.75090203800005, 26.059113486000058], [84.75135786200008, 26.061213656000064]]]]}}, {"type": "Feature", "properties": {"OBJECTID": 3210, "GPCODE": "98256", "GPNAME_1": "MASHRAK PURABI", "DIST_CEN_C": "17", "BLK_NAME": "MASHRAKH", "ST_NAME": "BIHAR", "ST_CODE_1": "10", "GPCODE2011": "100742", "REMARKS": "FINALIZED", "MAP_STATUS": "COMPLETED", "BLK_C_2001": "170001", "BLK_C_2011": "01248", "DIST_NAME": "SARAN", "code2011": 0.0, "Shape_Leng": 0.19664826177, "Shape_Area": 0.00128338559, "Area": 14.2305}, "geometry": {"type": "MultiPolygon", "coordinates": [[[[84.80989237600005, 26.092747272000054], [84.81205694100004, 26.092659066000067], [84.81566172100008, 26.093694448000065], [84.81948068500003, 26.09221651200005], [84.82154873500008, 26.089803747000076], [84.82372559600003, 26.086276480000038], [84.82641172400008, 26.084235445000047], [84.82841881500008, 26.084814438000024], [84.83132369400005, 26.08729160300004], [84.83148124200005, 26.08654739700006], [84.83173864300005, 26.085853117000056], [84.83174317800007, 26.08455335600007], [84.83171606000008, 26.082337410000036], [84.83016595200007, 26.079764909000062], [84.82888423500003, 26.079016574000036], [84.82734007400006, 26.079011998000055], [84.82548894700005, 26.079561737000063], [84.82384336900003, 26.07996306600006], [84.82251943800009, 26.08123183200007], [84.82159534800007, 26.081089192000036], [84.82113208700008, 26.080672545000027], [84.82051306000005, 26.080481164000048], [84.82005315700007, 26.080529435000074], [84.81948154400004, 26.081037713000057], [84.81850035500008, 26.08149963900007], [84.81772882500007, 26.082007274000034], [84.81700896900009, 26.082054821000042], [84.81621087900004, 26.081632668000054], [84.81534152500006, 26.080235533000064], [84.81498578200006, 26.07911525000003], [84.81514499200006, 26.076606451000032], [84.81525802400006, 26.07441792700007], [84.81560305200009, 26.071629905000066], [84.81532881600003, 26.07009914100007], [84.81445868300005, 26.068932137000047], [84.81178142500005, 26.06859907200004], [84.81111375500006, 26.068087078000076], [84.81106882000006, 26.066737561000025], [84.81081517800004, 26.06506246200007], [84.80994563800004, 26.063755499000024], [84.80896918800005, 26.06296278900004], [84.80861043100003, 26.06268187300003], [84.80721972900005, 26.06309727000007], [84.80588027500005, 26.063183473000038], [84.80503734000007, 26.06145684100005], [84.80462962200005, 26.059596210000052], [84.80562262500007, 26.05597073000007], [84.80445767900005, 26.055065264000064], [84.80322390400005, 26.055017847000045], [84.80168819700003, 26.055254215000048], [84.79938998500006, 26.05585221700005], [84.79790186300005, 26.056240136000042], [84.79734226100004, 26.05756067200008], [84.79708480300008, 26.060831904000054], [84.79586677600008, 26.063143240000045], [84.79652506700006, 26.066078851000043], [84.79383532000008, 26.068999303000055], [84.79186173100004, 26.072806575000072], [84.78984425400006, 26.074988954000048], [84.79160980100005, 26.07848775000008], [84.79149652400008, 26.080626540000026], [84.78963258400006, 26.08312984400004], [84.78756848400008, 26.084423050000055], [84.78239646100008, 26.09054861900006], [84.78182720900008, 26.091674950000026], [84.78076605500007, 26.093336874000045], [84.78323082600008, 26.09567356100007], [84.78280646400003, 26.098091175000036], [84.78300933500003, 26.099860974000023], [84.78515541100006, 26.103216581000027], [84.78586514700004, 26.107032357000037], [84.78574483800008, 26.110940225000036], [84.78759060200008, 26.113180111000077], [84.78964875400004, 26.113556822000078], [84.79047139400006, 26.114118994000023], [84.79149354600008, 26.116076414000077], [84.79597585800008, 26.115255724000065], [84.79668055500008, 26.112699055000064], [84.79689699300008, 26.111020864000068], [84.79690275300004, 26.10953609200004], [84.79794247200005, 26.106935322000027], [84.80078796500004, 26.10397918700005], [84.80368102100005, 26.101659402000053], [84.80402739700008, 26.100781401000063], [84.80492756200005, 26.098499642000036], [84.80606808100003, 26.09691905300008], [84.80659096900007, 26.09478155100004], [84.80855760400004, 26.092833434000056], [84.80989237600005, 26.092747272000054]]]]}}, {"type": "Feature", "properties": {"OBJECTID": 3211, "GPCODE": "98259", "GPNAME_1": "SONAULI", "DIST_CEN_C": "17", "BLK_NAME": "MASHRAKH", "ST_NAME": "BIHAR", "ST_CODE_1": "10", "GPCODE2011": "100746", "REMARKS": "FINALIZED", "MAP_STATUS": "COMPLETED", "BLK_C_2001": "170001", "BLK_C_2011": "01248", "DIST_NAME": "SARAN", "code2011": 0.0, "Shape_Leng": 0.20362373129, "Shape_Area": 0.00068184988, "Area": 7.56209}, "geometry": {"type": "MultiPolygon", "coordinates": [[[[84.76927887500005, 26.075296550000076], [84.76831611300008, 26.07119997700005], [84.76666217800005, 26.072399376000078], [84.76498714500008, 26.07262848700003], [84.76448745300007, 26.072420717000057], [84.76329097200005, 26.071923213000048], [84.76103287000007, 26.069356669000058], [84.75960417600004, 26.066842652000048], [84.75960646900006, 26.066283026000065], [84.76017440700008, 26.065495163000037], [84.76355841000003, 26.06280778300004], [84.76738235500005, 26.060031577000075], [84.77011494700008, 26.058971109000026], [84.77525474800007, 26.05816219600007], [84.77660963900007, 26.05671346500003], [84.77538167000006, 26.055174928000042], [84.77331658000008, 26.055556274000025], [84.76835303000007, 26.05726383600006], [84.76494310500004, 26.059021526000038], [84.76230741600006, 26.059617322000065], [84.75694099000003, 26.059599131000027], [84.75135786200008, 26.061213656000064], [84.75090203800005, 26.059113486000058], [84.75085618000008, 26.058134022000047], [84.75060848000004, 26.056454332000044], [84.75231470500006, 26.055900591000068], [84.75370696200008, 26.055115604000036], [84.75469487200007, 26.054279604000044], [84.75681411800008, 26.05288782100007], [84.75970261500004, 26.05275770800006], [84.75869061600008, 26.048606832000075], [84.75823683700008, 26.045996740000078], [84.75705178800007, 26.04143901300006], [84.75398456900007, 26.043757199000027], [84.75403120800007, 26.04454712100005], [84.75402675700008, 26.045616771000027], [84.75268545300008, 26.046167242000024], [84.74860286700005, 26.049876359000052], [84.74824094900004, 26.050385085000073], [84.74803350500008, 26.050989163000054], [84.74865085500005, 26.051505716000065], [84.74990977900006, 26.05155528000006], [84.75098446500004, 26.053792908000048], [84.74788675700006, 26.05494203300003], [84.74785909700006, 26.054957234000028], [84.74334922000008, 26.057439948000024], [84.73731323900006, 26.059751840000047], [84.73581274300005, 26.061249368000063], [84.73573525100005, 26.06183125000007], [84.73648399600006, 26.067736981000053], [84.73693379900004, 26.070017676000077], [84.73633327800007, 26.072529270000075], [84.73740861500005, 26.073467332000064], [84.73885155300007, 26.07374777600006], [84.74180931900008, 26.072742753000057], [84.74511510500008, 26.072145068000054], [84.74764581000005, 26.071643993000066], [84.74785881300005, 26.071526408000068], [84.75033565000007, 26.07015947800005], [84.75105351300004, 26.07174603900006], [84.75104831300007, 26.07296001800006], [84.75182014200004, 26.073617097000067], [84.75305731300006, 26.07413131100003], [84.75445156900008, 26.07413612700003], [84.75728574800007, 26.075170282000045], [84.75736144000007, 26.07609399100005], [84.75767564900008, 26.079928332000065], [84.75803078900003, 26.082258328000023], [84.75837983800005, 26.084822855000027], [84.75821741100003, 26.086641115000077], [84.75785481800006, 26.087294288000066], [84.75895033700004, 26.088984582000023], [84.76086597800008, 26.09013268900003], [84.76377892500005, 26.09054117200003], [84.76388805600004, 26.089517052000076], [84.76430139400009, 26.088679052000032], [84.76660057300006, 26.087427585000057], [84.76855852700004, 26.08650453200005], [84.76980590200003, 26.08455450100007], [84.77243829500009, 26.083678700000064], [84.77202916000005, 26.082282814000052], [84.77028371500006, 26.081347350000044], [84.76915463700004, 26.080039286000044], [84.76854522900004, 26.078737509000064], [84.76916603300003, 26.077250290000052], [84.76927887500005, 26.075296550000076]]]]}}, {"type": "Feature", "properties": {"OBJECTID": 3215, "GPCODE": "98257", "GPNAME_1": "NAWADA", "DIST_CEN_C": "17", "BLK_NAME": "MASHRAKH", "ST_NAME": "BIHAR", "ST_CODE_1": "10", "GPCODE2011": "100744", "REMARKS": "FINALIZED", "MAP_STATUS": "COMPLETED", "BLK_C_2001": "170001", "BLK_C_2011": "01248", "DIST_NAME": "SARAN", "code2011": 0.0, "Shape_Leng": 0.19224442502, "Shape_Area": 0.00074714884, "Area": 8.28465}, "geometry": {"type": "MultiPolygon", "coordinates": [[[[84.73021291800006, 26.110746133000077], [84.72828404200004, 26.109480096000027], [84.72663919300004, 26.109523770000067], [84.72586457200003, 26.109471300000052], [84.72458265400007, 26.108861863000072], [84.72458674400008, 26.10793219100003], [84.72599030100008, 26.10482333400006], [84.72713027100008, 26.102498742000023], [84.73417351800003, 26.100154798000062], [84.74340364100004, 26.09711418100005], [84.74785857500007, 26.09574599000007], [84.74969472200007, 26.095182005000026], [84.75270111000003, 26.091053975000023], [84.75396885800006, 26.089104201000055], [84.75537162900008, 26.088310166000042], [84.75382443400008, 26.087790417000065], [84.75150355400007, 26.087037783000028], [84.74836286400006, 26.085162999000033], [84.74785867800006, 26.084834279000063], [84.74692249800006, 26.084223790000067], [84.74300009300003, 26.084025001000043], [84.74067161800008, 26.08509089300003], [84.73933322700003, 26.084851470000046], [84.73938581900006, 26.084246973000063], [84.73964908800008, 26.083453548000023], [84.73985681400006, 26.08279987800006], [84.73949925900007, 26.082288659000028], [84.73862046500005, 26.082100525000044], [84.73564311400008, 26.082947380000064], [84.73573971000008, 26.083737513000074], [84.73500108100006, 26.08805836700003], [84.73227324300007, 26.09237660200006], [84.72969787100004, 26.092692277000026], [84.72784393500007, 26.09259531500004], [84.72527472700006, 26.091516435000074], [84.72209126000007, 26.089225654000074], [84.72075951000005, 26.08861603400004], [84.71823599500004, 26.088511977000053], [84.71640550000006, 26.08880315300007], [84.71595515500007, 26.08559271100006], [84.71565055200006, 26.084431751000068], [84.71596975000006, 26.08238854600006], [84.71582995500006, 26.079039375000036], [84.71423683000006, 26.07879878800003], [84.71382434000003, 26.078287240000066], [84.71382814900005, 26.077452363000077], [84.71403704800008, 26.076568579000025], [84.71492314500006, 26.075127697000028], [84.71559089300007, 26.07335652100005], [84.71283463600008, 26.073946544000023], [84.71139265700003, 26.074545881000063], [84.70973459700008, 26.07649384700005], [84.70859673100006, 26.078348954000035], [84.70658152700008, 26.07969077100006], [84.70580007200005, 26.081172622000054], [84.70563133400003, 26.084146073000056], [84.70596434000004, 26.086704998000073], [84.70628682200004, 26.088885564000066], [84.70688399300008, 26.090352040000028], [84.70757664200005, 26.091500563000068], [84.70808126800006, 26.092391235000036], [84.70994015700006, 26.09271894500006], [84.71148458200008, 26.09272467900007], [84.71274285200008, 26.091885423000065], [84.71349217600005, 26.092886300000032], [84.71343268900006, 26.093957058000058], [84.71349217600005, 26.09538473400005], [84.71373012200007, 26.096455492000075], [84.71456293300008, 26.09722881700003], [84.71557420400006, 26.097942655000054], [84.71557420400006, 26.099727251000047], [84.71616907000003, 26.10192825200005], [84.71652598900005, 26.103058496000074], [84.71718034000008, 26.10561641700008], [84.71837007100004, 26.107341526000027], [84.71896493600008, 26.10954252700003], [84.71944082800007, 26.112338394000062], [84.71920288200005, 26.11430144900004], [84.71902442300006, 26.11632399100006], [84.71842955800008, 26.117989614000066], [84.71813212500007, 26.11894139800006], [84.71798659000007, 26.120490268000026], [84.72138928400005, 26.118688508000048], [84.72427851600008, 26.117629540000053], [84.72806920000005, 26.11620365500005], [84.72918889500005, 26.115111039000055], [84.72989008400003, 26.113673882000057], [84.73021291800006, 26.110746133000077]]]]}}, {"type": "Feature", "properties": {"OBJECTID": 3218, "GPCODE": "98245", "GPNAME_1": "BANGRA", "DIST_CEN_C": "17", "BLK_NAME": "MASHRAKH", "ST_NAME": "BIHAR", "ST_CODE_1": "10", "GPCODE2011": "100732", "REMARKS": "FINALIZED", "MAP_STATUS": "COMPLETED", "BLK_C_2001": "170001", "BLK_C_2011": "01248", "DIST_NAME": "SARAN", "code2011": 0.0, "Shape_Leng": 0.18135196793, "Shape_Area": 0.00104074514, "Area": 11.536}, "geometry": {"type": "MultiPolygon", "coordinates": [[[[84.81625954200007, 26.155299021000076], [84.82163213800004, 26.152056709000078], [84.82772620000009, 26.149745995000046], [84.82814821300008, 26.146398590000047], [84.82805663400006, 26.142675143000076], [84.82611592700005, 26.138666389000036], [84.82457131100006, 26.137172512000063], [84.82215406100005, 26.136420675000068], [84.81948129800008, 26.13445858600005], [84.81907653100006, 26.13166835000004], [84.81888410000005, 26.128219784000066], [84.81745830900007, 26.124401997000064], [84.81633334300005, 26.12169987300007], [84.81269534600005, 26.11591666100003], [84.81508102700008, 26.111550800000032], [84.81899915900004, 26.11044779100007], [84.82271739300006, 26.107949648000044], [84.82262425100004, 26.10608546900005], [84.82262988900004, 26.104505970000048], [84.82273390800003, 26.103391482000063], [84.82294322200005, 26.102182611000046], [84.82212651900005, 26.10134078300007], [84.82181831600008, 26.100875075000033], [84.81893254100004, 26.101331233000053], [84.81986683400004, 26.098730043000046], [84.81966897800004, 26.09677529000004], [84.81822718500007, 26.096026297000037], [84.81627463500007, 26.095555669000078], [84.81566172100008, 26.093694448000065], [84.81205694100004, 26.092659066000067], [84.80989237600005, 26.092747272000054], [84.80855760400004, 26.092833434000056], [84.80659096900007, 26.09478155100004], [84.80606808100003, 26.09691905300008], [84.80492756200005, 26.098499642000036], [84.80402739700008, 26.100781401000063], [84.80368102100005, 26.101659402000053], [84.80078796500004, 26.10397918700005], [84.80148651900004, 26.10955948000003], [84.80208801700007, 26.113095013000077], [84.80198054400006, 26.115048844000057], [84.80269052900007, 26.117655052000032], [84.80378713500005, 26.12114255000006], [84.80397415100003, 26.125886275000028], [84.80602125000007, 26.129245801000025], [84.80785898400006, 26.133809600000063], [84.80671665200003, 26.13576021800003], [84.80558458000007, 26.136316326000042], [84.80598576700004, 26.138641779000068], [84.80638534200006, 26.142736342000035], [84.80627406000008, 26.144410347000075], [84.80155012300008, 26.14667025700004], [84.80076263000007, 26.149926183000048], [84.80085863400006, 26.152273251000054], [84.80013079700007, 26.154315316000066], [84.80022864000006, 26.154875235000077], [84.80198278700004, 26.155160541000043], [84.80476603400007, 26.154424514000027], [84.80579798100007, 26.155267141000024], [84.80837196300007, 26.15564512700007], [84.81187468000007, 26.156400529000052], [84.81440010200004, 26.156408156000055], [84.81625954200007, 26.155299021000076]]]]}}, {"type": "Feature", "properties": {"OBJECTID": 3220, "GPCODE": "98253", "GPNAME_1": "KHAJURI", "DIST_CEN_C": "17", "BLK_NAME": "MASHRAKH", "ST_NAME": "BIHAR", "ST_CODE_1": "10", "GPCODE2011": "100740", "REMARKS": "2011 CODE NOT AVAILABLE", "MAP_STATUS": "PENDING", "BLK_C_2001": "170001", "BLK_C_2011": "01248", "DIST_NAME": "SARAN", "code2011": 0.0, "Shape_Leng": 0.15399093557, "Shape_Area": 0.00077904966, "Area": 8.63736}, "geometry": {"type": "MultiPolygon", "coordinates": [[[[84.77475503000005, 26.102808091000043], [84.77558507500004, 26.101511080000023], [84.77218340500008, 26.100940208000054], [84.77002520800005, 26.100653221000073], [84.76734644600003, 26.100549543000056], [84.76559659800006, 26.09942888100005], [84.76302398200005, 26.099050170000055], [84.76188901100005, 26.099141150000037], [84.76215915200004, 26.09667787500007], [84.76412611200004, 26.094820722000065], [84.76443711700006, 26.09333242100007], [84.76423809400006, 26.09189209400006], [84.76377892500005, 26.09054117200003], [84.76086597800008, 26.09013268900003], [84.75895033700004, 26.088984582000023], [84.75785481800006, 26.087294288000066], [84.75738907800007, 26.08752277600007], [84.75537162900008, 26.088310166000042], [84.75396885800006, 26.089104201000055], [84.75270111000003, 26.091053975000023], [84.74969472200007, 26.095182005000026], [84.74785857500007, 26.09574599000007], [84.74340364100004, 26.09711418100005], [84.73417351800003, 26.100154798000062], [84.72713027100008, 26.102498742000023], [84.72599030100008, 26.10482333400006], [84.72458674400008, 26.10793219100003], [84.72458265400007, 26.108861863000072], [84.72586457200003, 26.109471300000052], [84.72663919300004, 26.109523770000067], [84.72828404200004, 26.109480096000027], [84.73021291800006, 26.110746133000077], [84.73206934700005, 26.110333169000057], [84.73450023300006, 26.10773788000006], [84.73770321100005, 26.105704868000032], [84.74226072600004, 26.102534827000056], [84.74417402000006, 26.103958662000025], [84.74483656000007, 26.105657808000046], [84.74560665000007, 26.106752722000067], [84.74727713700008, 26.110039510000036], [84.74785842700004, 26.111136198000054], [84.74871030300005, 26.112743221000073], [84.74814149800005, 26.11367093800004], [84.74785844400003, 26.114691020000066], [84.74761851300008, 26.11555552300007], [84.74777891500008, 26.11664826200007], [84.74785843400008, 26.117022116000044], [84.74825915100007, 26.118906476000063], [84.75018274100006, 26.120357252000076], [84.75206063200005, 26.120783481000046], [84.75745027000005, 26.119497782000053], [84.76235146700003, 26.117840125000043], [84.76362020900007, 26.116874145000054], [84.76877438100007, 26.115632232000053], [84.77207829300005, 26.114528576000055], [84.77384299500005, 26.110811132000038], [84.77427213100003, 26.107274347000043], [84.77299192400005, 26.10494594200003], [84.77279379600003, 26.10326638400005], [84.77475503000005, 26.102808091000043]]]]}}, {"type": "Feature", "properties": {"OBJECTID": 3221, "GPCODE": "98244", "GPNAME_1": "BAHARULI", "DIST_CEN_C": "17", "BLK_NAME": "MASHRAKH", "ST_NAME": "BIHAR", "ST_CODE_1": "10", "GPCODE2011": "100731", "REMARKS": "FINALIZED", "MAP_STATUS": "COMPLETED", "BLK_C_2001": "170001", "BLK_C_2011": "01248", "DIST_NAME": "SARAN", "code2011": 0.0, "Shape_Leng": 0.13192389607, "Shape_Area": 0.0005717965, "Area": 6.33801}, "geometry": {"type": "MultiPolygon", "coordinates": [[[[84.77987057000007, 26.142372386000034], [84.78080745100004, 26.14065148700007], [84.78230469100004, 26.138842167000064], [84.78359389300005, 26.13903588900007], [84.78415674500008, 26.139592797000034], [84.78436632600005, 26.13968826300004], [84.78622286100006, 26.13931967700006], [84.78880299600007, 26.138028225000028], [84.79156098900006, 26.137247168000044], [84.79038645200006, 26.134589772000027], [84.78998158000007, 26.13328423400003], [84.78993589900006, 26.132169428000054], [84.78942653900003, 26.13072359800003], [84.78829787800004, 26.129140480000046], [84.78691582700003, 26.127136757000073], [84.78795738700006, 26.12416151700006], [84.79188739900007, 26.121475236000038], [84.79199503200005, 26.119521422000048], [84.79149354600008, 26.116076414000077], [84.79047139400006, 26.114118994000023], [84.78964875400004, 26.113556822000078], [84.78759060200008, 26.113180111000077], [84.78574483800008, 26.110940225000036], [84.78038193600008, 26.111947308000026], [84.77780864500005, 26.111659151000026], [84.77688313300007, 26.11184111400007], [84.77626218000006, 26.112118862000045], [84.77615424200008, 26.11286321600005], [84.77666753800008, 26.113239427000053], [84.77708025300007, 26.11379590100006], [84.77687308100008, 26.114354786000035], [84.77635624400006, 26.114817945000027], [84.77573305500005, 26.11565538700006], [84.77541824200006, 26.116863806000026], [84.77500450400004, 26.117792123000072], [84.77247383500008, 26.118063581000058], [84.77360258600004, 26.119556611000064], [84.77453022600008, 26.120119241000054], [84.77555933900004, 26.120307731000025], [84.77607089300005, 26.121144307000066], [84.77616405900005, 26.12282346300003], [84.77688527900006, 26.123755509000034], [84.77800844300003, 26.125433499000053], [84.77759248100006, 26.126921417000062], [84.77634582000007, 26.12859169500007], [84.77397455800008, 26.12895392100006], [84.77150026300006, 26.13006490300006], [84.76643896700006, 26.132882203000065], [84.76606360800008, 26.13539465100007], [84.76698271900005, 26.13804694600003], [84.76789965400008, 26.140004102000034], [84.76768975400006, 26.14121286200003], [84.76781323300008, 26.14279736800006], [84.76837617500007, 26.143309226000042], [84.76966831500005, 26.14280354600004], [84.77131830800005, 26.141595034000034], [84.77178327500008, 26.141596648000075], [84.77204180400008, 26.14197200700005], [84.77249984900004, 26.143692994000048], [84.77321494400007, 26.14490485600004], [84.77346186200003, 26.146909433000076], [84.77422506100004, 26.149840905000076], [84.77447503300004, 26.15110085500004], [84.77638386100006, 26.151432060000047], [84.77963093500006, 26.15102302400004], [84.78097185100006, 26.150842417000035], [84.78189928600005, 26.150240675000077], [84.78270896400005, 26.147824339000067], [84.78083889100003, 26.145304460000034], [84.78001867300009, 26.144092354000065], [84.77987057000007, 26.142372386000034]]]]}}, {"type": "Feature", "properties": {"OBJECTID": 3222, "GPCODE": "98252", "GPNAME_1": "KAWALPURA \u00a0\u00a0\u00a0\u00a0\u00a0\u00a0", "DIST_CEN_C": "17", "BLK_NAME": "MASHRAKH", "ST_NAME": "BIHAR", "ST_CODE_1": "10", "GPCODE2011": "100739", "REMARKS": "FINALIZED", "MAP_STATUS": "COMPLETED", "BLK_C_2001": "170001", "BLK_C_2011": "01248", "DIST_NAME": "SARAN", "code2011": 0.0, "Shape_Leng": 0.13213310388, "Shape_Area": 0.00056673826, "Area": 6.2818}, "geometry": {"type": "MultiPolygon", "coordinates": [[[[84.79545173300005, 26.144841392000046], [84.79991242800008, 26.14341124300006], [84.80155012300008, 26.14667025700004], [84.80627406000008, 26.144410347000075], [84.80638534200006, 26.142736342000035], [84.80598576700004, 26.138641779000068], [84.80558458000007, 26.136316326000042], [84.80671665200003, 26.13576021800003], [84.80785898400006, 26.133809600000063], [84.80602125000007, 26.129245801000025], [84.80397415100003, 26.125886275000028], [84.80378713500005, 26.12114255000006], [84.80269052900007, 26.117655052000032], [84.80198054400006, 26.115048844000057], [84.80208801700007, 26.113095013000077], [84.80148651900004, 26.10955948000003], [84.80078796500004, 26.10397918700005], [84.79794247200005, 26.106935322000027], [84.79690275300004, 26.10953609200004], [84.79689699300008, 26.111020864000068], [84.79668055500008, 26.112699055000064], [84.79597585800008, 26.115255724000065], [84.79149354600008, 26.116076414000077], [84.79199503200005, 26.119521422000048], [84.79188739900007, 26.121475236000038], [84.78795738700006, 26.12416151700006], [84.78691582700003, 26.127136757000073], [84.78829787800004, 26.129140480000046], [84.78942653900003, 26.13072359800003], [84.78993589900006, 26.132169428000054], [84.78998158000007, 26.13328423400003], [84.79038645200006, 26.134589772000027], [84.79156098900006, 26.137247168000044], [84.78880299600007, 26.138028225000028], [84.78622286100006, 26.13931967700006], [84.78436632600005, 26.13968826300004], [84.78415674500008, 26.139592797000034], [84.78359389300005, 26.13903588900007], [84.78230469100004, 26.138842167000064], [84.78080745100004, 26.14065148700007], [84.77987057000007, 26.142372386000034], [84.78001867300009, 26.144092354000065], [84.78083889100003, 26.145304460000034], [84.78270896400005, 26.147824339000067], [84.78555010000008, 26.146344187000068], [84.78977827000006, 26.145613163000064], [84.79545173300005, 26.144841392000046]]]]}}, {"type": "Feature", "properties": {"OBJECTID": 3226, "GPCODE": "98243", "GPNAME_1": "ARANA", "DIST_CEN_C": "17", "BLK_NAME": "MASHRAKH", "ST_NAME": "BIHAR", "ST_CODE_1": "10", "GPCODE2011": "100730", "REMARKS": "FINALIZED", "MAP_STATUS": "COMPLETED", "BLK_C_2001": "170001", "BLK_C_2011": "01248", "DIST_NAME": "SARAN", "code2011": 0.0, "Shape_Leng": 0.14050641242, "Shape_Area": 0.0007840779, "Area": 8.68891}, "geometry": {"type": "MultiPolygon", "coordinates": [[[[84.76087694900008, 26.17426110100007], [84.76227865400006, 26.17395897600005], [84.76485409000009, 26.174062439000068], [84.77122734600005, 26.173749866000037], [84.77644539600004, 26.173401514000034], [84.77653113200006, 26.17198929700004], [84.77627828400006, 26.17017417900007], [84.77590565500003, 26.167104162000044], [84.77874485300003, 26.166228938000074], [84.78519096200006, 26.16508555100006], [84.78879694900007, 26.16505199900007], [84.79060453400007, 26.16449822100003], [84.79126710700007, 26.166454463000036], [84.79379477200007, 26.165929903000062], [84.79648683300007, 26.162959872000044], [84.79917310100006, 26.16147900800007], [84.80154750500003, 26.160462005000056], [84.80206403800008, 26.160093502000052], [84.80198278700004, 26.155160541000043], [84.80022864000006, 26.154875235000077], [84.80013079700007, 26.154315316000066], [84.80085863400006, 26.152273251000054], [84.80076263000007, 26.149926183000048], [84.80155012300008, 26.14667025700004], [84.79991242800008, 26.14341124300006], [84.79545173300005, 26.144841392000046], [84.78977827000006, 26.145613163000064], [84.78555010000008, 26.146344187000068], [84.78270896400005, 26.147824339000067], [84.78189928600005, 26.150240675000077], [84.78097185100006, 26.150842417000035], [84.77963093500006, 26.15102302400004], [84.77638386100006, 26.151432060000047], [84.77492097000004, 26.154365952000035], [84.77388729000006, 26.156677029000036], [84.77360533100006, 26.155931375000023], [84.77149824600008, 26.155134669000063], [84.76835674300008, 26.15414486900005], [84.76681082600004, 26.154329234000045], [84.76433009700008, 26.15562065900008], [84.76288715600003, 26.156270145000065], [84.76190689200007, 26.156311929000026], [84.76077666800006, 26.155103119000046], [84.75750235300006, 26.15601715500003], [84.75830687000007, 26.157355755000026], [84.75856419300004, 26.16039832100006], [84.75747581700006, 26.16233977400003], [84.75716671400005, 26.164509381000073], [84.75803407000006, 26.166367191000063], [84.75920285100005, 26.170324622000066], [84.76087694900008, 26.17426110100007]]]]}}, {"type": "Feature", "properties": {"OBJECTID": 3227, "GPCODE": "98251", "GPNAME_1": "KARAN KUDARIYA", "DIST_CEN_C": "17", "BLK_NAME": "MASHRAKH", "ST_NAME": "BIHAR", "ST_CODE_1": "10", "GPCODE2011": "100738", "REMARKS": "FINALIZED", "MAP_STATUS": "COMPLETED", "BLK_C_2001": "170001", "BLK_C_2011": "01248", "DIST_NAME": "SARAN", "code2011": 0.0, "Shape_Leng": 0.23267361947, "Shape_Area": 0.00145940179, "Area": 16.1687}, "geometry": {"type": "MultiPolygon", "coordinates": [[[[84.81860844000005, 26.211506427000074], [84.81899584300004, 26.209553478000032], [84.82039131800008, 26.208303046000026], [84.81910274600006, 26.207694410000045], [84.81910516200008, 26.207040035000034], [84.81946762400008, 26.206436396000072], [84.82055627000005, 26.20560021400007], [84.82474103200008, 26.204962816000034], [84.82737402100008, 26.204550923000056], [84.82701841700003, 26.20329067600005], [84.82391877600008, 26.204075842000066], [84.82174674700008, 26.204299581000043], [84.82123180200006, 26.204207797000038], [84.81572313800007, 26.203323692000026], [84.81286510100006, 26.20246054100005], [84.81163272500004, 26.201751010000066], [84.81047744000006, 26.199942503000045], [84.81012688800007, 26.19784511100005], [84.80930959800008, 26.195958064000024], [84.81016807000003, 26.195509440000023], [84.81188254800009, 26.19318590900008], [84.81312656000006, 26.19091063600007], [84.81354940200004, 26.188858554000035], [84.81298555200004, 26.18713740000004], [84.81252802500006, 26.185082633000036], [84.81232972700008, 26.183267734000026], [84.81342192800008, 26.18145234900004], [84.81616565900003, 26.18072049700004], [84.81736715800008, 26.18314310900007], [84.81818833700004, 26.184264771000073], [84.82056446600006, 26.184226760000058], [84.82138846900006, 26.184599296000044], [84.82344620800006, 26.18544481200007], [84.82483232700008, 26.186658419000025], [84.82623249300008, 26.18540794100005], [84.82814365000007, 26.183919736000064], [84.83021541900007, 26.182251474000054], [84.83413777100003, 26.18058856500005], [84.83545456500008, 26.180217816000038], [84.83259171100008, 26.17369277100005], [84.82992053400005, 26.169591707000052], [84.82753679800004, 26.166281172000026], [84.82650574000007, 26.16511375500005], [84.82610490100006, 26.16254916300005], [84.82580273500008, 26.160364040000047], [84.82616593000006, 26.159480528000074], [84.82692015700007, 26.158363559000065], [84.82753818700007, 26.157530422000036], [84.82764873500008, 26.155991828000026], [84.82765329300008, 26.15473724000003], [84.82931182800007, 26.152413397000032], [84.82859227300008, 26.15087682400008], [84.82772620000009, 26.149745995000046], [84.82163213800004, 26.152056709000078], [84.81625954200007, 26.155299021000076], [84.81440010200004, 26.156408156000055], [84.81493811000007, 26.156973909000044], [84.81433539500006, 26.159021015000064], [84.81510208100008, 26.16130687800006], [84.81601632400003, 26.164288249000037], [84.81456630400004, 26.165538450000042], [84.81249611900006, 26.16814069800006], [84.81094773100006, 26.168925771000033], [84.80833899600003, 26.169752698000025], [84.80549720600004, 26.171327959000052], [84.80332794500004, 26.17229608100007], [84.80296783800009, 26.17229492000007], [84.80219343100003, 26.17206241300005], [84.80047318100003, 26.17200285200005], [84.79778949800004, 26.172739125000078], [84.79335180100009, 26.173095158000024], [84.78829222500008, 26.17512787800007], [84.78827613200008, 26.17922111300004], [84.78814994000004, 26.18461823000007], [84.78782839700006, 26.187501006000048], [84.78822184900008, 26.190494384000033], [84.78923146300008, 26.195800379000048], [84.78976682400008, 26.198315844000035], [84.79022352400006, 26.200506060000066], [84.79026805500007, 26.201900729000045], [84.78904349100003, 26.20416681200004], [84.78970533700004, 26.206353212000067], [84.79114415800007, 26.206867739000074], [84.79258457000003, 26.206967114000065], [84.79366700100007, 26.20780548500005], [84.79644485400007, 26.20878910700003], [84.79808498500006, 26.21032867100007], [84.80213391500007, 26.211257484000043], [84.80480514500005, 26.211374114000023], [84.81185815400005, 26.21177036200004], [84.81860844000005, 26.211506427000074]]]]}}, {"type": "Feature", "properties": {"OBJECTID": 3244, "GPCODE": "98254", "GPNAME_1": "MADARPUR", "DIST_CEN_C": "17", "BLK_NAME": "MASHRAKH", "ST_NAME": "BIHAR", "ST_CODE_1": "10", "GPCODE2011": "100741", "REMARKS": "FINALIZED", "MAP_STATUS": "COMPLETED", "BLK_C_2001": "170001", "BLK_C_2011": "01248", "DIST_NAME": "SARAN", "code2011": 0.0, "Shape_Leng": 0.14608473535, "Shape_Area": 0.00081236376, "Area": 9.00899}, "geometry": {"type": "MultiPolygon", "coordinates": [[[[84.73227324300007, 26.09237660200006], [84.73500108100006, 26.08805836700003], [84.73573971000008, 26.083737513000074], [84.73564311400008, 26.082947380000064], [84.73862046500005, 26.082100525000044], [84.73949925900007, 26.082288659000028], [84.73985681400006, 26.08279987800006], [84.73964908800008, 26.083453548000023], [84.73938581900006, 26.084246973000063], [84.73933322700003, 26.084851470000046], [84.74067161800008, 26.08509089300003], [84.74300009300003, 26.084025001000043], [84.74692249800006, 26.084223790000067], [84.74785867800006, 26.084834279000063], [84.74836286400006, 26.085162999000033], [84.75150355400007, 26.087037783000028], [84.75382443400008, 26.087790417000065], [84.75537162900008, 26.088310166000042], [84.75738907800007, 26.08752277600007], [84.75785481800006, 26.087294288000066], [84.75821741100003, 26.086641115000077], [84.75837983800005, 26.084822855000027], [84.75803078900003, 26.082258328000023], [84.75767564900008, 26.079928332000065], [84.75736144000007, 26.07609399100005], [84.75728574800007, 26.075170282000045], [84.75445156900008, 26.07413612700003], [84.75305731300006, 26.07413131100003], [84.75182014200004, 26.073617097000067], [84.75104831300007, 26.07296001800006], [84.75105351300004, 26.07174603900006], [84.75033565000007, 26.07015947800005], [84.74785881300005, 26.071526408000068], [84.74764581000005, 26.071643993000066], [84.74511510500008, 26.072145068000054], [84.74180931900008, 26.072742753000057], [84.73885155300007, 26.07374777600006], [84.73740861500005, 26.073467332000064], [84.73633327800007, 26.072529270000075], [84.73693379900004, 26.070017676000077], [84.73648399600006, 26.067736981000053], [84.73573525100005, 26.06183125000007], [84.73581274300005, 26.061249368000063], [84.73437251400009, 26.06151953400007], [84.73190411600007, 26.061510688000055], [84.72860466100008, 26.06298806600006], [84.72283378600008, 26.063991634000047], [84.71901865000007, 26.065651942000045], [84.71663882200005, 26.06926716600003], [84.71559089300007, 26.07335652100005], [84.71492314500006, 26.075127697000028], [84.71403704800008, 26.076568579000025], [84.71382814900005, 26.077452363000077], [84.71382434000003, 26.078287240000066], [84.71423683000006, 26.07879878800003], [84.71582995500006, 26.079039375000036], [84.71596975000006, 26.08238854600006], [84.71565055200006, 26.084431751000068], [84.71595515500007, 26.08559271100006], [84.71640550000006, 26.08880315300007], [84.71823599500004, 26.088511977000053], [84.72075951000005, 26.08861603400004], [84.72209126000007, 26.089225654000074], [84.72527472700006, 26.091516435000074], [84.72784393500007, 26.09259531500004], [84.72969787100004, 26.092692277000026], [84.73227324300007, 26.09237660200006]]]]}}]}