{"type": "FeatureCollection", "features": [{"type": "Feature", "properties": {"OBJECTID": 6567, "GPCODE": "98431", "GPNAME_1": "ATHKONI", "DIST_CEN_C": "03", "BLK_NAME": "TARIANI CHOWK", "ST_NAME": "BIHAR", "ST_CODE_1": "10", "GPCODE2011": "100918", "REMARKS": "FINALIZED", "MAP_STATUS": "COMPLETED", "BLK_C_2001": "030005", "BLK_C_2011": "01062", "DIST_NAME": "SHEOHAR", "code2011": 0.0, "Shape_Leng": 0.11820412711, "Shape_Area": 0.0006041533, "Area": 6.67708}, "geometry": {"type": "MultiPolygon", "coordinates": [[[[85.29062546000006, 26.43407445400004], [85.29153776500004, 26.43391171600007], [85.29299640000005, 26.43399250400006], [85.29418441500007, 26.43391088900006], [85.29537209300008, 26.433084646000054], [85.29600854600005, 26.432673806000025], [85.29600827100006, 26.43185242900006], [85.29546178000004, 26.43177144300006], [85.29454959400005, 26.431934108000064], [85.29400324600005, 26.43210132200005], [85.29372717000007, 26.431113038000035], [85.29372673100005, 26.42988101900005], [85.29445827900008, 26.42914071100006], [85.29555060200005, 26.428152031000025], [85.29546007700003, 26.427416443000027], [85.29619138600003, 26.426098445000036], [85.29710332700006, 26.425439260000076], [85.29783003800009, 26.425276508000024], [85.29792491500007, 26.424455124000076], [85.29737294200004, 26.42297506500006], [85.29673611800007, 26.422316416000058], [85.29586827500003, 26.420534132000057], [85.29751117100005, 26.417902493000042], [85.29614186100008, 26.41543893100004], [85.29650753600004, 26.41486569700004], [85.29778048300005, 26.41461707600007], [85.29960467200004, 26.41441336200006], [85.29933288600006, 26.411701136000033], [85.29869081400005, 26.410306857000023], [85.29768811500008, 26.409485828000072], [85.29622940200005, 26.40866495800003], [85.29450018000006, 26.408336134000024], [85.29130799700005, 26.40891022200003], [85.29039595800003, 26.409077469000067], [85.28975923500008, 26.408418691000065], [85.28774932600004, 26.40767915200007], [85.28592994100006, 26.406939499000032], [85.28483190100008, 26.405297080000025], [85.28100344000006, 26.406575073000056], [85.27926978700003, 26.407559277000075], [85.27817765900005, 26.409120949000055], [85.27781204800004, 26.410271832000035], [85.27717130600007, 26.410739302000025], [85.27628668600005, 26.411458968000034], [85.27557723200005, 26.41188786600003], [85.27485056900008, 26.41229863700005], [85.27375298000004, 26.411969450000072], [85.27375261800006, 26.410574883000038], [85.27229427100008, 26.410575180000023], [85.27065052700004, 26.41106727700003], [85.26764356200005, 26.411478361000036], [85.26764373800006, 26.412958614000047], [85.26800492500007, 26.414926259000026], [85.26901266600004, 26.417065206000075], [85.26875893400006, 26.41804630300004], [85.26873721500004, 26.41813028200005], [85.26766105200005, 26.41838315700005], [85.26769975800005, 26.418518537000068], [85.26774095200005, 26.41865391600004], [85.26895350300003, 26.42263865500007], [85.26936932000007, 26.424475393000023], [85.26939996700008, 26.42461077100006], [85.26955032800004, 26.424668875000066], [85.27025213500008, 26.42494006800007], [85.27150509900008, 26.424718754000025], [85.27256225000008, 26.42242152600005], [85.27378538800008, 26.422875477000048], [85.27393575000008, 26.422931281000047], [85.27400301500006, 26.42306665700005], [85.27531470600007, 26.42570648900005], [85.27604683000004, 26.427164064000067], [85.28027343900004, 26.43096763500006], [85.28042382200005, 26.431102959000043], [85.28057419900006, 26.431180165000058], [85.28127607600004, 26.431540514000062], [85.28334089900005, 26.430479517000038], [85.28467997000007, 26.43263182100003], [85.28504114800006, 26.433728417000054], [85.28806877400007, 26.433416270000066], [85.28916667400006, 26.433664176000036], [85.29062546000006, 26.43407445400004]]]]}}, {"type": "Feature", "properties": {"OBJECTID": 6573, "GPCODE": "98432", "GPNAME_1": "BELAHIYA", "DIST_CEN_C": "03", "BLK_NAME": "TARIANI CHOWK", "ST_NAME": "BIHAR", "ST_CODE_1": "10", "GPCODE2011": "100919", "REMARKS": "FINALIZED", "MAP_STATUS": "COMPLETED", "BLK_C_2001": "030005", "BLK_C_2011": "01062", "DIST_NAME": "SHEOHAR", "code2011": 0.0, "Shape_Leng": 0.14679121259, "Shape_Area": 0.00078369351, "Area": 8.66121}, "geometry": {"type": "MultiPolygon", "coordinates": [[[[85.33457321800006, 26.428919519000033], [85.33521469700008, 26.428837913000052], [85.33831837200006, 26.429986901000063], [85.34041952000007, 26.431136373000072], [85.34187791800008, 26.430805968000072], [85.34397731000007, 26.429735057000073], [85.34580037300003, 26.428009905000067], [85.34824629500008, 26.427827730000047], [85.35027064100007, 26.426959835000048], [85.35142239100009, 26.42574507300003], [85.35209759800006, 26.424097387000074], [85.35344528700006, 26.423401416000047], [85.35440700500004, 26.422705760000042], [85.35460093900008, 26.421058334000065], [85.35353534700005, 26.417674439000052], [85.35160601300004, 26.412386706000063], [85.34637967200007, 26.41349149800004], [85.34620067700007, 26.415134270000067], [85.34410051600008, 26.414973193000037], [85.34318754700007, 26.413985469000067], [85.34099764400008, 26.414316305000057], [85.33515473500006, 26.415637709000066], [85.33424240900007, 26.415390053000067], [85.33369548800005, 26.414568983000038], [85.33360410400007, 26.41292634000007], [85.33423998600006, 26.41201882100006], [85.33533689300003, 26.411115637000023], [85.33588249800005, 26.410212754000042], [85.33798164300003, 26.409223077000036], [85.33797970500007, 26.406759090000037], [85.33806934900008, 26.406018921000054], [85.33861398000005, 26.403965154000048], [85.33733596400003, 26.403717759000074], [85.33514559300005, 26.403227122000033], [85.33323130800005, 26.403390708000074], [85.33076615000004, 26.403969810000035], [85.32948900400004, 26.405121347000033], [85.32419712200004, 26.40536785300003], [85.32309822400003, 26.40331505300003], [85.32093336300005, 26.403437961000066], [85.32002017900004, 26.401552029000072], [85.31876637900007, 26.39988733100006], [85.31739810300007, 26.399639808000074], [85.31612069100004, 26.400299227000062], [85.31420645900005, 26.400543845000072], [85.31174630500004, 26.40120383800007], [85.31145155400003, 26.402950454000063], [85.31181803500004, 26.40418231700005], [85.31263639000008, 26.406727255000078], [85.31200073700006, 26.408370217000027], [85.31117985000003, 26.410261513000023], [85.31099993300006, 26.41108295300006], [85.31200272700005, 26.41190380300003], [85.31273490000007, 26.412724911000055], [85.31373778400007, 26.413708279000048], [85.31409977100003, 26.415680231000067], [85.31408571600008, 26.417539606000048], [85.31445226600005, 26.41877144700004], [85.31499902900003, 26.419425542000056], [85.31618738300006, 26.42041335600004], [85.32138553800007, 26.421313484000052], [85.32120610600003, 26.42295622000006], [85.32138725200008, 26.424025743000072], [85.32202923800008, 26.42467979500003], [85.32303237600007, 26.425667599000064], [85.32339879600005, 26.426569939000046], [85.32512326400007, 26.426889500000073], [85.32628186700003, 26.428017127000032], [85.32753026700004, 26.428449690000036], [85.32888443800005, 26.429486886000063], [85.33099996000004, 26.429833187000042], [85.33110099900006, 26.431047157000023], [85.33284087900006, 26.431714086000056], [85.33457321800006, 26.428919519000033]]]]}}, {"type": "Feature", "properties": {"OBJECTID": 6575, "GPCODE": "98433", "GPNAME_1": "BRINDAVAN", "DIST_CEN_C": "03", "BLK_NAME": "TARIANI CHOWK", "ST_NAME": "BIHAR", "ST_CODE_1": "10", "GPCODE2011": "100920", "REMARKS": "FINALIZED", "MAP_STATUS": "COMPLETED", "BLK_C_2001": "030005", "BLK_C_2011": "01062", "DIST_NAME": "SHEOHAR", "code2011": 0.0, "Shape_Leng": 0.16812394094, "Shape_Area": 0.00063181535, "Area": 6.98391}, "geometry": {"type": "MultiPolygon", "coordinates": [[[[85.29327812200006, 26.383907909000072], [85.29125860000005, 26.383245127000066], [85.28896880100007, 26.383245744000078], [85.28630698200004, 26.379609037000023], [85.28483908600003, 26.379776371000048], [85.28373691900003, 26.38027306200007], [85.28328130900007, 26.38159545800005], [85.28364766800007, 26.38333286200003], [85.28438522500005, 26.386636129000067], [85.28392471800004, 26.388206811000032], [85.28273239400005, 26.38928111100006], [85.28832934700006, 26.389031558000056], [85.28897062300007, 26.388701920000074], [85.29025283100003, 26.387049860000047], [85.29309353900004, 26.386137374000043], [85.29456121100003, 26.38498160100005], [85.29327812200006, 26.383907909000072]]], [[[85.26323892600004, 26.417535232000034], [85.26595523000003, 26.416072706000023], [85.26716818600005, 26.416659251000056], [85.26766105200005, 26.41838315700005], [85.26873721500004, 26.41813028200005], [85.26875893400006, 26.41804630300004], [85.26901266600004, 26.417065206000075], [85.26800492500007, 26.414926259000026], [85.26764373800006, 26.412958614000047], [85.26764356200005, 26.411478361000036], [85.27065052700004, 26.41106727700003], [85.27229427100008, 26.410575180000023], [85.27375261800006, 26.410574883000038], [85.27375298000004, 26.411969450000072], [85.27485056900008, 26.41229863700005], [85.27557723200005, 26.41188786600003], [85.27628668600005, 26.411458968000034], [85.27717130600007, 26.410739302000025], [85.27781204800004, 26.410271832000035], [85.27817765900005, 26.409120949000055], [85.27926978700003, 26.407559277000075], [85.28100344000006, 26.406575073000056], [85.28483190100008, 26.405297080000025], [85.28510683400003, 26.402999915000066], [85.28492579900006, 26.400946583000064], [85.28410333100004, 26.399137093000036], [85.28227852200007, 26.39647037700007], [85.28062497100007, 26.396967158000052], [85.27870066300005, 26.396886249000033], [85.27796369300006, 26.39539715500007], [85.27777790200008, 26.39403431900007], [85.27631460400005, 26.393375674000026], [85.27401950900008, 26.393294886000035], [85.27374380700007, 26.392464551000046], [85.27447482700006, 26.389986801000077], [85.27521094100007, 26.38808666600005], [85.27456940400003, 26.387260939000043], [85.27154317800006, 26.388335520000055], [85.26769027000006, 26.390484232000063], [85.26374699500008, 26.392714020000028], [85.26283039400005, 26.396103292000078], [85.26338215100003, 26.399907631000076], [85.26328711600007, 26.401311215000078], [85.26243515300007, 26.401487324000072], [85.26115720700005, 26.401076686000067], [85.25906237900006, 26.400007306000077], [85.25559962000005, 26.39967799200008], [85.25267812400006, 26.39992634200007], [85.25121986100004, 26.400910189000058], [85.25012739700009, 26.402746948000072], [85.24958113500008, 26.404773265000074], [85.25030785000007, 26.408356472000037], [85.25258819000004, 26.409836734000066], [85.25723915400005, 26.41096027900005], [85.25887800700008, 26.412029734000043], [85.25887817200004, 26.413753684000028], [85.25741980600003, 26.414656405000073], [85.25641758700004, 26.416380356000047], [85.25392170600009, 26.418591812000045], [85.25699905600004, 26.41869999900007], [85.25835238800005, 26.418732369000054], [85.25850274100009, 26.418735964000064], [85.25865309400007, 26.41871738900005], [85.26113396100004, 26.41841087000006], [85.26323892600004, 26.417535232000034]]]]}}, {"type": "Feature", "properties": {"OBJECTID": 6577, "GPCODE": "98434", "GPNAME_1": "CHHATAUNI", "DIST_CEN_C": "03", "BLK_NAME": "TARIANI CHOWK", "ST_NAME": "BIHAR", "ST_CODE_1": "10", "GPCODE2011": "100921", "REMARKS": "FINALIZED", "MAP_STATUS": "COMPLETED", "BLK_C_2001": "030005", "BLK_C_2011": "01062", "DIST_NAME": "SHEOHAR", "code2011": 0.0, "Shape_Leng": 0.18352522223, "Shape_Area": 0.00094749494, "Area": 10.4736}, "geometry": {"type": "MultiPolygon", "coordinates": [[[[85.31409977100003, 26.415680231000067], [85.31373778400007, 26.413708279000048], [85.31273490000007, 26.412724911000055], [85.31200272700005, 26.41190380300003], [85.31099993300006, 26.41108295300006], [85.31117985000003, 26.410261513000023], [85.31200073700006, 26.408370217000027], [85.31263639000008, 26.406727255000078], [85.31181803500004, 26.40418231700005], [85.31145155400003, 26.402950454000063], [85.31174630500004, 26.40120383800007], [85.31420645900005, 26.400543845000072], [85.31612069100004, 26.400299227000062], [85.31739810300007, 26.399639808000074], [85.31876637900007, 26.39988733100006], [85.31976746000004, 26.39799591700006], [85.31985699500007, 26.397012050000058], [85.32040282100007, 26.39627164700005], [85.32076792500004, 26.39520643000003], [85.32022084200008, 26.39381220300004], [85.31894273700004, 26.393235176000076], [85.31803036300005, 26.392662451000035], [85.31767267600009, 26.389440381000043], [85.31428136400007, 26.39117494800007], [85.31318271700007, 26.388860303000058], [85.31693980700004, 26.387125652000066], [85.31804146600007, 26.38596525500003], [85.31813140100007, 26.385473300000058], [85.31822095300004, 26.384394717000077], [85.31822053600007, 26.38381701800006], [85.31721289600006, 26.382910397000046], [85.31482830500005, 26.383570375000033], [85.31327033100007, 26.384234443000025], [85.31207853200004, 26.385390322000035], [85.31093660300007, 26.38594406800007], [85.31090141100003, 26.385961133000023], [85.31088622500005, 26.38596849700008], [85.31087660400004, 26.385961975000043], [85.31087652400004, 26.385961921000046], [85.31052033400005, 26.385720461000062], [85.30987760900007, 26.38299491400005], [85.30914536500006, 26.381623218000072], [85.30565863800007, 26.382784429000026], [85.30254281300006, 26.38431548400007], [85.30001213300005, 26.384645216000024], [85.29997246300007, 26.384650385000043], [85.29996444300008, 26.384619874000066], [85.29951575100006, 26.382913038000027], [85.29676519400005, 26.38332918900005], [85.29758580300006, 26.38059856500007], [85.29768047200008, 26.379361979000066], [85.29575034000004, 26.37663230800007], [85.29547437000008, 26.37555829300004], [85.29574953700006, 26.374484110000026], [85.29547324000004, 26.37266552600005], [85.29472602300007, 26.370792847000075], [85.29380925500004, 26.37096010500005], [85.29078344600003, 26.371701168000072], [85.29079895500007, 26.373082114000056], [85.28988251400006, 26.374237626000024], [85.28878169300003, 26.37828608600006], [85.28832609600005, 26.37936478900008], [85.28630698200004, 26.379609037000023], [85.28896880100007, 26.383245744000078], [85.29125860000005, 26.383245127000066], [85.29327812200006, 26.383907909000072], [85.29456121100003, 26.38498160100005], [85.29309353900004, 26.386137374000043], [85.29025283100003, 26.387049860000047], [85.28897062300007, 26.388701920000074], [85.28832934700006, 26.389031558000056], [85.28273239400005, 26.38928111100006], [85.28218133000007, 26.389610713000025], [85.28200124800009, 26.390770548000035], [85.28264368700007, 26.394322102000046], [85.28282448000004, 26.39572559800007], [85.28227852200007, 26.39647037700007], [85.28410333100004, 26.399137093000036], [85.28492579900006, 26.400946583000064], [85.28510683400003, 26.402999915000066], [85.28483190100008, 26.405297080000025], [85.28592994100006, 26.406939499000032], [85.28774932600004, 26.40767915200007], [85.28975923500008, 26.408418691000065], [85.29039595800003, 26.409077469000067], [85.29130799700005, 26.40891022200003], [85.29450018000006, 26.408336134000024], [85.29622940200005, 26.40866495800003], [85.29768811500008, 26.409485828000072], [85.29869081400005, 26.410306857000023], [85.29933288600006, 26.411701136000033], [85.29960467200004, 26.41441336200006], [85.30142882600006, 26.414042680000023], [85.30197584600006, 26.415685160000066], [85.30334429200008, 26.416014080000025], [85.30407160900006, 26.417164593000052], [85.30689796500008, 26.416342119000035], [85.31036596400008, 26.41584431700005], [85.31409977100003, 26.415680231000067]]]]}}, {"type": "Feature", "properties": {"OBJECTID": 6581, "GPCODE": "98435", "GPNAME_1": "HIRAUTA DUMMA", "DIST_CEN_C": "03", "BLK_NAME": "TARIANI CHOWK", "ST_NAME": "BIHAR", "ST_CODE_1": "10", "GPCODE2011": "100922", "REMARKS": "FINALIZED", "MAP_STATUS": "COMPLETED", "BLK_C_2001": "030005", "BLK_C_2011": "01062", "DIST_NAME": "SHEOHAR", "code2011": 0.0, "Shape_Leng": 0.09544167478, "Shape_Area": 0.00057328045, "Area": 6.33364}, "geometry": {"type": "MultiPolygon", "coordinates": [[[[85.29656770900004, 26.463686350000046], [85.29627513600008, 26.459345], [85.29608308600007, 26.455612875000043], [85.29550113000005, 26.454832370000076], [85.29492430000005, 26.454223326000033], [85.29492398400004, 26.453271099000062], [85.29444153300005, 26.450319814000068], [85.29197917200008, 26.448280710000063], [85.29159304100006, 26.447933286000023], [85.29077565000006, 26.44745522100004], [85.28933152500008, 26.446503308000047], [85.28817334700005, 26.446327659000076], [85.28552154300007, 26.44672096900007], [85.28257389000004, 26.44755658100007], [85.28257420000006, 26.448287660000062], [85.28131602500008, 26.44923562200006], [85.28046921200007, 26.450693525000077], [85.27888520700003, 26.451826581000034], [85.27613308500008, 26.452991375000067], [85.27389718400008, 26.453393462000065], [85.27104946900005, 26.453462499000068], [85.27089907500005, 26.45346614400006], [85.27074868200003, 26.453492680000068], [85.26944018900008, 26.45372354600005], [85.26857787400007, 26.454219392000027], [85.26842748200005, 26.454305869000052], [85.26835878000009, 26.454441245000055], [85.26757546300007, 26.455984735000072], [85.26745554800004, 26.458489392000047], [85.26782177700005, 26.460073400000056], [85.26891484900005, 26.45999656400005], [85.26952659500006, 26.460510929000066], [85.27045448800004, 26.46237013800004], [85.27204898500008, 26.462501857000063], [85.27219939000008, 26.46251428000005], [85.27224556100003, 26.462649653000028], [85.27292587900007, 26.464644301000078], [85.27297205200006, 26.464779672000077], [85.27301568200005, 26.464915044000065], [85.27341854900004, 26.466165028000034], [85.27418586000005, 26.467040404000045], [85.27453716300005, 26.470113668000067], [85.27455263900004, 26.470249040000056], [85.27457097900003, 26.470384412000044], [85.27486078800007, 26.47252346700003], [85.27487912900006, 26.472658839000076], [85.27502955500006, 26.47277809600007], [85.27578924300008, 26.473380365000025], [85.27589216700005, 26.473461961000055], [85.27607647700006, 26.473487204000037], [85.27799837500004, 26.473750402000064], [85.27949776300005, 26.474079533000065], [85.28429657200007, 26.474113428000067], [85.28444699000005, 26.474114488000055], [85.28459740000005, 26.47406167400004], [85.28849822400008, 26.472691904000044], [85.28987702800003, 26.472145495000063], [85.29348225200005, 26.471923273000073], [85.29502119100005, 26.470902882000075], [85.29584346000007, 26.470502088000046], [85.29599385500006, 26.470428781000066], [85.29627871500008, 26.468285080000044], [85.29618257400006, 26.466028649000066], [85.29656791600007, 26.464295578000076], [85.29656770900004, 26.463686350000046]]]]}}, {"type": "Feature", "properties": {"OBJECTID": 6585, "GPCODE": "98436", "GPNAME_1": "KHUMHRAR", "DIST_CEN_C": "03", "BLK_NAME": "TARIANI CHOWK", "ST_NAME": "BIHAR", "ST_CODE_1": "10", "GPCODE2011": "100923", "REMARKS": "FINALIZED", "MAP_STATUS": "COMPLETED", "BLK_C_2001": "030005", "BLK_C_2011": "01062", "DIST_NAME": "SHEOHAR", "code2011": 0.0, "Shape_Leng": 0.19618492905, "Shape_Area": 0.00085252424, "Area": 9.42672}, "geometry": {"type": "MultiPolygon", "coordinates": [[[[85.36254768800006, 26.36722658900004], [85.36182859100006, 26.364451702000054], [85.36203870200006, 26.364126593000037], [85.36271979900005, 26.363868808000063], [85.36397676900003, 26.36341648000007], [85.36465764100006, 26.36302790600007], [85.36658000900007, 26.36167696700005], [85.36711581300005, 26.361450840000032], [85.36758167600004, 26.36141892300003], [85.36808308000008, 26.36183815800007], [85.36826353200007, 26.36193283800003], [85.36919512600008, 26.36177410700003], [85.36980154200006, 26.362062440000045], [85.37098482900007, 26.362995570000066], [85.37184753400004, 26.36396510900005], [85.37342021900008, 26.363670472000024], [85.37557355000007, 26.362865284000065], [85.37610407000005, 26.36244961500006], [85.37614369700003, 26.362029840000048], [85.37413176500007, 26.35918844200006], [85.37344895000007, 26.357704300000023], [85.37363385300006, 26.35735666100004], [85.37427459100007, 26.356904808000024], [85.37567186300004, 26.35657862200003], [85.37774025800007, 26.356166105000057], [85.37802565100003, 26.35600340800005], [85.37827532600005, 26.355294668000056], [85.37849011200007, 26.354779953000047], [85.38153480000005, 26.35390175300006], [85.38178545100004, 26.354095521000033], [85.38193142600005, 26.35470919100004], [85.38214729300006, 26.35506550300005], [85.38268335800007, 26.35519587500005], [85.38329445100004, 26.35509604600003], [85.38468623900008, 26.354417819000048], [85.38544232400005, 26.35415983100006], [85.38669425400008, 26.35380210200003], [85.38708975600008, 26.353639275000035], [85.38511842500003, 26.351357584000027], [85.38444198800005, 26.351164221000033], [85.38358051600005, 26.351232641000024], [85.38296942100004, 26.351233253000032], [85.38275383300004, 26.351102523000066], [85.38253780700006, 26.350588275000064], [85.38225214400006, 26.35045765700005], [85.38186191800008, 26.35081458800005], [85.38139609800004, 26.35084654800005], [85.38121539300005, 26.350521790000073], [85.38046180300006, 26.34855486400005], [85.38046012500007, 26.347070118000033], [85.38088424700004, 26.345679690000054], [85.38084866000008, 26.345228441000074], [85.37998997900007, 26.34326604300003], [85.37959048500005, 26.33987720700003], [85.37883921900004, 26.33994107500007], [85.37833836900006, 26.339878326000076], [85.37822762800005, 26.33942266500003], [85.37855131600008, 26.337757080000074], [85.38005037400006, 26.33462365300005], [85.38022492000005, 26.33395107700005], [85.37843654100004, 26.333659371000067], [85.37384895300005, 26.333695030000058], [85.37339032800008, 26.333731416000035], [85.37323004500007, 26.334051801000044], [85.37291449800006, 26.334688164000056], [85.37280932000004, 26.335026628000037], [85.37270913400005, 26.33536961300007], [85.37230339500007, 26.33614133800006], [85.37189765500005, 26.336913062000065], [85.37133159900003, 26.33790585500003], [85.37109120100007, 26.338302991000035], [85.37081575100007, 26.338948370000026], [85.37053518700003, 26.339593647000072], [85.37004424700007, 26.340776033000054], [85.36955830300008, 26.341958428000055], [85.36930788500007, 26.34231945500005], [85.36905236800004, 26.342608313000028], [85.36877692200005, 26.342829376000054], [85.36837112800004, 26.343086670000048], [85.36799547200008, 26.34324457300005], [85.36761977300006, 26.34340249400003], [85.36703374600006, 26.343564912000033], [85.36653287400009, 26.343569407000075], [85.36590175100008, 26.34371385600008], [85.36537577000007, 26.34398456400004], [85.36505512100007, 26.344151487000033], [85.36478467800004, 26.344165003000057], [85.36457427100004, 26.344223675000023], [85.36437897700006, 26.344386110000073], [85.36388298000008, 26.34487806100003], [85.36252040400007, 26.34611443700004], [85.36195935000006, 26.346425820000036], [85.36096249700006, 26.34656558200004], [85.35878365200006, 26.346317230000068], [85.35746132100007, 26.34612297500007], [85.35686023800008, 26.345888255000034], [85.35652975700003, 26.34568963600003], [85.35605392000008, 26.345053282000038], [85.35553313000008, 26.344452982000064], [85.35499727300004, 26.344204699000045], [85.35430101600008, 26.34409628800006], [85.35380011300003, 26.344109763000063], [85.35210203400004, 26.344497603000036], [85.35212209300005, 26.344253929000047], [85.35218745600008, 26.342999296000073], [85.35242314700008, 26.341798932000074], [85.35253351300008, 26.341221279000024], [85.35329023700007, 26.338933277000024], [85.35367114800005, 26.337805154000023], [85.35377644000005, 26.337213958000063], [85.35360121000008, 26.336762607000026], [85.35317064600008, 26.336333808000063], [85.35256462100006, 26.33606297700004], [85.35224404500008, 26.33600878900006], [85.35193357000009, 26.336089924000078], [85.35139749300004, 26.336455366000052], [85.35078136800007, 26.336974309000027], [85.35017018300005, 26.337511213000028], [85.34972677200005, 26.338000862000058], [85.34928345400004, 26.338490412000056], [85.34866717900007, 26.33928004300003], [85.34802079200006, 26.340421743000036], [85.34775010700008, 26.341071515000067], [85.34755455500004, 26.34193344600004], [85.34759455700004, 26.342077870000026], [85.34784000400003, 26.342348724000033], [85.34930732100008, 26.343468166000036], [85.34841542300006, 26.344582738000042], [85.34824481000004, 26.34567032500007], [85.34787923200008, 26.34572443500008], [85.34697243500005, 26.346071706000032], [85.34584042600005, 26.346274624000046], [85.34496386400008, 26.346197740000036], [85.34394215500004, 26.345628889000068], [85.34229677800005, 26.347004894000065], [85.34449806600009, 26.349896278000074], [85.34523673000007, 26.352702901000043], [85.34651944500007, 26.35311720800007], [85.34752720400007, 26.354271890000064], [85.34854098300008, 26.35641937200006], [85.34881749900006, 26.35757899600003], [85.34945942100006, 26.358485616000053], [85.35037722900006, 26.359644827000068], [85.35065322300005, 26.360222315000044], [85.35120603700005, 26.362203127000043], [85.34763025300003, 26.363487287000055], [85.34680426100005, 26.364232428000037], [85.34588790800007, 26.36472948000005], [85.34368847400003, 26.364563991000068], [85.34240597000007, 26.36456474700003], [85.34176008600008, 26.364980374000027], [85.34158023200007, 26.365639440000052], [85.34176139900006, 26.36663214400005], [85.34240871500003, 26.367868283000064], [85.34295551100007, 26.368779553000024], [85.34167427600005, 26.37043206800007], [85.34323248000004, 26.37059805900003], [85.34444163900008, 26.372691279000037], [85.34682646900006, 26.372689723000065], [85.34764962700007, 26.37450785300007], [85.35141067900008, 26.372686499000054], [85.35205012000006, 26.370619152000074], [85.35168264800006, 26.368719448000036], [85.35213833700004, 26.368385212000078], [85.35406887300007, 26.37036945500006], [85.35736817200006, 26.36788948000003], [85.35883059400004, 26.367391868000027], [85.36007298000004, 26.367354894000073], [85.36254768800006, 26.36722658900004]]]]}}, {"type": "Feature", "properties": {"OBJECTID": 6586, "GPCODE": "98437", "GPNAME_1": "KHURPATTI KHORTHA", "DIST_CEN_C": "03", "BLK_NAME": "TARIANI CHOWK", "ST_NAME": "BIHAR", "ST_CODE_1": "10", "GPCODE2011": "100924", "REMARKS": "FINALIZED", "MAP_STATUS": "COMPLETED", "BLK_C_2001": "030005", "BLK_C_2011": "01062", "DIST_NAME": "SHEOHAR", "code2011": 0.0, "Shape_Leng": 0.16343531498, "Shape_Area": 0.00075256805, "Area": 8.31569}, "geometry": {"type": "MultiPolygon", "coordinates": [[[[85.34083877200004, 26.454169980000074], [85.34129357000006, 26.452414141000077], [85.34267237900008, 26.45246737900004], [85.34330428500004, 26.452670081000065], [85.34330466000006, 26.453134920000025], [85.34410757800003, 26.45406407200005], [85.34519591800006, 26.45458230500003], [85.34628899000006, 26.454735004000042], [85.34720631600004, 26.454526773000055], [85.35007350400008, 26.45380276000003], [85.35248428000006, 26.452975218000063], [85.35236777900008, 26.451630386000033], [85.35248250300003, 26.450962451000066], [85.35299816800006, 26.45013621700008], [85.35371392100006, 26.44890371400004], [85.35583503600003, 26.44942113600007], [85.35795569700008, 26.449419483000042], [85.36017126300004, 26.449070350000056], [85.36258257800006, 26.44889697600007], [85.36422005900005, 26.446982155000057], [85.36489094400008, 26.44611521300004], [85.36518031300005, 26.44472498400006], [85.36460314200008, 26.444030418000068], [85.36248164600005, 26.443079929000078], [85.36209461300007, 26.44212344500005], [85.36237977400003, 26.441428302000077], [85.36199249800006, 26.440214593000064], [85.36025548800006, 26.437526287000026], [85.35954566500004, 26.434439973000053], [85.35954425300008, 26.432878490000064], [85.36218572500007, 26.427614379000033], [85.36382431400006, 26.42712122200004], [85.36537839800008, 26.427368140000056], [85.36830040300003, 26.427117597000063], [85.36930235500006, 26.42662487700005], [85.36994282000006, 26.425554713000054], [85.36920808600007, 26.42268066300005], [85.36866019500007, 26.421200869000074], [85.36792672300004, 26.419473056000072], [85.36773994800006, 26.418241136000063], [85.36728221400006, 26.416598833000023], [85.36321836800005, 26.417464020000068], [85.36100290000007, 26.417289819000075], [85.36027920500004, 26.41524144400006], [85.35941137100008, 26.414461367000058], [85.35796284700007, 26.41437671600005], [85.35584957000003, 26.416201530000023], [85.35353534700005, 26.417674439000052], [85.35460093900008, 26.421058334000065], [85.35440700500004, 26.422705760000042], [85.35344528700006, 26.423401416000047], [85.35209759800006, 26.424097387000074], [85.35142239100009, 26.42574507300003], [85.35027064100007, 26.426959835000048], [85.34824629500008, 26.427827730000047], [85.34580037300003, 26.428009905000067], [85.34397731000007, 26.429735057000073], [85.34187791800008, 26.430805968000072], [85.34041952000007, 26.431136373000072], [85.33831837200006, 26.429986901000063], [85.33521469700008, 26.428837913000052], [85.33457321800006, 26.428919519000033], [85.33284087900006, 26.431714086000056], [85.33658809300005, 26.43541247400003], [85.33859427200008, 26.436810198000046], [85.34078580200008, 26.43795961400008], [85.34136884300005, 26.439881781000054], [85.34117934900007, 26.441095808000057], [85.34069840800004, 26.44153392000004], [85.33876885200004, 26.442139824000037], [85.33713518300004, 26.442921606000027], [85.33616855700006, 26.44405040500004], [85.33530277700004, 26.446050153000044], [85.33559458000008, 26.44743991400003], [85.33636741000004, 26.44847744300006], [85.33713950300006, 26.448567250000053], [85.33896885200005, 26.447871105000047], [85.34012198500005, 26.447956177000037], [85.34041332500004, 26.448736694000047], [85.33997314900006, 26.450041175000024], [85.33991853200007, 26.450659467000037], [85.33922773700004, 26.452004799000065], [85.33831053800003, 26.45236639700005], [85.33773903000008, 26.452366753000035], [85.33705178700006, 26.45195194300004], [85.33653501800006, 26.451334001000077], [85.33595840200007, 26.451334340000074], [85.33590515900005, 26.453811984000026], [85.33722393100004, 26.454068406000033], [85.33848757800007, 26.454428669000038], [85.33952063200007, 26.454739363000044], [85.34043789400005, 26.45442745500003], [85.34083877200004, 26.454169980000074]]]]}}, {"type": "Feature", "properties": {"OBJECTID": 6590, "GPCODE": "98438", "GPNAME_1": "MADHOPUR CHHATA", "DIST_CEN_C": "03", "BLK_NAME": "TARIANI CHOWK", "ST_NAME": "BIHAR", "ST_CODE_1": "10", "GPCODE2011": "100925", "REMARKS": "FINALIZED", "MAP_STATUS": "COMPLETED", "BLK_C_2001": "030005", "BLK_C_2011": "01062", "DIST_NAME": "SHEOHAR", "code2011": 0.0, "Shape_Leng": 0.12751817575, "Shape_Area": 0.0007167845, "Area": 7.91933}, "geometry": {"type": "MultiPolygon", "coordinates": [[[[85.31245781400008, 26.474181737000038], [85.31322974500006, 26.473666948000073], [85.31440788800006, 26.473314412000036], [85.31614210000004, 26.47192366200005], [85.31719993600007, 26.47148997200003], [85.31652072700007, 26.467672383000036], [85.31690609100008, 26.466367929000057], [85.31767817200006, 26.466367554000044], [85.31786786300006, 26.464805987000034], [85.31680879700008, 26.46306911100004], [85.31574526600008, 26.462027112000044], [85.31671243600005, 26.461074412000073], [85.31854193700008, 26.460207065000077], [85.31776921700003, 26.459250720000057], [85.31651523400006, 26.458208847000037], [85.31584269800004, 26.45708085600006], [85.31632289200007, 26.455085976000078], [85.31704457400008, 26.45460728200004], [85.31665652300006, 26.451308554000036], [85.31646286200004, 26.445753230000037], [85.31684643100004, 26.441587637000055], [85.31723045700005, 26.43837426700003], [85.31819240900006, 26.43733584200004], [85.31751481900005, 26.435946181000077], [85.31703324300008, 26.43533719100003], [85.31616581900005, 26.43508035800005], [85.31500782500007, 26.434990584000047], [85.31177971300008, 26.43510933700003], [85.31053211000005, 26.436238133000074], [85.30754461600003, 26.436501126000053], [85.30542416300005, 26.43650191200004], [85.30455735800007, 26.43728302200003], [85.30340016500008, 26.438935203000028], [85.30157099300004, 26.440235578000056], [85.29993120500006, 26.438846151000064], [85.29829188700006, 26.43867528100003], [85.29559546200005, 26.439890097000045], [85.29337977300008, 26.440238230000034], [85.29313442700004, 26.440987475000043], [85.29467879400005, 26.441767731000027], [85.29564200100003, 26.443504890000042], [85.29699158900007, 26.446108407000054], [85.29718280000003, 26.447755544000074], [85.29815099400008, 26.449230960000023], [85.29815152400005, 26.45044942800007], [85.29911463400003, 26.45166308900008], [85.29988695900005, 26.452357805000076], [85.29988729900003, 26.45313858000003], [85.29964756600003, 26.455092681000053], [85.29858480000007, 26.455526337000038], [85.29608308600007, 26.455612875000043], [85.29627513600008, 26.459345], [85.29656770900004, 26.463686350000046], [85.29656791600007, 26.464295578000076], [85.29618257400006, 26.466028649000066], [85.29627871500008, 26.468285080000044], [85.29599385500006, 26.470428781000066], [85.29614426700005, 26.470422488000054], [85.29871150300005, 26.470315065000023], [85.30095309600006, 26.470690623000053], [85.30110351700006, 26.470715824000024], [85.30122414500005, 26.47085117000006], [85.30313011700008, 26.47298965500005], [85.30325074900009, 26.47312499900005], [85.30340117300005, 26.473146505000045], [85.30450948700008, 26.47330495500006], [85.30551794100006, 26.473400510000033], [85.30622130400008, 26.47346715300006], [85.30645516600003, 26.473489310000048], [85.30714751200009, 26.47417951500006], [85.31051207900003, 26.47406979300007], [85.31230739200004, 26.47417308400003], [85.31245781400008, 26.474181737000038]]]]}}, {"type": "Feature", "properties": {"OBJECTID": 6599, "GPCODE": "98439", "GPNAME_1": "NARWARA", "DIST_CEN_C": "03", "BLK_NAME": "TARIANI CHOWK", "ST_NAME": "BIHAR", "ST_CODE_1": "10", "GPCODE2011": "100926", "REMARKS": "FINALIZED", "MAP_STATUS": "COMPLETED", "BLK_C_2001": "030005", "BLK_C_2011": "01062", "DIST_NAME": "SHEOHAR", "code2011": 0.0, "Shape_Leng": 0.1555750045, "Shape_Area": 0.00060893863, "Area": 6.73331}, "geometry": {"type": "MultiPolygon", "coordinates": [[[[85.30517701600007, 26.371285690000036], [85.30692015700004, 26.37045912700006], [85.30673856800007, 26.36806283900006], [85.30820102300004, 26.367317574000026], [85.30746843900005, 26.365007266000077], [85.30939168800006, 26.364094848000036], [85.31196108900008, 26.36285718700003], [85.31076580200005, 26.35723910300004], [85.30874584600008, 26.355010523000033], [85.30830743200005, 26.34962881000007], [85.30784659000005, 26.349660198000038], [85.30748597600007, 26.349628448000033], [85.30712534200006, 26.349483858000042], [85.30656962100005, 26.349090941000043], [85.30596890600003, 26.348535629000025], [85.30553825600003, 26.34825562900005], [85.30512264900005, 26.34811547700008], [85.30427617200007, 26.347997768000027], [85.30412591900006, 26.347961541000075], [85.30383053100007, 26.34774027000003], [85.30164802800005, 26.345572971000024], [85.30150781700007, 26.34544206100003], [85.29993496100008, 26.345549516000062], [85.29980495200004, 26.34524706600007], [85.29908949800006, 26.34401020100006], [85.29858848200007, 26.344140761000062], [85.29816268300004, 26.34432104900003], [85.29751122400006, 26.344763010000065], [85.29700503700008, 26.34525913500005], [85.29603764300003, 26.346355240000037], [85.29518040900007, 26.347437941000067], [85.29438330300007, 26.348497984000062], [85.29358613000005, 26.34960321400007], [85.29315498200003, 26.35018964900007], [85.29273891700007, 26.350554955000064], [85.29175668300007, 26.351235883000072], [85.29153618300006, 26.351389136000023], [85.29092484300008, 26.35181748800005], [85.29031343300005, 26.352245888000027], [85.28975697000004, 26.35287290800005], [85.28959643600007, 26.353197713000043], [85.28950073200008, 26.353906239000025], [85.28936525700004, 26.35430778400007], [85.28916474800008, 26.354497172000038], [85.28880898100005, 26.354564707000065], [85.28848846800008, 26.354514805000065], [85.28811798700008, 26.354297979000023], [85.28770251000003, 26.35383739200006], [85.28742737600004, 26.35338595500008], [85.28688754500007, 26.351797042000044], [85.28632762100005, 26.350289430000032], [85.28622759100006, 26.350095298000042], [85.28574316600003, 26.34813635000006], [85.28542403000006, 26.346294864000072], [85.28414181300008, 26.34625344600005], [85.28393167200005, 26.345973573000038], [85.28349164700006, 26.34491269800003], [85.28260133500004, 26.34334619200007], [85.28164895400005, 26.34421657200005], [85.28113763200008, 26.344843512000068], [85.28087688700003, 26.345136721000074], [85.28081166800007, 26.345317203000036], [85.28079643500007, 26.34551569200005], [85.28071057100004, 26.346427290000065], [85.28069969500007, 26.347532947000047], [85.28071868900008, 26.348637135000047], [85.27960082400006, 26.35174758900007], [85.28014252400004, 26.354360475000078], [85.28087417400008, 26.355596864000063], [85.28279827100005, 26.357166907000078], [85.28454186500005, 26.358407643000078], [85.28564397600007, 26.358240335000062], [85.28784251900004, 26.356669268000076], [85.29013699600006, 26.357083860000046], [85.29086836700003, 26.35708368300004], [85.29416925000004, 26.35625679800006], [85.29508597100005, 26.356418939000037], [85.29572765900008, 26.357659873000046], [85.29370933200005, 26.35873457300005], [85.29297834600004, 26.35989010000003], [85.29306911400005, 26.36146059500004], [85.29215270600008, 26.362205463000066], [85.29096031900008, 26.362038829000028], [85.28811978300007, 26.361710182000024], [85.28720308800007, 26.361958671000025], [85.28720325800003, 26.362536292000073], [85.28711363500008, 26.364021124000033], [85.28646730200006, 26.363773035000065], [85.28435787700005, 26.36269949600006], [85.28279983400006, 26.362451649000036], [85.28106162300008, 26.36294847100004], [85.27904322300003, 26.364934508000033], [85.27895339100007, 26.36633806800006], [85.27977556900004, 26.368400370000074], [85.28124396300007, 26.370137485000043], [85.28353884100005, 26.371292321000055], [85.28793739500009, 26.370627846000048], [85.28959090500007, 26.37112376700003], [85.29078344600003, 26.371701168000072], [85.29380925500004, 26.37096010500005], [85.29472602300007, 26.370792847000075], [85.29547324000004, 26.37266552600005], [85.29574953700006, 26.374484110000026], [85.29685163400006, 26.374154377000025], [85.29896042000007, 26.373160806000044], [85.30060840100003, 26.37233432100004], [85.30517701600007, 26.371285690000036]]]]}}, {"type": "Feature", "properties": {"OBJECTID": 6604, "GPCODE": "98440", "GPNAME_1": "POJHIYA", "DIST_CEN_C": "03", "BLK_NAME": "TARIANI CHOWK", "ST_NAME": "BIHAR", "ST_CODE_1": "10", "GPCODE2011": "100927", "REMARKS": "FINALIZED", "MAP_STATUS": "COMPLETED", "BLK_C_2001": "030005", "BLK_C_2011": "01062", "DIST_NAME": "SHEOHAR", "code2011": 0.0, "Shape_Leng": 0.16851919527, "Shape_Area": 0.00061351465, "Area": 6.77974}, "geometry": {"type": "MultiPolygon", "coordinates": [[[[85.29718280000003, 26.447755544000074], [85.29699158900007, 26.446108407000054], [85.29564200100003, 26.443504890000042], [85.29467879400005, 26.441767731000027], [85.29313442700004, 26.440987475000043], [85.29337977300008, 26.440238230000034], [85.29559546200005, 26.439890097000045], [85.29829188700006, 26.43867528100003], [85.29993120500006, 26.438846151000064], [85.30157099300004, 26.440235578000056], [85.30340016500008, 26.438935203000028], [85.30455735800007, 26.43728302200003], [85.30542416300005, 26.43650191200004], [85.30754461600003, 26.436501126000053], [85.31053211000005, 26.436238133000074], [85.31177971300008, 26.43510933700003], [85.31053128600007, 26.43459087800005], [85.30956319100005, 26.433377346000043], [85.30946660000006, 26.430773440000053], [85.30966127600004, 26.429383399000073], [85.31135523400008, 26.428877233000037], [85.31281336300003, 26.427888247000055], [85.31573513500007, 26.426984343000072], [85.31764964500007, 26.426654033000034], [85.31993031000007, 26.426652966000063], [85.32339879600005, 26.426569939000046], [85.32303237600007, 26.425667599000064], [85.32202923800008, 26.42467979500003], [85.32138725200008, 26.424025743000072], [85.32120610600003, 26.42295622000006], [85.32138553800007, 26.421313484000052], [85.31618738300006, 26.42041335600004], [85.31499902900003, 26.419425542000056], [85.31445226600005, 26.41877144700004], [85.31408571600008, 26.417539606000048], [85.31409977100003, 26.415680231000067], [85.31036596400008, 26.41584431700005], [85.30689796500008, 26.416342119000035], [85.30407160900006, 26.417164593000052], [85.30334429200008, 26.416014080000025], [85.30197584600006, 26.415685160000066], [85.30142882600006, 26.414042680000023], [85.29960467200004, 26.41441336200006], [85.29778048300005, 26.41461707600007], [85.29650753600004, 26.41486569700004], [85.29614186100008, 26.41543893100004], [85.29751117100005, 26.417902493000042], [85.29586827500003, 26.420534132000057], [85.29673611800007, 26.422316416000058], [85.29737294200004, 26.42297506500006], [85.29792491500007, 26.424455124000076], [85.29783003800009, 26.425276508000024], [85.29710332700006, 26.425439260000076], [85.29619138600003, 26.426098445000036], [85.29546007700003, 26.427416443000027], [85.29555060200005, 26.428152031000025], [85.29445827900008, 26.42914071100006], [85.29372673100005, 26.42988101900005], [85.29372717000007, 26.431113038000035], [85.29400324600005, 26.43210132200005], [85.29454959400005, 26.431934108000064], [85.29546178000004, 26.43177144300006], [85.29600827100006, 26.43185242900006], [85.29600854600005, 26.432673806000025], [85.29537209300008, 26.433084646000054], [85.29418441500007, 26.43391088900006], [85.29299640000005, 26.43399250400006], [85.29153776500004, 26.43391171600007], [85.29062546000006, 26.43407445400004], [85.28916667400006, 26.433664176000036], [85.28806877400007, 26.433416270000066], [85.28504114800006, 26.433728417000054], [85.28504191000007, 26.43620597200004], [85.28346436600003, 26.44094944400007], [85.28257260500004, 26.442813458000046], [85.28241263900009, 26.444636742000057], [85.28257389000004, 26.44755658100007], [85.28552154300007, 26.44672096900007], [85.28817334700005, 26.446327659000076], [85.28933152500008, 26.446503308000047], [85.29077565000006, 26.44745522100004], [85.29159304100006, 26.447933286000023], [85.29197917200008, 26.448280710000063], [85.29444153300005, 26.450319814000068], [85.29492398400004, 26.453271099000062], [85.29492430000005, 26.454223326000033], [85.29550113000005, 26.454832370000076], [85.29608308600007, 26.455612875000043], [85.29858480000007, 26.455526337000038], [85.29964756600003, 26.455092681000053], [85.29988729900003, 26.45313858000003], [85.29988695900005, 26.452357805000076], [85.29911463400003, 26.45166308900008], [85.29815152400005, 26.45044942800007], [85.29815099400008, 26.449230960000023], [85.29718280000003, 26.447755544000074]]]]}}, {"type": "Feature", "properties": {"OBJECTID": 6606, "GPCODE": "98441", "GPNAME_1": "SALEMPUR", "DIST_CEN_C": "03", "BLK_NAME": "TARIANI CHOWK", "ST_NAME": "BIHAR", "ST_CODE_1": "10", "GPCODE2011": "100928", "REMARKS": "FINALIZED", "MAP_STATUS": "COMPLETED", "BLK_C_2001": "030005", "BLK_C_2011": "01062", "DIST_NAME": "SHEOHAR", "code2011": 0.0, "Shape_Leng": 0.15710853702, "Shape_Area": 0.00088565608, "Area": 9.7855}, "geometry": {"type": "MultiPolygon", "coordinates": [[[[85.32703152800008, 26.46931427100003], [85.32920267500003, 26.469267955000078], [85.33151447200004, 26.46961420200006], [85.33189916500004, 26.467619230000025], [85.33430516400006, 26.466489652000064], [85.33690701800003, 26.46596912900003], [85.33835564100008, 26.46527320200005], [85.33883615800005, 26.46423048500003], [85.33825335300008, 26.462755057000038], [85.33709970400008, 26.462151025000026], [85.33651766300005, 26.46162789600004], [85.33651710000004, 26.460847219000073], [85.33719357400008, 26.460327825000036], [85.33835179200008, 26.460327059000065], [85.33786934600005, 26.458937379000076], [85.33622841000005, 26.456943729000045], [85.33584181500004, 26.456248919000075], [85.33554982300006, 26.454687629000034], [85.33590515900005, 26.453811984000026], [85.33595840200007, 26.451334340000074], [85.33653501800006, 26.451334001000077], [85.33705178700006, 26.45195194300004], [85.33773903000008, 26.452366753000035], [85.33831053800003, 26.45236639700005], [85.33922773700004, 26.452004799000065], [85.33991853200007, 26.450659467000037], [85.33997314900006, 26.450041175000024], [85.34041332500004, 26.448736694000047], [85.34012198500005, 26.447956177000037], [85.33896885200005, 26.447871105000047], [85.33713950300006, 26.448567250000053], [85.33636741000004, 26.44847744300006], [85.33559458000008, 26.44743991400003], [85.33530277700004, 26.446050153000044], [85.33616855700006, 26.44405040500004], [85.33713518300004, 26.442921606000027], [85.33876885200004, 26.442139824000037], [85.34069840800004, 26.44153392000004], [85.34117934900007, 26.441095808000057], [85.34136884300005, 26.439881781000054], [85.34078580200008, 26.43795961400008], [85.33859427200008, 26.436810198000046], [85.33658809300005, 26.43541247400003], [85.33284087900006, 26.431714086000056], [85.33110099900006, 26.431047157000023], [85.33099996000004, 26.429833187000042], [85.32888443800005, 26.429486886000063], [85.32753026700004, 26.428449690000036], [85.32628186700003, 26.428017127000032], [85.32512326400007, 26.426889500000073], [85.32339879600005, 26.426569939000046], [85.31993031000007, 26.426652966000063], [85.31764964500007, 26.426654033000034], [85.31573513500007, 26.426984343000072], [85.31281336300003, 26.427888247000055], [85.31135523400008, 26.428877233000037], [85.30966127600004, 26.429383399000073], [85.30946660000006, 26.430773440000053], [85.30956319100005, 26.433377346000043], [85.31053128600007, 26.43459087800005], [85.31177971300008, 26.43510933700003], [85.31500782500007, 26.434990584000047], [85.31616581900005, 26.43508035800005], [85.31703324300008, 26.43533719100003], [85.31751481900005, 26.435946181000077], [85.31819240900006, 26.43733584200004], [85.31723045700005, 26.43837426700003], [85.31684643100004, 26.441587637000055], [85.31646286200004, 26.445753230000037], [85.31665652300006, 26.451308554000036], [85.31704457400008, 26.45460728200004], [85.31632289200007, 26.455085976000078], [85.31584269800004, 26.45708085600006], [85.31651523400006, 26.458208847000037], [85.31776921700003, 26.459250720000057], [85.31854193700008, 26.460207065000077], [85.31671243600005, 26.461074412000073], [85.31574526600008, 26.462027112000044], [85.31680879700008, 26.46306911100004], [85.31786786300006, 26.464805987000034], [85.31767817200006, 26.466367554000044], [85.31690609100008, 26.466367929000057], [85.31652072700007, 26.467672383000036], [85.31719993600007, 26.47148997200003], [85.31990241700004, 26.47114117600006], [85.32211874600006, 26.471140083000023], [85.32404382700008, 26.470529876000057], [85.32703152800008, 26.46931427100003]]]]}}, {"type": "Feature", "properties": {"OBJECTID": 6607, "GPCODE": "98442", "GPNAME_1": "SARIF NAGAR", "DIST_CEN_C": "03", "BLK_NAME": "TARIANI CHOWK", "ST_NAME": "BIHAR", "ST_CODE_1": "10", "GPCODE2011": "100929", "REMARKS": "FINALIZED", "MAP_STATUS": "COMPLETED", "BLK_C_2001": "030005", "BLK_C_2011": "01062", "DIST_NAME": "SHEOHAR", "code2011": 0.0, "Shape_Leng": 0.17533050946, "Shape_Area": 0.00087114025, "Area": 9.63279}, "geometry": {"type": "MultiPolygon", "coordinates": [[[[85.32942172600008, 26.331946273000028], [85.32916116600006, 26.332365938000066], [85.32858488200003, 26.333141977000025], [85.32762292600006, 26.333999086000063], [85.32617513500008, 26.335140398000078], [85.32647944800004, 26.33815061100006], [85.32662922800006, 26.33929242100004], [85.32677898500003, 26.340723144000037], [85.32707853900007, 26.34307440500004], [85.32741320700006, 26.345470947000024], [85.32759318000006, 26.346319401000073], [85.32775805400007, 26.347506340000052], [85.32780275600004, 26.34826911300007], [85.32770229400006, 26.349216771000044], [85.32745664400005, 26.34967254700007], [85.32724621600005, 26.349852936000048], [85.32688544300004, 26.35002436600007], [85.32646967600004, 26.35017309500006], [85.32579848600005, 26.350267663000068], [85.32542780000006, 26.35019082900004], [85.32410071200007, 26.34952245200003], [85.32305408200006, 26.349003099000072], [85.32123109200006, 26.348289365000028], [85.32013428900007, 26.34811749200003], [85.31957828900005, 26.347981880000077], [85.31908751700007, 26.34792301600004], [85.31727986000004, 26.34673084700006], [85.31688404900007, 26.34696087900005], [85.31622764100007, 26.347461533000057], [85.31460424400007, 26.348525945000063], [85.31421843700008, 26.348724336000032], [85.31178135600004, 26.34911140400004], [85.30934438300005, 26.34949842700007], [85.30876827600008, 26.349597423000034], [85.30830743200005, 26.34962881000007], [85.30874584600008, 26.355010523000033], [85.31076580200005, 26.35723910300004], [85.31196108900008, 26.36285718700003], [85.30939168800006, 26.364094848000036], [85.31005402500006, 26.365922313000056], [85.31106116400008, 26.366291965000073], [85.31270926700006, 26.36604305900005], [85.31463751500007, 26.365216278000048], [85.31793850600008, 26.364555852000024], [85.32215608500007, 26.363560981000035], [85.32554744800007, 26.363229757000056], [85.32892473900006, 26.364324613000065], [85.32800972400008, 26.366888505000077], [85.32782514300004, 26.368125159000044], [85.33030144400004, 26.370190669000067], [85.33204507300007, 26.37035670800003], [85.33406381900005, 26.370026092000046], [85.33626280800007, 26.369528324000044], [85.33800648000005, 26.36977547200007], [85.33910887800005, 26.370104234000053], [85.34167427600005, 26.37043206800007], [85.34295551100007, 26.368779553000024], [85.34240871500003, 26.367868283000064], [85.34176139900006, 26.36663214400005], [85.34158023200007, 26.365639440000052], [85.34176008600008, 26.364980374000027], [85.34240597000007, 26.36456474700003], [85.34368847400003, 26.364563991000068], [85.34588790800007, 26.36472948000005], [85.34680426100005, 26.364232428000037], [85.34763025300003, 26.363487287000055], [85.35120603700005, 26.362203127000043], [85.35065322300005, 26.360222315000044], [85.35037722900006, 26.359644827000068], [85.34945942100006, 26.358485616000053], [85.34881749900006, 26.35757899600003], [85.34854098300008, 26.35641937200006], [85.34752720400007, 26.354271890000064], [85.34651944500007, 26.35311720800007], [85.34523673000007, 26.352702901000043], [85.34449806600009, 26.349896278000074], [85.34229677800005, 26.347004894000065], [85.34394215500004, 26.345628889000068], [85.34290045100005, 26.34495615800006], [85.34240961500007, 26.344757560000062], [85.34176851300003, 26.344685129000027], [85.34088197500006, 26.34473005700005], [85.33968985000007, 26.344820026000036], [85.33955964400008, 26.344774864000044], [85.33935438400005, 26.344431847000067], [85.33924934900006, 26.343958022000038], [85.33924937100005, 26.343822630000034], [85.33938469300006, 26.343479668000043], [85.33984080500005, 26.34232444500003], [85.33993131900007, 26.34139027300006], [85.33985622300008, 26.341105948000063], [85.33968099200007, 26.340862229000038], [85.33938553000007, 26.34068161400006], [85.33897991400005, 26.340640889000042], [85.33857412000003, 26.340848402000063], [85.33811821700004, 26.341168718000063], [85.33763218700005, 26.341773362000026], [85.33678038100004, 26.34274788400006], [85.33555796600007, 26.343907350000052], [85.33533257100004, 26.34395241200008], [85.33466153100005, 26.343473880000033], [85.33419594000009, 26.34286454100004], [85.33443147100007, 26.342462940000075], [85.33448678600007, 26.34184465900006], [85.33450697900008, 26.341253531000064], [85.33462767100008, 26.339651408000066], [85.33479374000007, 26.33750331400006], [85.33491420400009, 26.336668444000054], [85.33498484200004, 26.335350679000044], [85.33496502800006, 26.334619540000062], [85.33506056700008, 26.333721550000064], [85.33513080300008, 26.333225077000066], [85.33516601200006, 26.332981439000037], [85.33556731700008, 26.33101840300003], [85.33574303700004, 26.32976837600006], [85.33572334700006, 26.328870266000024], [85.33551838700004, 26.327809676000072], [85.33507306700005, 26.32669488700003], [85.33490288400003, 26.326509802000032], [85.33452226200006, 26.326396790000047], [85.33417672300004, 26.32639671000004], [85.33382107300008, 26.32652297900006], [85.33336027700005, 26.326820719000068], [85.33304462000007, 26.327086906000034], [85.33206281400004, 26.32763270600003], [85.33144657700007, 26.328110898000034], [85.33086545400005, 26.328751538000063], [85.33037430800005, 26.329581749000056], [85.32984788200008, 26.330736960000024], [85.32968228400006, 26.33152661200006], [85.32942172600008, 26.331946273000028]]]]}}, {"type": "Feature", "properties": {"OBJECTID": 6611, "GPCODE": "98443", "GPNAME_1": "SONBARSA", "DIST_CEN_C": "03", "BLK_NAME": "TARIANI CHOWK", "ST_NAME": "BIHAR", "ST_CODE_1": "10", "GPCODE2011": "100930", "REMARKS": "FINALIZED", "MAP_STATUS": "COMPLETED", "BLK_C_2001": "030005", "BLK_C_2011": "01062", "DIST_NAME": "SHEOHAR", "code2011": 0.0, "Shape_Leng": 0.17005981716, "Shape_Area": 0.00103110746, "Area": 11.3993}, "geometry": {"type": "MultiPolygon", "coordinates": [[[[85.32997349500005, 26.395531034000044], [85.33298473600007, 26.39503740500004], [85.33635615500003, 26.393722153000056], [85.33890566400004, 26.39232159100004], [85.34209682300008, 26.391254510000067], [85.34446634400007, 26.390512906000026], [85.34657069800005, 26.39028128800004], [85.34629245900004, 26.387140474000034], [85.34592414800005, 26.384085472000038], [85.34509666000008, 26.38317893900006], [85.34454824800008, 26.380448991000037], [85.34436163600003, 26.378964362000033], [85.34399521700004, 26.378219969000043], [85.34362837300006, 26.37689786900006], [85.34335176100006, 26.37557581300007], [85.34233401500006, 26.374759609000023], [85.34278888300008, 26.37343703700003], [85.34444163900008, 26.372691279000037], [85.34323248000004, 26.37059805900003], [85.34167427600005, 26.37043206800007], [85.33910887800005, 26.370104234000053], [85.33800648000005, 26.36977547200007], [85.33626280800007, 26.369528324000044], [85.33406381900005, 26.370026092000046], [85.33204507300007, 26.37035670800003], [85.33030144400004, 26.370190669000067], [85.32782514300004, 26.368125159000044], [85.32800972400008, 26.366888505000077], [85.32892473900006, 26.364324613000065], [85.32554744800007, 26.363229757000056], [85.32215608500007, 26.363560981000035], [85.31793850600008, 26.364555852000024], [85.31463751500007, 26.365216278000048], [85.31270926700006, 26.36604305900005], [85.31106116400008, 26.366291965000073], [85.31005402500006, 26.365922313000056], [85.30939168800006, 26.364094848000036], [85.30746843900005, 26.365007266000077], [85.30820102300004, 26.367317574000026], [85.30673856800007, 26.36806283900006], [85.30692015700004, 26.37045912700006], [85.30517701600007, 26.371285690000036], [85.30060840100003, 26.37233432100004], [85.29896042000007, 26.373160806000044], [85.29685163400006, 26.374154377000025], [85.29574953700006, 26.374484110000026], [85.29547437000008, 26.37555829300004], [85.29575034000004, 26.37663230800007], [85.29768047200008, 26.379361979000066], [85.29758580300006, 26.38059856500007], [85.29676519400005, 26.38332918900005], [85.29951575100006, 26.382913038000027], [85.29996444300008, 26.384619874000066], [85.29997246300007, 26.384650385000043], [85.30001213300005, 26.384645216000024], [85.30254281300006, 26.38431548400007], [85.30565863800007, 26.382784429000026], [85.30914536500006, 26.381623218000072], [85.30987760900007, 26.38299491400005], [85.31052033400005, 26.385720461000062], [85.31087652400004, 26.385961921000046], [85.31087660400004, 26.385961975000043], [85.31088622500005, 26.38596849700008], [85.31090141100003, 26.385961133000023], [85.31093660300007, 26.38594406800007], [85.31207853200004, 26.385390322000035], [85.31327033100007, 26.384234443000025], [85.31482830500005, 26.383570375000033], [85.31721289600006, 26.382910397000046], [85.31822053600007, 26.38381701800006], [85.31822095300004, 26.384394717000077], [85.31813140100007, 26.385473300000058], [85.31804146600007, 26.38596525500003], [85.31693980700004, 26.387125652000066], [85.31318271700007, 26.388860303000058], [85.31428136400007, 26.39117494800007], [85.31767267600009, 26.389440381000043], [85.31803036300005, 26.392662451000035], [85.31894273700004, 26.393235176000076], [85.32022084200008, 26.39381220300004], [85.32076792500004, 26.39520643000003], [85.32715199600005, 26.395121896000035], [85.32997349500005, 26.395531034000044]]]]}}, {"type": "Feature", "properties": {"OBJECTID": 6613, "GPCODE": "98444", "GPNAME_1": "SURGAHI", "DIST_CEN_C": "03", "BLK_NAME": "TARIANI CHOWK", "ST_NAME": "BIHAR", "ST_CODE_1": "10", "GPCODE2011": "100931", "REMARKS": "FINALIZED", "MAP_STATUS": "COMPLETED", "BLK_C_2001": "030005", "BLK_C_2011": "01062", "DIST_NAME": "SHEOHAR", "code2011": 0.0, "Shape_Leng": 0.16064366388, "Shape_Area": 0.00098260997, "Area": 10.8547}, "geometry": {"type": "MultiPolygon", "coordinates": [[[[85.35962973600004, 26.48569734000006], [85.36011091600005, 26.485349464000024], [85.36136519500008, 26.48595779300007], [85.36232811800005, 26.485957013000075], [85.36348599000007, 26.48543261900005], [85.36435265700004, 26.484479677000024], [85.36521982600004, 26.48404124800004], [85.36589729700006, 26.48456421700007], [85.36676510700005, 26.484734993000075], [85.36415906000008, 26.48143820200005], [85.36348076400003, 26.480138983000074], [85.36386548100006, 26.47866298300005], [85.36511763800007, 26.477186234000044], [85.36626875700006, 26.475014611000063], [85.36723520400005, 26.47362383500007], [85.36790504500004, 26.471628646000056], [85.37252997200005, 26.46850184400006], [85.37151528700008, 26.466810361000057], [85.37035510600003, 26.464988117000075], [85.37073995000009, 26.46377380900003], [85.37006644500008, 26.462212973000078], [85.36755662700006, 26.459520843000064], [85.36687792300006, 26.45769815400007], [85.36649066000007, 26.456484561000025], [85.36513922900008, 26.45371022200004], [85.36417473600005, 26.451887742000054], [85.36330662800003, 26.451107712000066], [85.36238792800003, 26.449849371000028], [85.36258257800006, 26.44889697600007], [85.36017126300004, 26.449070350000056], [85.35795569700008, 26.449419483000042], [85.35583503600003, 26.44942113600007], [85.35371392100006, 26.44890371400004], [85.35299816800006, 26.45013621700008], [85.35248250300003, 26.450962451000066], [85.35236777900008, 26.451630386000033], [85.35248428000006, 26.452975218000063], [85.35007350400008, 26.45380276000003], [85.34720631600004, 26.454526773000055], [85.34628899000006, 26.454735004000042], [85.34519591800006, 26.45458230500003], [85.34410757800003, 26.45406407200005], [85.34330466000006, 26.453134920000025], [85.34330428500004, 26.452670081000065], [85.34267237900008, 26.45246737900004], [85.34129357000006, 26.452414141000077], [85.34083877200004, 26.454169980000074], [85.34043789400005, 26.45442745500003], [85.33952063200007, 26.454739363000044], [85.33848757800007, 26.454428669000038], [85.33722393100004, 26.454068406000033], [85.33590515900005, 26.453811984000026], [85.33554982300006, 26.454687629000034], [85.33584181500004, 26.456248919000075], [85.33622841000005, 26.456943729000045], [85.33786934600005, 26.458937379000076], [85.33835179200008, 26.460327059000065], [85.33719357400008, 26.460327825000036], [85.33651710000004, 26.460847219000073], [85.33651766300005, 26.46162789600004], [85.33709970400008, 26.462151025000026], [85.33825335300008, 26.462755057000038], [85.33883615800005, 26.46423048500003], [85.33835564100008, 26.46527320200005], [85.33690701800003, 26.46596912900003], [85.33430516400006, 26.466489652000064], [85.33189916500004, 26.467619230000025], [85.33151447200004, 26.46961420200006], [85.33488974900007, 26.470483152000043], [85.33594851100008, 26.471520489000056], [85.33614536900006, 26.473172152000075], [85.33681823000006, 26.47447139600007], [85.33845822000006, 26.474817905000066], [85.34028960200004, 26.476206726000044], [85.34048655600003, 26.477944055000023], [85.34087360700005, 26.479072102000032], [85.34183656900007, 26.479333177000058], [85.34328075600007, 26.479242001000046], [85.34443915000008, 26.47924128300008], [85.34598367400008, 26.479240250000032], [85.34742741400004, 26.478634514000078], [85.34848570600008, 26.478891003000058], [85.34935391800008, 26.479671188000054], [85.34945469300004, 26.480280291000042], [85.35022757000007, 26.480974737000054], [85.35157684900008, 26.481321293000065], [85.35224953000005, 26.482015842000067], [85.35186440900009, 26.48314431500006], [85.34964998100008, 26.485664041000064], [85.34868926400009, 26.488178342000026], [85.34883597000004, 26.489608884000063], [85.34999523500005, 26.490479056000027], [85.35327030300004, 26.490733990000024], [85.35905702300005, 26.489863135000064], [85.35876424000008, 26.48786867800004], [85.35876312700003, 26.48665025200006], [85.35962973600004, 26.48569734000006]]]]}}, {"type": "Feature", "properties": {"OBJECTID": 6615, "GPCODE": "98445", "GPNAME_1": "TARIANI CHHAPRA", "DIST_CEN_C": "03", "BLK_NAME": "TARIANI CHOWK", "ST_NAME": "BIHAR", "ST_CODE_1": "10", "GPCODE2011": "100932", "REMARKS": "FINALIZED", "MAP_STATUS": "COMPLETED", "BLK_C_2001": "030005", "BLK_C_2011": "01062", "DIST_NAME": "SHEOHAR", "code2011": 0.0, "Shape_Leng": 0.14409802112, "Shape_Area": 0.00083599309, "Area": 9.24105}, "geometry": {"type": "MultiPolygon", "coordinates": [[[[85.37659558100006, 26.41308432200003], [85.37659320500006, 26.410936200000037], [85.37686654100008, 26.408869066000022], [85.37741604000007, 26.40721681100007], [85.37759448400004, 26.40547919900007], [85.37759397300005, 26.40498277300003], [85.37603290600003, 26.40275026100005], [85.37483777000006, 26.40044063600004], [85.37354930900005, 26.39531511900003], [85.37363708900006, 26.392999856000074], [85.37345004700006, 26.391470183000024], [85.37299341600004, 26.390892877000056], [85.37189015800004, 26.390067931000033], [85.37152377500007, 26.389490650000027], [85.36968924400009, 26.388995726000076], [85.36813020800008, 26.388333664000072], [85.36720600400008, 26.386105041000064], [85.36628650400007, 26.383542428000055], [85.36546379300006, 26.382631507000042], [85.36481652100008, 26.381724871000074], [85.36510020200006, 26.37976154200004], [85.36484929200003, 26.379405220000024], [85.36459823200005, 26.37879165700008], [85.36359140800005, 26.37396354300006], [85.36254768800006, 26.36722658900004], [85.36007298000004, 26.367354894000073], [85.35883059400004, 26.367391868000027], [85.35736817200006, 26.36788948000003], [85.35406887300007, 26.37036945500006], [85.35213833700004, 26.368385212000078], [85.35168264800006, 26.368719448000036], [85.35205012000006, 26.370619152000074], [85.35141067900008, 26.372686499000054], [85.34764962700007, 26.37450785300007], [85.34682646900006, 26.372689723000065], [85.34444163900008, 26.372691279000037], [85.34278888300008, 26.37343703700003], [85.34233401500006, 26.374759609000023], [85.34335176100006, 26.37557581300007], [85.34362837300006, 26.37689786900006], [85.34399521700004, 26.378219969000043], [85.34436163600003, 26.378964362000033], [85.34454824800008, 26.380448991000037], [85.34509666000008, 26.38317893900006], [85.34592414800005, 26.384085472000038], [85.34629245900004, 26.387140474000034], [85.34657069800005, 26.39028128800004], [85.34831482300007, 26.390776535000043], [85.34895690800005, 26.39152077800003], [85.35106664000006, 26.391767507000054], [85.35235432100006, 26.391599557000063], [85.35345166700006, 26.391517540000052], [85.35400324800008, 26.39192782400005], [85.35281153300008, 26.392921568000077], [85.35208042400006, 26.393499732000066], [85.35208103500008, 26.39416311000008], [85.35253769400003, 26.394902916000035], [85.35253831100005, 26.395566385000052], [85.35199297100007, 26.396640798000078], [85.35180942900007, 26.398761980000074], [85.35181029800003, 26.39967365900003], [85.35272818100003, 26.40058009200004], [85.35429235500004, 26.401323580000053], [85.35658386400007, 26.402811193000048], [85.35732105200003, 26.403302539000038], [85.35860425700008, 26.403635464000047], [85.35934200700007, 26.404790268000056], [85.36099222700005, 26.406278255000075], [85.36273724400007, 26.407350929000074], [85.36402147400008, 26.408590970000034], [85.36475930300008, 26.409745744000077], [85.36604404400003, 26.411482190000072], [85.36696087500007, 26.41115198400007], [85.36760289500006, 26.411643326000046], [85.36971421900006, 26.412968412000055], [85.37182537000007, 26.41412192200005], [85.37439649900006, 26.414079153000046], [85.37659558100006, 26.41308432200003]]]]}}, {"type": "Feature", "properties": {"OBJECTID": 6616, "GPCODE": "98446", "GPNAME_1": "VISHAMBHARPUR", "DIST_CEN_C": "03", "BLK_NAME": "TARIANI CHOWK", "ST_NAME": "BIHAR", "ST_CODE_1": "10", "GPCODE2011": "100933", "REMARKS": "FINALIZED", "MAP_STATUS": "COMPLETED", "BLK_C_2001": "030005", "BLK_C_2011": "01062", "DIST_NAME": "SHEOHAR", "code2011": 0.0, "Shape_Leng": 0.15341420669, "Shape_Area": 0.00066636348, "Area": 7.36523}, "geometry": {"type": "MultiPolygon", "coordinates": [[[[85.35584957000003, 26.416201530000023], [85.35796284700007, 26.41437671600005], [85.35941137100008, 26.414461367000058], [85.36027920500004, 26.41524144400006], [85.36100290000007, 26.417289819000075], [85.36321836800005, 26.417464020000068], [85.36728221400006, 26.416598833000023], [85.36664469300007, 26.415615502000037], [85.36545607400006, 26.414876375000063], [85.36536399600004, 26.412985540000022], [85.36604404400003, 26.411482190000072], [85.36475930300008, 26.409745744000077], [85.36402147400008, 26.408590970000034], [85.36273724400007, 26.407350929000074], [85.36099222700005, 26.406278255000075], [85.35934200700007, 26.404790268000056], [85.35860425700008, 26.403635464000047], [85.35732105200003, 26.403302539000038], [85.35658386400007, 26.402811193000048], [85.35429235500004, 26.401323580000053], [85.35272818100003, 26.40058009200004], [85.35181029800003, 26.39967365900003], [85.35180942900007, 26.398761980000074], [85.35199297100007, 26.396640798000078], [85.35253831100005, 26.395566385000052], [85.35253769400003, 26.394902916000035], [85.35208103500008, 26.39416311000008], [85.35208042400006, 26.393499732000066], [85.35281153300008, 26.392921568000077], [85.35400324800008, 26.39192782400005], [85.35345166700006, 26.391517540000052], [85.35235432100006, 26.391599557000063], [85.35106664000006, 26.391767507000054], [85.34895690800005, 26.39152077800003], [85.34831482300007, 26.390776535000043], [85.34657069800005, 26.39028128800004], [85.34446634400007, 26.390512906000026], [85.34209682300008, 26.391254510000067], [85.33890566400004, 26.39232159100004], [85.33635615500003, 26.393722153000056], [85.33298473600007, 26.39503740500004], [85.32997349500005, 26.395531034000044], [85.32715199600005, 26.395121896000035], [85.32076792500004, 26.39520643000003], [85.32040282100007, 26.39627164700005], [85.31985699500007, 26.397012050000058], [85.31976746000004, 26.39799591700006], [85.31876637900007, 26.39988733100006], [85.32002017900004, 26.401552029000072], [85.32093336300005, 26.403437961000066], [85.32309822400003, 26.40331505300003], [85.32419712200004, 26.40536785300003], [85.32948900400004, 26.405121347000033], [85.33076615000004, 26.403969810000035], [85.33323130800005, 26.403390708000074], [85.33514559300005, 26.403227122000033], [85.33733596400003, 26.403717759000074], [85.33861398000005, 26.403965154000048], [85.33806934900008, 26.406018921000054], [85.33797970500007, 26.406759090000037], [85.33798164300003, 26.409223077000036], [85.33588249800005, 26.410212754000042], [85.33533689300003, 26.411115637000023], [85.33423998600006, 26.41201882100006], [85.33360410400007, 26.41292634000007], [85.33369548800005, 26.414568983000038], [85.33424240900007, 26.415390053000067], [85.33515473500006, 26.415637709000066], [85.34099764400008, 26.414316305000057], [85.34318754700007, 26.413985469000067], [85.34410051600008, 26.414973193000037], [85.34620067700007, 26.415134270000067], [85.34637967200007, 26.41349149800004], [85.35160601300004, 26.412386706000063], [85.35353534700005, 26.417674439000052], [85.35584957000003, 26.416201530000023]]]]}}]}