{"type": "FeatureCollection", "features": [{"type": "Feature", "properties": {"OBJECTID": 6565, "GPCODE": "98402", "GPNAME_1": "AMBA KALA (N)", "DIST_CEN_C": "03", "BLK_NAME": "PIPRARHI", "ST_NAME": "BIHAR", "ST_CODE_1": "10", "GPCODE2011": "100889", "REMARKS": "FINALIZED", "MAP_STATUS": "COMPLETED", "BLK_C_2001": "030002", "BLK_C_2011": "01059", "DIST_NAME": "SHEOHAR", "code2011": 0.0, "Shape_Leng": 0.14321264744, "Shape_Area": 0.00078597839, "Area": 8.67452}, "geometry": {"type": "MultiPolygon", "coordinates": [[[[85.29785236000004, 26.584801964000064], [85.29781786900008, 26.584666612000035], [85.29746026000004, 26.583263226000042], [85.29653595400003, 26.58153056100008], [85.29585305100005, 26.580682409000076], [85.29516011600003, 26.58006887500005], [85.29427156700007, 26.579536619000066], [85.29412100300004, 26.57944642700005], [85.29397042900007, 26.579314021000073], [85.29341307300007, 26.578823914000054], [85.29219313900006, 26.577944294000076], [85.29057526400004, 26.576184728000044], [85.29045082400006, 26.57604938700007], [85.29036434900007, 26.575914041000033], [85.28827149700004, 26.572638277000067], [85.28688034100009, 26.569655659000034], [85.27793498100004, 26.57349716500005], [85.27222222200004, 26.57666666700004], [85.26023179200007, 26.574258592000035], [85.25318858700007, 26.570070741000052], [85.24368045900007, 26.57174246900007], [85.24779033400006, 26.573802516000057], [85.24831828700007, 26.57428890700004], [85.24875480300005, 26.574771550000037], [85.24895654700003, 26.574977353000065], [85.24916215100006, 26.575108400000033], [85.24957339500008, 26.575361472000054], [85.24992448400008, 26.57558288100006], [85.25035582400005, 26.575854050000032], [85.25061667100005, 26.576043791000075], [85.25075207700007, 26.576120597000056], [85.25108805400004, 26.576387139000076], [85.25142901300006, 26.576662715000055], [85.25191536900007, 26.57713254400005], [85.25221602700003, 26.577561485000047], [85.25245160500003, 26.577909146000025], [85.25262189400007, 26.578229734000047], [85.25271182700004, 26.578554765000035], [85.25284188300003, 26.578983536000067], [85.25295209100005, 26.579173171000036], [85.25307239800009, 26.579371854000044], [85.25339309100008, 26.579809874000034], [85.25389946400009, 26.58040150200003], [85.25429052900006, 26.580798971000036], [85.25467178200006, 26.58100684300007], [85.25495256400006, 26.581259768000052], [85.25554413300006, 26.58189656600007], [85.25635135600004, 26.58279988000004], [85.25706343400003, 26.583400605000065], [85.25765985700008, 26.58424500800004], [85.25849243500005, 26.584841406000066], [85.25984154300005, 26.585957199000063], [85.26091430100007, 26.587347918000034], [85.26109940700007, 26.587952794000046], [85.26147988400004, 26.588914395000074], [85.26164472100004, 26.58978993100004], [85.26183462600005, 26.590670146000036], [85.26193403300005, 26.591608886000074], [85.26202866400007, 26.592376080000065], [85.26197752400003, 26.593364320000035], [85.26178109700004, 26.594068228000026], [85.26154445300006, 26.594794557000057], [85.26156840400006, 26.595927317000076], [85.26118595800006, 26.59693330500005], [85.26094901300007, 26.597980137000036], [85.26092613800006, 26.59834345300004], [85.26307550400008, 26.59828911200003], [85.26505830000008, 26.597945976000062], [85.26578621200008, 26.597661741000024], [85.26593677700004, 26.59760294700004], [85.26608734100006, 26.597540148000064], [85.26697577000004, 26.597169584000028], [85.26772372600004, 26.597128885000075], [85.26908921800003, 26.597435577000056], [85.27059023400005, 26.598044575000074], [85.27112741600007, 26.598148241000047], [85.27176491700004, 26.598057961000052], [85.27458081900005, 26.597114318000024], [85.27611176700003, 26.596910937000075], [85.27700024800004, 26.596829788000036], [85.27715081000008, 26.596816036000064], [85.27730137300006, 26.59680245800007], [85.27800421200004, 26.59673907000007], [85.27824512800004, 26.596662308000077], [85.27841572700004, 26.596278735000055], [85.27853066700004, 26.594518700000037], [85.27857076900005, 26.594076398000027], [85.27885679400003, 26.59378306900004], [85.27983557800007, 26.59347596200007], [85.28051315200008, 26.59325022400003], [85.28126587900005, 26.59264982800005], [85.28220455300004, 26.59239236800005], [85.28329362900007, 26.591922788000034], [85.28546201300009, 26.591556748000073], [85.28623996800007, 26.591502432000027], [85.28716344900005, 26.591109543000073], [85.28744438600006, 26.590685241000074], [85.28762993100008, 26.590062454000076], [85.28822203100003, 26.589430451000055], [85.28890436100005, 26.588523207000037], [85.28957173000003, 26.588076283000078], [85.29055038500007, 26.587642768000023], [85.29213105400004, 26.586599895000063], [85.29359147900004, 26.58594957300005], [85.29673827100004, 26.58519943500005], [85.29770182400006, 26.58485567100007], [85.29785236000004, 26.584801964000064]]]]}}, {"type": "Feature", "properties": {"OBJECTID": 6566, "GPCODE": "98403", "GPNAME_1": "AMBA KALA (S)", "DIST_CEN_C": "03", "BLK_NAME": "PIPRARHI", "ST_NAME": "BIHAR", "ST_CODE_1": "10", "GPCODE2011": "100890", "REMARKS": "FINALIZED", "MAP_STATUS": "COMPLETED", "BLK_C_2001": "030002", "BLK_C_2011": "01059", "DIST_NAME": "SHEOHAR", "code2011": 0.0, "Shape_Leng": 0.13192744946, "Shape_Area": 0.00040592716, "Area": 4.4807}, "geometry": {"type": "MultiPolygon", "coordinates": [[[[85.28688034100009, 26.569655659000034], [85.28581317700008, 26.56713259000003], [85.28458616500006, 26.567224332000023], [85.28328120500004, 26.567363414000056], [85.28206667700005, 26.56742582000004], [85.28078209700004, 26.567221878000055], [85.27949782600007, 26.566711120000036], [85.27819853100004, 26.566141596000023], [85.27682386500004, 26.565617115000066], [85.27576492100007, 26.56575631100003], [85.27416332100006, 26.56652690900006], [85.27088042600008, 26.56746772300005], [85.26856096700004, 26.568436242000075], [85.26640212700005, 26.56946355300005], [85.26452980400006, 26.56980955100005], [85.26368187900005, 26.569583246000036], [85.26347170100007, 26.568955833000075], [85.26388501400004, 26.567092342000024], [85.26361637500008, 26.564686856000037], [85.26329566500004, 26.564199160000044], [85.26242169400007, 26.56497021100006], [85.26058894600004, 26.566038296000045], [85.25845042400005, 26.56672250300005], [85.25473639600006, 26.567044261000035], [85.25363235400005, 26.566980169000033], [85.25250377100008, 26.56651439700005], [85.25198806600008, 26.565363224000066], [85.25186004400007, 26.563011897000024], [85.25152500300004, 26.56187886300006], [85.25125478100006, 26.56121074600003], [85.24915756500008, 26.560708411000064], [85.24791096700005, 26.56043014200003], [85.24779048400006, 26.56044135700006], [85.24664317400004, 26.560763863000034], [85.24579504600007, 26.560908219000055], [85.24452041200004, 26.561030045000052], [85.24272385600005, 26.56129622800006], [85.24118832200008, 26.561381855000036], [85.23985352100004, 26.56126898100007], [85.23937455300006, 26.561484248000056], [85.23957504800006, 26.56169570000003], [85.23951011000008, 26.561943933000066], [85.23534303900004, 26.564984296000034], [85.23351783600003, 26.566547144000026], [85.23293663100003, 26.567486205000023], [85.23249158600004, 26.569120242000054], [85.23235791000008, 26.57098413500006], [85.23244359000006, 26.57140824000004], [85.23291057300008, 26.57170127100005], [85.23445169500008, 26.57210167900007], [85.23566627800005, 26.572172979000072], [85.23860215100007, 26.572170698000036], [85.23973657600004, 26.572354886000028], [85.24037396300008, 26.572440120000067], [85.24087570200004, 26.57228171500003], [85.24148255500006, 26.571911184000044], [85.24191897800006, 26.571707755000034], [85.24368045900007, 26.57174246900007], [85.25318858700007, 26.570070741000052], [85.26023179200007, 26.574258592000035], [85.27222222200004, 26.57666666700004], [85.27793498100004, 26.57349716500005], [85.28688034100009, 26.569655659000034]]]]}}, {"type": "Feature", "properties": {"OBJECTID": 6570, "GPCODE": "98404", "GPNAME_1": "BASAHIA SHEKH", "DIST_CEN_C": "03", "BLK_NAME": "PIPRARHI", "ST_NAME": "BIHAR", "ST_CODE_1": "10", "GPCODE2011": "100891", "REMARKS": "FINALIZED", "MAP_STATUS": "COMPLETED", "BLK_C_2001": "030002", "BLK_C_2011": "01059", "DIST_NAME": "SHEOHAR", "code2011": 0.0, "Shape_Leng": 0.08354141181, "Shape_Area": 0.00038772573, "Area": 4.27965}, "geometry": {"type": "MultiPolygon", "coordinates": [[[[85.30652152400006, 26.576423014000056], [85.30651064000006, 26.576287656000034], [85.30640032500008, 26.574915778000047], [85.30652042300005, 26.574274928000023], [85.30673605900006, 26.573972421000065], [85.30709725200006, 26.57371954900003], [85.30769444800006, 26.57361106600007], [85.30843232300003, 26.573719029000074], [85.30967204800004, 26.57394865300006], [85.31149416500006, 26.574512061000064], [85.31196103000008, 26.57462910600003], [85.31216176400005, 26.57458392500007], [85.31225195100006, 26.57430406900005], [85.31212615900006, 26.573798725000074], [85.31133233400004, 26.572147373000064], [85.31080976900006, 26.571019342000056], [85.31079465000005, 26.570861395000065], [85.31086489800003, 26.57084787900004], [85.31102550200006, 26.57086589800008], [85.31117603100006, 26.57095603500005], [85.31130159600008, 26.57095601000003], [85.31136673600008, 26.57087926400004], [85.31136163300005, 26.57069419900006], [85.31091470300004, 26.57025670400003], [85.31001095100004, 26.56946283900004], [85.30941826800006, 26.568497296000032], [85.30900723600007, 26.56765802800004], [85.30894095200006, 26.56752268500003], [85.30888711600005, 26.56738733900005], [85.30765957900007, 26.564301111000077], [85.30552995500005, 26.560407330000032], [85.30496251100004, 26.55977126700003], [85.30429991700004, 26.559311240000056], [85.30327599800006, 26.558828755000036], [85.30173518000004, 26.558278735000044], [85.30001887600008, 26.557909296000048], [85.29837785400008, 26.557783449000055], [85.29798132800005, 26.557616685000028], [85.29764504500008, 26.55730985100007], [85.29725986300008, 26.55654097200005], [85.29597944200003, 26.55779482300005], [85.29510096900003, 26.558200527000054], [85.29361560100006, 26.55831248900006], [85.29156809400007, 26.558410579000054], [85.28972156900005, 26.558247046000076], [85.28906910200004, 26.558427176000066], [85.28853201900006, 26.55858932700005], [85.28800934400005, 26.559640468000055], [85.28729087700003, 26.560813333000056], [85.28699947400008, 26.56134566700007], [85.28751539000007, 26.562636696000027], [85.28766039400006, 26.563376893000054], [85.28780529700003, 26.564117002000046], [85.28861648200007, 26.56654546200008], [85.28811941100008, 26.566811346000065], [85.28704029100004, 26.567040837000036], [85.28581317700008, 26.56713259000003], [85.28688034100009, 26.569655659000034], [85.28827149700004, 26.572638277000067], [85.29036434900007, 26.575914041000033], [85.29045082400006, 26.57604938700007], [85.29057526400004, 26.576184728000044], [85.29219313900006, 26.577944294000076], [85.29341307300007, 26.578823914000054], [85.29397042900007, 26.579314021000073], [85.29412100300004, 26.57944642700005], [85.29427152100004, 26.579338628000073], [85.29461266300007, 26.57909430500007], [85.29570652900009, 26.578380889000073], [85.29668506600007, 26.57798349600006], [85.29859729600008, 26.577829378000047], [85.30053942900008, 26.57752184000003], [85.30242636900005, 26.577074434000053], [85.30416777000005, 26.576744291000068], [85.30549257800004, 26.576405326000042], [85.30637098400007, 26.576420426000027], [85.30652152400006, 26.576423014000056]]]]}}, {"type": "Feature", "properties": {"OBJECTID": 6574, "GPCODE": "98405", "GPNAME_1": "BELAWA", "DIST_CEN_C": "03", "BLK_NAME": "PIPRARHI", "ST_NAME": "BIHAR", "ST_CODE_1": "10", "GPCODE2011": "100892", "REMARKS": "FINALIZED", "MAP_STATUS": "COMPLETED", "BLK_C_2001": "030002", "BLK_C_2011": "01059", "DIST_NAME": "SHEOHAR", "code2011": 0.0, "Shape_Leng": 0.15626002463, "Shape_Area": 0.00093685544, "Area": 10.3376}, "geometry": {"type": "MultiPolygon", "coordinates": [[[[85.29139578400003, 26.62569443900003], [85.29231103100005, 26.62455255100008], [85.29304381100008, 26.623839247000035], [85.29311399600005, 26.623419584000033], [85.29302836700003, 26.62288252700006], [85.29283188200003, 26.62098728600006], [85.29277950300008, 26.619064795000043], [85.29277581500008, 26.618929398000034], [85.29262514600003, 26.61888170800006], [85.29190714500004, 26.618654440000057], [85.29108365800005, 26.61831170000005], [85.29073707500004, 26.617896631000065], [85.29070682500009, 26.617679942000052], [85.29076712400007, 26.61712940600006], [85.29078195500006, 26.616994], [85.29078235500003, 26.616858600000057], [85.29079534800007, 26.61246320500004], [85.29113642900006, 26.611659790000033], [85.29130688500004, 26.611109202000023], [85.29115984600008, 26.607011587000045], [85.29125507900005, 26.60662797200007], [85.29172688200003, 26.60630746000004], [85.29481403900007, 26.605634124000062], [85.29620463100008, 26.60574649700004], [85.29684220300004, 26.605669549000027], [85.29723867700005, 26.60551600200006], [85.29749463700006, 26.605308439000055], [85.29764518100006, 26.60518636100005], [85.29767183500007, 26.605050947000052], [85.29813105000005, 26.602717753000036], [85.29834184800006, 26.602501008000047], [85.29887894300003, 26.602437662000057], [85.30024433400007, 26.602283815000078], [85.30092186000007, 26.601927051000075], [85.29977610500003, 26.599161105000064], [85.29936391800004, 26.597902161000036], [85.29912251400003, 26.596805648000043], [85.29906148800006, 26.59508623200003], [85.29878024500005, 26.594729879000056], [85.29777110400005, 26.594247325000026], [85.29737435900006, 26.59376006900004], [85.29670633300003, 26.59299764700006], [85.29659069400003, 26.592555358000027], [85.29672108700004, 26.592207904000077], [85.29727311200008, 26.591815091000058], [85.29784017800006, 26.59148093400006], [85.29812628600007, 26.591381540000043], [85.29823663000008, 26.591173894000065], [85.29806568700008, 26.59053766100004], [85.29793978300006, 26.589666727000065], [85.29735701500005, 26.58832667100006], [85.29731660200008, 26.587943031000066], [85.29758256100007, 26.587663132000046], [85.29798405700006, 26.587432849000038], [85.29819479200006, 26.58725677500007], [85.29822477700003, 26.586936362000074], [85.29810887100007, 26.585871388000044], [85.29788482600009, 26.584937317000026], [85.29785236000004, 26.584801964000064], [85.29770182400006, 26.58485567100007], [85.29673827100004, 26.58519943500005], [85.29359147900004, 26.58594957300005], [85.29213105400004, 26.586599895000063], [85.29055038500007, 26.587642768000023], [85.28957173000003, 26.588076283000078], [85.28890436100005, 26.588523207000037], [85.28822203100003, 26.589430451000055], [85.28762993100008, 26.590062454000076], [85.28744438600006, 26.590685241000074], [85.28716344900005, 26.591109543000073], [85.28623996800007, 26.591502432000027], [85.28546201300009, 26.591556748000073], [85.28329362900007, 26.591922788000034], [85.28220455300004, 26.59239236800005], [85.28126587900005, 26.59264982800005], [85.28051315200008, 26.59325022400003], [85.27983557800007, 26.59347596200007], [85.27885679400003, 26.59378306900004], [85.27857076900005, 26.594076398000027], [85.27853066700004, 26.594518700000037], [85.27841572700004, 26.596278735000055], [85.27824512800004, 26.596662308000077], [85.27800421200004, 26.59673907000007], [85.27730137300006, 26.59680245800007], [85.27715081000008, 26.596816036000064], [85.27700024800004, 26.596829788000036], [85.27611176700003, 26.596910937000075], [85.27458081900005, 26.597114318000024], [85.27176491700004, 26.598057961000052], [85.27112741600007, 26.598148241000047], [85.27059023400005, 26.598044575000074], [85.26908921800003, 26.597435577000056], [85.26772372600004, 26.597128885000075], [85.26697577000004, 26.597169584000028], [85.26608734100006, 26.597540148000064], [85.26593677700004, 26.59760294700004], [85.26578621200008, 26.597661741000024], [85.26505830000008, 26.597945976000062], [85.26307550400008, 26.59828911200003], [85.26092613800006, 26.59834345300004], [85.26090315900007, 26.598706681000067], [85.26085124000008, 26.60046208700004], [85.26080468800006, 26.601829459000044], [85.26065804500007, 26.602840127000036], [85.26065724200004, 26.603670514000044], [85.26068172500004, 26.604311325000026], [85.26077620600006, 26.60525463600004], [85.26084546700008, 26.60626099600006], [85.26074927400003, 26.607113815000048], [85.26053722900008, 26.608336655000073], [85.26017489300006, 26.609211842000036], [85.25977194800004, 26.610533748000023], [85.25958007200006, 26.61167079100005], [85.25938861900005, 26.61226630400006], [85.25955397100006, 26.612609402000032], [85.26003074100004, 26.612844508000023], [85.26062804300005, 26.61290819100003], [85.26126585000009, 26.612737157000026], [85.26171794000004, 26.61246221500005], [85.26234080500006, 26.61210175700006], [85.26297883100005, 26.611736739000037], [85.26359649700004, 26.61150251300006], [85.26424444800006, 26.61124582700006], [85.26497754900004, 26.611074889000065], [85.26557504600004, 26.611057295000023], [85.26623733500008, 26.61139629200005], [85.26680917000004, 26.611996892000036], [85.26723528700006, 26.61263799900007], [85.26775655800003, 26.61354100400007], [85.26806760400007, 26.613775862000068], [85.26856416400005, 26.614308778000066], [85.26906067800007, 26.614909325000042], [85.26942149100006, 26.615636172000052], [85.26956154800007, 26.616236465000043], [85.26942058100008, 26.616619945000025], [85.26884784900005, 26.617070759000057], [85.26827478400008, 26.617774349000058], [85.26813351800007, 26.618563992000077], [85.26841897100007, 26.619295305000037], [85.26894076800005, 26.61976498200005], [85.26974856800007, 26.62038385900007], [85.27007919700003, 26.621110612000052], [85.27026901900007, 26.62228865000003], [85.27024209600006, 26.622619961000055], [85.27019787900008, 26.62316408500004], [85.26986560200004, 26.62419267200005], [85.27292481600006, 26.62371304900006], [85.27720253400008, 26.62325646900007], [85.27799576700005, 26.62288625900004], [85.27943165600004, 26.622529452000038], [85.28091777500003, 26.622205506000057], [85.28106840100008, 26.622172671000044], [85.28121903500005, 26.622155259000067], [85.28239880500007, 26.62201888100003], [85.28289595000007, 26.622212837000063], [85.28354878500005, 26.622695532000023], [85.28480952700005, 26.624058097000045], [85.28532179800004, 26.624631099000055], [85.28608508500008, 26.62481146700003], [85.28735045400003, 26.625041235000026], [85.28913289100007, 26.625027274000047], [85.28965513700007, 26.625049673000035], [85.29040837600007, 26.625293114000044], [85.29113651300008, 26.62573784400007], [85.29128721600006, 26.625829889000045], [85.29139578400003, 26.62569443900003]]]]}}, {"type": "Feature", "properties": {"OBJECTID": 6578, "GPCODE": "98406", "GPNAME_1": "DHANKAUL", "DIST_CEN_C": "03", "BLK_NAME": "PIPRARHI", "ST_NAME": "BIHAR", "ST_CODE_1": "10", "GPCODE2011": "100893", "REMARKS": "FINALIZED", "MAP_STATUS": "COMPLETED", "BLK_C_2001": "030002", "BLK_C_2011": "01059", "DIST_NAME": "SHEOHAR", "code2011": 0.0, "Shape_Leng": 0.18324708055, "Shape_Area": 0.00070647872, "Area": 7.80102}, "geometry": {"type": "MultiPolygon", "coordinates": [[[[85.36435674700004, 26.528777931000036], [85.36523942300005, 26.528420718000064], [85.36627288100004, 26.52844244700003], [85.36798350700008, 26.528377916000068], [85.37039116600005, 26.527938104000043], [85.37369149100005, 26.527312554000048], [85.37679656700004, 26.527016466000077], [85.37954519100003, 26.52655366500005], [85.38195315800004, 26.526447717000053], [85.38366843800009, 26.52606250900004], [85.38894985900004, 26.525127846000032], [85.39227079400007, 26.524844685000062], [85.39167782300007, 26.52422712500004], [85.39015610300004, 26.522820530000047], [85.39008039000004, 26.52249570600003], [85.39014515900004, 26.52208496800006], [85.39034536900004, 26.521746318000055], [85.39075141800004, 26.52147061200003], [85.39161898100008, 26.521280241000056], [85.39230111500007, 26.52118929100004], [85.39370620100004, 26.521526390000076], [85.39574872700007, 26.522183204000044], [85.39640594200006, 26.52222763900005], [85.39705265800006, 26.521883987000024], [85.39762401100006, 26.521490751000044], [85.39832036400009, 26.520758960000023], [85.39859054300007, 26.520185608000077], [85.39857451300009, 26.51945905300005], [85.39814955700007, 26.516688587000033], [85.39798839100007, 26.516147225000054], [85.39807347600004, 26.516002660000026], [85.398329, 26.515812923000055], [85.39877522300003, 26.515645413000072], [85.40061570900008, 26.51522384900005], [85.40178955100004, 26.51530381200007], [85.40162305800004, 26.514532291000023], [85.40139169600008, 26.51407222100005], [85.40071381900003, 26.51354942300003], [85.39943402300008, 26.51305437900004], [85.39855626700006, 26.513068824000072], [85.39683162000006, 26.513819788000035], [85.39596455900005, 26.51437119800005], [85.39549867700003, 26.514917704000027], [85.39402698100008, 26.51732911000005], [85.39302487500004, 26.518246178000027], [85.38978213900003, 26.52060966600004], [85.38855427900006, 26.521540454000046], [85.38773165800006, 26.52168122300003], [85.38713464500006, 26.521618576000037], [85.38660769000006, 26.521416027000043], [85.38523696100003, 26.520401930000048], [85.38360497800005, 26.51899998500005], [85.38281115400008, 26.51789958200004], [85.38242286300004, 26.516171502000077], [85.38256656600004, 26.514627957000073], [85.38349622500004, 26.511752432000037], [85.38418605300006, 26.509684863000075], [85.38462630100008, 26.50870066600004], [85.38546317100008, 26.508050044000072], [85.38614464100004, 26.507480779000048], [85.38772905800005, 26.50694218600006], [85.38945930900007, 26.506773569000075], [85.39429014500007, 26.50725615300007], [85.39726558900009, 26.508015802000045], [85.39818894200005, 26.50837131000003], [85.39881098700005, 26.508384183000032], [85.39939266900006, 26.508270804000063], [85.39997885800005, 26.50784137900007], [85.40078072200004, 26.50725395300003], [85.40309974000007, 26.50473783500007], [85.40381219100004, 26.503690090000077], [85.40433120900008, 26.502926805000072], [85.40434082000007, 26.502583849000075], [85.40418484900005, 26.502277164000077], [85.40320605100004, 26.501705036000033], [85.40064664700003, 26.500579595000033], [85.40022099400005, 26.50035979100005], [85.39750250300006, 26.499676188000024], [85.39636105200003, 26.50036039200006], [85.39619301200008, 26.500495026000067], [85.39456468000003, 26.50218788600006], [85.39267577900006, 26.503796385000044], [85.39113180800007, 26.504524506000052], [85.39027928900003, 26.50467874800006], [85.38897497200009, 26.504476930000067], [85.38750438800008, 26.503679602000034], [85.38609888000008, 26.50273323600004], [85.38529086600005, 26.502341388000048], [85.38439811900008, 26.502328661000035], [85.38218673000006, 26.50277752200003], [85.38036107500005, 26.502882987000078], [85.37938317900006, 26.502996753000048], [85.37558199000006, 26.503640950000033], [85.37284359400007, 26.503882489000034], [85.37104330400007, 26.50415483300003], [85.37008581400005, 26.504661076000048], [85.36940435500009, 26.505311531000075], [85.36851180500008, 26.505641695000065], [85.36361231300003, 26.506552776000035], [85.36118468800004, 26.506581734000065], [85.36115601600005, 26.508120587000064], [85.36142741300006, 26.508616798000048], [85.36176886100003, 26.509049779000065], [85.36186959000008, 26.509397229000058], [85.36177259500005, 26.51152741800007], [85.36176643100004, 26.51166279100005], [85.36175971900008, 26.511798163000037], [85.36174182100007, 26.512159199000052], [85.36139241700005, 26.513892439000074], [85.36114817300006, 26.515517255000077], [85.36114020300005, 26.517687884000054], [85.36105678900003, 26.51960590400006], [85.36083160300007, 26.520129607000058], [85.36010020500004, 26.521150099000067], [85.35977468800007, 26.52180018200005], [85.35978579600004, 26.522896753000055], [85.36000332300006, 26.524778508000054], [85.36007481000007, 26.526105191000056], [85.35997496200008, 26.526615211000035], [85.35967938400006, 26.52703512100004], [85.35928345900004, 26.527419078000037], [85.35876687700005, 26.52761165800007], [85.35861643700008, 26.527667740000027], [85.35876011700003, 26.527803022000057], [85.36006760500004, 26.52903406400003], [85.36050424800004, 26.529160098000034], [85.36189381200006, 26.529046165000068], [85.36435674700004, 26.528777931000036]]]]}}, {"type": "Feature", "properties": {"OBJECTID": 6583, "GPCODE": "98407", "GPNAME_1": "KAMRAULI", "DIST_CEN_C": "03", "BLK_NAME": "PIPRARHI", "ST_NAME": "BIHAR", "ST_CODE_1": "10", "GPCODE2011": "100894", "REMARKS": "FINALIZED", "MAP_STATUS": "COMPLETED", "BLK_C_2001": "030002", "BLK_C_2011": "01059", "DIST_NAME": "SHEOHAR", "code2011": 0.0, "Shape_Leng": 0.10452693287, "Shape_Area": 0.00046452218, "Area": 5.12999}, "geometry": {"type": "MultiPolygon", "coordinates": [[[[85.32708815200004, 26.515972840000074], [85.32841710600007, 26.515498311000044], [85.32913966400008, 26.51578218700007], [85.32956613300007, 26.515867701000047], [85.33068446400006, 26.51555124600003], [85.33221410000004, 26.51510353200007], [85.33428048900004, 26.514669079000043], [85.33503274400005, 26.514352789000043], [85.33518317400006, 26.51428953800007], [85.33515499100008, 26.514154183000073], [85.33477541600007, 26.51233112700004], [85.33489019700005, 26.51162707900005], [85.33533139100007, 26.51129740400006], [85.33670567100006, 26.511079942000038], [85.33856128200006, 26.510771972000043], [85.33878694600008, 26.51069958100004], [85.33970411100006, 26.50961137300004], [85.34018960400005, 26.50833846200004], [85.34012879800008, 26.507517172000064], [85.33980207400003, 26.506659951000074], [85.33961608300007, 26.506127570000046], [85.33975616600009, 26.50568971200005], [85.34015216100005, 26.505346470000063], [85.34067360100005, 26.505116006000037], [85.34141097200006, 26.505169713000043], [85.34200778100006, 26.505038455000033], [85.34316094900004, 26.504542638000032], [85.34331136300005, 26.504477965000035], [85.34321452300009, 26.504342644000076], [85.34258826700005, 26.503467525000076], [85.34097626200008, 26.501013594000028], [85.34059138100008, 26.500358423000023], [85.34006723400006, 26.499466245000065], [85.33955530400004, 26.498997252000038], [85.33829605800008, 26.498591845000078], [85.33675085500005, 26.497965557000043], [85.33487542900008, 26.497349418000056], [85.33469394200006, 26.49728979200006], [85.33457445000005, 26.497191706000024], [85.33417209300006, 26.496861427000056], [85.33393097000004, 26.496374167000056], [85.33391542900006, 26.49567464200004], [85.33443534700007, 26.493368283000052], [85.33459003700005, 26.492334782000057], [85.33443434500003, 26.492027929000074], [85.33411820700007, 26.49182940000003], [85.33396771600007, 26.491734894000047], [85.33381724200007, 26.491673293000076], [85.33170014700005, 26.49080656500007], [85.33106303200003, 26.490549698000052], [85.33062169800007, 26.490626665000036], [85.33046649500005, 26.490897544000063], [85.33025626300008, 26.491484296000067], [85.32990041800008, 26.49187713400005], [85.32876723400005, 26.49217109600005], [85.32712222400005, 26.492235192000066], [85.32402736500006, 26.491577954000036], [85.32283377000005, 26.491488240000024], [85.32164524200005, 26.491692004000072], [85.32005566500004, 26.491999579000037], [85.31884238500004, 26.492659056000036], [85.31770916800008, 26.493106440000076], [85.31739126900004, 26.493417944000043], [85.31725307200009, 26.493553360000078], [85.31727170700003, 26.493688724000037], [85.31803026600005, 26.499198616000058], [85.31804890400008, 26.499333980000074], [85.31809886600007, 26.499469333000036], [85.31801155500006, 26.500388590000057], [85.31814632400005, 26.501620669000033], [85.31868778900008, 26.502144401000066], [85.31981103700008, 26.50263667400003], [85.32075871400008, 26.503363592000028], [85.32158555100006, 26.504938958000025], [85.32163046400007, 26.505489499000078], [85.32147470100006, 26.505976830000066], [85.32104822400004, 26.506238419000056], [85.32091237400005, 26.507226708000076], [85.32053099300003, 26.507551457000034], [85.32025498800004, 26.507962072000055], [85.32016419700005, 26.509054106000065], [85.32011833600006, 26.51062903600007], [85.32039365800006, 26.511807], [85.32048338300007, 26.512876606000077], [85.32016220000008, 26.513242005000052], [85.31915380200007, 26.51358465100003], [85.31798512100005, 26.513525521000076], [85.31634004800009, 26.513078015000076], [85.31582348400008, 26.512834112000064], [85.31458447500006, 26.512914830000057], [85.31424811100004, 26.51337956900005], [85.31465386700006, 26.514417648000062], [85.31483369400007, 26.515902450000056], [85.31854599300004, 26.516897890000052], [85.32040208200004, 26.517036817000076], [85.32429454000004, 26.51668739400003], [85.32555837700005, 26.516267008000057], [85.32708815200004, 26.515972840000074]]]]}}, {"type": "Feature", "properties": {"OBJECTID": 6588, "GPCODE": "98408", "GPNAME_1": "KUAMA", "DIST_CEN_C": "03", "BLK_NAME": "PIPRARHI", "ST_NAME": "BIHAR", "ST_CODE_1": "10", "GPCODE2011": "100895", "REMARKS": "FINALIZED", "MAP_STATUS": "COMPLETED", "BLK_C_2001": "030002", "BLK_C_2011": "01059", "DIST_NAME": "SHEOHAR", "code2011": 0.0, "Shape_Leng": 0.12948661306, "Shape_Area": 0.00061197498, "Area": 6.75536}, "geometry": {"type": "MultiPolygon", "coordinates": [[[[85.35379955800005, 26.559851696000067], [85.35395007300008, 26.55980266100005], [85.35410066900005, 26.55982743900006], [85.35463263900004, 26.559914966000065], [85.35519952500005, 26.559810737000078], [85.35590665000007, 26.559286779000047], [85.35625761300008, 26.55902024100004], [85.35682465700006, 26.55892952800008], [85.35741699400006, 26.559136747000025], [85.35794385600008, 26.559136299000045], [85.35836526200006, 26.55895550300005], [85.35929351400006, 26.558865463000075], [85.35944406500005, 26.558850859000074], [85.35959448000006, 26.558715360000065], [85.36094317800007, 26.557500367000046], [85.36148481500004, 26.55724725700003], [85.36299984300007, 26.55678569400004], [85.36391800700005, 26.556604526000058], [85.36458538700003, 26.556590408000034], [85.36539327900005, 26.55660331300004], [85.36594525800007, 26.556652498000062], [85.36627130100004, 26.556498782000062], [85.36652685400009, 26.556169139000076], [85.367017, 26.55552677700007], [85.36560755800008, 26.555186079000066], [85.36354941300004, 26.554357422000066], [85.36279631300005, 26.55395631600004], [85.36228404500008, 26.553464876000078], [85.36189164500007, 26.552445255000066], [85.36168889100009, 26.550355988000035], [85.36136403700004, 26.546615109000072], [85.36104165800003, 26.54532013900007], [85.36086045700006, 26.544711068000026], [85.36085017500005, 26.544489918000068], [85.36098556200005, 26.54441313600006], [85.36119137900005, 26.544458083000052], [85.36217028300007, 26.54500790700007], [85.36169726700007, 26.543586683000058], [85.36148108600008, 26.543144638000058], [85.36109954500006, 26.542914757000062], [85.36047726600003, 26.542788914000027], [85.35989514400006, 26.54271258400007], [85.35956889300007, 26.542573015000073], [85.35946831900003, 26.542369955000026], [85.35897456800006, 26.54014099500006], [85.35861768300003, 26.539477932000068], [85.35854697000008, 26.539044707000073], [85.35874203300006, 26.53838115900004], [85.35878665700005, 26.537767391000045], [85.35859034300006, 26.53712220500006], [85.35745485000007, 26.535439736000058], [85.35709841200008, 26.53517374000006], [85.35663178600004, 26.53514709700005], [85.35510170100008, 26.53528805600007], [85.35439443100006, 26.535469146000025], [85.35388266400008, 26.535415327000067], [85.35362159400006, 26.535238070000048], [85.35347103200007, 26.535135843000035], [85.35335234400003, 26.535271274000024], [85.35324547800008, 26.535393218000024], [85.35302005700004, 26.53584015900003], [85.35303541500008, 26.53616963500008], [85.35329183000005, 26.536756085000036], [85.35350293500005, 26.537139513000056], [85.35343299000004, 26.537496107000038], [85.35322250500008, 26.53777606500006], [85.35265586400004, 26.538096817000053], [85.35215955000007, 26.538503323000043], [85.35128270000007, 26.53982172800005], [85.35088697900005, 26.540548625000042], [85.35030534200007, 26.54098224200004], [85.34941270800005, 26.54150635900004], [85.34848991400008, 26.54201919600007], [85.34833947000004, 26.542102804000024], [85.34819410700004, 26.542238244000032], [85.34746217200006, 26.542920217000074], [85.34621829300005, 26.543440020000048], [85.34517976500007, 26.543594185000075], [85.34440209700006, 26.543594687000052], [85.34359412700007, 26.543405637000035], [85.34268606900008, 26.543519075000063], [85.34042862000007, 26.54334448900005], [85.34040321200007, 26.54458105300006], [85.34038272600003, 26.54610180000003], [85.34089927000008, 26.546990983000057], [85.33756705700006, 26.548632834000045], [85.33648798700005, 26.549499017000073], [85.33498226100005, 26.550829812000075], [85.33434973500005, 26.551547216000074], [85.33567347800005, 26.552661999000065], [85.33648182800005, 26.55328873800005], [85.33694867500003, 26.553491567000037], [85.33822834600005, 26.553693836000036], [85.33965379500006, 26.554099096000073], [85.34050712900006, 26.554554406000022], [85.34091904300004, 26.555014460000052], [85.34109015500007, 26.555713796000077], [85.34109107000006, 26.556846565000058], [85.34075167900005, 26.55916634500005], [85.34041806400006, 26.560894954000048], [85.34039192700004, 26.561030381000023], [85.34027278900004, 26.56116588200007], [85.34001082100008, 26.56146382600008], [85.33978045900005, 26.561987466000062], [85.34002181100004, 26.562610049000057], [85.33996690000004, 26.562953140000047], [85.33964112200005, 26.563490339000055], [85.33924503000009, 26.56403214200003], [85.33923561200004, 26.564772228000038], [85.33917631300005, 26.56594559800004], [85.33978965900008, 26.567398326000045], [85.34027286000008, 26.56914001900003], [85.34062059900003, 26.569591011000057], [85.34072494100008, 26.569726334000052], [85.34087562100007, 26.569825985000023], [85.34175439900008, 26.570407155000055], [85.34253750600004, 26.570713563000027], [85.34386781300003, 26.571109791000026], [85.34532341900007, 26.571397656000045], [85.34600627600008, 26.57179433700003], [85.34644831600008, 26.572200155000075], [85.34667079300004, 26.572709922000058], [85.34672986700008, 26.572845278000045], [85.34688049600004, 26.572887671000046], [85.34749793400005, 26.57306144100005], [85.34810550200007, 26.573354306000056], [85.34878800200005, 26.574008228000025], [85.34892920200008, 26.574143513000024], [85.34907976900007, 26.574125305000052], [85.35073077700008, 26.573925634000034], [85.35193472700007, 26.573270440000044], [85.35383576100008, 26.57214988900006], [85.35553106500004, 26.57099788200003], [85.35560103300008, 26.57070442400004], [85.35540458700007, 26.569923893000066], [85.35434795300006, 26.56696874900007], [85.35355801200006, 26.564654245000042], [85.35295943300008, 26.56311133500003], [85.35236975600003, 26.560462682000036], [85.35233961700004, 26.56032730100003], [85.35249013300006, 26.560278268000047], [85.35379955800005, 26.559851696000067]]]]}}, {"type": "Feature", "properties": {"OBJECTID": 6595, "GPCODE": "98409", "GPNAME_1": "MESAUDHA", "DIST_CEN_C": "03", "BLK_NAME": "PIPRARHI", "ST_NAME": "BIHAR", "ST_CODE_1": "10", "GPCODE2011": "100896", "REMARKS": "FINALIZED", "MAP_STATUS": "COMPLETED", "BLK_C_2001": "030002", "BLK_C_2011": "01059", "DIST_NAME": "SHEOHAR", "code2011": 0.0, "Shape_Leng": 0.16944211544, "Shape_Area": 0.0008206345, "Area": 9.05801}, "geometry": {"type": "MultiPolygon", "coordinates": [[[[85.33632662900004, 26.58028457300003], [85.33604436800005, 26.578691740000068], [85.33611452400004, 26.578515707000065], [85.33664634500008, 26.578325462000066], [85.33679688500007, 26.57827160900007], [85.33680670700005, 26.57813619700005], [85.33687643400003, 26.577174955000032], [85.33716163800005, 26.57609172000008], [85.33737641800008, 26.574818927000024], [85.33776710400008, 26.573708537000073], [85.33830823000005, 26.57262513200004], [85.33837818800004, 26.57215573900004], [85.33830159100006, 26.571921160000045], [85.33825738800005, 26.571785790000035], [85.33810679100003, 26.57177193900003], [85.33689224700004, 26.571660232000056], [85.33635022900006, 26.57164704400003], [85.33585308000005, 26.571331416000078], [85.33528550800008, 26.57070448500008], [85.33463769900004, 26.570082124000066], [85.33326221200008, 26.56958650100006], [85.33173119400004, 26.569091008000044], [85.33087785000004, 26.56883874500005], [85.33069759600005, 26.56938946400004], [85.33031651600004, 26.569953733000034], [85.32947879700004, 26.57046415700006], [85.32895686900008, 26.570473450000065], [85.32845977500006, 26.570180434000065], [85.32821857700003, 26.569711233000078], [85.32829324800008, 26.568813141000078], [85.32875940700006, 26.567955469000026], [85.32892949800004, 26.56716556600003], [85.32885893200006, 26.566682737000065], [85.32850229800005, 26.56624976200004], [85.32762382300007, 26.565929781000023], [85.32714171500004, 26.56537951100006], [85.32710142300004, 26.565198955000028], [85.32707122100004, 26.565063605000034], [85.32722172600006, 26.565022360000057], [85.32804462400009, 26.56479685000005], [85.32903774800008, 26.564159950000032], [85.33014147900008, 26.563649398000052], [85.33094915300006, 26.563238268000077], [85.33286048700006, 26.562424874000044], [85.33439087700003, 26.562076535000074], [85.33540944100008, 26.561976595000033], [85.33617738500004, 26.562075397000058], [85.33688483700007, 26.561989268000048], [85.33797360000005, 26.561632109000072], [85.34024139400003, 26.561067838000042], [85.34039192700004, 26.561030381000023], [85.34041806400006, 26.560894954000048], [85.34075167900005, 26.55916634500005], [85.34109107000006, 26.556846565000058], [85.34109015500007, 26.555713796000077], [85.34091904300004, 26.555014460000052], [85.34050712900006, 26.554554406000022], [85.33965379500006, 26.554099096000073], [85.33822834600005, 26.553693836000036], [85.33694867500003, 26.553491567000037], [85.33648182800005, 26.55328873800005], [85.33567347800005, 26.552661999000065], [85.33434973500005, 26.551547216000074], [85.33371724400007, 26.552264569000045], [85.33349627700005, 26.552787975000058], [85.33259335300005, 26.55210177400005], [85.33200627400004, 26.55189851700004], [85.33151457400004, 26.551880289000053], [85.33083701000004, 26.552223043000026], [85.32957764000008, 26.55193840000004], [85.32885499400004, 26.552078021000057], [85.32840851000003, 26.55193797100003], [85.32757088900007, 26.551129889000038], [85.32674326300008, 26.55033535900003], [85.32620648000005, 26.54993353200007], [85.32516798000006, 26.54960830400006], [85.32343690300007, 26.549585077000074], [85.32226764200004, 26.54987797700005], [85.32114344200005, 26.550342431000047], [85.32049108600006, 26.55054523700005], [85.31931663300008, 26.55100963700005], [85.31938580000008, 26.55346005800004], [85.31943067000003, 26.553965577000042], [85.31891382500004, 26.553906663000078], [85.31771937500008, 26.554312372000027], [85.31713721100004, 26.554537718000063], [85.31594295700006, 26.554577894000033], [85.31454311900006, 26.55416658200005], [85.31274666900003, 26.554274193000026], [85.31096511000004, 26.55463443000008], [85.31042816800004, 26.554737944000067], [85.30970553000003, 26.55471505500003], [85.30900812600004, 26.554674100000057], [85.30840588300003, 26.554723503000048], [85.30714122700005, 26.555029733000026], [85.30533939600008, 26.555592949000072], [85.30426038300004, 26.55591734400008], [85.30360798400005, 26.555998242000044], [85.30293568300004, 26.55591665600008], [85.30169639300004, 26.55557313500003], [85.30021124400008, 26.55536924300003], [85.29899188200005, 26.555386673000044], [85.29838956200007, 26.55557131100005], [85.29725986300008, 26.55654097200005], [85.29764504500008, 26.55730985100007], [85.29798132800005, 26.557616685000028], [85.29837785400008, 26.557783449000055], [85.30001887600008, 26.557909296000048], [85.30173518000004, 26.558278735000044], [85.30327599800006, 26.558828755000036], [85.30429991700004, 26.559311240000056], [85.30496251100004, 26.55977126700003], [85.30552995500005, 26.560407330000032], [85.30765957900007, 26.564301111000077], [85.30888711600005, 26.56738733900005], [85.30894095200006, 26.56752268500003], [85.30900723600007, 26.56765802800004], [85.30941826800006, 26.568497296000032], [85.31001095100004, 26.56946283900004], [85.31091470300004, 26.57025670400003], [85.31136163300005, 26.57069419900006], [85.31136673600008, 26.57087926400004], [85.31130159600008, 26.57095601000003], [85.31117603100006, 26.57095603500005], [85.31102550200006, 26.57086589800008], [85.31086489800003, 26.57084787900004], [85.31079465000005, 26.570861395000065], [85.31080976900006, 26.571019342000056], [85.31133233400004, 26.572147373000064], [85.31212615900006, 26.573798725000074], [85.31225195100006, 26.57430406900005], [85.31216176400005, 26.57458392500007], [85.31196103000008, 26.57462910600003], [85.31149416500006, 26.574512061000064], [85.30967204800004, 26.57394865300006], [85.30843232300003, 26.573719029000074], [85.30769444800006, 26.57361106600007], [85.30709725200006, 26.57371954900003], [85.30673605900006, 26.573972421000065], [85.30652042300005, 26.574274928000023], [85.30640032500008, 26.574915778000047], [85.30651064000006, 26.576287656000034], [85.30652152400006, 26.576423014000056], [85.30656386900006, 26.57655836300006], [85.30759726300005, 26.579861337000068], [85.30772284000005, 26.58006891200006], [85.30792367300006, 26.58014547700003], [85.30934397500005, 26.579901247000066], [85.31303765600006, 26.579385194000054], [85.31356467000006, 26.579335294000032], [85.31391596800006, 26.57937573600003], [85.31397439700004, 26.579456986000025], [85.31407171500007, 26.579592312000045], [85.31422228400004, 26.57955945200007], [85.31552202200004, 26.57927578400006], [85.31685697500006, 26.57902241800008], [85.31831751200008, 26.579161661000057], [85.32048107100007, 26.57959383800005], [85.32153009900009, 26.579796350000038], [85.32232813700006, 26.57976886800003], [85.32282005800005, 26.579809297000054], [85.32339238100008, 26.580138421000072], [85.32483389300006, 26.581676498000036], [85.32592904800003, 26.583079474000044], [85.32642612900008, 26.583358969000074], [85.32728950400008, 26.583511900000076], [85.32827325100004, 26.58344093200003], [85.32842383900004, 26.58343006900003], [85.32857437000007, 26.58335708000004], [85.32920656900006, 26.58305054300007], [85.33093292600006, 26.582693102000064], [85.33406461000004, 26.58237539600003], [85.33645371800003, 26.582323021000036], [85.33660431000004, 26.582319718000065], [85.33658583700003, 26.58218432800004], [85.33632662900004, 26.58028457300003]]]]}}, {"type": "Feature", "properties": {"OBJECTID": 6596, "GPCODE": "98410", "GPNAME_1": "MINAPUR BALHA", "DIST_CEN_C": "03", "BLK_NAME": "PIPRARHI", "ST_NAME": "BIHAR", "ST_CODE_1": "10", "GPCODE2011": "100897", "REMARKS": "FINALIZED", "MAP_STATUS": "COMPLETED", "BLK_C_2001": "030002", "BLK_C_2011": "01059", "DIST_NAME": "SHEOHAR", "code2011": 0.0, "Shape_Leng": 0.11396426526, "Shape_Area": 0.00053982359, "Area": 5.95977}, "geometry": {"type": "MultiPolygon", "coordinates": [[[[85.37952702000007, 26.54596347300003], [85.38000267300004, 26.54506949200004], [85.38011722000005, 26.54429770200005], [85.38007592600007, 26.54328233800004], [85.37905926900004, 26.54053489100005], [85.37881751900005, 26.539713773000074], [85.37885741500008, 26.539501665000046], [85.37911281600003, 26.53905917700007], [85.38087668600008, 26.537126039000043], [85.38324737600004, 26.534975815000053], [85.38453083900004, 26.53422998600007], [85.38787035300004, 26.53271943900006], [85.38830660100007, 26.53248890100008], [85.38891293700004, 26.53194228800004], [85.38983519700008, 26.531165131000023], [85.39128887200008, 26.530175402000054], [85.39269204600004, 26.528941962000033], [85.39303252000008, 26.528377524000064], [85.39340301700008, 26.527831099000025], [85.39350267900005, 26.52730302300006], [85.39350219800008, 26.52688330600006], [85.39336574900005, 26.526098233000027], [85.39286828600007, 26.525466950000066], [85.39227079400007, 26.524844685000062], [85.38894985900004, 26.525127846000032], [85.38366843800009, 26.52606250900004], [85.38195315800004, 26.526447717000053], [85.37954519100003, 26.52655366500005], [85.37679656700004, 26.527016466000077], [85.37369149100005, 26.527312554000048], [85.37039116600005, 26.527938104000043], [85.36798350700008, 26.528377916000068], [85.36627288100004, 26.52844244700003], [85.36523942300005, 26.528420718000064], [85.36435674700004, 26.528777931000036], [85.36189381200006, 26.529046165000068], [85.36050424800004, 26.529160098000034], [85.36006760500004, 26.52903406400003], [85.35876011700003, 26.527803022000057], [85.35861643700008, 26.527667740000027], [85.35846599600006, 26.52772311500007], [85.35812496000005, 26.527848643000027], [85.35761332500005, 26.527862563000042], [85.35605291300004, 26.52764714500006], [85.35558632900006, 26.52764746200006], [85.35526035700008, 26.527765086000045], [85.35476403200005, 26.528158078000047], [85.35401230100007, 26.529038611000033], [85.35342088200008, 26.52967982200005], [85.35306489100003, 26.529842547000044], [85.35277887500007, 26.52986052600005], [85.35262839700005, 26.52986998600005], [85.35265308900006, 26.530005338000024], [85.35307206100003, 26.53230204500005], [85.35343950400005, 26.533642067000073], [85.35348545600004, 26.534436328000027], [85.35347382300006, 26.53500047500006], [85.35347103200007, 26.535135843000035], [85.35362159400006, 26.535238070000048], [85.35388266400008, 26.535415327000067], [85.35439443100006, 26.535469146000025], [85.35510170100008, 26.53528805600007], [85.35663178600004, 26.53514709700005], [85.35709841200008, 26.53517374000006], [85.35745485000007, 26.535439736000058], [85.35859034300006, 26.53712220500006], [85.35878665700005, 26.537767391000045], [85.35874203300006, 26.53838115900004], [85.35854697000008, 26.539044707000073], [85.35861768300003, 26.539477932000068], [85.35897456800006, 26.54014099500006], [85.35946831900003, 26.542369955000026], [85.35956889300007, 26.542573015000073], [85.35989514400006, 26.54271258400007], [85.36047726600003, 26.542788914000027], [85.36109954500006, 26.542914757000062], [85.36148108600008, 26.543144638000058], [85.36169726700007, 26.543586683000058], [85.36217028300007, 26.54500790700007], [85.36280799000008, 26.545418030000064], [85.36337494800006, 26.545471771000052], [85.36411756300004, 26.545425996000063], [85.36506561100003, 26.545213149000062], [85.36534160000008, 26.54519485800006], [85.36556748100008, 26.545307579000053], [85.36576855400006, 26.545641363000072], [85.36660810000006, 26.547202036000044], [85.36742170100007, 26.547928012000057], [85.36872258600005, 26.549190528000054], [85.36961688000008, 26.550317988000074], [85.37007394500006, 26.550728202000073], [85.37051057500008, 26.550818136000032], [85.37099717800004, 26.550718441000072], [85.37181488700008, 26.550510117000044], [85.37250687900007, 26.550080828000034], [85.37296285000008, 26.549502824000058], [85.37382945500008, 26.548134686000026], [85.37432564200003, 26.547583640000028], [85.37484719400004, 26.547353071000032], [85.37587555300007, 26.54714007000007], [85.37799785900006, 26.54695768600004], [85.37849436700003, 26.546821829000066], [85.37901583300004, 26.54650999100005], [85.37952702000007, 26.54596347300003]]]]}}, {"type": "Feature", "properties": {"OBJECTID": 6598, "GPCODE": "98411", "GPNAME_1": "MOHAN PUR", "DIST_CEN_C": "03", "BLK_NAME": "PIPRARHI", "ST_NAME": "BIHAR", "ST_CODE_1": "10", "GPCODE2011": "100898", "REMARKS": "FINALIZED", "MAP_STATUS": "COMPLETED", "BLK_C_2001": "030002", "BLK_C_2011": "01059", "DIST_NAME": "SHEOHAR", "code2011": 0.0, "Shape_Leng": 0.15519053621, "Shape_Area": 0.00058544622, "Area": 6.46169}, "geometry": {"type": "MultiPolygon", "coordinates": [[[[85.37931647700003, 26.581614944000023], [85.37979735600004, 26.580730020000033], [85.38009313100008, 26.58040487100004], [85.38116649000006, 26.57979010300005], [85.38217479000008, 26.57937853900006], [85.38310232100008, 26.57846601500006], [85.38415519700004, 26.577558010000075], [85.38629632200008, 26.575917809000032], [85.38658193700007, 26.57555655300007], [85.38682233900005, 26.575077960000044], [85.38712204600006, 26.57392234100007], [85.38776289000003, 26.57263554000008], [85.38870391200004, 26.57056330000006], [85.38883389300008, 26.570116382000037], [85.38895893900008, 26.569750706000036], [85.38894864800005, 26.569588272000033], [85.38829992000007, 26.56846969000003], [85.38701900200005, 26.56750067400003], [85.38610432600007, 26.566391415000055], [85.38537558500008, 26.565503054000033], [85.38489815200006, 26.564948466000033], [85.38446134800006, 26.56471870300004], [85.38386389300007, 26.564489123000044], [85.38360775300004, 26.564385568000034], [85.38334182800008, 26.564376765000077], [85.38283517900004, 26.564530741000056], [85.38203771700006, 26.564933050000036], [85.38146634500004, 26.565642121000053], [85.38047956400004, 26.567190906000064], [85.37953321000003, 26.56912331600006], [85.37895676700003, 26.569733072000076], [85.37814923600007, 26.570099355000025], [85.37770252900003, 26.570072639000045], [85.37711013200004, 26.56992871800003], [85.37671349100003, 26.56975313600003], [85.37637182300006, 26.569428523000056], [85.37605493800004, 26.568778954000038], [85.37611941900008, 26.56810193900003], [85.37656016800008, 26.56724866600007], [85.37706064600007, 26.56601162900006], [85.37707005300007, 26.565447574000075], [85.37699522000008, 26.565221833000066], [85.37691900100003, 26.56499190900007], [85.37557699000007, 26.563111200000037], [85.37439087300004, 26.561437977000026], [85.37411413500007, 26.56075233000007], [85.37384685900008, 26.55959271300003], [85.37328173800006, 26.556709500000068], [85.37325090600007, 26.55601909300003], [85.37337610000003, 26.55578878700004], [85.37386243000003, 26.55547247000004], [85.37437410100006, 26.555273532000058], [85.37505660200009, 26.555299985000033], [85.37549329600006, 26.555444013000056], [85.37617133100008, 26.556025609000073], [85.37720598800007, 26.55680992500004], [85.37811972600008, 26.557233237000048], [85.37869727900005, 26.557679501000052], [85.37940070900004, 26.558477663000076], [85.38019044700007, 26.560083491000057], [85.38099529500005, 26.561851768000054], [85.38128761100006, 26.56290302800005], [85.38138310400007, 26.56300216900007], [85.38160897600005, 26.563096737000023], [85.38196031500007, 26.563114480000024], [85.38218105000004, 26.56303760000003], [85.38237144100003, 26.562762073000044], [85.38256640400004, 26.562175258000025], [85.38249017900006, 26.561308901000075], [85.38188105500006, 26.559684823000055], [85.38053887900008, 26.557641730000057], [85.37959893800007, 26.556216548000066], [85.37815170300007, 26.554439768000066], [85.37754898900005, 26.553925899000035], [85.37672059100004, 26.55354299700008], [85.37468793100004, 26.553188268000042], [85.37351875600007, 26.55311262500004], [85.37270586200003, 26.553208062000067], [85.37210908700007, 26.553506447000075], [85.37147750300005, 26.55412525500003], [85.37041508100003, 26.555461895000064], [85.36994386500004, 26.555854891000024], [85.36965787600008, 26.55589129200007], [85.36877957400003, 26.555815302000042], [85.36758011200004, 26.555662893000033], [85.367017, 26.55552677700007], [85.36652685400009, 26.556169139000076], [85.36627130100004, 26.556498782000062], [85.36594525800007, 26.556652498000062], [85.36539327900005, 26.55660331300004], [85.36458538700003, 26.556590408000034], [85.36391800700005, 26.556604526000058], [85.36299984300007, 26.55678569400004], [85.36148481500004, 26.55724725700003], [85.36094317800007, 26.557500367000046], [85.35959448000006, 26.558715360000065], [85.35944406500005, 26.558850859000074], [85.35929351400006, 26.558865463000075], [85.35836526200006, 26.55895550300005], [85.35794385600008, 26.559136299000045], [85.35741699400006, 26.559136747000025], [85.35682465700006, 26.55892952800008], [85.35625761300008, 26.55902024100004], [85.35590665000007, 26.559286779000047], [85.35519952500005, 26.559810737000078], [85.35463263900004, 26.559914966000065], [85.35410066900005, 26.55982743900006], [85.35395007300008, 26.55980266100005], [85.35379955800005, 26.559851696000067], [85.35249013300006, 26.560278268000047], [85.35233961700004, 26.56032730100003], [85.35236975600003, 26.560462682000036], [85.35295943300008, 26.56311133500003], [85.35355801200006, 26.564654245000042], [85.35434795300006, 26.56696874900007], [85.35540458700007, 26.569923893000066], [85.35560103300008, 26.57070442400004], [85.35553106500004, 26.57099788200003], [85.35383576100008, 26.57214988900006], [85.35193472700007, 26.573270440000044], [85.35073077700008, 26.573925634000034], [85.34907976900007, 26.574125305000052], [85.34892920200008, 26.574143513000024], [85.34898686900004, 26.574278870000057], [85.34966343500008, 26.575866845000064], [85.34994988300008, 26.576196159000062], [85.35035647700005, 26.57625901700004], [85.35086825600007, 26.576195432000077], [85.35193201100003, 26.575811155000054], [85.35325163500005, 26.57548070000007], [85.35430506600005, 26.574920354000028], [85.35447571200007, 26.574870626000063], [85.35510330500006, 26.575149989000067], [85.35612259900006, 26.57564564100005], [85.35647888300008, 26.575595728000053], [85.35737206600004, 26.575464140000065], [85.35869212500006, 26.57552637300006], [85.35958504600006, 26.575074362000066], [85.36074414300003, 26.574757618000035], [85.36128609200006, 26.574730050000028], [85.36222983500005, 26.57490083600004], [85.36307302100005, 26.574922763000075], [85.36374535800007, 26.57485926800007], [85.36442290600007, 26.574795281000036], [85.36492489500006, 26.574853545000053], [85.36527644500006, 26.575051865000034], [85.36565800400007, 26.575241059000064], [85.36619005100005, 26.575240592000057], [85.36691780300004, 26.575262588000044], [85.36798196400008, 26.575482862000058], [85.36866462600005, 26.575595105000048], [85.36922714000008, 26.575883452000028], [85.36981448200004, 26.576081501000033], [85.37072781300003, 26.57598595500008], [85.37140030100005, 26.57594025700007], [85.37171660200005, 26.576052811000068], [85.37196277300006, 26.576246724000043], [85.37203332300004, 26.57651291600007], [85.37213919000004, 26.576950530000033], [85.37237025500008, 26.577130881000073], [85.37318863000007, 26.57738283200007], [85.37370062000008, 26.577490693000072], [85.37391662000005, 26.577643953000063], [85.37409765700005, 26.577995798000075], [85.37446013400006, 26.579019895000044], [85.37536882400008, 26.579190609000023], [85.37561490300004, 26.579312191000042], [85.37607265600008, 26.580236942000056], [85.37670136100007, 26.58146842000008], [85.37800163500003, 26.581778617000055], [85.37931647700003, 26.581614944000023]]]]}}, {"type": "Feature", "properties": {"OBJECTID": 6602, "GPCODE": "98412", "GPNAME_1": "PARSAUNI BAIJ", "DIST_CEN_C": "03", "BLK_NAME": "PIPRARHI", "ST_NAME": "BIHAR", "ST_CODE_1": "10", "GPCODE2011": "100899", "REMARKS": "FINALIZED", "MAP_STATUS": "COMPLETED", "BLK_C_2001": "030002", "BLK_C_2011": "01059", "DIST_NAME": "SHEOHAR", "code2011": 0.0, "Shape_Leng": 0.1883774833, "Shape_Area": 0.00121794579, "Area": 13.4481}, "geometry": {"type": "MultiPolygon", "coordinates": [[[[85.34621829300005, 26.543440020000048], [85.34746217200006, 26.542920217000074], [85.34819410700004, 26.542238244000032], [85.34833947000004, 26.542102804000024], [85.34848991400008, 26.54201919600007], [85.34941270800005, 26.54150635900004], [85.35030534200007, 26.54098224200004], [85.35088697900005, 26.540548625000042], [85.35128270000007, 26.53982172800005], [85.35215955000007, 26.538503323000043], [85.35265586400004, 26.538096817000053], [85.35322250500008, 26.53777606500006], [85.35343299000004, 26.537496107000038], [85.35350293500005, 26.537139513000056], [85.35329183000005, 26.536756085000036], [85.35303541500008, 26.53616963500008], [85.35302005700004, 26.53584015900003], [85.35324547800008, 26.535393218000024], [85.35335234400003, 26.535271274000024], [85.35347103200007, 26.535135843000035], [85.35347382300006, 26.53500047500006], [85.35348545600004, 26.534436328000027], [85.35343950400005, 26.533642067000073], [85.35307206100003, 26.53230204500005], [85.35265308900006, 26.530005338000024], [85.35262839700005, 26.52986998600005], [85.35277887500007, 26.52986052600005], [85.35306489100003, 26.529842547000044], [85.35342088200008, 26.52967982200005], [85.35401230100007, 26.529038611000033], [85.35476403200005, 26.528158078000047], [85.35526035700008, 26.527765086000045], [85.35558632900006, 26.52764746200006], [85.35605291300004, 26.52764714500006], [85.35761332500005, 26.527862563000042], [85.35812496000005, 26.527848643000027], [85.35846599600006, 26.52772311500007], [85.35861643700008, 26.527667740000027], [85.35876687700005, 26.52761165800007], [85.35928345900004, 26.527419078000037], [85.35967938400006, 26.52703512100004], [85.35997496200008, 26.526615211000035], [85.36007481000007, 26.526105191000056], [85.36000332300006, 26.524778508000054], [85.35978579600004, 26.522896753000055], [85.35977468800007, 26.52180018200005], [85.36010020500004, 26.521150099000067], [85.36083160300007, 26.520129607000058], [85.36105678900003, 26.51960590400006], [85.36114020300005, 26.517687884000054], [85.36114817300006, 26.515517255000077], [85.36139241700005, 26.513892439000074], [85.36174182100007, 26.512159199000052], [85.36175971900008, 26.511798163000037], [85.36176643100004, 26.51166279100005], [85.36177259500005, 26.51152741800007], [85.36186959000008, 26.509397229000058], [85.36176886100003, 26.509049779000065], [85.36142741300006, 26.508616798000048], [85.36115601600005, 26.508120587000064], [85.36118468800004, 26.506581734000065], [85.35948438000008, 26.506713950000062], [85.35881711000007, 26.506506818000048], [85.35835014500003, 26.50605134700004], [85.35790819300007, 26.505410871000038], [85.35737025800006, 26.504147707000072], [85.35685838200004, 26.503868252000075], [85.35616132900003, 26.503909407000037], [85.35411549200006, 26.50456073500004], [85.35306752300005, 26.504931557000077], [85.35133729200004, 26.505185539000024], [85.34632641100006, 26.505049117000056], [85.34434013100008, 26.505050409000035], [85.34385847200008, 26.50496047000007], [85.34346190000008, 26.504610727000056], [85.34331136300005, 26.504477965000035], [85.34316094900004, 26.504542638000032], [85.34200778100006, 26.505038455000033], [85.34141097200006, 26.505169713000043], [85.34067360100005, 26.505116006000037], [85.34015216100005, 26.505346470000063], [85.33975616600009, 26.50568971200005], [85.33961608300007, 26.506127570000046], [85.33980207400003, 26.506659951000074], [85.34012879800008, 26.507517172000064], [85.34018960400005, 26.50833846200004], [85.33970411100006, 26.50961137300004], [85.33878694600008, 26.51069958100004], [85.33856128200006, 26.510771972000043], [85.33670567100006, 26.511079942000038], [85.33533139100007, 26.51129740400006], [85.33489019700005, 26.51162707900005], [85.33477541600007, 26.51233112700004], [85.33515499100008, 26.514154183000073], [85.33518317400006, 26.51428953800007], [85.33503274400005, 26.514352789000043], [85.33428048900004, 26.514669079000043], [85.33221410000004, 26.51510353200007], [85.33068446400006, 26.51555124600003], [85.32956613300007, 26.515867701000047], [85.32913966400008, 26.51578218700007], [85.32841710600007, 26.515498311000044], [85.32708815200004, 26.515972840000074], [85.32555837700005, 26.516267008000057], [85.32429454000004, 26.51668739400003], [85.32040208200004, 26.517036817000076], [85.31854599300004, 26.516897890000052], [85.31483369400007, 26.515902450000056], [85.31489833100005, 26.517057753000074], [85.31442629800006, 26.51813161000007], [85.31445074500004, 26.519282385000054], [85.31458042500003, 26.52074458900006], [85.31426924600004, 26.52110549200006], [85.31373228900009, 26.521407615000044], [85.31364175200008, 26.521831794000036], [85.31370661600005, 26.52258548700007], [85.31411273600008, 26.52300983300006], [85.31674139200004, 26.522920678000048], [85.31919467500006, 26.522718633000068], [85.32031819600007, 26.523061993000056], [85.32056859200009, 26.52405499200006], [85.32052261200005, 26.525819477000027], [85.32076791400004, 26.526929703000064], [85.32099305800006, 26.528166318000046], [85.32164486500005, 26.529078122000044], [85.32256755600008, 26.529845716000068], [85.32254671200008, 26.531750044000034], [85.32270183200006, 26.532607591000044], [85.32252096500008, 26.533036223000067], [85.32094530000006, 26.533847966000053], [85.31988622700004, 26.53479526900003], [85.31840112600008, 26.535038327000052], [85.31650978900007, 26.53475323400005], [85.31444262000008, 26.535036723000076], [85.31317804100007, 26.53556414700006], [85.31293153200005, 26.536755478000032], [85.31288509400008, 26.539165312000023], [85.31412456000004, 26.538904052000078], [85.31466661200005, 26.538538725000024], [85.31592588800004, 26.53862048600007], [85.31716497700006, 26.538986539000064], [85.31777216000006, 26.538783712000054], [85.31848974200005, 26.538517778000028], [85.31896649700008, 26.53821557300006], [85.32040175800006, 26.53758890100005], [85.32179663500006, 26.537287052000067], [85.32215782800006, 26.537368456000024], [85.32379797200008, 26.538479194000047], [85.32512741100004, 26.538723309000034], [85.32566427800003, 26.538804713000047], [85.32463547000003, 26.539476783000055], [85.32411848000004, 26.53988279500004], [85.32399786100007, 26.54040618600004], [85.32449945300004, 26.54069971100006], [85.32670171000007, 26.54161213200007], [85.32841275300007, 26.541125269000077], [85.32901986500008, 26.541066787000034], [85.33034399600007, 26.54226311800005], [85.33075031200008, 26.542506952000053], [85.33189934400008, 26.542588566000063], [85.33223560400006, 26.542159880000042], [85.33230140700005, 26.540481148000026], [85.33302939800006, 26.539204276000078], [85.33354151100008, 26.538112268000077], [85.33412868600004, 26.537886868000044], [85.33478077200004, 26.53809011100003], [85.33592461500007, 26.538595826000062], [85.33644124000006, 26.538961501000074], [85.33656112000006, 26.54066289800005], [85.33673660000005, 26.541105166000023], [85.33792569600007, 26.541069420000042], [85.33862814600008, 26.541015472000026], [85.33928030400006, 26.541299951000042], [85.34020319400008, 26.542193689000044], [85.34042862000007, 26.54334448900005], [85.34268606900008, 26.543519075000063], [85.34359412700007, 26.543405637000035], [85.34440209700006, 26.543594687000052], [85.34517976500007, 26.543594185000075], [85.34621829300005, 26.543440020000048]]]]}}]}