{"type": "FeatureCollection", "features": [{"type": "Feature", "properties": {"OBJECTID": 6700, "GPCODE": "98515", "GPNAME_1": "BARRI BEHTA", "DIST_CEN_C": "04", "BLK_NAME": "CHARAUT", "ST_NAME": "BIHAR", "ST_CODE_1": "10", "GPCODE2011": "101002", "REMARKS": "FINALIZED", "MAP_STATUS": "COMPLETED", "BLK_C_2001": "040014", "BLK_C_2011": "01076", "DIST_NAME": "SITAMARHI", "code2011": 0.0, "Shape_Leng": 0.2062911523, "Shape_Area": 0.00099752898, "Area": 11.0157}, "geometry": {"type": "MultiPolygon", "coordinates": [[[[85.75466606700007, 26.490682357000026], [85.75545668000007, 26.49059017700006], [85.75553780400008, 26.490612933000023], [85.75615447500007, 26.490546229000074], [85.75721372400005, 26.490238823000027], [85.75824098300006, 26.490214166000044], [85.75915325800008, 26.49049863500005], [85.75928667500006, 26.48930424200006], [85.76081023100005, 26.488678596000057], [85.76181793800004, 26.48860275000004], [85.76433486000008, 26.48846284600006], [85.76684708500005, 26.48838161200007], [85.76866248300007, 26.488356950000025], [85.76979598900004, 26.488384377000045], [85.77001091700004, 26.488221182000075], [85.77032105200004, 26.488062115000048], [85.77023425300007, 26.48770139100003], [85.77016206700006, 26.48728195900003], [85.77005426300008, 26.48672274300003], [85.77019381000008, 26.48652818000005], [85.77110010000007, 26.486206768000045], [85.77200638600004, 26.485885351000036], [85.77311298400008, 26.485511255000063], [85.77334325700008, 26.485429128000078], [85.77343737900009, 26.485176043000024], [85.77342848200004, 26.484323161000077], [85.77305811800005, 26.482266751000054], [85.77294702500006, 26.482095697000034], [85.77263616000005, 26.48211489600004], [85.77183361600004, 26.482068198000036], [85.77157253100006, 26.48200143400004], [85.77150642700008, 26.481803133000028], [85.77135875400006, 26.481302726000024], [85.77101831900006, 26.48032014300003], [85.77069314200008, 26.47938724900007], [85.77082308600006, 26.47927394100003], [85.77102339600003, 26.479219061000038], [85.77144394800007, 26.479068620000078], [85.77237054600005, 26.47881704200006], [85.77322209200008, 26.478606333000073], [85.77339158500007, 26.47839814300005], [85.77344507300006, 26.478018803000055], [85.77369047100007, 26.477950199000077], [85.77417124800007, 26.47781308200007], [85.77416995400006, 26.47753332600007], [85.77424446200007, 26.477379631000076], [85.77474037000007, 26.47725143400004], [85.77531132700005, 26.47710040100003], [85.77577695600007, 26.476931716000024], [85.77655430700008, 26.47694692500005], [85.77696972700005, 26.47677843300005], [85.77760603200005, 26.476667778000035], [85.77804616800006, 26.476404397000067], [85.77889670900004, 26.47598604800004], [85.77949292600005, 26.475875577000068], [85.77958899600003, 26.476055742000028], [85.77972568800004, 26.476335007000046], [85.77991259100008, 26.476627605000033], [85.78015875000006, 26.476726016000043], [85.78046937900007, 26.47665710800004], [85.78093533600008, 26.47658770700008], [85.78166650100007, 26.47637744000008], [85.78230268100003, 26.476221578000036], [85.78268792300008, 26.476044153000032], [85.78323381200005, 26.475888678000047], [85.78336985100003, 26.47601453200008], [85.78354196200007, 26.476379464000047], [85.78388715700004, 26.47728518200006], [85.78425664700006, 26.478028468000048], [85.78436863300004, 26.47838908600005], [85.78456915000004, 26.47836575100007], [85.78510513400005, 26.478237328000034], [85.78604650700004, 26.477931462000072], [85.78714898600003, 26.47779193300005], [85.78817217800008, 26.477833244000067], [85.78895086300008, 26.478128147000064], [85.78911742400004, 26.478366722000032], [85.78922986500004, 26.47882203000006], [85.78881924700005, 26.478945461000023], [85.78888235800008, 26.479558971000074], [85.78942012000005, 26.479818605000048], [85.78945295500006, 26.480405162000068], [85.78898766500004, 26.48064161700006], [85.78873980900005, 26.481269760000032], [85.78895235200008, 26.481679670000062], [85.78879768800005, 26.481833668000036], [85.78859315400007, 26.482073637000042], [85.78862398900003, 26.48222694100008], [85.78890578900007, 26.482433456000024], [85.78933812500009, 26.48265750400003], [85.78983570900004, 26.48289929300006], [85.79069415900005, 26.48310812300008], [85.79168721800005, 26.483122455000057], [85.79236907400008, 26.483088198000075], [85.79285475000006, 26.482923967000033], [85.79330011600007, 26.48272818500004], [85.79373512200004, 26.482451237000078], [85.79410521300008, 26.48222869400007], [85.79455959500007, 26.481820880000043], [85.79488425600005, 26.481544332000055], [85.79525322600006, 26.48109614300006], [85.79578308700007, 26.48074213500007], [85.79613391400005, 26.480691128000046], [85.79674093900007, 26.480729482000072], [85.79767374400006, 26.480743890000042], [85.79858572500007, 26.480591550000042], [85.79929650700007, 26.48033151800007], [85.79995228900003, 26.480094414000064], [85.80057411100006, 26.480078453000033], [85.80094065400004, 26.480189857000028], [85.80108217800006, 26.48041489700006], [85.80128440400006, 26.480766177000078], [85.80146600900008, 26.48097307100005], [85.80170729200006, 26.48109841400003], [85.80218997600008, 26.481367317000036], [85.80240609700007, 26.481465795000076], [85.80267243100008, 26.481573087000072], [85.80319942200003, 26.48167485500005], [85.80351072900004, 26.48174577900005], [85.80374599600003, 26.481672717000038], [85.80393034400004, 26.481405771000027], [85.80403886800008, 26.481044259000043], [85.80396110700008, 26.480521128000078], [85.80339860000004, 26.480338303000053], [85.80340179400008, 26.47996366900003], [85.80377254200005, 26.479876562000072], [85.80392762600007, 26.47979469200004], [85.80392615800008, 26.479501411000058], [85.80417575500007, 26.479265732000044], [85.80451439500007, 26.478768021000064], [85.80515182400006, 26.478891917000055], [85.80562539200008, 26.47933685600003], [85.80604157800008, 26.479335221000042], [85.80642701300008, 26.479184790000033], [85.80623833700008, 26.478544740000075], [85.80613653200004, 26.47822020600006], [85.80591472000003, 26.47798185700003], [85.80597711600007, 26.47739949700008], [85.80593623900006, 26.477246200000025], [85.80565351800004, 26.47685925500008], [85.80511026300007, 26.476504801000033], [85.80525418800005, 26.476192871000023], [85.80548362500008, 26.475939252000046], [85.80630662800007, 26.476053405000073], [85.80665710800008, 26.475952776000042], [85.80696818900003, 26.47599222300005], [85.80763462100003, 26.475872227000025], [85.80832748800003, 26.476054523000073], [85.80877556100006, 26.47642741100003], [85.80907104100004, 26.476358547000075], [85.80925606600005, 26.476249512000038], [85.80950598400005, 26.47606802400003], [85.80941248800008, 26.47541404100008], [85.80969212800005, 26.47517373900007], [85.81012263600007, 26.47501858700008], [85.81060179900004, 26.475594372000046], [85.81122043400006, 26.475966533000076], [85.81184063500007, 26.475643627000068], [85.81201142900005, 26.475697110000056], [85.81222685900008, 26.475655697000036], [85.81238181700007, 26.475546763000068], [85.81244942200004, 26.475013999000055], [85.81235239200004, 26.47465339300004], [85.81222985900007, 26.474216144000025], [85.81235383700005, 26.473926853000023], [85.81258676700008, 26.473366317000057], [85.81277029600005, 26.472963995000043], [85.81268200500006, 26.47231902300007], [85.81247200100006, 26.471426284000074], [85.81242494700007, 26.471020285000066], [85.81231335100006, 26.470758981000074], [85.81214769700006, 26.470737154000062], [85.81191177400007, 26.47068388100007], [85.81169054000009, 26.470562871000027], [85.81154456000007, 26.47043262300008], [85.81142351900007, 26.470288654000058], [85.81129189500007, 26.47004548900003], [85.81127059100004, 26.469783868000036], [85.81124928400004, 26.469517737000047], [85.81129823400005, 26.469278358000054], [85.81142243400006, 26.46902964900005], [85.81154676200003, 26.46883054600005], [85.81166629800003, 26.468654079000032], [85.81176580500005, 26.468500262000077], [85.81118331000005, 26.46833560300007], [85.81087259100008, 26.46836389400005], [85.81060195600008, 26.468392077000033], [85.80945450200005, 26.468545504000076], [85.80743582600007, 26.46899109700007], [85.80608752100005, 26.46910013300004], [85.80577588900007, 26.468934424000054], [85.80562389100004, 26.46861460200006], [85.80537579800006, 26.468123650000052], [85.80468593800003, 26.466461098000025], [85.80450069900007, 26.465469034000023], [85.80428506700008, 26.464422872000057], [85.80424967200008, 26.463317465000046], [85.80417445500007, 26.459138938000024], [85.80416751400008, 26.45873733600007], [85.80362217200008, 26.458978562000027], [85.80312248300004, 26.459332501000063], [85.80274848100004, 26.45975817200008], [85.80242445700009, 26.460147565000057], [85.80238460200007, 26.460197274000052], [85.80204750900003, 26.459972949000075], [85.80134346700004, 26.459515371000066], [85.80092064900003, 26.459174107000024], [85.80032807100008, 26.458982262000063], [85.79986652400004, 26.458911839000052], [85.79940065700004, 26.459008450000056], [85.79890472600005, 26.459105068000042], [85.79842371300003, 26.45917462400007], [85.79791229400007, 26.459158509000076], [85.79747547100004, 26.459038381000028], [85.79696282300006, 26.45877406900007], [85.79636935300005, 26.458379196000067], [85.79565921800008, 26.45769603800005], [85.79501889400007, 26.45695837900007], [85.79443377800004, 26.456197962000033], [85.79382741400008, 26.455207487000052], [85.79337923500003, 26.454775926000025], [85.79303804300008, 26.45471851600007], [85.79241188300006, 26.454829233000055], [85.79141626500007, 26.45528884500004], [85.78692428000005, 26.457507984000074], [85.78600942100007, 26.458066463000023], [85.78506406800005, 26.458566420000068], [85.78341488000007, 26.45970981000005], [85.78247037900007, 26.460399233000032], [85.78167015900004, 26.460830938000072], [85.78058504700005, 26.46147133200003], [85.77971500100006, 26.46197546600007], [85.77960587700005, 26.462228563000053], [85.77960674800005, 26.462422556000035], [85.77892108000003, 26.462700446000042], [85.77829976900006, 26.462797487000046], [85.77757336400003, 26.462935591000075], [85.77707740000005, 26.463032140000053], [85.77670646100006, 26.463047032000077], [85.77648516400006, 26.462894406000032], [85.77628729600008, 26.462394284000027], [85.77615944900003, 26.461844175000067], [85.77585504800004, 26.46215215600006], [85.77540864000008, 26.46211313400005], [85.77479342100008, 26.46244482700007], [85.77462078500008, 26.463068247000024], [85.77410597600004, 26.46344473700003], [85.77349348500007, 26.463266412000053], [85.77285800300007, 26.46355310000007], [85.77283031400003, 26.464081152000063], [85.77223490400007, 26.464363137000078], [85.77177260300004, 26.464139226000043], [85.77110203900008, 26.464434932000074], [85.77093396100008, 26.464959049000072], [85.77039375800007, 26.465254361000063], [85.76977636600003, 26.46511219100006], [85.76906049000007, 26.46536298500007], [85.76889240300005, 26.46589161000003], [85.76821681500007, 26.466182885000023], [85.76739007000003, 26.46630770400003], [85.76700643900006, 26.466850622000038], [85.76722890800005, 26.467278513000053], [85.76673452300008, 26.467722610000067], [85.76611712300007, 26.467584936000037], [85.76568349000007, 26.468168625000033], [85.76618171800004, 26.468559480000067], [85.76626987500003, 26.469227027000045], [85.76577547500005, 26.46967102800005], [85.76546761500003, 26.470340005000025], [85.76540472300007, 26.47086824400003], [85.76472377300007, 26.471087355000066], [85.76435548500007, 26.47058779500003], [85.76355301100006, 26.470531942000036], [85.76320880300005, 26.47094840400007], [85.76243787300007, 26.471226411000032], [85.76215007200005, 26.47078969200004], [85.76154321200005, 26.47076031200004], [85.76103164700004, 26.47072153000005], [85.76044024000004, 26.470786839000027], [85.75995425500008, 26.470887842000025], [85.75977787900007, 26.47343657700003], [85.75992897300006, 26.47372868900004], [85.75980208100003, 26.47524332300003], [85.76015891200007, 26.476941473000068], [85.76087182200007, 26.47847551900003], [85.76015117900005, 26.479231859000038], [85.75940540500005, 26.479435470000055], [85.75785281800006, 26.47911511800004], [85.75631850400003, 26.479196732000048], [85.75620501200007, 26.47925312700005], [85.75635152000007, 26.47921050700006], [85.75547130900009, 26.479865247000077], [85.75508724500008, 26.481025829000032], [85.75583263000004, 26.48221038300005], [85.75685380800007, 26.48477051100008], [85.75844523400008, 26.486674237000045], [85.75779228200008, 26.486836450000055], [85.75583491100008, 26.486341882000033], [85.75388857800004, 26.487104397000053], [85.75288963700007, 26.48844009000004], [85.75322698700006, 26.48978193100004], [85.75322361800005, 26.489789276000067], [85.75466606700007, 26.490682357000026]]]]}}, {"type": "Feature", "properties": {"OBJECTID": 6726, "GPCODE": "98520", "GPNAME_1": "PARIGAMA", "DIST_CEN_C": "04", "BLK_NAME": "CHARAUT", "ST_NAME": "BIHAR", "ST_CODE_1": "10", "GPCODE2011": "101007", "REMARKS": "FINALIZED", "MAP_STATUS": "COMPLETED", "BLK_C_2001": "040014", "BLK_C_2011": "01076", "DIST_NAME": "SITAMARHI", "code2011": 0.0, "Shape_Leng": 0.20293732368, "Shape_Area": 0.00099430494, "Area": 10.9724}, "geometry": {"type": "MultiPolygon", "coordinates": [[[[85.77413059100007, 26.566891610000027], [85.77489117400006, 26.56640146600006], [85.77646354600006, 26.56564209100003], [85.77736983900007, 26.565214479000076], [85.77782434400007, 26.56472548800008], [85.77830587600005, 26.56358196800005], [85.77920744800008, 26.562107453000067], [85.77996656600004, 26.56132393200005], [85.78057102100007, 26.56073506000007], [85.78173418400007, 26.56157914000005], [85.78337072500005, 26.56277340400004], [85.78351876100004, 26.563327870000023], [85.78349015100008, 26.56472691600004], [85.78367646800007, 26.56593561300008], [85.78418583100006, 26.566488788000072], [85.78487446800006, 26.566711842000075], [85.78658068100003, 26.56670540600004], [85.78875327000009, 26.566602472000056], [85.78926858800008, 26.565201538000053], [85.78988193100008, 26.564368874000024], [85.79045637700005, 26.563793591000035], [85.79092743400008, 26.563660946000027], [85.79139948700004, 26.563726872000075], [85.79178196200007, 26.563951002000067], [85.79210840000007, 26.563999395000053], [85.79232353600008, 26.56385421500005], [85.79234236900004, 26.56360594800003], [85.79245143400004, 26.563312191000023], [85.79291591100008, 26.562854627000036], [85.79314964300005, 26.562397959000066], [85.79333291100005, 26.56189189500003], [85.79351215900004, 26.56157980300003], [85.79363192800008, 26.561452966000047], [85.79415833600007, 26.561338142000068], [85.79517205600007, 26.561334315000067], [85.79578881700007, 26.56123261600004], [85.79620448300005, 26.561050557000044], [85.79651887500006, 26.560697381000068], [85.79664719000004, 26.560227490000045], [85.79675000800006, 26.55970369000005], [85.79725275500004, 26.55883983500007], [85.79759798600008, 26.558608288000073], [85.79821473600003, 26.558506671000032], [85.79935833800005, 26.55840753700005], [85.80023555100007, 26.55821012100006], [85.80072661300005, 26.55804568800005], [85.80123295300007, 26.557944467000027], [85.80194004500004, 26.557846943000072], [85.80228539800004, 26.557665171000053], [85.80247886500007, 26.55719055800006], [85.80257162000004, 26.556657646000076], [85.80237546900008, 26.554469792000077], [85.80248589700005, 26.553444940000077], [85.80172824100003, 26.55344789000003], [85.80112531700007, 26.553287815000033], [85.80043660200005, 26.553028665000056], [85.80004057200006, 26.553111441000055], [85.79960534000008, 26.553392899000073], [85.79838006600005, 26.554259595000076], [85.79734768800006, 26.554525238000053], [85.79625792800005, 26.55434893100005], [85.79551396400007, 26.554076527000063], [85.79527599500005, 26.553635193000048], [85.79530872600003, 26.553116102000047], [85.79557752600005, 26.55265481400005], [85.79599215600007, 26.552278598000044], [85.79617539300006, 26.551758997000036], [85.79620823900007, 26.55128499700004], [85.79593652400007, 26.551123594000046], [85.79544446200003, 26.551057779000075], [85.79415989700004, 26.55106270700003], [85.79316084800007, 26.55095370500004], [85.79202544600008, 26.55066916800007], [85.79139335200006, 26.55068960400007], [85.79081184100005, 26.550804710000023], [85.79008361500007, 26.550676562000035], [85.78981179700008, 26.550483584000062], [85.78970519300003, 26.550240228000064], [85.78979331800008, 26.549766118000036], [85.79000654400005, 26.549228296000024], [85.79027579900009, 26.548866214000043], [85.79020873700006, 26.54846935300003], [85.78995720600005, 26.548339498000075], [85.78893801700008, 26.548212440000043], [85.78728328600005, 26.548435315000063], [85.78594035500004, 26.54883292900007], [85.78481666400006, 26.54888678100008], [85.78407865500003, 26.54881289900004], [85.78373120800006, 26.548534351000058], [85.78354843400007, 26.548079271000063], [85.78360083500007, 26.547492453000075], [85.78394353600004, 26.546724002000076], [85.78386778900006, 26.54661148100007], [85.78372219400006, 26.54659845200007], [85.78339690500007, 26.546793709000042], [85.78289235400007, 26.547269483000036], [85.78198719400007, 26.547922674000063], [85.78144589900006, 26.548055588000068], [85.78097891900006, 26.547976102000064], [85.78048545500008, 26.547603356000025], [85.77995799700005, 26.54747446700003], [85.77909009000007, 26.54750926400004], [85.77825738400009, 26.547561993000045], [85.77794538000006, 26.547369097000058], [85.77710962700007, 26.54674943300006], [85.77671283900008, 26.546669645000065], [85.77644245900007, 26.54678794600005], [85.77615279100007, 26.54708237500006], [85.77578716500005, 26.54722811700003], [85.77520980100007, 26.54716704200007], [85.77465205500005, 26.546993144000055], [85.77346977900004, 26.54631160100007], [85.77254500100008, 26.545953906000022], [85.77154525800006, 26.54568235100004], [85.77125170600004, 26.545128354000042], [85.77090867000004, 26.544723435000037], [85.77034108900006, 26.543484488000047], [85.77010855900005, 26.543101725000042], [85.76885071800007, 26.542325651000056], [85.76857863100008, 26.54208294700004], [85.76856230600004, 26.54180321000007], [85.76863055400008, 26.541347147000067], [85.76880951600003, 26.54097646200006], [85.76971469400007, 26.54032334300007], [85.77052537200007, 26.539860072000067], [85.77092488600005, 26.539438919000077], [85.77126317300008, 26.538801437000075], [85.77122668800007, 26.538508269000033], [85.77100569800007, 26.538459445000058], [85.77020791300004, 26.53843068300006], [85.76995642200006, 26.538300794000065], [85.76964326900008, 26.537846083000034], [85.76927827700007, 26.536999094000066], [85.76880866800008, 26.53635088900006], [85.76797303700005, 26.535735772000066], [85.76750130900007, 26.535701335000056], [85.76677415300009, 26.53577165300004], [85.76630221400006, 26.535692122000057], [85.76590482900008, 26.535467926000024], [85.76516050900005, 26.53507804700007], [85.76450705600007, 26.534805110000036], [85.76402061800007, 26.534852011000055], [85.76351561100006, 26.535228345000064], [85.76245077600004, 26.536094112000058], [85.76152843900007, 26.53627798200006], [85.76038405900005, 26.536182775000043], [85.75967462800008, 26.535729556000035], [85.75920648500005, 26.536502847000065], [85.75794099400008, 26.537387374000048], [85.75693030000008, 26.53802727900006], [85.75580773800004, 26.53830655400003], [85.75450334900006, 26.53832919300004], [85.75207378700009, 26.538057971000057], [85.74986728800008, 26.538309377000076], [85.74905080900004, 26.538623656000027], [85.74845644300007, 26.539243982000073], [85.74796951100006, 26.540337745000045], [85.74772330000008, 26.541417145000025], [85.74781580600006, 26.541922240000076], [85.74819907300008, 26.542376717000025], [85.74899801500004, 26.54264925700005], [85.75002869700006, 26.543132968000066], [85.75044737600007, 26.543636942000035], [85.75081278400006, 26.54459687700006], [85.75105297200008, 26.545602365000036], [85.75141610200006, 26.54602526900004], [85.75196482600006, 26.546429482000065], [85.75245412700008, 26.54703246100007], [85.75281914100003, 26.547879570000077], [85.75314802900004, 26.548514762000025], [85.75352997800007, 26.548657830000025], [85.75418232700008, 26.548673524000037], [85.75441178900007, 26.548352360000024], [85.75534905400008, 26.548118842000065], [85.75749127700004, 26.548048092000045], [85.75872319900003, 26.54863037000007], [85.75991734000007, 26.549727119000067], [85.76090787300006, 26.551325665000036], [85.76131037600004, 26.552691550000077], [85.76145999700003, 26.553607120000038], [85.76131630300006, 26.55403180500008], [85.76092077100003, 26.55422729600008], [85.76022870700007, 26.55432905200007], [85.75961226400005, 26.55449373500005], [85.75957843600008, 26.554787187000045], [85.76001640100003, 26.555110497000044], [85.76237982500004, 26.55621215700006], [85.76288393400006, 26.55672482400007], [85.76317758300007, 26.55731039500006], [85.76325117100004, 26.55806374200006], [85.76282265900005, 26.558746755000072], [85.76213131100008, 26.559010931000046], [85.76079140200005, 26.55898411800007], [85.76010401200006, 26.559018240000057], [85.75988710600006, 26.559898970000063], [85.76017906000004, 26.560096503000068], [85.76065224500007, 26.560419712000055], [85.76076561500008, 26.56110523800004], [85.76000743600008, 26.562141351000037], [85.75997434800007, 26.562597303000075], [85.75968681800003, 26.563383533000035], [85.75918263700004, 26.564003512000056], [85.75853336400007, 26.56469177300005], [85.75813436200008, 26.565248334000046], [85.75792181800006, 26.565998209000043], [85.75730689100004, 26.566523868000047], [85.75683568600004, 26.566656415000068], [85.75597724600004, 26.566582684000025], [85.75467319600006, 26.566749791000063], [85.75385644200009, 26.567046052000023], [85.75361848300008, 26.567705741000054], [85.75251194500004, 26.568300794000038], [85.75254630200004, 26.569266424000034], [85.75373547200007, 26.570358785000053], [85.75516064400006, 26.571477436000066], [85.75689795100004, 26.57165627300003], [85.75783875100007, 26.57218538400008], [85.75857149000007, 26.573306452000054], [85.75990769500004, 26.573594981000042], [85.76222198900007, 26.573731095000028], [85.76490370000005, 26.575219684000047], [85.76858317700004, 26.575364255000068], [85.77024874700004, 26.575200283000072], [85.77129137200006, 26.574916691000055], [85.77156585600005, 26.574572683000042], [85.77154353800006, 26.574089875000027], [85.77108520600007, 26.573730537000074], [85.77083256000003, 26.573343371000078], [85.77070047200004, 26.572982869000043], [85.77080841900005, 26.572459], [85.77115287900006, 26.572042560000057], [85.77191371800006, 26.571597521000058], [85.77234406100007, 26.57132065600007], [85.77243323900007, 26.571076703000074], [85.77245625500007, 26.57062075300007], [85.77247425900003, 26.570160386000055], [85.77263831800008, 26.569816855000056], [85.77315804000006, 26.569327593000025], [85.77330214200003, 26.569002099000045], [85.77330041500005, 26.568623079000076], [85.77315338900007, 26.568298653000056], [85.77315230800008, 26.568054989000075], [85.77342667400006, 26.567711071000076], [85.77413059100007, 26.566891610000027]]]]}}, {"type": "Feature", "properties": {"OBJECTID": 6727, "GPCODE": "98521", "GPNAME_1": "YADUPATTI", "DIST_CEN_C": "04", "BLK_NAME": "CHARAUT", "ST_NAME": "BIHAR", "ST_CODE_1": "10", "GPCODE2011": "101008", "REMARKS": "FINALIZED", "MAP_STATUS": "COMPLETED", "BLK_C_2001": "040014", "BLK_C_2011": "01076", "DIST_NAME": "SITAMARHI", "code2011": 0.0, "Shape_Leng": 0.16223031569, "Shape_Area": 0.00090972208, "Area": 10.0373}, "geometry": {"type": "MultiPolygon", "coordinates": [[[[85.79108291300008, 26.59348027200008], [85.79408921700008, 26.59018812200003], [85.79424854000007, 26.588860746000023], [85.79254451800006, 26.580902352000066], [85.79549253000005, 26.58022324600006], [85.79708275700006, 26.578998709000075], [85.80134219900003, 26.578643859000067], [85.80235659900006, 26.57979516000006], [85.80860458800004, 26.579644461000044], [85.81085629300009, 26.578232163000052], [85.81299461600008, 26.578254784000023], [85.81239272200008, 26.577636297000026], [85.81215200500003, 26.577126255000053], [85.81209723500007, 26.576363583000045], [85.81218791200007, 26.57579044000005], [85.81228853800008, 26.575253463000024], [85.81224854300007, 26.57492850600005], [85.81203795500005, 26.574662154000066], [85.81150625800007, 26.574156558000027], [85.81110495600007, 26.57364639700006], [85.81088945500005, 26.573177016000045], [85.81084433300003, 26.57301901200003], [85.81081942500003, 26.572761782000043], [85.81104085600003, 26.57170585500006], [85.81105630600007, 26.57093422400004], [85.81077068400003, 26.570067556000026], [85.81069048700004, 26.569959262000054], [85.81011858200003, 26.569440059000044], [85.80951656300005, 26.569069684000056], [85.80879412100006, 26.568767002000072], [85.80842289200007, 26.568559245000074], [85.80842291300007, 26.568401314000027], [85.80845812700005, 26.568216308000046], [85.80846857700004, 26.567643194000027], [85.80816282100005, 26.566975140000068], [85.80811770400004, 26.566817134000075], [85.80818803100004, 26.56664122600006], [85.80839897200008, 26.56645172700007], [85.80879550000003, 26.566316546000053], [85.80943286900003, 26.56621752700005], [85.80997487800005, 26.566168153000035], [85.81064744100007, 26.56604214500004], [85.81107413000007, 26.56586175600006], [85.81157110400005, 26.565627309000035], [85.81175685000005, 26.565406344000053], [85.81174699800005, 26.56517165400004], [85.81158158900007, 26.564769897000076], [85.81099996200004, 26.563835521000044], [85.81071905000005, 26.56350597000005], [85.81022760300004, 26.562964176000037], [85.80959081900005, 26.562011684000026], [85.80869832000008, 26.560729620000075], [85.80860305900006, 26.560571633000052], [85.80851790800006, 26.56017895100007], [85.80851822900007, 26.559614859000078], [85.80857380600008, 26.558940294000024], [85.80862938900003, 26.558265649000077], [85.80866495600003, 26.557588702000032], [85.80863990600005, 26.55743528900007], [85.80849959100004, 26.557227617000024], [85.80837918600008, 26.557128268000042], [85.80787245400006, 26.55684371700005], [85.80772711700007, 26.556618008000044], [85.80770719700007, 26.556293035000067], [85.80755185800007, 26.555918416000054], [85.80716585400006, 26.55535861800007], [85.80638835200006, 26.55487997000006], [85.80564567300007, 26.554870510000057], [85.80593693700007, 26.55447804100004], [85.80608272400008, 26.553977211000074], [85.80628882900004, 26.553361308000035], [85.80546899700005, 26.552909902000067], [85.80421961200005, 26.552914804000068], [85.80325699200006, 26.553080989000023], [85.80269576300003, 26.553250148000075], [85.80248589700005, 26.553444940000077], [85.80237546900008, 26.554469792000077], [85.80257162000004, 26.556657646000076], [85.80247886500007, 26.55719055800006], [85.80228539800004, 26.557665171000053], [85.80194004500004, 26.557846943000072], [85.80123295300007, 26.557944467000027], [85.80072661300005, 26.55804568800005], [85.80023555100007, 26.55821012100006], [85.79935833800005, 26.55840753700005], [85.79821473600003, 26.558506671000032], [85.79759798600008, 26.558608288000073], [85.79725275500004, 26.55883983500007], [85.79675000800006, 26.55970369000005], [85.79664719000004, 26.560227490000045], [85.79651887500006, 26.560697381000068], [85.79620448300005, 26.561050557000044], [85.79578881700007, 26.56123261600004], [85.79517205600007, 26.561334315000067], [85.79415833600007, 26.561338142000068], [85.79363192800008, 26.561452966000047], [85.79351215900004, 26.56157980300003], [85.79333291100005, 26.56189189500003], [85.79314964300005, 26.562397959000066], [85.79291591100008, 26.562854627000036], [85.79245143400004, 26.563312191000023], [85.79234236900004, 26.56360594800003], [85.79232353600008, 26.56385421500005], [85.79210840000007, 26.563999395000053], [85.79178196200007, 26.563951002000067], [85.79139948700004, 26.563726872000075], [85.79092743400008, 26.563660946000027], [85.79045637700005, 26.563793591000035], [85.78988193100008, 26.564368874000024], [85.78926858800008, 26.565201538000053], [85.78875327000009, 26.566602472000056], [85.78658068100003, 26.56670540600004], [85.78487446800006, 26.566711842000075], [85.78418583100006, 26.566488788000072], [85.78367646800007, 26.56593561300008], [85.78349015100008, 26.56472691600004], [85.78351876100004, 26.563327870000023], [85.78337072500005, 26.56277340400004], [85.78173418400007, 26.56157914000005], [85.78057102100007, 26.56073506000007], [85.77996656600004, 26.56132393200005], [85.77920744800008, 26.562107453000067], [85.77830587600005, 26.56358196800005], [85.77782434400007, 26.56472548800008], [85.77736983900007, 26.565214479000076], [85.77646354600006, 26.56564209100003], [85.77489117400006, 26.56640146600006], [85.77413059100007, 26.566891610000027], [85.77342667400006, 26.567711071000076], [85.77315230800008, 26.568054989000075], [85.77315338900007, 26.568298653000056], [85.77330041500005, 26.568623079000076], [85.77330214200003, 26.569002099000045], [85.77315804000006, 26.569327593000025], [85.77263831800008, 26.569816855000056], [85.77247425900003, 26.570160386000055], [85.77245625500007, 26.57062075300007], [85.77243323900007, 26.571076703000074], [85.77234406100007, 26.57132065600007], [85.77191371800006, 26.571597521000058], [85.77115287900006, 26.572042560000057], [85.77080841900005, 26.572459], [85.77070047200004, 26.572982869000043], [85.77083256000003, 26.573343371000078], [85.77108520600007, 26.573730537000074], [85.77154353800006, 26.574089875000027], [85.77156585600005, 26.574572683000042], [85.77129137200006, 26.574916691000055], [85.77024874700004, 26.575200283000072], [85.76858317700004, 26.575364255000068], [85.76935349200005, 26.577013075000025], [85.77016355100005, 26.579663664000066], [85.77155445700004, 26.582018679000043], [85.77458309700006, 26.583564445000036], [85.77639003900003, 26.583557820000067], [85.77711680000004, 26.584444062000046], [85.77826882000005, 26.58499940400003], [85.77830501300008, 26.58632599200007], [85.78114123100005, 26.588558291000027], [85.78219663300007, 26.589912689000073], [85.78372201100007, 26.590872674000025], [85.78477652600003, 26.59095898700008], [85.78537995700003, 26.59334847100007], [85.78590458400004, 26.593906036000078], [85.78846756600007, 26.593454080000072], [85.79108291300008, 26.59348027200008]]]]}}, {"type": "Feature", "properties": {"OBJECTID": 6755, "GPCODE": "98516", "GPNAME_1": "BHANTAWARI", "DIST_CEN_C": "04", "BLK_NAME": "CHARAUT", "ST_NAME": "BIHAR", "ST_CODE_1": "10", "GPCODE2011": "101003", "REMARKS": "FINALIZED", "MAP_STATUS": "COMPLETED", "BLK_C_2001": "040014", "BLK_C_2011": "01076", "DIST_NAME": "SITAMARHI", "code2011": 0.0, "Shape_Leng": 0.31997803217, "Shape_Area": 0.00138394486, "Area": 15.2732}, "geometry": {"type": "MultiPolygon", "coordinates": [[[[85.75467319600006, 26.566749791000063], [85.75597724600004, 26.566582684000025], [85.75683568600004, 26.566656415000068], [85.75730689100004, 26.566523868000047], [85.75792181800006, 26.565998209000043], [85.75813436200008, 26.565248334000046], [85.75853336400007, 26.56469177300005], [85.75918263700004, 26.564003512000056], [85.75968681800003, 26.563383533000035], [85.75997434800007, 26.562597303000075], [85.76000743600008, 26.562141351000037], [85.76076561500008, 26.56110523800004], [85.76065224500007, 26.560419712000055], [85.76017906000004, 26.560096503000068], [85.75988710600006, 26.559898970000063], [85.76010401200006, 26.559018240000057], [85.76079140200005, 26.55898411800007], [85.76213131100008, 26.559010931000046], [85.76282265900005, 26.558746755000072], [85.76325117100004, 26.55806374200006], [85.76317758300007, 26.55731039500006], [85.76288393400006, 26.55672482400007], [85.76237982500004, 26.55621215700006], [85.76001640100003, 26.555110497000044], [85.75957843600008, 26.554787187000045], [85.75961226400005, 26.55449373500005], [85.76022870700007, 26.55432905200007], [85.76092077100003, 26.55422729600008], [85.76131630300006, 26.55403180500008], [85.76145999700003, 26.553607120000038], [85.76131037600004, 26.552691550000077], [85.76090787300006, 26.551325665000036], [85.75991734000007, 26.549727119000067], [85.75872319900003, 26.54863037000007], [85.75749127700004, 26.548048092000045], [85.75534905400008, 26.548118842000065], [85.75441178900007, 26.548352360000024], [85.75418232700008, 26.548673524000037], [85.75352997800007, 26.548657830000025], [85.75314802900004, 26.548514762000025], [85.75281914100003, 26.547879570000077], [85.75245412700008, 26.54703246100007], [85.75196482600006, 26.546429482000065], [85.75141610200006, 26.54602526900004], [85.75105297200008, 26.545602365000036], [85.75081278400006, 26.54459687700006], [85.75044737600007, 26.543636942000035], [85.75002869700006, 26.543132968000066], [85.74899801500004, 26.54264925700005], [85.74819907300008, 26.542376717000025], [85.74781580600006, 26.541922240000076], [85.74772330000008, 26.541417145000025], [85.74796951100006, 26.540337745000045], [85.74845644300007, 26.539243982000073], [85.74905080900004, 26.538623656000027], [85.74986728800008, 26.538309377000076], [85.75207378700009, 26.538057971000057], [85.75450334900006, 26.53832919300004], [85.75580773800004, 26.53830655400003], [85.75693030000008, 26.53802727900006], [85.75794099400008, 26.537387374000048], [85.75920648500005, 26.536502847000065], [85.75967462800008, 26.535729556000035], [85.75947670800008, 26.535224844000027], [85.75923805400004, 26.534575846000052], [85.75907095000008, 26.53423345500005], [85.75872850800005, 26.533941322000032], [85.75838074100005, 26.533577045000072], [85.75828683000003, 26.53276055400005], [85.75837379600006, 26.532011131000047], [85.75837042700005, 26.531243954000047], [85.75820550500003, 26.53025180000003], [85.75834749800003, 26.529452493000065], [85.75902978100004, 26.528308331000062], [85.75925936000004, 26.526913087000025], [85.75914946400007, 26.525884577000056], [85.75861822300004, 26.52487561500004], [85.75772610600006, 26.523935606000066], [85.75748706500008, 26.523191909000047], [85.75718921400005, 26.521627016000025], [85.75682487400007, 26.52091075000004], [85.75637073900003, 26.520294147000072], [85.75569597200007, 26.519723390000024], [85.75485122000003, 26.519275122000067], [85.75396219600003, 26.51901650700006], [85.75317853900003, 26.51875760400003], [85.75256643900008, 26.518741720000037], [85.75200601900008, 26.519073121000076], [85.75130045200007, 26.519463694000024], [85.75041319600007, 26.519629191000035], [85.74985100800006, 26.519549982000058], [85.74961460500003, 26.519388306000053], [85.74953787100003, 26.51906365800005], [85.74945090500006, 26.518662352000035], [85.74903365800003, 26.51846525600007], [85.74865242500005, 26.518453027000078], [85.74798591800004, 26.518631387000028], [85.74772763900006, 26.518632311000033], [85.74763987300008, 26.51863258800006], [85.74724247200004, 26.518376776000025], [85.74707552400008, 26.51806593200007], [85.74698015200005, 26.516874891000043], [85.74685413100008, 26.516730971000072], [85.74584076700006, 26.516734486000075], [85.74545861400009, 26.516510138000058], [85.74527602300003, 26.516050490000055], [85.74516154700007, 26.515089688000046], [85.74495993800008, 26.51487831600008], [85.74452808200004, 26.51476696900005], [85.74402156200006, 26.514786754000056], [85.74380625000003, 26.51488227400006], [85.74289979000008, 26.51522836600003], [85.74212179800008, 26.515118207000057], [85.74188510900007, 26.514893393000023], [85.74133830200003, 26.513703904000067], [85.74090093500007, 26.51349335100008], [85.74052493200008, 26.513544232000072], [85.73999938800006, 26.51382139100008], [85.73911459500005, 26.51454189900005], [85.73833915100005, 26.515027474000078], [85.73696907700008, 26.516061010000044], [85.73602780700008, 26.516488408000043], [85.73494067400009, 26.51683509000003], [85.73452617800007, 26.51726075600004], [85.73436900800004, 26.518069069000035], [85.73446456300007, 26.519323241000052], [85.73473925700006, 26.520220377000044], [85.73539801600003, 26.52179757600004], [85.73607233900003, 26.523469549000026], [85.73649726500008, 26.525489807000042], [85.73719506100008, 26.52678706300003], [85.73739318400004, 26.527373063000027], [85.73726888200008, 26.52763522500004], [85.73708883300003, 26.52778024500003], [85.73614707200005, 26.528108347000057], [85.73556631900004, 26.528390177000063], [85.73513694700006, 26.52887896900006], [85.73490296600005, 26.52932203900008], [85.73490508200007, 26.529809380000074], [85.73506800900003, 26.53037292500005], [85.73536157200004, 26.530994728000053], [85.73534814800007, 26.531382871000062], [85.73512960400006, 26.531907102000048], [85.73482664800008, 26.53263920200004], [85.73590960900003, 26.532459451000022], [85.73651164900008, 26.53245745600003], [85.73694375800005, 26.532618421000052], [85.73722148400003, 26.533041637000053], [85.73741931600006, 26.533546470000033], [85.73755461200005, 26.534696733000033], [85.73743405200008, 26.535838885000032], [85.73712882000007, 26.537220835000028], [85.73687518200006, 26.53775868400004], [85.73639084300004, 26.538310875000036], [85.73588745700005, 26.53911133400004], [85.73565548000005, 26.54001017300004], [85.73573491700006, 26.54100270600003], [85.73568542800007, 26.542343156000072], [85.73546838000004, 26.54322837600006], [85.73538248300008, 26.544275648000053], [85.73549418800008, 26.544600210000056], [85.73573082200005, 26.544779935000065], [85.73616748200004, 26.544810047000055], [85.73712541700007, 26.544725528000072], [85.73797837800004, 26.544722618000037], [85.73845063500005, 26.544865358000038], [85.73870282400009, 26.545157894000056], [85.73889054800009, 26.545649102000027], [85.73901811600007, 26.546154110000032], [85.73898525800007, 26.546673189000046], [85.73878634900007, 26.54709803700007], [85.73808762500005, 26.547989406000056], [85.73758360500005, 26.54864097500007], [85.73755044000006, 26.54909692900003], [85.73777027100004, 26.550075382000045], [85.73782988300007, 26.551117685000065], [85.73756239600004, 26.55191731800005], [85.73702377000006, 26.552717956000038], [85.73660353900004, 26.55301267300007], [85.73599148000005, 26.55304641500004], [85.73508220100007, 26.552787699000078], [85.73440987700008, 26.552821617000063], [85.73421474800006, 26.552953100000025], [85.73419550100004, 26.553151768000077], [85.73437689800005, 26.553327167000077], [85.73492438700004, 26.553456118000042], [85.73528658200007, 26.553653516000054], [85.73528728500008, 26.553838477000056], [85.73509235900008, 26.554019651000033], [85.73496311600007, 26.55431346100005], [85.73465808700007, 26.554558120000024], [85.73402677000007, 26.554772392000075], [85.73335534200004, 26.55500488000007], [85.73315559600007, 26.555235649000053], [85.73308691200003, 26.55561043700004], [85.73314327100007, 26.555885577000026], [85.73343015900008, 26.556096688000025], [85.73348611200004, 26.556276957000023], [85.73338112600004, 26.556372097000065], [85.73295976800006, 26.55642314100004], [85.73241718000008, 26.556262528000047], [85.73172859400006, 26.556003169000064], [85.73132739200008, 26.55605411500005], [85.73078630800006, 26.556254486000057], [85.73000957500005, 26.556514373000027], [85.72916114700007, 26.556435990000068], [85.72888429500006, 26.55622487200003], [85.72866680700008, 26.55581490800006], [85.72868437100004, 26.555214671000044], [85.72868257800008, 26.554772427000046], [85.72849587500008, 26.55452938800005], [85.72816938500006, 26.554449206000072], [85.72777300500007, 26.554450545000066], [85.72746786200008, 26.554677156000025], [85.72708930400006, 26.555364406000024], [85.72679999700006, 26.555785085000025], [85.72614929700006, 26.556179865000047], [85.72513601100007, 26.556264404000046], [85.72439278400003, 26.55612251100007], [85.72401074500004, 26.55597486700003], [85.72388401700005, 26.555668429000036], [85.72353727700005, 26.555538729000034], [85.72262850000004, 26.55541088600006], [85.72212171100006, 26.55542609300005], [85.72199685800007, 26.55557542200006], [85.72199764600003, 26.555769490000046], [85.72217971700007, 26.556111825000073], [85.72212751800004, 26.556829470000025], [85.72222003300004, 26.557366228000035], [85.72242206500005, 26.557676909000065], [85.72280459900009, 26.557969030000038], [85.72309747300005, 26.55842382700007], [85.72331514600006, 26.55886535700006], [85.72349623700006, 26.558977552000044], [85.72400343300006, 26.55907515900003], [85.72416938500004, 26.559155787000066], [85.72424057300003, 26.55936771200004], [85.72444172000007, 26.559479817000067], [85.72473302700007, 26.559528529000033], [85.72535063000004, 26.559639305000076], [85.72554726200008, 26.559850692000055], [85.72549389000005, 26.560302130000025], [85.72661781200009, 26.56026232100004], [85.72763261800003, 26.56052063100003], [85.72799541600006, 26.560880460000078], [85.72861592100008, 26.561659088000056], [85.72945133500008, 26.56224293300005], [85.73035504100005, 26.56353954800005], [85.73100876700005, 26.563862219000043], [85.73250085200004, 26.56424982200008], [85.73364596800008, 26.564462553000055], [85.73534805200006, 26.564646320000065], [85.74200092000007, 26.561938447000045], [85.74365203800005, 26.564297341000042], [85.74760053000006, 26.565231278000056], [85.74772581700006, 26.565197874000035], [85.74828724000008, 26.56504842100003], [85.74885020300007, 26.566404746000046], [85.74788694200004, 26.567631095000024], [85.74772584200008, 26.568331601000068], [85.74744853400006, 26.569536975000062], [85.74772581600007, 26.56959389000008], [85.74894042400007, 26.569843166000055], [85.75105752700006, 26.569677728000045], [85.75254630200004, 26.569266424000034], [85.75251194500004, 26.568300794000038], [85.75361848300008, 26.567705741000054], [85.75385644200009, 26.567046052000023], [85.75467319600006, 26.566749791000063]]], [[[85.74414388400004, 26.57831223200003], [85.74081682300005, 26.576107943000068], [85.74025410500008, 26.574778652000077], [85.74037917800007, 26.57351010600007], [85.74203894000004, 26.570819362000066], [85.74480025200006, 26.571076008000034], [85.74554611000008, 26.56944885300004], [85.74462522900006, 26.568887924000023], [85.74400573400004, 26.56953996200008], [85.74334662200005, 26.569158642000048], [85.74389878100004, 26.568005936000077], [85.74582805000006, 26.566167131000043], [85.74471267300004, 26.565877655000065], [85.74274747600003, 26.56753609200007], [85.74130965300003, 26.568105203000073], [85.73773343500005, 26.56858681800003], [85.73606232900005, 26.569806440000036], [85.73527206100005, 26.569244999000034], [85.72587460400007, 26.569831831000045], [85.72577103100008, 26.571470280000028], [85.72623801000003, 26.572741278000024], [85.72630617300007, 26.57345856200004], [85.72515591400008, 26.57444623500004], [85.72507004500005, 26.576720884000054], [85.72424725000008, 26.57681390700003], [85.72451671700009, 26.57885275600006], [85.72671315000008, 26.57838961300007], [85.72842002400006, 26.578501224000036], [85.73032009000008, 26.576784547000045], [85.73209705300007, 26.578046610000058], [85.73117997700007, 26.578374578000023], [85.73102320700008, 26.580500613000027], [85.73253755900004, 26.58135298600007], [85.73241490900006, 26.583208119000062], [85.73567428900003, 26.584853206000048], [85.73499643500008, 26.58717952300003], [85.73256818700008, 26.587454037000043], [85.73231413400003, 26.58911104300006], [85.73598122600004, 26.58859321500006], [85.74188033100006, 26.58771547200007], [85.74575243500004, 26.58702516200003], [85.74545190300006, 26.584851101000027], [85.74372544100004, 26.58021799100004], [85.74496608100003, 26.579270584000028], [85.74414388400004, 26.57831223200003]]]]}}, {"type": "Feature", "properties": {"OBJECTID": 6843, "GPCODE": "98519", "GPNAME_1": "CHORAUT UTTAR", "DIST_CEN_C": "04", "BLK_NAME": "CHARAUT", "ST_NAME": "BIHAR", "ST_CODE_1": "10", "GPCODE2011": "101006", "REMARKS": "FINALIZED", "MAP_STATUS": "COMPLETED", "BLK_C_2001": "040014", "BLK_C_2011": "01076", "DIST_NAME": "SITAMARHI", "code2011": 0.0, "Shape_Leng": 0.03347112357, "Shape_Area": 3.712663e-05, "Area": 0.409735}, "geometry": {"type": "MultiPolygon", "coordinates": [[[[85.80030253800004, 26.545980324000027], [85.80091421200007, 26.54588320700003], [85.80315811700007, 26.545057788000065], [85.80507763800006, 26.544594467000024], [85.80706915300004, 26.544487484000058], [85.80968418800006, 26.54467127500004], [85.81124588500006, 26.54492688600004], [85.81233092400004, 26.54518434700003], [85.81236595500008, 26.54414175100004], [85.81294148600006, 26.543846117000044], [85.81220687800004, 26.541367060000027], [85.81159920500005, 26.541238586000077], [85.80971426800005, 26.541570936000028], [85.80946057700004, 26.542027646000065], [85.80877455300003, 26.542323685000042], [85.80724934600005, 26.542329644000063], [85.80438328200006, 26.542115177000028], [85.80127032700005, 26.542713923000065], [85.79927731500004, 26.543538400000045], [85.79891933400006, 26.54422572900006], [85.79899357600004, 26.545069339000065], [85.79936311900008, 26.54575383300005], [85.80030253800004, 26.545980324000027]]]]}}, {"type": "Feature", "properties": {"OBJECTID": 6844, "GPCODE": "98517", "GPNAME_1": "CHORAUT PASHCHIM", "DIST_CEN_C": "04", "BLK_NAME": "CHARAUT", "ST_NAME": "BIHAR", "ST_CODE_1": "10", "GPCODE2011": "101004", "REMARKS": "FINALIZED", "MAP_STATUS": "COMPLETED", "BLK_C_2001": "040014", "BLK_C_2011": "01076", "DIST_NAME": "SITAMARHI", "code2011": 0.0, "Shape_Leng": 0.23171018976, "Shape_Area": 0.00156867746, "Area": 17.3139}, "geometry": {"type": "MultiPolygon", "coordinates": [[[[85.80248589700005, 26.553444940000077], [85.80269576300003, 26.553250148000075], [85.80325699200006, 26.553080989000023], [85.80421961200005, 26.552914804000068], [85.80546899700005, 26.552909902000067], [85.80628882900004, 26.553361308000035], [85.80649493400006, 26.552745406000042], [85.80670104300003, 26.55214082300006], [85.80701237000005, 26.55177991100004], [85.80747408300005, 26.551522944000055], [85.80825701800006, 26.551257004000036], [85.80898979100004, 26.550959513000066], [85.80990313100006, 26.550761343000033], [85.81079647000007, 26.55047748900006], [85.81324072800004, 26.549350348000075], [85.81367731700004, 26.549224156000037], [85.81403359200004, 26.54912956800007], [85.81472118100004, 26.548782370000026], [85.81511264300008, 26.54866521200006], [85.81565959600005, 26.548629344000062], [85.81598067900006, 26.548737800000026], [85.81664284800007, 26.549035880000076], [85.81691376200007, 26.549099168000055], [85.81714970400003, 26.549027082000066], [85.81751107000008, 26.548724848000063], [85.81814370100005, 26.547872191000067], [85.81837465100006, 26.54767373900006], [85.81920268700009, 26.547267920000024], [85.82011102400008, 26.54699293300007], [85.81708502000004, 26.53950353500005], [85.81280199100007, 26.53393559700004], [85.81066047600007, 26.527082749000044], [85.80523530500005, 26.52622614300003], [85.79838245700006, 26.52779658700007], [85.79167237700005, 26.521086507000064], [85.79012922600003, 26.514792734000025], [85.78956243700009, 26.514765287000046], [85.78931660300003, 26.514783215000023], [85.78830822600008, 26.51494503400005], [85.78771621500005, 26.515048470000067], [85.78725987500007, 26.514890286000025], [85.78678869500004, 26.514429662000055], [85.78657317400007, 26.51424002400006], [85.78637261600005, 26.514131562000046], [85.78546951700008, 26.514302448000024], [85.78453651000007, 26.514365094000027], [85.78422519000009, 26.514671763000024], [85.78375838500006, 26.51504602600005], [85.78355753700004, 26.515298636000068], [85.78328659500005, 26.515510577000043], [85.78285007300008, 26.515582479000045], [85.78181683900004, 26.51546896900004], [85.78149564200004, 26.515617693000024], [85.78071781200003, 26.51599625500006], [85.77998525100008, 26.516212351000036], [85.77985992000004, 26.516189736000058], [85.77620813900006, 26.51612407400006], [85.77581219200005, 26.51566349500007], [85.77521595200005, 26.51488237600006], [85.77511083100006, 26.514688189000026], [85.77463984500008, 26.51399742800004], [85.77406375400005, 26.513144047000026], [85.77242971300007, 26.511712385000067], [85.77215413400006, 26.511391764000052], [85.77189350400005, 26.51112977200006], [85.77162287400006, 26.510949141000026], [85.77107104900006, 26.510957706000056], [85.77078019600003, 26.51093492800004], [85.77009308700008, 26.51074489000007], [85.76969687800005, 26.51080100400003], [85.76830396200006, 26.511162601000024], [85.76754282500008, 26.511445133000052], [85.76694238600004, 26.51179030800006], [85.76667324800007, 26.512165888000027], [85.76638299500007, 26.51232936300005], [85.76575151500003, 26.512448989000063], [85.76285707100004, 26.512409792000028], [85.76180385900005, 26.512463198000034], [85.76156915000007, 26.51268968900007], [85.76141067800006, 26.51316408400004], [85.76095819400007, 26.51404570400007], [85.76067399700008, 26.51443931400007], [85.76023828300004, 26.51460334400008], [85.75927568400004, 26.514724083000033], [85.75786075200006, 26.514629889000048], [85.75762059600004, 26.514679778000072], [85.75680305300006, 26.515942307000046], [85.75662471800007, 26.516448350000076], [85.75651802300007, 26.517283642000052], [85.75640996100003, 26.517807532000063], [85.75619517900003, 26.518033925000054], [85.75577970100005, 26.518233921000046], [85.75525427000008, 26.518529073000025], [85.75485122000003, 26.519275122000067], [85.75569597200007, 26.519723390000024], [85.75637073900003, 26.520294147000072], [85.75682487400007, 26.52091075000004], [85.75718921400005, 26.521627016000025], [85.75748706500008, 26.523191909000047], [85.75772610600006, 26.523935606000066], [85.75861822300004, 26.52487561500004], [85.75914946400007, 26.525884577000056], [85.75925936000004, 26.526913087000025], [85.75902978100004, 26.528308331000062], [85.75834749800003, 26.529452493000065], [85.75820550500003, 26.53025180000003], [85.75837042700005, 26.531243954000047], [85.75837379600006, 26.532011131000047], [85.75828683000003, 26.53276055400005], [85.75838074100005, 26.533577045000072], [85.75872850800005, 26.533941322000032], [85.75907095000008, 26.53423345500005], [85.75923805400004, 26.534575846000052], [85.75947670800008, 26.535224844000027], [85.75967462800008, 26.535729556000035], [85.76038405900005, 26.536182775000043], [85.76152843900007, 26.53627798200006], [85.76245077600004, 26.536094112000058], [85.76351561100006, 26.535228345000064], [85.76402061800007, 26.534852011000055], [85.76450705600007, 26.534805110000036], [85.76516050900005, 26.53507804700007], [85.76590482900008, 26.535467926000024], [85.76630221400006, 26.535692122000057], [85.76677415300009, 26.53577165300004], [85.76750130900007, 26.535701335000056], [85.76797303700005, 26.535735772000066], [85.76880866800008, 26.53635088900006], [85.76927827700007, 26.536999094000066], [85.76964326900008, 26.537846083000034], [85.76995642200006, 26.538300794000065], [85.77020791300004, 26.53843068300006], [85.77100569800007, 26.538459445000058], [85.77122668800007, 26.538508269000033], [85.77126317300008, 26.538801437000075], [85.77092488600005, 26.539438919000077], [85.77052537200007, 26.539860072000067], [85.76971469400007, 26.54032334300007], [85.76880951600003, 26.54097646200006], [85.76863055400008, 26.541347147000067], [85.76856230600004, 26.54180321000007], [85.76857863100008, 26.54208294700004], [85.76885071800007, 26.542325651000056], [85.77010855900005, 26.543101725000042], [85.77034108900006, 26.543484488000047], [85.77090867000004, 26.544723435000037], [85.77125170600004, 26.545128354000042], [85.77154525800006, 26.54568235100004], [85.77254500100008, 26.545953906000022], [85.77346977900004, 26.54631160100007], [85.77465205500005, 26.546993144000055], [85.77520980100007, 26.54716704200007], [85.77578716500005, 26.54722811700003], [85.77615279100007, 26.54708237500006], [85.77644245900007, 26.54678794600005], [85.77671283900008, 26.546669645000065], [85.77710962700007, 26.54674943300006], [85.77794538000006, 26.547369097000058], [85.77825738400009, 26.547561993000045], [85.77909009000007, 26.54750926400004], [85.77995799700005, 26.54747446700003], [85.78048545500008, 26.547603356000025], [85.78097891900006, 26.547976102000064], [85.78144589900006, 26.548055588000068], [85.78198719400007, 26.547922674000063], [85.78289235400007, 26.547269483000036], [85.78339690500007, 26.546793709000042], [85.78372219400006, 26.54659845200007], [85.78386778900006, 26.54661148100007], [85.78394353600004, 26.546724002000076], [85.78360083500007, 26.547492453000075], [85.78354843400007, 26.548079271000063], [85.78373120800006, 26.548534351000058], [85.78407865500003, 26.54881289900004], [85.78481666400006, 26.54888678100008], [85.78594035500004, 26.54883292900007], [85.78728328600005, 26.548435315000063], [85.78893801700008, 26.548212440000043], [85.78995720600005, 26.548339498000075], [85.79020873700006, 26.54846935300003], [85.79027579900009, 26.548866214000043], [85.79000654400005, 26.549228296000024], [85.78979331800008, 26.549766118000036], [85.78970519300003, 26.550240228000064], [85.78981179700008, 26.550483584000062], [85.79008361500007, 26.550676562000035], [85.79081184100005, 26.550804710000023], [85.79139335200006, 26.55068960400007], [85.79202544600008, 26.55066916800007], [85.79316084800007, 26.55095370500004], [85.79415989700004, 26.55106270700003], [85.79544446200003, 26.551057779000075], [85.79593652400007, 26.551123594000046], [85.79620823900007, 26.55128499700004], [85.79617539300006, 26.551758997000036], [85.79599215600007, 26.552278598000044], [85.79557752600005, 26.55265481400005], [85.79530872600003, 26.553116102000047], [85.79527599500005, 26.553635193000048], [85.79551396400007, 26.554076527000063], [85.79625792800005, 26.55434893100005], [85.79734768800006, 26.554525238000053], [85.79838006600005, 26.554259595000076], [85.79960534000008, 26.553392899000073], [85.80004057200006, 26.553111441000055], [85.80043660200005, 26.553028665000056], [85.80112531700007, 26.553287815000033], [85.80172824100003, 26.55344789000003], [85.80248589700005, 26.553444940000077]], [[85.80127032700005, 26.542713923000065], [85.80438328200006, 26.542115177000028], [85.80724934600005, 26.542329644000063], [85.80877455300003, 26.542323685000042], [85.80946057700004, 26.542027646000065], [85.80971426800005, 26.541570936000028], [85.81159920500005, 26.541238586000077], [85.81220687800004, 26.541367060000027], [85.81294148600006, 26.543846117000044], [85.81236595500008, 26.54414175100004], [85.81233092400004, 26.54518434700003], [85.81124588500006, 26.54492688600004], [85.80968418800006, 26.54467127500004], [85.80706915300004, 26.544487484000058], [85.80507763800006, 26.544594467000024], [85.80315811700007, 26.545057788000065], [85.80091421200007, 26.54588320700003], [85.80030253800004, 26.545980324000027], [85.79936311900008, 26.54575383300005], [85.79899357600004, 26.545069339000065], [85.79891933400006, 26.54422572900006], [85.79927731500004, 26.543538400000045], [85.80127032700005, 26.542713923000065]]]]}}, {"type": "Feature", "properties": {"OBJECTID": 6881, "GPCODE": "98518", "GPNAME_1": "CHORAUT PURVI", "DIST_CEN_C": "04", "BLK_NAME": "CHARAUT", "ST_NAME": "BIHAR", "ST_CODE_1": "10", "GPCODE2011": "101005", "REMARKS": "FINALIZED", "MAP_STATUS": "COMPLETED", "BLK_C_2001": "040014", "BLK_C_2011": "01076", "DIST_NAME": "SITAMARHI", "code2011": 0.0, "Shape_Leng": 0.16060736058, "Shape_Area": 0.00068093213, "Area": 7.51648}, "geometry": {"type": "MultiPolygon", "coordinates": [[[[85.82075769900007, 26.526459851000027], [85.82055725600009, 26.526112315000034], [85.81943354200007, 26.525971949000052], [85.81895699800003, 26.52586799000005], [85.81884672600006, 26.52573706900006], [85.81878162400005, 26.52551593000004], [85.81868165600008, 26.52482540400007], [85.81855671300008, 26.523773821000077], [85.81866236200005, 26.523191712000028], [85.81848688500008, 26.522830635000048], [85.81814086500003, 26.522659051000062], [85.81778477400007, 26.522586690000026], [85.81727300600005, 26.522586473000047], [85.81659078300004, 26.522586146000037], [85.81562763600004, 26.522626348000074], [85.81532660700003, 26.52258111200007], [85.81508089500005, 26.522477217000073], [85.81466462900005, 26.52219272800005], [85.81399767000005, 26.52184953300008], [85.81350105600006, 26.521682336000026], [85.81281882700006, 26.521659443000033], [85.81212653000006, 26.521744881000075], [85.81157973700005, 26.521676918000026], [85.81126380400008, 26.521496287000048], [85.81088789100005, 26.520891379000034], [85.81084790000006, 26.520719924000048], [85.81082300100007, 26.520273084000053], [85.81078826100008, 26.519596145000037], [85.81077843700007, 26.519203599000036], [85.81012710200008, 26.51779980400005], [85.81001683200003, 26.517650745000026], [85.80955565400006, 26.517122535000055], [85.80838244900008, 26.516057012000033], [85.80816679100008, 26.515867408000076], [85.80788623400008, 26.515411460000053], [85.80787655400007, 26.514689410000074], [85.80809752900007, 26.514283329000023], [85.80959779200003, 26.513408511000023], [85.81025505900004, 26.51312907600004], [85.81105294200006, 26.512578794000035], [85.81128930800008, 26.511522894000052], [85.81128941200006, 26.51133338300008], [85.81116429900004, 26.51077373700008], [85.81105451200006, 26.509794379000027], [85.81073926700003, 26.508363648000056], [85.81058387400003, 26.50816960000003], [85.81016765200008, 26.50805656400007], [85.80985665800006, 26.50805641900007], [85.80900886000006, 26.508191430000068], [85.80767446000004, 26.50841646600003], [85.80725311600008, 26.50848842700003], [85.80695723400004, 26.50843414900004], [85.80663137500005, 26.508172239000032], [85.80631050600005, 26.507860717000028], [85.80566355200006, 26.507648267000036], [85.80528731500004, 26.507693239000048], [85.80434395100008, 26.50843287500004], [85.80336054400004, 26.50888820800003], [85.80303951000008, 26.50886992200003], [85.80281379900003, 26.508793154000045], [85.80263843900008, 26.508549310000035], [85.80236313700004, 26.507651185000043], [85.80206770600006, 26.506807095000056], [85.80184774600008, 26.50567875200005], [85.80181269200006, 26.505529844000023], [85.80149718500007, 26.50483016900006], [85.80124170200008, 26.504288509000048], [85.80104120600004, 26.504080844000043], [85.80049450900003, 26.504044410000063], [85.80011337000008, 26.503868198000077], [85.79951683600007, 26.503321869000047], [85.79889545500004, 26.502563388000056], [85.79870499400005, 26.50237366500005], [85.79834900500003, 26.502143318000037], [85.79789784000008, 26.501813688000027], [85.79776759600009, 26.50152481600003], [85.79796858400005, 26.501005908000025], [85.79811420200008, 26.50065849500004], [85.79861453400008, 26.500361724000072], [85.79899937300007, 26.500084969000056], [85.79933966400006, 26.49991663000003], [85.79955924800004, 26.49969017600006], [85.79958773600003, 26.499356121000062], [85.79945462300003, 26.49877448600006], [85.79909810700008, 26.49763416500008], [85.79871311800008, 26.496850446000053], [85.79843025300005, 26.496422818000042], [85.79819862600004, 26.496229648000053], [85.79782680600005, 26.496077659000036], [85.79750543600005, 26.496002127000054], [85.79719443200008, 26.496003339000026], [85.79685379700004, 26.496076794000032], [85.79634325900008, 26.496308959000032], [85.79581789500008, 26.496563669000068], [85.79535723100008, 26.496727899000064], [85.79497150100008, 26.496824097000058], [85.79437531500008, 26.496961773000066], [85.79348303500007, 26.497059969000077], [85.79239933900004, 26.49700086300004], [85.79224867500005, 26.49694734900004], [85.79207184600006, 26.49668173300006], [85.79183064900008, 26.49657883100008], [85.79077802100005, 26.496713687000067], [85.79055230200004, 26.496692034000034], [85.78994509500006, 26.49664013100005], [85.78808414600007, 26.496583976000068], [85.78789873600005, 26.496611726000026], [85.78774340000007, 26.49663946800007], [85.78769885900005, 26.49677954200007], [85.78758390600007, 26.497948735000023], [85.78738306200006, 26.500043426000047], [85.78739463200003, 26.500377284000024], [85.78737051400003, 26.500912922000055], [85.78753946500007, 26.502004792000037], [85.78779562500006, 26.502705952000042], [85.78977498800003, 26.505270392000057], [85.79049172300006, 26.505898089000027], [85.79052502100006, 26.50847495000005], [85.79058497100004, 26.50874581000005], [85.79091395800003, 26.51167481500005], [85.79092358000008, 26.512225400000034], [85.79099805800007, 26.513304], [85.79072182100003, 26.513809292000076], [85.79033032300003, 26.51415649200004], [85.79012922600003, 26.514792734000025], [85.79167237700005, 26.521086507000064], [85.79838245700006, 26.52779658700007], [85.80523530500005, 26.52622614300003], [85.81066047600007, 26.527082749000044], [85.81280199100007, 26.53393559700004], [85.81708502000004, 26.53950353500005], [85.82011102400008, 26.54699293300007], [85.82073335500007, 26.54674044500007], [85.82079383100006, 26.54623954500005], [85.82053823100006, 26.545445203000043], [85.82050340300003, 26.544885630000067], [85.82071420200003, 26.544714245000023], [85.82089493300003, 26.54457885900007], [85.82103552900008, 26.544398487000024], [85.82101061800006, 26.54400126400003], [85.82124170500003, 26.54321616200008], [85.82169841900009, 26.542918470000075], [85.82241105100007, 26.54261190400007], [85.82338457000003, 26.542237648000025], [85.82445346900005, 26.541881558000057], [85.82515603700006, 26.54154332400003], [85.82545204500008, 26.54149834900005], [85.82554244500005, 26.541412613000034], [85.82535696000008, 26.540997342000026], [85.82493086300008, 26.540202905000058], [85.82481071700005, 26.539544066000076], [85.82507193400005, 26.53872727600003], [85.82523767600009, 26.53837532700004], [85.82551390800006, 26.537675969000077], [85.82558452600006, 26.53675987400004], [85.82551467700006, 26.535879838000028], [85.82526410600008, 26.535126082000033], [85.82514888600008, 26.534801152000057], [85.82472274200006, 26.53389396600005], [85.82448236700003, 26.533068039000057], [85.82424195700008, 26.532025456000042], [85.82421689600005, 26.53187655200003], [85.82384093900004, 26.531190409000033], [85.82333474100005, 26.530188360000068], [85.82255745100008, 26.52941194300007], [85.82188534800008, 26.529127325000047], [85.82161447600004, 26.528901597000072], [85.82153426200006, 26.528743607000024], [85.82139918400009, 26.52805310100007], [85.82094815100004, 26.527024049000033], [85.82075769900007, 26.526459851000027]]]]}}]}