{"type": "FeatureCollection", "features": [{"type": "Feature", "properties": {"OBJECTID": 6735, "GPCODE": "98454", "GPNAME_1": "PATAHI", "DIST_CEN_C": "04", "BLK_NAME": "BAIRGANIA", "ST_NAME": "BIHAR", "ST_CODE_1": "10", "GPCODE2011": "100941", "REMARKS": "FINALIZED", "MAP_STATUS": "COMPLETED", "BLK_C_2001": "040001", "BLK_C_2011": "01063", "DIST_NAME": "SITAMARHI", "code2011": 0.0, "Shape_Leng": 0.13088359673, "Shape_Area": 0.00076767994, "Area": 8.46569}, "geometry": {"type": "MultiPolygon", "coordinates": [[[[85.28118967300009, 26.696746207000047], [85.28304810000003, 26.694782691000057], [85.28333929400003, 26.694195981000064], [85.28343947200005, 26.69332054000006], [85.28337399800006, 26.692675183000063], [85.28301209800009, 26.691971267000042], [85.28252458400004, 26.691447964000076], [85.28346392700007, 26.690924247000055], [85.28368985200007, 26.690396134000025], [85.28408152100008, 26.689723685000047], [85.28475951900003, 26.689037535000068], [85.28446751100006, 26.687106151000023], [85.28404507000005, 26.685558425000067], [85.28404454700006, 26.683947343000057], [85.28420458500005, 26.681781176000072], [85.28437002000004, 26.68047245400004], [85.28407825300008, 26.67933077500004], [85.28352024900005, 26.67775144600006], [85.28280647200006, 26.67634362600006], [85.28231910800008, 26.675964676000035], [85.28218839400006, 26.67543670500004], [85.28228356300008, 26.674443919000055], [85.28228334300007, 26.673771509000062], [85.28221794200005, 26.673505224000053], [85.28146435300005, 26.673198546000037], [85.28077583500004, 26.671786180000026], [85.28020798500006, 26.67079355100003], [85.27963503400008, 26.669796306000023], [85.27898650500003, 26.667738686000064], [85.27890599100004, 26.66690381500007], [85.27897115900004, 26.66636224800004], [85.27936279100004, 26.665937950000057], [85.27965404000008, 26.665631035000047], [85.27973416100008, 26.66458409300003], [85.27989456700004, 26.663424216000067], [85.27979894300006, 26.662941429000057], [85.27948743100006, 26.662517256000058], [85.27921602500004, 26.66190807600003], [85.27918074200005, 26.661195065000072], [85.27849747800008, 26.660554391000062], [85.27820607500007, 26.66034687100006], [85.27752302500005, 26.66031990700003], [85.27673953400006, 26.660288500000036], [85.27631755400006, 26.66011260700003], [85.27569957700007, 26.65929591200006], [85.27498125100004, 26.65850623800003], [85.27157066500007, 26.657022078000068], [85.26974741800007, 26.65643571000004], [85.26766293400004, 26.655556025000067], [85.26733590300006, 26.655635748000066], [85.26726497700008, 26.656362270000045], [85.26711880800008, 26.65694428300003], [85.26688241100004, 26.657282550000048], [85.26638473900005, 26.657710843000075], [85.26581686400004, 26.65807147000004], [85.26497772300007, 26.658562663000055], [85.26393743300008, 26.659139553000045], [85.26269640700008, 26.659634934000053], [85.26306806400004, 26.659992528000032], [85.26306818100005, 26.66098984100006], [85.26362601400007, 26.663909596000053], [85.26404822100005, 26.665868054000043], [85.26447022500008, 26.66636445300003], [85.26531916600004, 26.66686528300005], [85.26700695200003, 26.667997830000047], [85.26723308500004, 26.668322669000077], [85.26746419800008, 26.668850685000052], [85.26749440600008, 26.66931543100003], [85.26729860600005, 26.669667512000046], [85.26681139500005, 26.669784910000033], [85.26589714900007, 26.669784984000046], [85.26521403600003, 26.669816670000046], [85.26492282500004, 26.67004681700007], [85.26476211000005, 26.67059738000006], [85.26505871100005, 26.67247014700007], [85.26241162600007, 26.672754734000023], [85.26117095400008, 26.673106821000033], [85.25853386400007, 26.674334483000052], [85.25742880400009, 26.674596235000024], [85.25651962800004, 26.67494829900005], [85.25590182000008, 26.675647774000026], [85.25554526100007, 26.676351829000055], [85.25561051700004, 26.67720018400007], [85.25700745200004, 26.68339162500007], [85.25713819800006, 26.68479508100006], [85.25739441200005, 26.68529153000003], [85.25801737100005, 26.68555771000007], [85.25925318100008, 26.685467403000075], [85.26006704900004, 26.685174009000036], [85.26127256400008, 26.684239777000073], [85.26189046600007, 26.684005118000073], [85.26257368900008, 26.68418102000004], [85.26481959000006, 26.686428128000045], [85.26455842700005, 26.68707351200004], [85.26458866800004, 26.687718864000033], [85.26498065100003, 26.688508484000067], [85.26488020900007, 26.68877031200003], [85.26436277500005, 26.689005012000052], [85.26426232900008, 26.689239696000072], [85.26439303600006, 26.690322674000072], [85.26462424500005, 26.690995043000044], [85.26445858600005, 26.69149147400003], [85.26442855400006, 26.692773157000033], [85.26684047000003, 26.69513306600004], [85.26791576000005, 26.695778269000073], [85.27204581100005, 26.69721272000004], [85.27338232700004, 26.697478768000053], [85.27566332100008, 26.697713030000045], [85.27802978800008, 26.697798271000067], [85.27914003900008, 26.697504743000025], [85.28118967300009, 26.696746207000047]]]]}}, {"type": "Feature", "properties": {"OBJECTID": 6744, "GPCODE": "98453", "GPNAME_1": "PARSAUNI", "DIST_CEN_C": "04", "BLK_NAME": "BAIRGANIA", "ST_NAME": "BIHAR", "ST_CODE_1": "10", "GPCODE2011": "100940", "REMARKS": "FINALIZED", "MAP_STATUS": "COMPLETED", "BLK_C_2001": "040001", "BLK_C_2011": "01063", "DIST_NAME": "SITAMARHI", "code2011": 0.0, "Shape_Leng": 0.17069136235, "Shape_Area": 0.0008061555, "Area": 8.8878}, "geometry": {"type": "MultiPolygon", "coordinates": [[[[85.31650518100008, 26.714812134000056], [85.31846478700004, 26.71473446400006], [85.31998745600004, 26.714837484000043], [85.32044958100005, 26.714629693000063], [85.32301165200005, 26.71360407900005], [85.32684019700008, 26.712902522000036], [85.32755868500004, 26.71277129300006], [85.32787506600005, 26.712513869000077], [85.32764342400003, 26.71176487300005], [85.32669243100008, 26.709978345000025], [85.32487701200006, 26.707610131000024], [85.32418769100008, 26.706238676000055], [85.32366985400006, 26.705801179000048], [85.32225777000008, 26.705436358000043], [85.31943845300003, 26.704611928000077], [85.31741829500004, 26.70406683400006], [85.31666866700004, 26.702411057000063], [85.31520960500006, 26.699013657000023], [85.31174279300006, 26.69878499400005], [85.31019007500004, 26.698420137000028], [85.30869288200006, 26.698474882000028], [85.30725600100004, 26.69865601600003], [85.30622099700008, 26.698502977000032], [85.30495987500007, 26.698422263000054], [85.30407064700006, 26.698652742000036], [85.30401314200003, 26.693986574000064], [85.30372629100003, 26.692903659000024], [85.30315296900005, 26.69163573800006], [85.30283605500006, 26.690837136000027], [85.30292129200006, 26.69044900600005], [85.30303157400004, 26.689957070000048], [85.30211183800003, 26.689226330000054], [85.30099594300003, 26.687796221000042], [85.30059885800006, 26.68749395800006], [85.30026233000007, 26.68748058400007], [85.29644433200008, 26.687775225000053], [85.29450018100005, 26.687911185000075], [85.29295290600004, 26.68791171600003], [85.29120954600006, 26.68769103300008], [85.29019983200004, 26.687772583000026], [85.28890378600005, 26.687980545000073], [85.28826079700008, 26.688337242000046], [85.28763299900004, 26.688626165000073], [85.28600026300006, 26.688775530000044], [85.28475951900003, 26.689037535000068], [85.28408152100008, 26.689723685000047], [85.28368985200007, 26.690396134000025], [85.28346392700007, 26.690924247000055], [85.28252458400004, 26.691447964000076], [85.28301209800009, 26.691971267000042], [85.28337399800006, 26.692675183000063], [85.28343947200005, 26.69332054000006], [85.28333929400003, 26.694195981000064], [85.28304810000003, 26.694782691000057], [85.28118967300009, 26.696746207000047], [85.28107493900006, 26.69958928500006], [85.28136163300007, 26.700469170000076], [85.28193953600004, 26.700906805000045], [85.28326098500008, 26.701190758000052], [85.28406499500005, 26.70139819700006], [85.28486870100005, 26.701036936000037], [85.28716452300006, 26.700133855000047], [85.28862636200006, 26.69946101200003], [85.28960617800004, 26.699460810000062], [85.29084223100006, 26.699821464000024], [85.29159100500004, 26.700236369000038], [85.29207864000006, 26.701035020000063], [85.29258180400006, 26.70288508300007], [85.29222035900005, 26.70376069300005], [85.29064799600008, 26.704564358000027], [85.29007045000003, 26.70513313400005], [85.28955324500004, 26.706216408000046], [85.28946819400005, 26.70716862000006], [85.28926764400006, 26.708332941000037], [85.28903657800004, 26.708662395000033], [85.28869493000008, 26.70868955900005], [85.28809183800007, 26.708432493000032], [85.28587549400004, 26.706885202000024], [85.28427236900006, 26.70603267300004], [85.28349855700003, 26.705852372000038], [85.28286549200004, 26.705929274000027], [85.28254901700006, 26.706191026000056], [85.28226279200004, 26.706755202000068], [85.28254963400008, 26.708307562000073], [85.28283625000006, 26.70913334000005], [85.28418826700005, 26.71013934800004], [85.28551018400003, 26.71142965100006], [85.28640507600005, 26.712905104000072], [85.28660668500004, 26.714786858000025], [85.28643158900007, 26.71723730800005], [85.28746667000007, 26.71703394800005], [85.28798414800008, 26.716749495000045], [85.28861730000006, 26.716749399000037], [85.28901919700007, 26.71641078300007], [85.28996861600007, 26.715634327000032], [85.29088806600004, 26.715273095000043], [85.29132011800004, 26.71483519000003], [85.29146060000005, 26.71439746200008], [85.29131955900004, 26.713467881000042], [85.29140469700008, 26.71271873200004], [85.29180631500003, 26.711761915000068], [85.29212266500008, 26.710985640000047], [85.29195150900006, 26.71031322400006], [85.29223781500008, 26.71003333400006], [85.29302671000005, 26.709929330000023], [85.29423267100003, 26.710082390000025], [85.29512219500003, 26.710289739000075], [85.29557459000006, 26.71072732700003], [85.29724323500005, 26.711863949000076], [85.29819299300004, 26.711990026000024], [85.29974565600008, 26.711939862000065], [85.30095168500003, 26.712169604000053], [85.30131406100008, 26.713311137000062], [85.30163116400007, 26.714628738000044], [85.30208911700004, 26.716072687000064], [85.30272277400007, 26.717105856000046], [85.30429115300007, 26.71836429700005], [85.30501010500006, 26.71894621900003], [85.30686466300006, 26.719554671000026], [85.30946817300008, 26.72046520400005], [85.31211102100008, 26.71963826700005], [85.31471870700005, 26.719018850000054], [85.31420561400006, 26.718112017000067], [85.31408964400003, 26.71741254500006], [85.31409381000003, 26.71584660900004], [85.31520884900004, 26.71509704500005], [85.31650518100008, 26.714812134000056]]]]}}, {"type": "Feature", "properties": {"OBJECTID": 6745, "GPCODE": "98452", "GPNAME_1": "PACHTAKI YADU", "DIST_CEN_C": "04", "BLK_NAME": "BAIRGANIA", "ST_NAME": "BIHAR", "ST_CODE_1": "10", "GPCODE2011": "100939", "REMARKS": "FINALIZED", "MAP_STATUS": "COMPLETED", "BLK_C_2001": "040001", "BLK_C_2011": "01063", "DIST_NAME": "SITAMARHI", "code2011": 0.0, "Shape_Leng": 0.14180358322, "Shape_Area": 0.00065671234, "Area": 7.24008}, "geometry": {"type": "MultiPolygon", "coordinates": [[[[85.26928732200008, 26.724479049000024], [85.26934749500003, 26.72367583500005], [85.26954842800006, 26.723314768000023], [85.27000573200007, 26.723084567000058], [85.27052331300007, 26.72292649700006], [85.27066906400006, 26.722745958000075], [85.27069906100007, 26.72236689500005], [85.27063858900004, 26.721410219000063], [85.27072898900008, 26.721098866000034], [85.27136211100003, 26.72086413200003], [85.27253801700004, 26.72063378200005], [85.27305556200008, 26.720398970000076], [85.27320113600007, 26.719988326000077], [85.27320103900007, 26.719185109000023], [85.27317047000008, 26.717452173000027], [85.27351204000007, 26.716761675000043], [85.27488380300008, 26.716472644000078], [85.27577822500007, 26.71621520800005], [85.27655192100008, 26.715745795000032], [85.27712979200004, 26.715592204000075], [85.27793390400007, 26.715849263000052], [85.27966278500008, 26.71693656000008], [85.28044192400006, 26.717920108000044], [85.28110042600008, 26.71866914000003], [85.28190957800007, 26.719210494000038], [85.28282926400004, 26.719417816000032], [85.28389457800006, 26.71941762700004], [85.28507538800005, 26.718925440000078], [85.28588426300007, 26.71841072500007], [85.28612318900008, 26.71816609900003], [85.28631626100008, 26.71796842200007], [85.28638819800005, 26.717512385000077], [85.28643158900007, 26.71723730800005], [85.28660668500004, 26.714786858000025], [85.28640507600005, 26.712905104000072], [85.28551018400003, 26.71142965100006], [85.28418826700005, 26.71013934800004], [85.28283625000006, 26.70913334000005], [85.28254963400008, 26.708307562000073], [85.28226279200004, 26.706755202000068], [85.28254901700006, 26.706191026000056], [85.28286549200004, 26.705929274000027], [85.28349855700003, 26.705852372000038], [85.28427236900006, 26.70603267300004], [85.28587549400004, 26.706885202000024], [85.28809183800007, 26.708432493000032], [85.28869493000008, 26.70868955900005], [85.28903657800004, 26.708662395000033], [85.28926764400006, 26.708332941000037], [85.28946819400005, 26.70716862000006], [85.28955324500004, 26.706216408000046], [85.29007045000003, 26.70513313400005], [85.29064799600008, 26.704564358000027], [85.29222035900005, 26.70376069300005], [85.29258180400006, 26.70288508300007], [85.29207864000006, 26.701035020000063], [85.29159100500004, 26.700236369000038], [85.29084223100006, 26.699821464000024], [85.28960617800004, 26.699460810000062], [85.28862636200006, 26.69946101200003], [85.28716452300006, 26.700133855000047], [85.28486870100005, 26.701036936000037], [85.28406499500005, 26.70139819700006], [85.28326098500008, 26.701190758000052], [85.28193953600004, 26.700906805000045], [85.28136163300007, 26.700469170000076], [85.28107493900006, 26.69958928500006], [85.28118967300009, 26.696746207000047], [85.27914003900008, 26.697504743000025], [85.27802978800008, 26.697798271000067], [85.27566332100008, 26.697713030000045], [85.27338232700004, 26.697478768000053], [85.27204581100005, 26.69721272000004], [85.26791576000005, 26.695778269000073], [85.26684047000003, 26.69513306600004], [85.26442855400006, 26.692773157000033], [85.26406686900003, 26.693125182000074], [85.26338366000004, 26.693445583000027], [85.26192175200003, 26.694443077000074], [85.26106946600004, 26.695040567000035], [85.26080741800007, 26.695798495000076], [85.26036470200006, 26.696439007000038], [85.26045991200004, 26.696642096000062], [85.26097675600005, 26.697305896000046], [85.26162927000007, 26.698014917000023], [85.26159333900006, 26.69879111000006], [85.26155276700007, 26.69911597400005], [85.26141647800006, 26.699774726000044], [85.26128570800006, 26.699896425000077], [85.26064228300004, 26.700216303000047], [85.26023482800008, 26.700685321000037], [85.25992755100003, 26.70147935500006], [85.25971093500004, 26.702138038000044], [85.25964013600003, 26.702544144000058], [85.25958928700004, 26.70317132100007], [85.25954328200004, 26.703979037000067], [85.25954256400007, 26.704705648000072], [85.25970763500004, 26.70536910100003], [85.26013413500004, 26.706037309000067], [85.26068584200004, 26.706998960000078], [85.26106686500003, 26.707856753000044], [85.26095453600004, 26.709648229000038], [85.26056233300005, 26.709950198000058], [85.25996398600006, 26.710310788000072], [85.25932050500006, 26.710630657000024], [85.25865184800006, 26.71107686600004], [85.25807376100005, 26.711225244000047], [85.25811299800006, 26.71221815900003], [85.25813185000004, 26.71342300400005], [85.25802568100005, 26.71412692000007], [85.25780405900008, 26.714559976000032], [85.25791422800006, 26.714979698000036], [85.25814977900006, 26.715620725000065], [85.25824468100006, 26.71617584100005], [85.25805326000005, 26.716667595000047], [85.25780165100008, 26.71701038300006], [85.25728359800007, 26.717447668000034], [85.25658470900004, 26.71788484900003], [85.25593619600005, 26.718141477000074], [85.25566449800004, 26.718457148000027], [85.25573436500008, 26.718912999000054], [85.25598477500006, 26.719711963000066], [85.25624037100005, 26.720361980000064], [85.25649095200004, 26.721012072000065], [85.25722478400007, 26.72089988500005], [85.25748626400008, 26.72071051100005], [85.25771765800005, 26.720539259000077], [85.25831083400004, 26.720287056000075], [85.25869293700003, 26.72011580900005], [85.25904969800007, 26.720116175000044], [85.25943146400004, 26.720328513000027], [85.25985807200004, 26.720820794000076], [85.26047515900007, 26.721823116000053], [85.26078643900007, 26.722143714000026], [85.26097714800005, 26.72237855800006], [85.26097657500009, 26.722960701000034], [85.26095089800003, 26.723515716000065], [85.26068912100004, 26.72394422900004], [85.26025638200008, 26.724521544000027], [85.26065374200004, 26.724556703000076], [85.26269902100006, 26.72411877500008], [85.26370409300006, 26.723884014000078], [85.26482979100007, 26.72393805200005], [85.26591526000004, 26.72401017900006], [85.26643293500007, 26.72432153500006], [85.26677973000005, 26.72470956500007], [85.26718179500006, 26.724759179000046], [85.26801596400009, 26.724578525000027], [85.26928732200008, 26.724479049000024]]]]}}, {"type": "Feature", "properties": {"OBJECTID": 6749, "GPCODE": "98448", "GPNAME_1": "BELGANJ", "DIST_CEN_C": "04", "BLK_NAME": "BAIRGANIA", "ST_NAME": "BIHAR", "ST_CODE_1": "10", "GPCODE2011": "100935", "REMARKS": "FINALIZED", "MAP_STATUS": "COMPLETED", "BLK_C_2001": "040001", "BLK_C_2011": "01063", "DIST_NAME": "SITAMARHI", "code2011": 0.0, "Shape_Leng": 0.1670164973, "Shape_Area": 0.00066895723, "Area": 7.37364}, "geometry": {"type": "MultiPolygon", "coordinates": [[[[85.28643158900007, 26.71723730800005], [85.28638819800005, 26.717512385000077], [85.28631626100008, 26.71796842200007], [85.28619804000004, 26.719180213000072], [85.28625543000004, 26.720052288000034], [85.28662927400006, 26.72107367500007], [85.28710077800008, 26.721843507000074], [85.28789117800005, 26.72285616100004], [85.28927169800005, 26.723856440000077], [85.29037129600005, 26.72473784400006], [85.29211521300005, 26.726354241000024], [85.29286746600008, 26.72706428500004], [85.29315390100004, 26.726960404000067], [85.29357105400004, 26.727064002000077], [85.29480755100008, 26.727785736000044], [85.29519955100005, 26.72787582600006], [85.29552621200008, 26.727812537000034], [85.29605881200007, 26.727460386000075], [85.29765627500007, 26.725939019000066], [85.29923888200005, 26.725022438000053], [85.29960072500006, 26.725062931000025], [85.29982704800005, 26.725387797000053], [85.30015875000004, 26.725491413000043], [85.30073673800007, 26.72560409400006], [85.30120911700004, 26.725707645000057], [85.30215890500006, 26.72558997300007], [85.30348063300005, 26.725675291000073], [85.30388281100005, 26.725932284000066], [85.30443083500006, 26.726473613000053], [85.30493364600005, 26.72696531400004], [85.30536590700007, 26.727118605000044], [85.30596890500004, 26.727082290000055], [85.30688847400006, 26.72696460000003], [85.30881334500003, 26.72709469700004], [85.31047210900005, 26.72777082700003], [85.31133662700006, 26.72805483700006], [85.31185453100005, 26.72854646500008], [85.31220170600005, 26.72916909500003], [85.31216749000004, 26.730947091000075], [85.31225831200004, 26.731569845000024], [85.31269063200006, 26.73177270700006], [85.31386655500006, 26.731695425000055], [85.31521847000005, 26.731721935000053], [85.31616818700007, 26.73136045600006], [85.31714824500006, 26.731513457000062], [85.31801275800007, 26.73174765500005], [85.31876195300003, 26.73221209600007], [85.31901874900007, 26.733064940000077], [85.31939608200008, 26.733660401000066], [85.32023076300004, 26.734305305000078], [85.32091965900008, 26.73497741500006], [85.32126224200005, 26.736290413000063], [85.32187139300004, 26.73786955500003], [85.32232928700006, 26.738591358000065], [85.32207322400006, 26.739083356000037], [85.32190285900003, 26.739904772000045], [85.32145575400006, 26.74025245100006], [85.32102370800004, 26.740446704000078], [85.32079250100008, 26.740550693000046], [85.32063686700008, 26.740821502000074], [85.32062203100008, 26.741245693000053], [85.32088392500003, 26.742021714000032], [85.32111518100004, 26.742152522000026], [85.32174861300007, 26.742382302000067], [85.32236203300005, 26.742715989000033], [85.32265374500008, 26.743063258000063], [85.32285549800008, 26.74399735700007], [85.32298380700007, 26.745258268000043], [85.32379795000008, 26.745520273000068], [85.32414468800005, 26.745597107000037], [85.32447648800007, 26.745479854000052], [85.32496415300005, 26.74524092300004], [85.32579866400005, 26.744857634000027], [85.32716097500008, 26.744397809000077], [85.32924215800006, 26.743653910000035], [85.33129312900007, 26.74286482100007], [85.33284134400003, 26.742260525000063], [85.33435444600008, 26.741705986000056], [85.33556540300003, 26.742820953000034], [85.33721857900008, 26.74415713600007], [85.33942145100008, 26.743432789000053], [85.34022527300004, 26.74294042500003], [85.34025520500006, 26.742678660000024], [85.34016944700005, 26.742191369000068], [85.33936419600008, 26.740847055000074], [85.33832128600005, 26.73775202300004], [85.33803277100003, 26.73513927600004], [85.33834736000006, 26.732530746000066], [85.33829148700005, 26.73170494900006], [85.33791424200007, 26.731344146000026], [85.33696413000007, 26.730983699000035], [85.33235932700006, 26.729253613000026], [85.32934344900008, 26.728384335000044], [85.32551329400007, 26.727506491000042], [85.32387456100008, 26.726758164000046], [85.32324112200007, 26.726397465000048], [85.32312497800007, 26.725517583000055], [85.32330042500007, 26.724948910000023], [85.32416436300008, 26.72419934800007], [85.32541962600004, 26.722655347000057], [85.32625786200003, 26.721206279000057], [85.32709086700004, 26.71947298400005], [85.32700523900007, 26.719215785000074], [85.32682941600007, 26.719188818000077], [85.32648269300006, 26.719319837000057], [85.32527727600007, 26.720146338000063], [85.32435297900008, 26.720692873000075], [85.32186062600005, 26.720924311000033], [85.32070974000004, 26.720744382000078], [85.32007137100004, 26.72046038700006], [85.31964389500007, 26.719919067000035], [85.31921160400003, 26.719684572000062], [85.31854816600008, 26.71960816400008], [85.31681953300006, 26.719559403000062], [85.31589989700007, 26.719532705000063], [85.31471870700005, 26.719018850000054], [85.31211102100008, 26.71963826700005], [85.30946817300008, 26.72046520400005], [85.30686466300006, 26.719554671000026], [85.30501010500006, 26.71894621900003], [85.30429115300007, 26.71836429700005], [85.30272277400007, 26.717105856000046], [85.30208911700004, 26.716072687000064], [85.30163116400007, 26.714628738000044], [85.30131406100008, 26.713311137000062], [85.30095168500003, 26.712169604000053], [85.29974565600008, 26.711939862000065], [85.29819299300004, 26.711990026000024], [85.29724323500005, 26.711863949000076], [85.29557459000006, 26.71072732700003], [85.29512219500003, 26.710289739000075], [85.29423267100003, 26.710082390000025], [85.29302671000005, 26.709929330000023], [85.29223781500008, 26.71003333400006], [85.29195150900006, 26.71031322400006], [85.29212266500008, 26.710985640000047], [85.29180631500003, 26.711761915000068], [85.29140469700008, 26.71271873200004], [85.29131955900004, 26.713467881000042], [85.29146060000005, 26.71439746200008], [85.29132011800004, 26.71483519000003], [85.29088806600004, 26.715273095000043], [85.28996861600007, 26.715634327000032], [85.28901919700007, 26.71641078300007], [85.28861730000006, 26.716749399000037], [85.28798414800008, 26.716749495000045], [85.28746667000007, 26.71703394800005], [85.28643158900007, 26.71723730800005]]]]}}, {"type": "Feature", "properties": {"OBJECTID": 6786, "GPCODE": "98447", "GPNAME_1": "AKHTA PASHCHIMI (CHAKWA)", "DIST_CEN_C": "04", "BLK_NAME": "BAIRGANIA", "ST_NAME": "BIHAR", "ST_CODE_1": "10", "GPCODE2011": "100934", "REMARKS": "FINALIZED", "MAP_STATUS": "COMPLETED", "BLK_C_2001": "040001", "BLK_C_2011": "01063", "DIST_NAME": "SITAMARHI", "code2011": 0.0, "Shape_Leng": 0.14266096083, "Shape_Area": 0.00076250928, "Area": 8.40923}, "geometry": {"type": "MultiPolygon", "coordinates": [[[[85.30394240200008, 26.68643415500003], [85.30384412000006, 26.682670848000043], [85.30329606700008, 26.677216500000043], [85.30285393000008, 26.675415435000048], [85.30178317000008, 26.671053647000065], [85.29985873200008, 26.66465647600006], [85.29828065600003, 26.66116715800007], [85.29760743700007, 26.658216208000056], [85.29423221900004, 26.65800967200005], [85.29137953100008, 26.65819110900003], [85.28973225700008, 26.658421717000067], [85.28935046000004, 26.65834507200003], [85.28821993000008, 26.656743366000057], [85.28796364400006, 26.656450118000066], [85.28736594700007, 26.65641415300007], [85.28657248900004, 26.656540750000033], [85.28613542400007, 26.65640090900007], [85.28569338100004, 26.656080614000075], [85.28529654400006, 26.655719687000044], [85.28460328100005, 26.655295695000063], [85.28430184000007, 26.654749732000028], [85.28435666900003, 26.65368918300004], [85.28475824600008, 26.65296254200007], [85.28482838400004, 26.652226925000036], [85.28450137900006, 26.65042639400008], [85.28398890500006, 26.649853407000023], [85.28288383400007, 26.64909097000003], [85.28264262100004, 26.64874356000007], [85.28255701200004, 26.647786930000052], [85.28217011500004, 26.647037822000073], [85.28175822700007, 26.64674465400003], [85.28113549200003, 26.646848543000033], [85.27970445700004, 26.647512234000033], [85.27754501500004, 26.647882717000073], [85.27602343400008, 26.64807251700006], [85.27502416800007, 26.648596214000065], [85.27432621900005, 26.649183007000033], [85.27392951000007, 26.649300423000057], [85.27303561000008, 26.649210238000023], [85.27218679200007, 26.649196835000055], [85.27110715000003, 26.649684379000064], [85.27064588200005, 26.649776169000063], [85.27110259700004, 26.65016005600006], [85.27117233500007, 26.650764812000034], [85.27119683300003, 26.651446263000025], [85.27095515200006, 26.652109431000042], [85.27066834500005, 26.65279067700004], [85.27019598700008, 26.653002455000035], [85.26969386700006, 26.652984005000064], [85.26936246600008, 26.652852894000034], [85.26876528300005, 26.652405729000066], [85.26805749300007, 26.652044170000067], [85.26760548700008, 26.652043812000045], [85.26728894600006, 26.65221050300005], [85.26691161100007, 26.652833043000044], [85.26698164500004, 26.653216591000046], [85.26714639400006, 26.654205067000078], [85.26731147500004, 26.654994875000057], [85.26733590300006, 26.655635748000066], [85.26766293400004, 26.655556025000067], [85.26974741800007, 26.65643571000004], [85.27157066500007, 26.657022078000068], [85.27498125100004, 26.65850623800003], [85.27569957700007, 26.65929591200006], [85.27631755400006, 26.66011260700003], [85.27673953400006, 26.660288500000036], [85.27752302500005, 26.66031990700003], [85.27820607500007, 26.66034687100006], [85.27849747800008, 26.660554391000062], [85.27918074200005, 26.661195065000072], [85.27921602500004, 26.66190807600003], [85.27948743100006, 26.662517256000058], [85.27979894300006, 26.662941429000057], [85.27989456700004, 26.663424216000067], [85.27973416100008, 26.66458409300003], [85.27965404000008, 26.665631035000047], [85.27936279100004, 26.665937950000057], [85.27897115900004, 26.66636224800004], [85.27890599100004, 26.66690381500007], [85.27898650500003, 26.667738686000064], [85.27963503400008, 26.669796306000023], [85.28020798500006, 26.67079355100003], [85.28077583500004, 26.671786180000026], [85.28146435300005, 26.673198546000037], [85.28221794200005, 26.673505224000053], [85.28228334300007, 26.673771509000062], [85.28228356300008, 26.674443919000055], [85.28218839400006, 26.67543670500004], [85.28231910800008, 26.675964676000035], [85.28280647200006, 26.67634362600006], [85.28352024900005, 26.67775144600006], [85.28407825300008, 26.67933077500004], [85.28437002000004, 26.68047245400004], [85.28420458500005, 26.681781176000072], [85.28404454700006, 26.683947343000057], [85.28404507000005, 26.685558425000067], [85.28446751100006, 26.687106151000023], [85.28475951900003, 26.689037535000068], [85.28600026300006, 26.688775530000044], [85.28763299900004, 26.688626165000073], [85.28826079700008, 26.688337242000046], [85.28890378600005, 26.687980545000073], [85.29019983200004, 26.687772583000026], [85.29120954600006, 26.68769103300008], [85.29295290600004, 26.68791171600003], [85.29450018100005, 26.687911185000075], [85.29644433200008, 26.687775225000053], [85.30026233000007, 26.68748058400007], [85.30059885800006, 26.68749395800006], [85.30099594300003, 26.687796221000042], [85.30211183800003, 26.689226330000054], [85.30303157400004, 26.689957070000048], [85.30394240200008, 26.68643415500003]]]]}}, {"type": "Feature", "properties": {"OBJECTID": 6791, "GPCODE": "98449", "GPNAME_1": "JAMUA", "DIST_CEN_C": "04", "BLK_NAME": "BAIRGANIA", "ST_NAME": "BIHAR", "ST_CODE_1": "10", "GPCODE2011": "100936", "REMARKS": "FINALIZED", "MAP_STATUS": "COMPLETED", "BLK_C_2001": "040001", "BLK_C_2011": "01063", "DIST_NAME": "SITAMARHI", "code2011": 0.0, "Shape_Leng": 0.14562549166, "Shape_Area": 0.00051208192, "Area": 5.64729}, "geometry": {"type": "MultiPolygon", "coordinates": [[[[85.26442855400006, 26.692773157000033], [85.26445858600005, 26.69149147400003], [85.26462424500005, 26.690995043000044], [85.26439303600006, 26.690322674000072], [85.26426232900008, 26.689239696000072], [85.26436277500005, 26.689005012000052], [85.26488020900007, 26.68877031200003], [85.26498065100003, 26.688508484000067], [85.26458866800004, 26.687718864000033], [85.26455842700005, 26.68707351200004], [85.26481959000006, 26.686428128000045], [85.26257368900008, 26.68418102000004], [85.26189046600007, 26.684005118000073], [85.26127256400008, 26.684239777000073], [85.26006704900004, 26.685174009000036], [85.25925318100008, 26.685467403000075], [85.25801737100005, 26.68555771000007], [85.25739441200005, 26.68529153000003], [85.25713819800006, 26.68479508100006], [85.25700745200004, 26.68339162500007], [85.25561051700004, 26.67720018400007], [85.25554526100007, 26.676351829000055], [85.25590182000008, 26.675647774000026], [85.25651962800004, 26.67494829900005], [85.25742880400009, 26.674596235000024], [85.25853386400007, 26.674334483000052], [85.26117095400008, 26.673106821000033], [85.26241162600007, 26.672754734000023], [85.26505871100005, 26.67247014700007], [85.26476211000005, 26.67059738000006], [85.26492282500004, 26.67004681700007], [85.26521403600003, 26.669816670000046], [85.26589714900007, 26.669784984000046], [85.26681139500005, 26.669784910000033], [85.26729860600005, 26.669667512000046], [85.26749440600008, 26.66931543100003], [85.26746419800008, 26.668850685000052], [85.26723308500004, 26.668322669000077], [85.26700695200003, 26.667997830000047], [85.26531916600004, 26.66686528300005], [85.26447022500008, 26.66636445300003], [85.26404822100005, 26.665868054000043], [85.26362601400007, 26.663909596000053], [85.26306818100005, 26.66098984100006], [85.26306806400004, 26.659992528000032], [85.26269640700008, 26.659634934000053], [85.26185222800007, 26.66007199200004], [85.26104301200007, 26.660712137000075], [85.25967293900004, 26.66219800500005], [85.25830273300005, 26.663683864000063], [85.25756869800006, 26.664364711000076], [85.25656302700008, 26.66547846700007], [85.25549752700005, 26.66614097300004], [85.25470829600005, 26.66675851000008], [85.25408991300003, 26.667290543000036], [85.25366222800005, 26.667953555000054], [85.25333014600005, 26.668576005000034], [85.25301810400003, 26.669153341000026], [85.25249475100009, 26.670028418000072], [85.25197184700005, 26.67051979200005], [85.25149447500007, 26.670731491000026], [85.25046973700006, 26.670689999000047], [85.25006808000006, 26.670603895000056], [85.24932997300004, 26.67028283700006], [85.24863519400003, 26.669559525000068], [85.24778938100008, 26.66700969900006], [85.24778499500007, 26.66699078700003], [85.24705567600006, 26.663845984000034], [85.24573196800003, 26.661241004000033], [85.24522977000004, 26.660717428000055], [85.24472752600008, 26.660207467000077], [85.24415497500007, 26.659999907000042], [85.24375313200005, 26.660130757000047], [85.24293951000004, 26.66049620700005], [85.24113625400008, 26.66209815900004], [85.24067919900006, 26.662540372000024], [85.23916719000005, 26.664309313000047], [85.23898640700008, 26.664548419000027], [85.23775560000007, 26.666592625000078], [85.23722310100004, 26.667481573000032], [85.23709746300005, 26.667783885000063], [85.23689652500008, 26.66855557300005], [85.23700693900008, 26.66939948600003], [85.23718264500008, 26.669895901000075], [85.23743875200006, 26.670545771000036], [85.23821717400006, 26.67222453000005], [85.23849337000007, 26.67277067400005], [85.23886504100005, 26.673722889000032], [85.23892529500006, 26.674074838000024], [85.23888007900007, 26.67424178300007], [85.23872928000003, 26.674715614000036], [85.23840278900008, 26.67525263700003], [85.23837259100009, 26.675685817000044], [85.23837756300009, 26.67600621300005], [85.23846294800006, 26.676349225000024], [85.23864875000004, 26.67688624300007], [85.23899025100008, 26.678037007000057], [85.23930165100006, 26.678723022000042], [85.23953267100006, 26.679120144000024], [85.24020580200005, 26.679657158000055], [85.24161729200006, 26.68055988100008], [85.24345582700005, 26.681611442000076], [85.24404356500008, 26.681940869000073], [85.24476694400005, 26.682419227000025], [85.24490251800006, 26.682662933000074], [85.24512859900005, 26.683515843000066], [85.24536967100005, 26.683759515000077], [85.24601272700005, 26.684274045000052], [85.24662052800005, 26.68458540200004], [85.24750975000006, 26.684752451000065], [85.24776585800004, 26.684793012000057], [85.24839872200005, 26.685036815000046], [85.24909269600005, 26.68529200300003], [85.24983603200008, 26.685423531000026], [85.25054443200008, 26.685293262000073], [85.25154929500007, 26.68520845000006], [85.25232801800007, 26.685168471000054], [85.25294566900004, 26.68538111500004], [85.25340229100004, 26.685941058000026], [85.25361245400006, 26.686690333000058], [85.25368724000003, 26.68724549600006], [85.25375639900005, 26.68835566200005], [85.25385129900008, 26.68887472600005], [85.25403635200007, 26.689709765000032], [85.25432168400005, 26.690626090000023], [85.25448675900003, 26.691330223000023], [85.25458146200003, 26.692061373000058], [85.25479646000008, 26.693022745000064], [85.25513231800005, 26.693749583000056], [85.25567439800005, 26.694287055000075], [85.25613139100005, 26.694467899000074], [85.25643277700004, 26.694544928000028], [85.25701568700003, 26.69437393900006], [85.25780007200007, 26.69380598300006], [85.25826809800003, 26.69303011200003], [85.25835892600008, 26.69255634800004], [85.25842981500006, 26.692073592000042], [85.25848038000004, 26.691708092000056], [85.25856612900003, 26.691356134000046], [85.25885286000005, 26.690977377000024], [85.25924484200004, 26.690905436000037], [85.25958132200003, 26.69096444400003], [85.25988766400008, 26.691136162000078], [85.26014357000008, 26.691425134000042], [85.26031399400006, 26.69186299200004], [85.26036882500006, 26.692233145000046], [85.26041363100006, 26.692652859000077], [85.26047860300008, 26.69299589700006], [85.26051345400003, 26.69336589200003], [85.26063892000008, 26.693533003000027], [85.26096991500003, 26.694092813000054], [85.26102971400007, 26.694530609000026], [85.26106946600004, 26.695040567000035], [85.26192175200003, 26.694443077000074], [85.26338366000004, 26.693445583000027], [85.26406686900003, 26.693125182000074], [85.26442855400006, 26.692773157000033]]]]}}, {"type": "Feature", "properties": {"OBJECTID": 6814, "GPCODE": "98451", "GPNAME_1": "NANDWARA", "DIST_CEN_C": "04", "BLK_NAME": "BAIRGANIA", "ST_NAME": "BIHAR", "ST_CODE_1": "10", "GPCODE2011": "100938", "REMARKS": "FINALIZED", "MAP_STATUS": "COMPLETED", "BLK_C_2001": "040001", "BLK_C_2011": "01063", "DIST_NAME": "SITAMARHI", "code2011": 0.0, "Shape_Leng": 0.06357143476, "Shape_Area": 0.00020270554, "Area": 2.23427}, "geometry": {"type": "MultiPolygon", "coordinates": [[[[85.30478313800006, 26.73779138200007], [85.30552166000007, 26.737218047000056], [85.30676290800005, 26.736933254000064], [85.30728044000006, 26.736702842000057], [85.30756673500008, 26.736314641000035], [85.30860584300007, 26.73401271700004], [85.30946503800004, 26.733466374000045], [85.31093729900005, 26.733000937000043], [85.31174126900004, 26.732689228000027], [85.31269063200006, 26.73177270700006], [85.31225831200004, 26.731569845000024], [85.31216749000004, 26.730947091000075], [85.31220170600005, 26.72916909500003], [85.31185453100005, 26.72854646500008], [85.31133662700006, 26.72805483700006], [85.31047210900005, 26.72777082700003], [85.30881334500003, 26.72709469700004], [85.30688847400006, 26.72696460000003], [85.30596890500004, 26.727082290000055], [85.30536590700007, 26.727118605000044], [85.30493364600005, 26.72696531400004], [85.30443083500006, 26.726473613000053], [85.30388281100005, 26.725932284000066], [85.30348063300005, 26.725675291000073], [85.30215890500006, 26.72558997300007], [85.30120911700004, 26.725707645000057], [85.30073673800007, 26.72560409400006], [85.30015875000004, 26.725491413000043], [85.29982704800005, 26.725387797000053], [85.29960072500006, 26.725062931000025], [85.29923888200005, 26.725022438000053], [85.29765627500007, 26.725939019000066], [85.29605881200007, 26.727460386000075], [85.29552621200008, 26.727812537000034], [85.29519955100005, 26.72787582600006], [85.29480755100008, 26.727785736000044], [85.29357105400004, 26.727064002000077], [85.29315390100004, 26.726960404000067], [85.29286746600008, 26.72706428500004], [85.29229469600006, 26.727502152000056], [85.29211888900005, 26.72778649600008], [85.29220440300008, 26.728057238000076], [85.29298369100007, 26.728729455000064], [85.29410462300007, 26.729248079000058], [85.29472286400005, 26.729685587000063], [85.29490903100003, 26.73026768300008], [85.29493952300004, 26.731120566000072], [85.29465347900003, 26.732009618000063], [85.29413662500008, 26.734045036000055], [85.29387568400006, 26.73510565600003], [85.29361957800006, 26.73549382400006], [85.29321257100008, 26.735814308000045], [85.29282572100004, 26.736229611000056], [85.29255467900003, 26.737041968000028], [85.29204744800006, 26.738314684000045], [85.29278126000008, 26.73830547400007], [85.29321360500006, 26.738499370000056], [85.29375659600004, 26.73887381800006], [85.29400295700003, 26.739329488000067], [85.29420428100008, 26.73997473600008], [85.29428989300004, 26.740308679000066], [85.29453617900003, 26.74043947900003], [85.29543078900008, 26.740398608000078], [85.29611945500005, 26.740583382000068], [85.29868239500007, 26.739779277000025], [85.30154681600004, 26.73881248400005], [85.30478313800006, 26.73779138200007]]]]}}, {"type": "Feature", "properties": {"OBJECTID": 6815, "GPCODE": "98450", "GPNAME_1": "MUSACHAK", "DIST_CEN_C": "04", "BLK_NAME": "BAIRGANIA", "ST_NAME": "BIHAR", "ST_CODE_1": "10", "GPCODE2011": "100937", "REMARKS": "FINALIZED", "MAP_STATUS": "COMPLETED", "BLK_C_2001": "040001", "BLK_C_2011": "01063", "DIST_NAME": "SITAMARHI", "code2011": 0.0, "Shape_Leng": 0.09837094521, "Shape_Area": 0.00045901871, "Area": 5.05889}, "geometry": {"type": "MultiPolygon", "coordinates": [[[[85.31514066000005, 26.74944290700006], [85.31574387200004, 26.749411612000074], [85.31642233600007, 26.749461488000065], [85.31730702900006, 26.749470882000026], [85.31853363300007, 26.749164509000025], [85.31886033300003, 26.74910595800003], [85.31909163100005, 26.74901586200008], [85.31927268500004, 26.748871531000077], [85.31960461700004, 26.748411289000046], [85.31996158200008, 26.748158774000046], [85.32025823600009, 26.747951269000055], [85.32043433000007, 26.74775733000007], [85.32060529900008, 26.74753173000005], [85.32077629800006, 26.747328762000052], [85.32100751500008, 26.747197908000032], [85.32131928400008, 26.74706717300006], [85.32159580000007, 26.746936438000034], [85.32182699200007, 26.746783134000054], [85.32191762600007, 26.746616197000037], [85.32203862500006, 26.745790389000035], [85.32215436300004, 26.745470055000055], [85.32230516300007, 26.74529859200004], [85.32261692300006, 26.745231062000073], [85.32298380700007, 26.745258268000043], [85.32285549800008, 26.74399735700007], [85.32265374500008, 26.743063258000063], [85.32236203300005, 26.742715989000033], [85.32174861300007, 26.742382302000067], [85.32111518100004, 26.742152522000026], [85.32088392500003, 26.742021714000032], [85.32062203100008, 26.741245693000053], [85.32063686700008, 26.740821502000074], [85.32079250100008, 26.740550693000046], [85.32102370800004, 26.740446704000078], [85.32145575400006, 26.74025245100006], [85.32190285900003, 26.739904772000045], [85.32207322400006, 26.739083356000037], [85.32232928700006, 26.738591358000065], [85.32187139300004, 26.73786955500003], [85.32126224200005, 26.736290413000063], [85.32091965900008, 26.73497741500006], [85.32023076300004, 26.734305305000078], [85.31939608200008, 26.733660401000066], [85.31901874900007, 26.733064940000077], [85.31876195300003, 26.73221209600007], [85.31801275800007, 26.73174765500005], [85.31714824500006, 26.731513457000062], [85.31616818700007, 26.73136045600006], [85.31521847000005, 26.731721935000053], [85.31386655500006, 26.731695425000055], [85.31269063200006, 26.73177270700006], [85.31174126900004, 26.732689228000027], [85.31093729900005, 26.733000937000043], [85.30946503800004, 26.733466374000045], [85.30860584300007, 26.73401271700004], [85.30756673500008, 26.736314641000035], [85.30728044000006, 26.736702842000057], [85.30676290800005, 26.736933254000064], [85.30552166000007, 26.737218047000056], [85.30478313800006, 26.73779138200007], [85.30154681600004, 26.73881248400005], [85.29868239500007, 26.739779277000025], [85.29611945500005, 26.740583382000068], [85.29547167700008, 26.74193740000004], [85.29476861800003, 26.74350351000004], [85.29433678700008, 26.744636317000072], [85.29429210700005, 26.745940524000048], [85.29433762900004, 26.746572350000065], [85.29435281200006, 26.746856593000075], [85.29422220600009, 26.746987508000075], [85.29392061200008, 26.74696051600006], [85.29291025800006, 26.74683001300008], [85.29230702900009, 26.746816599000056], [85.29112593500008, 26.747065200000065], [85.28956285300006, 26.74724156800005], [85.28882905100005, 26.747462924000047], [85.28811030900005, 26.747684229000072], [85.28790940700009, 26.747955054000045], [85.28779394900005, 26.748460556000055], [85.28801063600008, 26.750188825000066], [85.28801666100009, 26.750337762000072], [85.28805317200005, 26.753305143000034], [85.28935734500004, 26.753214163000052], [85.29129245700005, 26.753171171000076], [85.29312927400008, 26.753039744000034], [85.29841806100006, 26.752858634000063], [85.30164892900007, 26.752565839000056], [85.30427281700008, 26.75249361300007], [85.30569967400004, 26.752376450000042], [85.30785628500007, 26.75210513500008], [85.30943091900008, 26.75159035400003], [85.31036587100004, 26.751178452000033], [85.31189120100004, 26.75069319100004], [85.31297134000005, 26.75054427500004], [85.31366408900004, 26.750341493000064], [85.31410997500006, 26.74996591300004], [85.31458764000007, 26.74966377900006], [85.31514066000005, 26.74944290700006]]]]}}, {"type": "Feature", "properties": {"OBJECTID": 6876, "GPCODE": "40121", "GPNAME_1": "Bairgania (NP)", "DIST_CEN_C": "04", "BLK_NAME": "BAIRGANIA", "ST_NAME": "BIHAR", "ST_CODE_1": "10", "GPCODE2011": "801293", "REMARKS": "FINALIZED", "MAP_STATUS": "COMPLETED", "BLK_C_2001": "040001", "BLK_C_2011": "01063", "DIST_NAME": "SITAMARHI", "code2011": 0.0, "Shape_Leng": 0.16253928974, "Shape_Area": 0.0011961563, "Area": 13.184}, "geometry": {"type": "MultiPolygon", "coordinates": [[[[85.28805317200005, 26.753305143000034], [85.28801666100009, 26.750337762000072], [85.28801063600008, 26.750188825000066], [85.28779394900005, 26.748460556000055], [85.28790940700009, 26.747955054000045], [85.28811030900005, 26.747684229000072], [85.28882905100005, 26.747462924000047], [85.28956285300006, 26.74724156800005], [85.29112593500008, 26.747065200000065], [85.29230702900009, 26.746816599000056], [85.29291025800006, 26.74683001300008], [85.29392061200008, 26.74696051600006], [85.29422220600009, 26.746987508000075], [85.29435281200006, 26.746856593000075], [85.29433762900004, 26.746572350000065], [85.29429210700005, 26.745940524000048], [85.29433678700008, 26.744636317000072], [85.29476861800003, 26.74350351000004], [85.29547167700008, 26.74193740000004], [85.29611945500005, 26.740583382000068], [85.29543078900008, 26.740398608000078], [85.29453617900003, 26.74043947900003], [85.29428989300004, 26.740308679000066], [85.29420428100008, 26.73997473600008], [85.29400295700003, 26.739329488000067], [85.29375659600004, 26.73887381800006], [85.29321360500006, 26.738499370000056], [85.29278126000008, 26.73830547400007], [85.29204744800006, 26.738314684000045], [85.29255467900003, 26.737041968000028], [85.29282572100004, 26.736229611000056], [85.29321257100008, 26.735814308000045], [85.29361957800006, 26.73549382400006], [85.29387568400006, 26.73510565600003], [85.29413662500008, 26.734045036000055], [85.29465347900003, 26.732009618000063], [85.29493952300004, 26.731120566000072], [85.29490903100003, 26.73026768300008], [85.29472286400005, 26.729685587000063], [85.29410462300007, 26.729248079000058], [85.29298369100007, 26.728729455000064], [85.29220440300008, 26.728057238000076], [85.29211888900005, 26.72778649600008], [85.29229469600006, 26.727502152000056], [85.29286746600008, 26.72706428500004], [85.29211521300005, 26.726354241000024], [85.29037129600005, 26.72473784400006], [85.28927169800005, 26.723856440000077], [85.28789117800005, 26.72285616100004], [85.28710077800008, 26.721843507000074], [85.28662927400006, 26.72107367500007], [85.28625543000004, 26.720052288000034], [85.28619804000004, 26.719180213000072], [85.28631626100008, 26.71796842200007], [85.28612318900008, 26.71816609900003], [85.28588426300007, 26.71841072500007], [85.28507538800005, 26.718925440000078], [85.28389457800006, 26.71941762700004], [85.28282926400004, 26.719417816000032], [85.28190957800007, 26.719210494000038], [85.28110042600008, 26.71866914000003], [85.28044192400006, 26.717920108000044], [85.27966278500008, 26.71693656000008], [85.27793390400007, 26.715849263000052], [85.27712979200004, 26.715592204000075], [85.27655192100008, 26.715745795000032], [85.27577822500007, 26.71621520800005], [85.27488380300008, 26.716472644000078], [85.27351204000007, 26.716761675000043], [85.27317047000008, 26.717452173000027], [85.27320103900007, 26.719185109000023], [85.27320113600007, 26.719988326000077], [85.27305556200008, 26.720398970000076], [85.27253801700004, 26.72063378200005], [85.27136211100003, 26.72086413200003], [85.27072898900008, 26.721098866000034], [85.27063858900004, 26.721410219000063], [85.27069906100007, 26.72236689500005], [85.27066906400006, 26.722745958000075], [85.27052331300007, 26.72292649700006], [85.27000573200007, 26.723084567000058], [85.26954842800006, 26.723314768000023], [85.26934749500003, 26.72367583500005], [85.26928732200008, 26.724479049000024], [85.26801596400009, 26.724578525000027], [85.26718179500006, 26.724759179000046], [85.26677973000005, 26.72470956500007], [85.26643293500007, 26.72432153500006], [85.26591526000004, 26.72401017900006], [85.26482979100007, 26.72393805200005], [85.26370409300006, 26.723884014000078], [85.26269902100006, 26.72411877500008], [85.26065374200004, 26.724556703000076], [85.26025638200008, 26.724521544000027], [85.25980336200007, 26.725310877000027], [85.25904380200006, 26.726063839000062], [85.25851053700006, 26.72655987400003], [85.25871086000006, 26.727282028000047], [85.25891622400007, 26.727999688000068], [85.25898596700006, 26.728599987000052], [85.25913658300004, 26.72873542900004], [85.25958810800006, 26.729525523000063], [85.25958758400003, 26.730040036000048], [85.25951661000005, 26.73059500100004], [85.25915924300006, 26.731149817000073], [85.25858590800004, 26.731559971000024], [85.25765563700008, 26.732114299000045], [85.25646402900009, 26.732623189000037], [85.25537295800007, 26.73307358900007], [85.25422622600007, 26.733925516000056], [85.25351706900005, 26.734394206000047], [85.25284330600005, 26.734718547000057], [85.25213405200003, 26.735209775000044], [85.25177676600003, 26.735678819000043], [85.25170619800008, 26.735881844000062], [85.25217292700006, 26.736550089000048], [85.25263954500008, 26.737222936000023], [85.25281023000008, 26.73741714600004], [85.25322174100006, 26.738058256000045], [85.25362848200007, 26.738397103000068], [85.25424605000006, 26.738912070000026], [85.25474311300007, 26.739426930000036], [85.25529530100005, 26.740131404000067], [85.25555610500004, 26.74058287300005], [85.25574180300003, 26.74092599200003], [85.25612277100004, 26.741842381000026], [85.25633300100003, 26.742763109000066], [85.25647752000003, 26.743877867000037], [85.25661710400004, 26.74505130400007], [85.25668631000008, 26.746138958000074], [85.25680611900003, 26.746937770000045], [85.25702165300004, 26.74757420700007], [85.25709423700005, 26.74787437200007], [85.25716682400008, 26.74817454400005], [85.25740233100004, 26.74881555500008], [85.25766312200005, 26.749411464000048], [85.25799431900003, 26.749953215000062], [85.25835088200006, 26.750336051000033], [85.25851606300006, 26.750931851000075], [85.25851584700007, 26.751229674000058], [85.25840001500006, 26.751450686000055], [85.25808824200004, 26.75153621100003], [85.25680149600004, 26.751499014000046], [85.25615303100005, 26.751512002000027], [85.25564532500005, 26.751565721000077], [85.25494146200003, 26.75170053200003], [85.25428268200005, 26.751943682000046], [85.25403095200005, 26.752349568000056], [85.25353702100006, 26.753639804000045], [85.25346582300006, 26.754402412000047], [85.25360085000005, 26.75507945000004], [85.25403743900006, 26.755797267000048], [85.25429302800006, 26.756492439000056], [85.25439786000004, 26.757399496000062], [85.25617926400008, 26.756650706000073], [85.25695045200007, 26.75622428500003], [85.25714487100004, 26.756187501000056], [85.26006676100008, 26.755623014000037], [85.26388824100007, 26.755125445000033], [85.26654512200008, 26.754818228000033], [85.26805393500007, 26.754672162000077], [85.27054266500005, 26.754412568000077], [85.27303138800005, 26.75415302700003], [85.27647541900006, 26.753905204000034], [85.28062442700008, 26.753701843000044], [85.28609373200004, 26.753418285000066], [85.28805317200005, 26.753305143000034]]]]}}]}