{"type": "FeatureCollection", "features": [{"type": "Feature", "properties": {"OBJECTID": 6638, "GPCODE": "98559", "GPNAME_1": "BATH ASLI", "DIST_CEN_C": "04", "BLK_NAME": "NANPUR", "ST_NAME": "BIHAR", "ST_CODE_1": "10", "GPCODE2011": "101046", "REMARKS": "FINALIZED", "MAP_STATUS": "COMPLETED", "BLK_C_2001": "040016", "BLK_C_2011": "01078", "DIST_NAME": "SITAMARHI", "code2011": 0.0, "Shape_Leng": 0.12324936934, "Shape_Area": 0.00048484982, "Area": 5.35893}, "geometry": {"type": "MultiPolygon", "coordinates": [[[[85.61023805800005, 26.39262278700005], [85.61407459100008, 26.39203536800005], [85.61532654500007, 26.391779451000048], [85.61556677900006, 26.391688629000043], [85.61570176100008, 26.391593487000023], [85.61599130600007, 26.391240779000043], [85.61617119800007, 26.391095885000027], [85.61646652800005, 26.39098228000006], [85.61726757400004, 26.39077264100007], [85.61765779900009, 26.390595705000067], [85.61780258400006, 26.39040126200007], [85.61783199100006, 26.39021611800007], [85.61779615800003, 26.38997708000005], [85.61769006100008, 26.389692979000074], [85.61736776300006, 26.389183867000042], [85.61634656000007, 26.38792291900006], [85.61622550500005, 26.38768399500003], [85.61622519500008, 26.38758469100003], [85.61637999400006, 26.38739025700005], [85.61677506500007, 26.387159119000046], [85.61752077300008, 26.386877369000047], [85.61872719300004, 26.386522269000068], [85.62024927600004, 26.386139246000027], [85.62170630200006, 26.38581957200006], [85.62321873000008, 26.38558100700004], [85.62571839700007, 26.385384963000035], [85.62612903600007, 26.38530713800003], [85.62629412500007, 26.385234466000043], [85.62640397700005, 26.385116838000044], [85.62646352700006, 26.384922691000043], [85.62643181700008, 26.38440378200005], [85.62594422900008, 26.382392302000028], [85.62535181900006, 26.382032829000025], [85.62407552900004, 26.380907937000075], [85.62365872100008, 26.380606664000027], [85.62342788300003, 26.380517032000057], [85.62272102500003, 26.380397023000057], [85.62108089000003, 26.379832579000038], [85.62093017200004, 26.37973371100003], [85.62082455400008, 26.379594103000045], [85.62045007700004, 26.378430776000073], [85.62030875900007, 26.378119682000033], [85.62011762300006, 26.37787656000006], [85.61968572700005, 26.37755722600008], [85.61947955700003, 26.377327621000063], [85.61935836900005, 26.377021050000053], [85.61916057300004, 26.376272380000046], [85.61903444100005, 26.376010996000048], [85.61891387600008, 26.37590294200004], [85.61875332600005, 26.375835721000044], [85.61763565400008, 26.37571673800005], [85.61732981600005, 26.375640745000055], [85.61718921400006, 26.37555089800003], [85.61703321400006, 26.37532565500004], [85.61648096000005, 26.373386505000042], [85.61627387100003, 26.372863582000036], [85.61604698200006, 26.372421908000035], [85.61580555400008, 26.372111093000058], [85.61551427100005, 26.371899727000027], [85.61512301000005, 26.371742760000075], [85.61454141000007, 26.371581767000066], [85.61382566800006, 26.37181374200003], [85.61318519900004, 26.372072649000074], [85.61279523500008, 26.372344376000058], [85.61247577700004, 26.372710769000037], [85.61228640600007, 26.373049665000053], [85.61211747700008, 26.37348336900004], [85.61144806200008, 26.375723464000032], [85.61116477700006, 26.37646428000005], [85.61089560700003, 26.376893663000033], [85.61060562300008, 26.37709745500007], [85.60985981300007, 26.377320456000064], [85.60868787300006, 26.37749946300005], [85.60827712000008, 26.37750499300006], [85.60797635800003, 26.377460554000038], [85.60713873400005, 26.377164851000032], [85.60680283800008, 26.377111546000037], [85.60650732600004, 26.37713033500006], [85.60459936900008, 26.377437411000074], [85.60354254000003, 26.377552885000057], [85.60255550600004, 26.377564325000037], [85.60225969300006, 26.37748380100004], [85.60202873000009, 26.377339928000026], [85.60182260800008, 26.377096769000048], [85.60107161400003, 26.375640934000046], [85.60068895400008, 26.375019076000058], [85.60036236500008, 26.374694997000063], [85.59987057100005, 26.37445249500007], [85.59960951600004, 26.374272602000076], [85.59946371000007, 26.374096957000063], [85.59935279400008, 26.373876065000047], [85.59929190500003, 26.373600916000044], [85.59927592100007, 26.373280529000056], [85.59947594900007, 26.371501969000064], [85.59950848500006, 26.370653533000052], [85.59947598700006, 26.369850318000033], [85.59932877500006, 26.36920529400004], [85.59866812800004, 26.367789834000064], [85.59854648100008, 26.367311783000048], [85.59854000200005, 26.366810831000066], [85.59864351300007, 26.36626000800004], [85.59887676700004, 26.365537386000028], [85.59819978300004, 26.36529534300007], [85.59782388200006, 26.36523305000003], [85.59722788100004, 26.365293233000045], [85.59655705300008, 26.365470781000056], [85.59585156200006, 26.36576591100004], [85.59476162700008, 26.366481543000077], [85.59394123200008, 26.366907705000074], [85.59185494900004, 26.367869469000027], [85.59085901700007, 26.368205798000076], [85.59145458800003, 26.37142207200003], [85.59162847900006, 26.372622094000064], [85.59172197800007, 26.373723005000045], [85.59178270300004, 26.373948459000076], [85.59191850500008, 26.374110662000078], [85.59211406900005, 26.374191385000074], [85.59380308800007, 26.37437239600007], [85.59421429700006, 26.374493264000023], [85.59441001100004, 26.37462368300004], [85.59455582200007, 26.374790312000073], [85.59471709500008, 26.37510126500007], [85.59521738000007, 26.376553215000058], [85.59536981700006, 26.377261377000025], [85.59536725300006, 26.37806022600006], [85.59482738300005, 26.38353111200007], [85.59480446900005, 26.384253276000038], [85.59492104500004, 26.38469975000004], [85.59515760500005, 26.385042154000075], [85.59550402500008, 26.385284994000074], [85.59624167100003, 26.385644257000024], [85.59648779000008, 26.38585579900007], [85.59661917800008, 26.386225529000058], [85.59673812500006, 26.387457229000063], [85.59671927300008, 26.387854426000047], [85.59662501600008, 26.388157032000038], [85.59603155000008, 26.38910615900005], [85.59571705100007, 26.389522128000067], [85.59510767600005, 26.390168906000042], [85.59436322800008, 26.390883747000032], [85.59551605900003, 26.391007346000038], [85.59600224200005, 26.391024188000074], [85.59698920900007, 26.390985734000026], [85.59949905600007, 26.39077198800004], [85.60034086000007, 26.39078353600007], [85.60076200300006, 26.390845676000026], [85.60114822100007, 26.390980124000066], [85.60155486400004, 26.39121370500004], [85.60220278000008, 26.391722134000076], [85.60337866300006, 26.392820323000024], [85.60370487200004, 26.392986552000025], [85.60391043200008, 26.393026680000048], [85.60450688100008, 26.39304773500004], [85.60535356100007, 26.393005053000024], [85.60913071200008, 26.392652571000042], [85.61023805800005, 26.39262278700005]]]]}}, {"type": "Feature", "properties": {"OBJECTID": 6642, "GPCODE": "98570", "GPNAME_1": "MOHINI", "DIST_CEN_C": "04", "BLK_NAME": "NANPUR", "ST_NAME": "BIHAR", "ST_CODE_1": "10", "GPCODE2011": "101057", "REMARKS": "FINALIZED", "MAP_STATUS": "COMPLETED", "BLK_C_2001": "040016", "BLK_C_2011": "01078", "DIST_NAME": "SITAMARHI", "code2011": 0.0, "Shape_Leng": 0.11582076189, "Shape_Area": 0.0004975003, "Area": 5.49792}, "geometry": {"type": "MultiPolygon", "coordinates": [[[[85.60740471100007, 26.41139437700008], [85.60764530700004, 26.411384738000038], [85.60836209800004, 26.411446199000068], [85.60901636100004, 26.410713463000036], [85.60924655600007, 26.410581963000027], [85.60941184300003, 26.410559007000074], [85.60960232400004, 26.410581076000028], [85.61005906500003, 26.410778506000042], [85.61096819400007, 26.411430590000066], [85.61131950100008, 26.41159673100003], [85.61159538300006, 26.411659177000047], [85.61201635800006, 26.411662664000062], [85.61226681600004, 26.41160332900006], [85.61246692700007, 26.41150806400003], [85.61260688200008, 26.41136774000006], [85.61269087500006, 26.410988459000066], [85.61263871100005, 26.410334258000034], [85.61242835300004, 26.40877332100007], [85.61246704200005, 26.408321940000064], [85.61256151900005, 26.408082553000042], [85.61274620800003, 26.407869935000065], [85.61316155900005, 26.407661279000024], [85.61395261600006, 26.40743361400007], [85.61532986000003, 26.407136851000075], [85.61370502600005, 26.40519593600004], [85.61324145700007, 26.404393768000034], [85.61294851100007, 26.403645393000033], [85.61248701800008, 26.40193165100004], [85.61169828700008, 26.39807511300006], [85.61120535100008, 26.39587861900003], [85.61066819400008, 26.393966555000077], [85.61023805800005, 26.39262278700005], [85.60913071200008, 26.392652571000042], [85.60535356100007, 26.393005053000024], [85.60450688100008, 26.39304773500004], [85.60391043200008, 26.393026680000048], [85.60370487200004, 26.392986552000025], [85.60337866300006, 26.392820323000024], [85.60220278000008, 26.391722134000076], [85.60155486400004, 26.39121370500004], [85.60114822100007, 26.390980124000066], [85.60076200300006, 26.390845676000026], [85.60034086000007, 26.39078353600007], [85.59949905600007, 26.39077198800004], [85.59698920900007, 26.390985734000026], [85.59600224200005, 26.391024188000074], [85.59551605900003, 26.391007346000038], [85.59436322800008, 26.390883747000032], [85.59362378000003, 26.39159858900007], [85.59220883600005, 26.39267602600006], [85.59168906900004, 26.393133013000067], [85.59106990700008, 26.393901710000023], [85.58922946200005, 26.39340963400008], [85.58892002400006, 26.393839120000052], [85.58598968500007, 26.39422059700007], [85.58343940300006, 26.394334873000048], [85.58160004300004, 26.39421277200006], [85.58107677200007, 26.393460318000052], [85.58033912300004, 26.393100986000036], [85.57973840500006, 26.39318712900007], [85.57764803000003, 26.394790526000065], [85.57725383000007, 26.395378100000073], [85.57697968600007, 26.395897699000045], [85.57676611900007, 26.396588635000057], [85.57664981700003, 26.39799697500007], [85.57636303100008, 26.39934245200004], [85.576409, 26.399667285000078], [85.57662550200007, 26.400014293000027], [85.57731928900006, 26.400802463000048], [85.57796757800008, 26.401455295000062], [85.57901240500007, 26.402337428000067], [85.58012688300005, 26.403029855000057], [85.58093987000007, 26.40342064600003], [85.58249030100006, 26.404062339000063], [85.58356366200007, 26.40440286200004], [85.58443607000004, 26.40452717000005], [85.59100642600004, 26.404647047000026], [85.59125933400009, 26.405440700000042], [85.59142534800003, 26.405661464000048], [85.59156595800005, 26.405760443000077], [85.59390961300005, 26.406860469000037], [85.59457697500005, 26.407120546000044], [85.59497795700008, 26.407164739000052], [85.59539885100008, 26.40713670300005], [85.59684648000007, 26.406898518000048], [85.59911540500008, 26.406455209000057], [85.59962646500009, 26.406399818000068], [85.59989214000007, 26.406439824000074], [85.60002281100003, 26.406565844000056], [85.60015475100005, 26.407107019000023], [85.60026570700006, 26.407318884000063], [85.60052713900006, 26.407589053000038], [85.60110462200004, 26.407998298000052], [85.60128069600006, 26.408196417000056], [85.60143714900005, 26.40857508700003], [85.60155085500008, 26.409712054000067], [85.60166666300006, 26.40988324600005], [85.60205810100007, 26.41006278800006], [85.60252446900006, 26.41013840000005], [85.60316605300005, 26.410177451000038], [85.60415334500004, 26.410161497000047], [85.60477944800004, 26.410056130000044], [85.60500454100008, 26.40992012600003], [85.60512923500005, 26.409725775000027], [85.60529810300005, 26.40922895600005], [85.60541293700004, 26.40907978200005], [85.60560797800008, 26.408948443000043], [85.60603842900008, 26.40877580700004], [85.60650418000006, 26.408661822000056], [85.60691006600007, 26.408620211000027], [85.60719586500005, 26.408673657000065], [85.60740691300003, 26.408862691000024], [85.60758359400006, 26.409268428000075], [85.60757934200007, 26.409516633000067], [85.60741974900003, 26.40976074300005], [85.60662416200006, 26.410182376000023], [85.60585408400004, 26.410734895000076], [85.60538347000005, 26.41089396700005], [85.60423648900007, 26.411135999000066], [85.60392616500008, 26.411263183000074], [85.60374621600005, 26.411421591000078], [85.60366698600006, 26.411719607000066], [85.60378316000003, 26.41202617600004], [85.60406457900007, 26.412260187000072], [85.60481758200007, 26.41266441700003], [85.60513351500003, 26.412740350000036], [85.60547434400007, 26.41276209800003], [85.60579508700005, 26.41273872800008], [85.60604546300004, 26.41266587700005], [85.60634046200005, 26.41244406800007], [85.60688447300004, 26.41170259200004], [85.60703937900007, 26.41154424900003], [85.60720444200007, 26.411444541000037], [85.60740471100007, 26.41139437700008]]]]}}, {"type": "Feature", "properties": {"OBJECTID": 6644, "GPCODE": "98567", "GPNAME_1": "KAURIYA RAIPUR", "DIST_CEN_C": "04", "BLK_NAME": "NANPUR", "ST_NAME": "BIHAR", "ST_CODE_1": "10", "GPCODE2011": "101054", "REMARKS": "FINALIZED", "MAP_STATUS": "COMPLETED", "BLK_C_2001": "040016", "BLK_C_2011": "01078", "DIST_NAME": "SITAMARHI", "code2011": 0.0, "Shape_Leng": 0.09947422845, "Shape_Area": 0.00057669893, "Area": 6.37325}, "geometry": {"type": "MultiPolygon", "coordinates": [[[[85.63796010000004, 26.40203187900005], [85.63844353800005, 26.40122729500007], [85.63890766800006, 26.400652870000044], [85.63927622600005, 26.399974935000046], [85.64011117700005, 26.39793284500007], [85.64040904000007, 26.397083585000075], [85.64055705800007, 26.396397215000036], [85.64058339800005, 26.39529606600007], [85.64052040300004, 26.39446580200007], [85.64025266000004, 26.392341054000042], [85.64010330300005, 26.38965175800007], [85.63989698000006, 26.387910359000045], [85.63947500800003, 26.38610181100006], [85.63876113800006, 26.383896950000064], [85.63762005100006, 26.38430167300004], [85.63600898800007, 26.38499200700005], [85.63540840200005, 26.385187710000025], [85.63459214400007, 26.385338810000064], [85.63412117100006, 26.385353572000042], [85.63365505500008, 26.385309710000058], [85.63313860800008, 26.38521178900004], [85.63200526200006, 26.384917022000025], [85.63127285600007, 26.384648215000027], [85.63061021000004, 26.384297919000062], [85.63016324400007, 26.38398320700003], [85.62970093500007, 26.383573779000074], [85.62921828300006, 26.38306512300005], [85.62817206000005, 26.38182226400005], [85.62792079100007, 26.38161086200006], [85.62778542800004, 26.38158416300007], [85.62766533200005, 26.381625119000034], [85.62711552600007, 26.382046221000053], [85.62686546500004, 26.382186752000052], [85.62650007500008, 26.382296088000032], [85.62594422900008, 26.382392302000028], [85.62643181700008, 26.38440378200005], [85.62646352700006, 26.384922691000043], [85.62640397700005, 26.385116838000044], [85.62629412500007, 26.385234466000043], [85.62612903600007, 26.38530713800003], [85.62571839700007, 26.385384963000035], [85.62321873000008, 26.38558100700004], [85.62170630200006, 26.38581957200006], [85.62024927600004, 26.386139246000027], [85.61872719300004, 26.386522269000068], [85.61752077300008, 26.386877369000047], [85.61677506500007, 26.387159119000046], [85.61637999400006, 26.38739025700005], [85.61622519500008, 26.38758469100003], [85.61622550500005, 26.38768399500003], [85.61634656000007, 26.38792291900006], [85.61736776300006, 26.389183867000042], [85.61769006100008, 26.389692979000074], [85.61779615800003, 26.38997708000005], [85.61783199100006, 26.39021611800007], [85.61780258400006, 26.39040126200007], [85.61765779900009, 26.390595705000067], [85.61726757400004, 26.39077264100007], [85.61646652800005, 26.39098228000006], [85.61617119800007, 26.391095885000027], [85.61599130600007, 26.391240779000043], [85.61570176100008, 26.391593487000023], [85.61556677900006, 26.391688629000043], [85.61532654500007, 26.391779451000048], [85.61407459100008, 26.39203536800005], [85.61023805800005, 26.39262278700005], [85.61066819400008, 26.393966555000077], [85.61120535100008, 26.39587861900003], [85.61169828700008, 26.39807511300006], [85.61248701800008, 26.40193165100004], [85.61294851100007, 26.403645393000033], [85.61324145700007, 26.404393768000034], [85.61370502600005, 26.40519593600004], [85.61532986000003, 26.407136851000075], [85.61622507200008, 26.408113855000067], [85.61654146400008, 26.40833867300006], [85.61683244200003, 26.408428180000044], [85.61710307500005, 26.40842297000006], [85.61837027600006, 26.408203123000078], [85.61952753800006, 26.408051185000033], [85.62099572000005, 26.40797513600006], [85.62276511200008, 26.408087883000064], [85.62326653700006, 26.40816327700003], [85.62423957100003, 26.408404506000068], [85.62488131700007, 26.408484053000052], [85.62566322200007, 26.408518057000038], [85.62952158700006, 26.408318377000057], [85.63026269100004, 26.40814940000007], [85.63072309200004, 26.407936130000053], [85.63147819100004, 26.40742415300008], [85.63312785000005, 26.406187700000032], [85.63533844400007, 26.40483243700004], [85.63627315600007, 26.40408974500008], [85.63687237100004, 26.403442808000023], [85.63796010000004, 26.40203187900005]]]]}}, {"type": "Feature", "properties": {"OBJECTID": 6649, "GPCODE": "98574", "GPNAME_1": "SIRSI", "DIST_CEN_C": "04", "BLK_NAME": "NANPUR", "ST_NAME": "BIHAR", "ST_CODE_1": "10", "GPCODE2011": "101061", "REMARKS": "FINALIZED", "MAP_STATUS": "COMPLETED", "BLK_C_2001": "040016", "BLK_C_2011": "01078", "DIST_NAME": "SITAMARHI", "code2011": 0.0, "Shape_Leng": 0.12755307008, "Shape_Area": 0.00071582013, "Area": 7.90976}, "geometry": {"type": "MultiPolygon", "coordinates": [[[[85.65155482900008, 26.419048444000055], [85.65262418900005, 26.418124815000056], [85.65325828700009, 26.41741001400004], [85.65402640200006, 26.41636085400006], [85.65430111900008, 26.41609384800006], [85.65463127700008, 26.415903349000075], [85.65530729800008, 26.415720962000023], [85.65625412000009, 26.415600939000058], [85.65854888600006, 26.41540941200003], [85.65961634500007, 26.415383766000048], [85.66029311600005, 26.415440456000056], [85.66121100800007, 26.415636420000055], [85.66171291900008, 26.41583353900006], [85.66214989000008, 26.416094032000046], [85.66256208100003, 26.416426754000042], [85.66298964200007, 26.41686780400005], [85.66457532900006, 26.418781197000044], [85.66485045900004, 26.418645042000037], [85.66545626100003, 26.418462761000058], [85.66626259400005, 26.41827533000003], [85.66694817700005, 26.417993599000056], [85.66784325100008, 26.417417838000063], [85.66841749500009, 26.416829491000044], [85.66861749900005, 26.416679944000066], [85.66904314600004, 26.41658848900005], [85.67024585000007, 26.416535318000058], [85.67093686000004, 26.41637532900006], [85.67702841100004, 26.414195566000046], [85.67732848500003, 26.41400518900008], [85.67745287900004, 26.413783635000073], [85.67747202300006, 26.413530926000078], [85.67738713700004, 26.412263074000066], [85.67745134700004, 26.41201010900005], [85.67766599100008, 26.41177929500003], [85.67814135000003, 26.411561291000055], [85.67871204400006, 26.411374523000063], [85.68165607100008, 26.41060304100006], [85.68590120700009, 26.409340092000036], [85.68466399300007, 26.40285436100004], [85.68351051700006, 26.40261417100004], [85.68292421900009, 26.402615965000052], [85.68174897600005, 26.399230384000077], [85.68094972800003, 26.395893258000058], [85.68006805700008, 26.394609782000032], [85.67942652200009, 26.394584576000057], [85.67723608200004, 26.394406117000074], [85.67647508200008, 26.39459344200003], [85.67455218500004, 26.394964681000033], [85.67177928100006, 26.39584388700007], [85.67003117100006, 26.395591961000036], [85.67010507100008, 26.39569980500005], [85.66915815100003, 26.397142233000068], [85.66871367800007, 26.39756324900003], [85.66856466900003, 26.397929189000024], [85.66837154600006, 26.398584089000053], [85.66820725300005, 26.39887795800007], [85.66798752300008, 26.39907719000007], [85.66740264000003, 26.39946693400003], [85.66681360700005, 26.400127526000063], [85.66660362700009, 26.40025000600008], [85.66623803400006, 26.400323266000044], [85.66411884700005, 26.40046934800006], [85.66027667200007, 26.400900061000073], [85.65972543900006, 26.400897186000066], [85.65956991700006, 26.40086599700004], [85.65937417700007, 26.40077183300008], [85.65912282000005, 26.400551372000052], [85.65891697700005, 26.400434654000037], [85.65862106300006, 26.400372279000067], [85.65797450500008, 26.40033805400003], [85.65767342300006, 26.40021253900005], [85.65741688400004, 26.399960599000053], [85.65703361800007, 26.39926213700005], [85.65685739400004, 26.399028002000023], [85.65673175800003, 26.398938109000028], [85.65644595400005, 26.398893774000044], [85.65566444000007, 26.398954624000055], [85.65536855100004, 26.398869784000055], [85.65519716200004, 26.398590462000072], [85.65497415400006, 26.397887027000024], [85.65283547400009, 26.398177434000047], [85.65177384000003, 26.398401552000053], [85.65141368100007, 26.39858300800006], [85.65126895400005, 26.398754930000052], [85.65125425800005, 26.398872357000073], [85.65140645700006, 26.399386351000032], [85.65136171900008, 26.399499341000023], [85.65126682000005, 26.39958533400005], [85.65101648600006, 26.399671789000024], [85.64991971000006, 26.399855375000072], [85.64823763300006, 26.40035647600007], [85.64683549600005, 26.40066722800003], [85.64678869100004, 26.40160601300005], [85.64630989900007, 26.403755484000044], [85.64609094700006, 26.404216426000062], [85.64564688100006, 26.404768149000063], [85.64553744700004, 26.40500763800003], [85.64556816400005, 26.405201660000046], [85.64584645300005, 26.405995150000024], [85.64588285200006, 26.406374157000073], [85.64583377800005, 26.406663103000028], [85.64565422500004, 26.406911750000063], [85.64460902000008, 26.40758255000003], [85.64427946000006, 26.40793095300006], [85.64395573800005, 26.40852305800007], [85.64350394000007, 26.409783412000024], [85.64232198500008, 26.410025791000066], [85.64165116600003, 26.410239784000055], [85.64107091300008, 26.41055727500003], [85.64025138400007, 26.411267948000045], [85.64075112900008, 26.41231816900006], [85.64148909200009, 26.414161851000074], [85.64204952400007, 26.41539690600007], [85.64240313100004, 26.41619918300006], [85.64293436000008, 26.41767340000007], [85.64342355200006, 26.41855205400003], [85.64408431100009, 26.41832010400003], [85.64437483900008, 26.418256143000065], [85.64460541600005, 26.418259971000055], [85.64482112800005, 26.418327108000028], [85.64514262700004, 26.41852480800003], [85.64570044400006, 26.41897454800005], [85.64597159600004, 26.419118194000077], [85.64655380900007, 26.41934670200004], [85.64678981000003, 26.419486001000053], [85.64750393500003, 26.420178973000077], [85.64785064600005, 26.420430705000058], [85.64824201600004, 26.42056052600003], [85.64871310700005, 26.420554650000042], [85.64931903600007, 26.420386051000037], [85.64981450500005, 26.42017256500003], [85.65065993300004, 26.419687336000038], [85.65155482900008, 26.419048444000055]]]]}}, {"type": "Feature", "properties": {"OBJECTID": 6650, "GPCODE": "98565", "GPNAME_1": "GAURI", "DIST_CEN_C": "04", "BLK_NAME": "NANPUR", "ST_NAME": "BIHAR", "ST_CODE_1": "10", "GPCODE2011": "101052", "REMARKS": "FINALIZED", "MAP_STATUS": "COMPLETED", "BLK_C_2001": "040016", "BLK_C_2011": "01078", "DIST_NAME": "SITAMARHI", "code2011": 0.0, "Shape_Leng": 0.11427154188, "Shape_Area": 0.0005645808, "Area": 6.23814}, "geometry": {"type": "MultiPolygon", "coordinates": [[[[85.64262282900006, 26.423346957000035], [85.64260031700007, 26.42260692700006], [85.64251776100008, 26.421921157000043], [85.64239547200003, 26.421334846000036], [85.64203059000005, 26.420167021000054], [85.64202475300004, 26.419923320000066], [85.64219357300004, 26.419449014000065], [85.64241315000004, 26.41915051600006], [85.64278307100005, 26.418865279000045], [85.64342355200006, 26.41855205400003], [85.64293436000008, 26.41767340000007], [85.64240313100004, 26.41619918300006], [85.64204952400007, 26.41539690600007], [85.64148909200009, 26.414161851000074], [85.64075112900008, 26.41231816900006], [85.64025138400007, 26.411267948000045], [85.63855130800005, 26.410934113000053], [85.63797472400006, 26.410881542000027], [85.63734347500008, 26.410937432000026], [85.63376166000006, 26.411429975000033], [85.63104109600005, 26.411680928000067], [85.62934233300007, 26.411726068000064], [85.62694619800004, 26.411587990000044], [85.62670768100008, 26.410667959000023], [85.62635292500005, 26.409459414000025], [85.62566322200007, 26.408518057000038], [85.62488131700007, 26.408484053000052], [85.62423957100003, 26.408404506000068], [85.62326653700006, 26.40816327700003], [85.62276511200008, 26.408087883000064], [85.62099572000005, 26.40797513600006], [85.61952753800006, 26.408051185000033], [85.61837027600006, 26.408203123000078], [85.61710307500005, 26.40842297000006], [85.61683244200003, 26.408428180000044], [85.61654146400008, 26.40833867300006], [85.61622507200008, 26.408113855000067], [85.61532986000003, 26.407136851000075], [85.61395261600006, 26.40743361400007], [85.61316155900005, 26.407661279000024], [85.61274620800003, 26.407869935000065], [85.61256151900005, 26.408082553000042], [85.61246704200005, 26.408321940000064], [85.61242835300004, 26.40877332100007], [85.61263871100005, 26.410334258000034], [85.61269087500006, 26.410988459000066], [85.61260688200008, 26.41136774000006], [85.61246692700007, 26.41150806400003], [85.61226681600004, 26.41160332900006], [85.61201635800006, 26.411662664000062], [85.61159538300006, 26.411659177000047], [85.61131950100008, 26.41159673100003], [85.61096819400007, 26.411430590000066], [85.61005906500003, 26.410778506000042], [85.60960232400004, 26.410581076000028], [85.60941184300003, 26.410559007000074], [85.60924655600007, 26.410581963000027], [85.60901636100004, 26.410713463000036], [85.60836209800004, 26.411446199000068], [85.60939580600007, 26.413456315000076], [85.60959328200005, 26.41411920200005], [85.60961, 26.414647196000033], [85.60941200300005, 26.41544649800005], [85.60714424500009, 26.421160910000026], [85.60694613500004, 26.42194667700005], [85.60693223900006, 26.422321229000033], [85.60701885100008, 26.422763325000062], [85.60720046900008, 26.423155442000052], [85.60746742500004, 26.423560975000044], [85.60767866300006, 26.42378608000007], [85.60792464300005, 26.42392535500005], [85.60824053300007, 26.423974223000073], [85.60974336600003, 26.423690598000064], [85.61025950000004, 26.42363517700005], [85.61074571300009, 26.423647466000034], [85.61122715600004, 26.42372748200006], [85.61172884600006, 26.423897707000037], [85.61230132200006, 26.42421670500005], [85.61344191600006, 26.425120848000063], [85.61371938500008, 26.42566626300004], [85.61386604800003, 26.426081073000034], [85.61780308500005, 26.425231559000053], [85.62010183000007, 26.42465702100003], [85.62081826600007, 26.424533346000032], [85.62193056800004, 26.424413111000035], [85.62266695300008, 26.42426680400007], [85.62446974200003, 26.42377924300007], [85.62659248900007, 26.423015441000075], [85.62727521000005, 26.424868426000046], [85.62740259900005, 26.425508958000023], [85.62734853900008, 26.425834059000067], [85.62719921200005, 26.426159365000046], [85.62637061400005, 26.42720401500003], [85.62631588800008, 26.42735757500003], [85.62629689500005, 26.42766898800005], [85.62640313200006, 26.427966600000047], [85.62702201400003, 26.428677994000054], [85.62729897100007, 26.429069880000043], [85.62842821000004, 26.431057090000024], [85.62960812700004, 26.431622557000026], [85.63095423400006, 26.432453829000053], [85.63121012500005, 26.432529846000023], [85.63146586200008, 26.432551749000027], [85.63185660800008, 26.432483009000066], [85.63211185800003, 26.432360517000063], [85.63247172400008, 26.432066192000036], [85.63322534500008, 26.43105780800005], [85.63344018700008, 26.430849699000078], [85.63374034200007, 26.430681867000033], [85.63486666600005, 26.430232083000078], [85.63521668000004, 26.429969399000072], [85.63556596100005, 26.42948556600004], [85.63580470600004, 26.428925364000065], [85.63601896800003, 26.428545706000023], [85.63635863800005, 26.428174691000038], [85.63691869900003, 26.427789566000058], [85.63776438100007, 26.42736763700003], [85.63881051600004, 26.42692706300005], [85.64113826700003, 26.426045224000063], [85.64158367900006, 26.425836333000063], [85.64194877500006, 26.425600700000075], [85.64233333000004, 26.425189026000055], [85.64247752400007, 26.424836552000045], [85.64256611500008, 26.424357962000045], [85.64262282900006, 26.423346957000035]]]]}}, {"type": "Feature", "properties": {"OBJECTID": 6653, "GPCODE": "98569", "GPNAME_1": "MAJHAUR", "DIST_CEN_C": "04", "BLK_NAME": "NANPUR", "ST_NAME": "BIHAR", "ST_CODE_1": "10", "GPCODE2011": "101056", "REMARKS": "FINALIZED", "MAP_STATUS": "COMPLETED", "BLK_C_2001": "040016", "BLK_C_2011": "01078", "DIST_NAME": "SITAMARHI", "code2011": 0.0, "Shape_Leng": 0.09766301235, "Shape_Area": 0.00048669369, "Area": 5.3771}, "geometry": {"type": "MultiPolygon", "coordinates": [[[[85.69556940000007, 26.434216648000074], [85.69588718400007, 26.433453], [85.69596566300004, 26.432983489000037], [85.69592741800005, 26.432189269000048], [85.69561394800007, 26.430191124000032], [85.69560253300006, 26.429825579000067], [85.69567107700004, 26.429396650000058], [85.69577041900004, 26.429157128000043], [85.69603988300008, 26.42883593600004], [85.69650969900005, 26.428491523000048], [85.69729979700008, 26.428019653000035], [85.69631130400006, 26.425152629000024], [85.69565307600004, 26.423430730000064], [85.69517306300008, 26.422416868000028], [85.69496630500004, 26.422101602000055], [85.69456876100008, 26.42167859600005], [85.69413661600004, 26.421404669000026], [85.69216413100008, 26.420688763000044], [85.69171715700008, 26.420460011000046], [85.69120433000006, 26.42004634600005], [85.69041418900008, 26.419209430000024], [85.68972097800008, 26.418787320000035], [85.68924823300006, 26.418373571000075], [85.68897602900006, 26.417950225000027], [85.68874333800005, 26.41738682400006], [85.68864670200009, 26.41703063400007], [85.68851790800005, 26.416110376000063], [85.68850804000004, 26.414819734000048], [85.68849963700006, 26.41374626000004], [85.68842935400005, 26.41365152700007], [85.68844923600005, 26.413299566000035], [85.68852863700005, 26.41191850900003], [85.68869853900009, 26.410925620000057], [85.68903372700004, 26.40990554800004], [85.68916883100007, 26.40948128100007], [85.68922875100003, 26.408948744000043], [85.68920346000004, 26.408565104000047], [85.68590120700009, 26.409340092000036], [85.68165607100008, 26.41060304100006], [85.67871204400006, 26.411374523000063], [85.67814135000003, 26.411561291000055], [85.67766599100008, 26.41177929500003], [85.67745134700004, 26.41201010900005], [85.67738713700004, 26.412263074000066], [85.67747202300006, 26.413530926000078], [85.67745287900004, 26.413783635000073], [85.67732848500003, 26.41400518900008], [85.67702841100004, 26.414195566000046], [85.67093686000004, 26.41637532900006], [85.67024585000007, 26.416535318000058], [85.67078303200003, 26.418176386000027], [85.67224168500007, 26.42231492700006], [85.67257731600006, 26.42365421200003], [85.67290606200004, 26.42581034400007], [85.67323432200004, 26.429243662000033], [85.67335801500008, 26.430154900000048], [85.67369036700006, 26.43195008500004], [85.67435824400008, 26.435007778000056], [85.67457327100004, 26.436230111000043], [85.67459385000006, 26.436356381000053], [85.67850484000007, 26.43528419300003], [85.68023225600007, 26.434746541000038], [85.68186439400006, 26.434191068000075], [85.68256551600007, 26.43400388200007], [85.68274093000008, 26.43400340000005], [85.68288656300007, 26.434070638000037], [85.68300796500006, 26.434363614000063], [85.68302462400004, 26.434801312000047], [85.68290802800004, 26.435789933000024], [85.68295355800007, 26.435916125000062], [85.68335522400008, 26.436068403000036], [85.68436811700008, 26.43614204900007], [85.68921979300006, 26.43596474900005], [85.68932963200007, 26.43584257200007], [85.68938918900005, 26.435688905000063], [85.68939820100007, 26.435413649000054], [85.68943060400005, 26.43469601700008], [85.68959834100008, 26.433991502000026], [85.68969833900007, 26.433923435000054], [85.69011919900004, 26.433886036000047], [85.69086631900007, 26.433924391000062], [85.69236127800008, 26.434240188000047], [85.69318882000005, 26.43434592500006], [85.69416626800006, 26.434333910000078], [85.69556940000007, 26.434216648000074]]]]}}, {"type": "Feature", "properties": {"OBJECTID": 6655, "GPCODE": "98562", "GPNAME_1": "DADRI", "DIST_CEN_C": "04", "BLK_NAME": "NANPUR", "ST_NAME": "BIHAR", "ST_CODE_1": "10", "GPCODE2011": "101049", "REMARKS": "FINALIZED", "MAP_STATUS": "COMPLETED", "BLK_C_2001": "040016", "BLK_C_2011": "01078", "DIST_NAME": "SITAMARHI", "code2011": 0.0, "Shape_Leng": 0.15059164943, "Shape_Area": 0.00082642791, "Area": 9.13006}, "geometry": {"type": "MultiPolygon", "coordinates": [[[[85.61023596200005, 26.45468367600006], [85.61109272200008, 26.45448295700004], [85.61153936400007, 26.454617236000047], [85.61182196100003, 26.454750300000057], [85.61241505700008, 26.45409599900006], [85.61286002200006, 26.45367525200004], [85.61298457200007, 26.453449247000037], [85.61302898300005, 26.453209919000074], [85.61294695200007, 26.452650600000027], [85.61207105700004, 26.44991350400005], [85.61190841900003, 26.449205395000035], [85.61188236800007, 26.448889532000067], [85.61196175800006, 26.448636615000055], [85.61222177300004, 26.448405843000046], [85.61245192600006, 26.448278857000048], [85.61320811100006, 26.44801067700007], [85.61453570000003, 26.44771398100005], [85.61545268200007, 26.447553688000028], [85.61854953000005, 26.447112539000045], [85.62010309500005, 26.44695503300005], [85.62097535300006, 26.44693925000007], [85.62145697500006, 26.447037270000067], [85.62181348800004, 26.44722142300003], [85.62209510300005, 26.44746882800007], [85.62220078300004, 26.447608519000028], [85.62255904500006, 26.448316033000026], [85.62272008800005, 26.448505183000066], [85.62303644600007, 26.448671356000034], [85.62343767100003, 26.44871087000007], [85.62372308200008, 26.44862891200006], [85.62385822000005, 26.448538366000037], [85.62410301400007, 26.448266887000045], [85.62439186700004, 26.44767499900007], [85.62454533900006, 26.447101415000077], [85.62778338300006, 26.446934989000056], [85.62749714500006, 26.445238877000065], [85.62737355000007, 26.444228312000064], [85.62738155700004, 26.443632621000063], [85.62752574200005, 26.44325320200005], [85.62779541300006, 26.442923019000034], [85.62931516200007, 26.441646329000037], [85.63002474000007, 26.440945037000063], [85.63027894700008, 26.44052014400006], [85.63037277600006, 26.44007764500003], [85.63034094300008, 26.43954514400008], [85.63015291900007, 26.438778499000023], [85.62916080200006, 26.43584324300008], [85.63014386300006, 26.434486810000067], [85.63025706300004, 26.43386367200003], [85.62996424900007, 26.433237200000065], [85.62880730900008, 26.431994687000042], [85.62842821000004, 26.431057090000024], [85.62729897100007, 26.429069880000043], [85.62702201400003, 26.428677994000054], [85.62640313200006, 26.427966600000047], [85.62629689500005, 26.42766898800005], [85.62631588800008, 26.42735757500003], [85.62637061400005, 26.42720401500003], [85.62719921200005, 26.426159365000046], [85.62734853900008, 26.425834059000067], [85.62740259900005, 26.425508958000023], [85.62727521000005, 26.424868426000046], [85.62659248900007, 26.423015441000075], [85.62446974200003, 26.42377924300007], [85.62266695300008, 26.42426680400007], [85.62193056800004, 26.424413111000035], [85.62081826600007, 26.424533346000032], [85.62010183000007, 26.42465702100003], [85.61780308500005, 26.425231559000053], [85.61386604800003, 26.426081073000034], [85.61371938500008, 26.42566626300004], [85.61344191600006, 26.425120848000063], [85.61158927300005, 26.425721253000063], [85.61072771300007, 26.42590844500006], [85.60956020000003, 26.426019718000077], [85.60699917300008, 26.426143482000043], [85.60589676900008, 26.426250001000028], [85.60409327000008, 26.426543348000052], [85.60074715100006, 26.427264587000025], [85.59900873100008, 26.427562170000044], [85.59706452700004, 26.427783525000052], [85.59336635400007, 26.428112869000074], [85.59119175000006, 26.428406909000046], [85.58982909800005, 26.428658375000055], [85.58442494600007, 26.430028314000026], [85.58433175600004, 26.430737032000025], [85.58398794700008, 26.431428372000028], [85.58381909500008, 26.43198378200003], [85.58349057200007, 26.43278787500003], [85.58341160900005, 26.43323027300005], [85.58369884200005, 26.433726052000054], [85.58379101800006, 26.43439823700004], [85.58362188000007, 26.43485443700007], [85.58384389800005, 26.435350334000077], [85.58415128900003, 26.43591368500006], [85.58468863700006, 26.436273519000054], [85.58523581500003, 26.436538476000067], [85.58547774700008, 26.436975674000053], [85.58540437600004, 26.437612166000065], [85.58565725900007, 26.438369728000055], [85.58594956200005, 26.438910511000074], [85.58595127200005, 26.439510727000027], [85.58578237200004, 26.440025640000044], [85.58551323200004, 26.44058131500003], [85.58543909700006, 26.44092901600004], [85.58578560600006, 26.44112676800006], [85.58662237300007, 26.441011936000052], [85.58733457300008, 26.44110955600007], [85.58788233100006, 26.44159114200005], [85.58766513800003, 26.442724347000023], [85.58827244900004, 26.442998190000026], [85.58838000300005, 26.443747131000066], [85.58863225200008, 26.444292559000075], [85.58967346700007, 26.44391224000003], [85.59028430800004, 26.443639976000043], [85.59171136800006, 26.443090494000046], [85.59337916200008, 26.442545], [85.59507220100005, 26.44207608100004], [85.59639977600006, 26.441775027000062], [85.59682071100008, 26.44171983900003], [85.59709139900008, 26.441728194000063], [85.59888896200005, 26.441019873000073], [85.60166445900006, 26.440439885000046], [85.60484170500007, 26.44012065000004], [85.60587900900003, 26.440014268000027], [85.60613771600003, 26.442594978000045], [85.60625923200007, 26.443005351000068], [85.60650861500005, 26.444196141000077], [85.60686204700005, 26.44503014000003], [85.60710998000008, 26.445769622000057], [85.60724077600008, 26.445922780000046], [85.60773012900006, 26.446905333000075], [85.60771593200008, 26.447180670000023], [85.60744120900006, 26.447488170000042], [85.60714770400006, 26.44824705600007], [85.60713375700004, 26.44857659400003], [85.60766053500004, 26.450326233000055], [85.60777236100006, 26.450822361000064], [85.60776847900007, 26.451201422000054], [85.60762062500004, 26.451991625000062], [85.60763646600003, 26.452280333000033], [85.60775285100004, 26.452627564000068], [85.60781240100005, 26.454021925000063], [85.60840912800006, 26.454051984000046], [85.60908274600007, 26.45465498300007], [85.60952945400004, 26.454820835000078], [85.61023596200005, 26.45468367600006]]]]}}, {"type": "Feature", "properties": {"OBJECTID": 6657, "GPCODE": "98561", "GPNAME_1": "BIRAR", "DIST_CEN_C": "04", "BLK_NAME": "NANPUR", "ST_NAME": "BIHAR", "ST_CODE_1": "10", "GPCODE2011": "101048", "REMARKS": "FINALIZED", "MAP_STATUS": "COMPLETED", "BLK_C_2001": "040016", "BLK_C_2011": "01078", "DIST_NAME": "SITAMARHI", "code2011": 0.0, "Shape_Leng": 0.15312319897, "Shape_Area": 0.00068659871, "Area": 7.58419}, "geometry": {"type": "MultiPolygon", "coordinates": [[[[85.60613771600003, 26.442594978000045], [85.60587900900003, 26.440014268000027], [85.60484170500007, 26.44012065000004], [85.60166445900006, 26.440439885000046], [85.59888896200005, 26.441019873000073], [85.59709139900008, 26.441728194000063], [85.59682071100008, 26.44171983900003], [85.59639977600006, 26.441775027000062], [85.59507220100005, 26.44207608100004], [85.59337916200008, 26.442545], [85.59171136800006, 26.443090494000046], [85.59028430800004, 26.443639976000043], [85.58967346700007, 26.44391224000003], [85.58863225200008, 26.444292559000075], [85.58853519600007, 26.445416502000057], [85.58860208800007, 26.44597591400003], [85.58868883000008, 26.446521732000065], [85.58906657900008, 26.447107498000037], [85.58941905800003, 26.44763019900006], [85.58963632500007, 26.448202829000024], [85.58938288200005, 26.44896604400003], [85.58934468800004, 26.449606981000045], [85.58931730500007, 26.450523185000065], [85.58939935800004, 26.45114574300004], [85.58988399200007, 26.45229988600005], [85.59048724400003, 26.452844456000037], [85.59059915300008, 26.453390291000062], [85.59091693400006, 26.45404841800007], [85.59115093500003, 26.455176076000043], [85.59141323400007, 26.45572601500004], [85.59215964800006, 26.457213447000072], [85.59292555500008, 26.458488768000052], [85.59339266100005, 26.45877643700004], [85.59372204800007, 26.459935469000072], [85.59364833800004, 26.460450107000042], [85.59367838400004, 26.462106161000065], [85.59502128600008, 26.461959851000074], [85.59714207300004, 26.461923115000047], [85.59811406900008, 26.461686044000032], [85.59982739500003, 26.46121259000006], [85.60206343500005, 26.461139358000025], [85.60500592200003, 26.460929054000076], [85.60630815600007, 26.460488018000035], [85.60727330600008, 26.459650772000032], [85.60801831200007, 26.459008062000066], [85.60857938800007, 26.45883967800006], [85.60872326300006, 26.458338436000076], [85.60785377100007, 26.45606607900004], [85.60762767900007, 26.454288645000076], [85.60781240100005, 26.454021925000063], [85.60775285100004, 26.452627564000068], [85.60763646600003, 26.452280333000033], [85.60762062500004, 26.451991625000062], [85.60776847900007, 26.451201422000054], [85.60777236100006, 26.450822361000064], [85.60766053500004, 26.450326233000055], [85.60713375700004, 26.44857659400003], [85.60714770400006, 26.44824705600007], [85.60744120900006, 26.447488170000042], [85.60771593200008, 26.447180670000023], [85.60773012900006, 26.446905333000075], [85.60724077600008, 26.445922780000046], [85.60710998000008, 26.445769622000057], [85.60686204700005, 26.44503014000003], [85.60650861500005, 26.444196141000077], [85.60625923200007, 26.443005351000068], [85.60613771600003, 26.442594978000045]]], [[[85.62972343400008, 26.462147103000063], [85.62992403800007, 26.462146604000054], [85.63007961100004, 26.462195861000055], [85.63036628200007, 26.462447762000068], [85.63051183000005, 26.462501520000046], [85.63260764400007, 26.46249143400007], [85.63434049200004, 26.46188206000005], [85.63519634000005, 26.46144203600005], [85.63468626100007, 26.46034674300006], [85.63456596900005, 26.45885784400008], [85.63470252800005, 26.457706771000062], [85.63487473300006, 26.45670894600005], [85.63504806400005, 26.456067636000057], [85.63514270200005, 26.455868829000053], [85.63533236300003, 26.455620121000038], [85.63555240300008, 26.45547054700006], [85.63766593900004, 26.454787959000043], [85.63813634800005, 26.454524896000066], [85.63880659300008, 26.454062819000058], [85.63828922000005, 26.45226811300006], [85.63797579000004, 26.451497260000053], [85.63773397300008, 26.451163957000063], [85.63759335900005, 26.451087569000038], [85.63730235100007, 26.45102525200008], [85.63541183800004, 26.450881396000057], [85.63504049400007, 26.450792148000062], [85.63479918800004, 26.45058970100007], [85.63394691800005, 26.44909374200006], [85.63373543200004, 26.44881907300004], [85.63356467500006, 26.44872922500008], [85.63295811400008, 26.448739837000062], [85.63270727300005, 26.448695394000026], [85.63258169500006, 26.44861901300004], [85.63232487600004, 26.44828127100004], [85.63215421900009, 26.448200530000065], [85.63133698400009, 26.44818466600003], [85.63100590900007, 26.448117797000066], [85.63087990800005, 26.44794211900006], [85.63071764800009, 26.44738753300004], [85.63057123000004, 26.44706293400003], [85.63045543900006, 26.446905296000068], [85.63033478500006, 26.44681539000004], [85.63006400200004, 26.44678454600006], [85.62903658200008, 26.446886497000037], [85.62778338300006, 26.446934989000056], [85.62454533900006, 26.447101415000077], [85.62439186700004, 26.44767499900007], [85.62410301400007, 26.448266887000045], [85.62385822000005, 26.448538366000037], [85.62372308200008, 26.44862891200006], [85.62343767100003, 26.44871087000007], [85.62303644600007, 26.448671356000034], [85.62272008800005, 26.448505183000066], [85.62255904500006, 26.448316033000026], [85.62220078300004, 26.447608519000028], [85.62209510300005, 26.44746882800007], [85.62181348800004, 26.44722142300003], [85.62145697500006, 26.447037270000067], [85.62097535300006, 26.44693925000007], [85.62010309500005, 26.44695503300005], [85.61854953000005, 26.447112539000045], [85.61545268200007, 26.447553688000028], [85.61453570000003, 26.44771398100005], [85.61320811100006, 26.44801067700007], [85.61245192600006, 26.448278857000048], [85.61222177300004, 26.448405843000046], [85.61196175800006, 26.448636615000055], [85.61188236800007, 26.448889532000067], [85.61190841900003, 26.449205395000035], [85.61207105700004, 26.44991350400005], [85.61294695200007, 26.452650600000027], [85.61302898300005, 26.453209919000074], [85.61298457200007, 26.453449247000037], [85.61286002200006, 26.45367525200004], [85.61241505700008, 26.45409599900006], [85.61182196100003, 26.454750300000057], [85.61210170400005, 26.454882016000056], [85.61254950000006, 26.45538633700005], [85.61385809200004, 26.460166688000072], [85.61457174800006, 26.462281327000028], [85.61505759000005, 26.463724252000077], [85.61573132900008, 26.46429113800008], [85.61644987800008, 26.464757591000023], [85.61831832200005, 26.46421676700004], [85.62033240900007, 26.463742229000047], [85.62464229000005, 26.463049581000064], [85.62607514700005, 26.462716338000064], [85.62741853500006, 26.462609031000056], [85.62823045500005, 26.46249855800005], [85.62972343400008, 26.462147103000063]]]]}}, {"type": "Feature", "properties": {"OBJECTID": 6660, "GPCODE": "98573", "GPNAME_1": "PANDAUL  BUZURG", "DIST_CEN_C": "04", "BLK_NAME": "NANPUR", "ST_NAME": "BIHAR", "ST_CODE_1": "10", "GPCODE2011": "101060", "REMARKS": "FINALIZED", "MAP_STATUS": "COMPLETED", "BLK_C_2001": "040016", "BLK_C_2011": "01078", "DIST_NAME": "SITAMARHI", "code2011": 0.0, "Shape_Leng": 0.10236274012, "Shape_Area": 0.000467624, "Area": 5.16879}, "geometry": {"type": "MultiPolygon", "coordinates": [[[[85.58892002400006, 26.393839120000052], [85.58922946200005, 26.39340963400008], [85.59106990700008, 26.393901710000023], [85.59168906900004, 26.393133013000067], [85.59220883600005, 26.39267602600006], [85.59362378000003, 26.39159858900007], [85.59436322800008, 26.390883747000032], [85.59510767600005, 26.390168906000042], [85.59571705100007, 26.389522128000067], [85.59603155000008, 26.38910615900005], [85.59662501600008, 26.388157032000038], [85.59671927300008, 26.387854426000047], [85.59673812500006, 26.387457229000063], [85.59661917800008, 26.386225529000058], [85.59648779000008, 26.38585579900007], [85.59624167100003, 26.385644257000024], [85.59550402500008, 26.385284994000074], [85.59515760500005, 26.385042154000075], [85.59492104500004, 26.38469975000004], [85.59480446900005, 26.384253276000038], [85.59482738300005, 26.38353111200007], [85.59536725300006, 26.37806022600006], [85.59536981700006, 26.377261377000025], [85.59521738000007, 26.376553215000058], [85.59471709500008, 26.37510126500007], [85.59455582200007, 26.374790312000073], [85.59441001100004, 26.37462368300004], [85.59421429700006, 26.374493264000023], [85.59380308800007, 26.37437239600007], [85.59211406900005, 26.374191385000074], [85.59191850500008, 26.374110662000078], [85.59178270300004, 26.373948459000076], [85.59172197800007, 26.373723005000045], [85.59162847900006, 26.372622094000064], [85.59145458800003, 26.37142207200003], [85.59085901700007, 26.368205798000076], [85.59042235700008, 26.36794509500004], [85.59001639700006, 26.36789637700008], [85.58903467600004, 26.36797096400005], [85.58883077400003, 26.366775507000057], [85.58853223200003, 26.36401876000008], [85.58789128500007, 26.362404652000066], [85.58719556400007, 26.360898994000024], [85.58675075900004, 26.360299046000023], [85.58645366000007, 26.36062010200004], [85.58598408900008, 26.361059001000058], [85.58558408800008, 26.36133065100006], [85.58521406900007, 26.361566252000046], [85.58471885500006, 26.361833662000038], [85.58431364000006, 26.36202412800003], [85.58391321800008, 26.36213783900007], [85.58323203700007, 26.362184628000023], [85.58262596400004, 26.362213084000075], [85.58213520000004, 26.362268347000054], [85.58174985700003, 26.362413638000078], [85.58151495000004, 26.362599212000077], [85.58115003600005, 26.36290696800006], [85.58086006000008, 26.363092665000067], [85.58050463400008, 26.36317024500005], [85.57980313200005, 26.363122201000067], [85.57910163600008, 26.363069644000063], [85.57852023500004, 26.36297616400003], [85.57818905500005, 26.362791926000057], [85.57793765100007, 26.36246309300003], [85.57759116100004, 26.362188552000077], [85.57732022000005, 26.362035759000037], [85.57691889800003, 26.361820057000045], [85.57660295300008, 26.361707988000035], [85.57601168800005, 26.36166418700003], [85.57553601500007, 26.361741994000056], [85.57535603200006, 26.361873226000057], [85.57513670000003, 26.362248306000026], [85.57481276000004, 26.362849313000027], [85.57436431700006, 26.363725829000032], [85.57407773500006, 26.364259013000037], [85.57379117600004, 26.36479216600003], [85.57336755600005, 26.365582835000055], [85.57308859500006, 26.36615213300007], [85.57305945300004, 26.366472566000027], [85.57314033100005, 26.366729616000043], [85.57331667700004, 26.36710835100007], [85.57367873200008, 26.367585855000073], [85.57393030100008, 26.367946351000057], [85.57403660100005, 26.368370291000076], [85.57411798600003, 26.368785269000057], [85.57421896100004, 26.369069399000068], [85.57449576100004, 26.36951100600004], [85.57507890800008, 26.37023171900006], [85.57554670400003, 26.370880515000067], [85.57591877200008, 26.371376157000043], [85.57627530600007, 26.371641598000053], [85.57678168700005, 26.371780287000036], [85.57766914700005, 26.37201748900003], [85.57805053200008, 26.372269337000034], [85.57842736000003, 26.37264753900007], [85.57873988700004, 26.373292201000027], [85.57889706900005, 26.37396872900007], [85.57902950700003, 26.374740117000044], [85.57912668900008, 26.37543940300003], [85.57916583600007, 26.375980879000053], [85.57920498600004, 26.376522357000056], [85.57919558200007, 26.37676154600007], [85.57901686100007, 26.37732607600003], [85.57885287000005, 26.377795735000063], [85.57885371900005, 26.378089139000053], [85.57894440400008, 26.378282969000054], [85.57918083000004, 26.378607362000025], [85.57961347400004, 26.37922012000007], [85.58009627300004, 26.379846273000055], [85.58075997300006, 26.380679601000054], [85.58120291800003, 26.381400690000078], [85.58169124800008, 26.382189281000024], [85.58192373700007, 26.382888242000035], [85.58209612200005, 26.383605363000072], [85.58216250600003, 26.384033939000062], [85.58217867100007, 26.384422060000077], [85.58210932800006, 26.38471097400003], [85.58193025300005, 26.385153651000053], [85.58163090400006, 26.385601173000055], [85.58110717500006, 26.386432699000068], [85.58083827200005, 26.38703809100008], [85.58057976300006, 26.387742700000047], [85.58034621400003, 26.38842469700006], [85.58014271100006, 26.389102122000054], [85.58001397000004, 26.389648479000073], [85.58003019100005, 26.390063565000048], [85.58012647600003, 26.390442474000054], [85.58038349800006, 26.390978838000024], [85.58042979200007, 26.391375914000037], [85.58035606800007, 26.391890577000026], [85.58018727100006, 26.392432472000053], [85.57995807100008, 26.392902336000077], [85.57973840500006, 26.39318712900007], [85.58033912300004, 26.393100986000036], [85.58107677200007, 26.393460318000052], [85.58160004300004, 26.39421277200006], [85.58343940300006, 26.394334873000048], [85.58598968500007, 26.39422059700007], [85.58892002400006, 26.393839120000052]]]]}}, {"type": "Feature", "properties": {"OBJECTID": 6663, "GPCODE": "98564", "GPNAME_1": "GAURA", "DIST_CEN_C": "04", "BLK_NAME": "NANPUR", "ST_NAME": "BIHAR", "ST_CODE_1": "10", "GPCODE2011": "101051", "REMARKS": "FINALIZED", "MAP_STATUS": "COMPLETED", "BLK_C_2001": "040016", "BLK_C_2011": "01078", "DIST_NAME": "SITAMARHI", "code2011": 0.0, "Shape_Leng": 0.16427486812, "Shape_Area": 0.00073548572, "Area": 8.12698}, "geometry": {"type": "MultiPolygon", "coordinates": [[[[85.61344191600006, 26.425120848000063], [85.61230132200006, 26.42421670500005], [85.61172884600006, 26.423897707000037], [85.61122715600004, 26.42372748200006], [85.61074571300009, 26.423647466000034], [85.61025950000004, 26.42363517700005], [85.60974336600003, 26.423690598000064], [85.60824053300007, 26.423974223000073], [85.60792464300005, 26.42392535500005], [85.60767866300006, 26.42378608000007], [85.60746742500004, 26.423560975000044], [85.60720046900008, 26.423155442000052], [85.60701885100008, 26.422763325000062], [85.60693223900006, 26.422321229000033], [85.60694613500004, 26.42194667700005], [85.60714424500009, 26.421160910000026], [85.60941200300005, 26.41544649800005], [85.60961, 26.414647196000033], [85.60959328200005, 26.41411920200005], [85.60939580600007, 26.413456315000076], [85.60836209800004, 26.411446199000068], [85.60764530700004, 26.411384738000038], [85.60740471100007, 26.41139437700008], [85.60720444200007, 26.411444541000037], [85.60703937900007, 26.41154424900003], [85.60688447300004, 26.41170259200004], [85.60634046200005, 26.41244406800007], [85.60604546300004, 26.41266587700005], [85.60579508700005, 26.41273872800008], [85.60547434400007, 26.41276209800003], [85.60513351500003, 26.412740350000036], [85.60481758200007, 26.41266441700003], [85.60406457900007, 26.412260187000072], [85.60378316000003, 26.41202617600004], [85.60366698600006, 26.411719607000066], [85.60374621600005, 26.411421591000078], [85.60392616500008, 26.411263183000074], [85.60423648900007, 26.411135999000066], [85.60538347000005, 26.41089396700005], [85.60585408400004, 26.410734895000076], [85.60662416200006, 26.410182376000023], [85.60741974900003, 26.40976074300005], [85.60757934200007, 26.409516633000067], [85.60758359400006, 26.409268428000075], [85.60740691300003, 26.408862691000024], [85.60719586500005, 26.408673657000065], [85.60691006600007, 26.408620211000027], [85.60650418000006, 26.408661822000056], [85.60603842900008, 26.40877580700004], [85.60560797800008, 26.408948443000043], [85.60541293700004, 26.40907978200005], [85.60529810300005, 26.40922895600005], [85.60512923500005, 26.409725775000027], [85.60500454100008, 26.40992012600003], [85.60477944800004, 26.410056130000044], [85.60415334500004, 26.410161497000047], [85.60316605300005, 26.410177451000038], [85.60252446900006, 26.41013840000005], [85.60205810100007, 26.41006278800006], [85.60166666300006, 26.40988324600005], [85.60155085500008, 26.409712054000067], [85.60143714900005, 26.40857508700003], [85.60128069600006, 26.408196417000056], [85.60110462200004, 26.407998298000052], [85.60052713900006, 26.407589053000038], [85.60026570700006, 26.407318884000063], [85.60015475100005, 26.407107019000023], [85.60002281100003, 26.406565844000056], [85.59989214000007, 26.406439824000074], [85.59962646500009, 26.406399818000068], [85.59911540500008, 26.406455209000057], [85.59684648000007, 26.406898518000048], [85.59539885100008, 26.40713670300005], [85.59497795700008, 26.407164739000052], [85.59457697500005, 26.407120546000044], [85.59390961300005, 26.406860469000037], [85.59156595800005, 26.405760443000077], [85.59142534800003, 26.405661464000048], [85.59125933400009, 26.405440700000042], [85.59100642600004, 26.404647047000026], [85.58443607000004, 26.40452717000005], [85.58356366200007, 26.40440286200004], [85.58249030100006, 26.404062339000063], [85.58093987000007, 26.40342064600003], [85.58012688300005, 26.403029855000057], [85.57901240500007, 26.402337428000067], [85.57796757800008, 26.401455295000062], [85.57731928900006, 26.400802463000048], [85.57662550200007, 26.400014293000027], [85.576409, 26.399667285000078], [85.57636303100008, 26.39934245200004], [85.57664981700003, 26.39799697500007], [85.57676611900007, 26.396588635000057], [85.57697968600007, 26.395897699000045], [85.57725383000007, 26.395378100000073], [85.57764803000003, 26.394790526000065], [85.57973840500006, 26.39318712900007], [85.57941293900006, 26.393264645000045], [85.57904702900004, 26.393242908000047], [85.57868099800004, 26.393158034000066], [85.57818469200004, 26.393059858000072], [85.57759311900008, 26.39298450000007], [85.57697166400004, 26.39294076300007], [85.57622988300005, 26.392861276000076], [85.57529961600005, 26.393513247000044], [85.57442988000008, 26.394282340000075], [85.57381091600007, 26.395127720000062], [85.57351651300007, 26.395579647000034], [85.57298485800004, 26.395395827000073], [85.57286684200005, 26.39622196700003], [85.57304580700009, 26.397494143000074], [85.57322317000006, 26.398211270000047], [85.57263023800004, 26.39943566200003], [85.57242291600005, 26.40055077100004], [85.57177856400006, 26.401319450000074], [85.57147976400006, 26.40198349800005], [85.57009280000005, 26.402406317000043], [85.56947355300008, 26.40317933700004], [85.56968069300007, 26.403788176000035], [85.57027352800003, 26.404319308000026], [85.57159813600003, 26.40490757500004], [85.57124367700004, 26.405386759000066], [85.57024221500006, 26.405700397000032], [85.56941581300003, 26.40586466900004], [85.56898055800008, 26.406154452000067], [85.56899160600005, 26.406520013000033], [85.56911827600004, 26.40700709300006], [85.56949043400004, 26.40749362300005], [85.57005776000005, 26.40785787300007], [85.57025917200008, 26.40817790400007], [85.57046021200006, 26.40839403500007], [85.57083699500004, 26.408718128000032], [85.57098436400008, 26.409475989000043], [85.57079786600008, 26.410888923000073], [85.57074477000003, 26.411626959000046], [85.57069171400008, 26.412364894000063], [85.57074365600005, 26.413023618000068], [85.57088035100008, 26.413515216000064], [85.57227211600008, 26.41295702000008], [85.57330387400003, 26.41272448600006], [85.57533231800005, 26.412268655000048], [85.57613499900003, 26.412524076000068], [85.57610227600009, 26.413390609000032], [85.57643442400007, 26.413868147000073], [85.57643226800008, 26.41488812500006], [85.57668463100003, 26.415496718000043], [85.57715211900006, 26.415969520000033], [85.57770878700006, 26.41609012300006], [85.57917637100007, 26.41577988100005], [85.57992233700008, 26.415493807000075], [85.58006406100003, 26.415998931000047], [85.58043145700003, 26.41650806100006], [85.58014711200008, 26.416987060000054], [85.58062991800006, 26.41756358600003], [85.58101924800008, 26.418749624000043], [85.58164521800006, 26.420323173000043], [85.58228136900004, 26.421937220000075], [85.58188718800005, 26.42254292100006], [85.58199435200004, 26.42322856800007], [85.58219673400004, 26.42387344900004], [85.58263441500003, 26.424436575000072], [85.58287207000006, 26.425158061000047], [85.58325169900007, 26.42645239600006], [85.58361123600008, 26.427715140000032], [85.58379867600007, 26.42838714900006], [85.58442494600007, 26.430028314000026], [85.58982909800005, 26.428658375000055], [85.59119175000006, 26.428406909000046], [85.59336635400007, 26.428112869000074], [85.59706452700004, 26.427783525000052], [85.59900873100008, 26.427562170000044], [85.60074715100006, 26.427264587000025], [85.60409327000008, 26.426543348000052], [85.60589676900008, 26.426250001000028], [85.60699917300008, 26.426143482000043], [85.60956020000003, 26.426019718000077], [85.61072771300007, 26.42590844500006], [85.61158927300005, 26.425721253000063], [85.61344191600006, 26.425120848000063]]]]}}, {"type": "Feature", "properties": {"OBJECTID": 6665, "GPCODE": "98563", "GPNAME_1": "DORPUR", "DIST_CEN_C": "04", "BLK_NAME": "NANPUR", "ST_NAME": "BIHAR", "ST_CODE_1": "10", "GPCODE2011": "101050", "REMARKS": "FINALIZED", "MAP_STATUS": "COMPLETED", "BLK_C_2001": "040016", "BLK_C_2011": "01078", "DIST_NAME": "SITAMARHI", "code2011": 0.0, "Shape_Leng": 0.08758829572, "Shape_Area": 0.00028262926, "Area": 3.12245}, "geometry": {"type": "MultiPolygon", "coordinates": [[[[85.70522694600004, 26.439668881000046], [85.70520667200003, 26.43942966800006], [85.70521163400008, 26.43924917700008], [85.70526150000006, 26.438996452000026], [85.70559686500008, 26.43821097600005], [85.70590221000003, 26.437633136000045], [85.70619277100008, 26.437262928000052], [85.70660363100006, 26.437005501000044], [85.70701454600004, 26.43689239300005], [85.70910967500004, 26.436448877000032], [85.70987146600004, 26.43632212700004], [85.71093898200007, 26.436005557000044], [85.71141997100005, 26.43569382900006], [85.71183073500004, 26.43534158700004], [85.71207117100005, 26.435007529000075], [85.71215108600006, 26.434718635000024], [85.71208564200003, 26.434357641000076], [85.71180970000006, 26.434001297000066], [85.71152365200004, 26.433595341000057], [85.71121994600009, 26.43297051600007], [85.71091619200007, 26.432345584000075], [85.71052972900009, 26.431659893000074], [85.71036904200008, 26.43118161500007], [85.71018344100008, 26.430983136000066], [85.70958152300005, 26.430545815000073], [85.70894456600007, 26.430013678000023], [85.70796131800006, 26.42889046600004], [85.70729800400005, 26.426553219000027], [85.70682988200008, 26.42378259000003], [85.70638249100006, 26.421851278000076], [85.70628686300006, 26.42132791100005], [85.70589036600006, 26.420542887000067], [85.70531852400006, 26.41987977200006], [85.70471190000006, 26.41967703800003], [85.70276723800004, 26.419664565000062], [85.70263182800005, 26.419565401000057], [85.70254644500005, 26.41933076600003], [85.70232527300004, 26.41827489900004], [85.70220991100007, 26.41813505700003], [85.70087666200004, 26.418090604000042], [85.70078132800006, 26.417977828000062], [85.70072062900005, 26.417003090000037], [85.70053512800007, 26.416921950000074], [85.69868554400006, 26.416701809000074], [85.69862536900007, 26.41661159000006], [85.69860973700008, 26.41571804800003], [85.69854455200004, 26.415632337000034], [85.69815359000006, 26.41556484700004], [85.69792284300007, 26.415393493000067], [85.69752655100007, 26.414797957000076], [85.69726070800004, 26.414446094000027], [85.69709025000003, 26.414337893000038], [85.69677951600005, 26.414310921000038], [85.69588248800005, 26.414496386000053], [85.69465476400006, 26.414740737000045], [85.69379780600008, 26.414905860000033], [85.69294084900008, 26.415070980000053], [85.69249484300008, 26.415147963000038], [85.69188846100008, 26.41519782900008], [85.69136215000003, 26.415180074000034], [85.69101130000007, 26.415022285000077], [85.69088092100003, 26.414895959000035], [85.69041455500007, 26.414526161000026], [85.68966253600007, 26.414048110000067], [85.68926651000004, 26.41389941600005], [85.68867502000006, 26.413800355000035], [85.68849963700006, 26.41374626000004], [85.68850804000004, 26.414819734000048], [85.68851790800005, 26.416110376000063], [85.68864670200009, 26.41703063400007], [85.68874333800005, 26.41738682400006], [85.68897602900006, 26.417950225000027], [85.68924823300006, 26.418373571000075], [85.68972097800008, 26.418787320000035], [85.69041418900008, 26.419209430000024], [85.69120433000006, 26.42004634600005], [85.69171715700008, 26.420460011000046], [85.69216413100008, 26.420688763000044], [85.69413661600004, 26.421404669000026], [85.69456876100008, 26.42167859600005], [85.69496630500004, 26.422101602000055], [85.69517306300008, 26.422416868000028], [85.69565307600004, 26.423430730000064], [85.69631130400006, 26.425152629000024], [85.69729979700008, 26.428019653000035], [85.69650969900005, 26.428491523000048], [85.69603988300008, 26.42883593600004], [85.69577041900004, 26.429157128000043], [85.69567107700004, 26.429396650000058], [85.69560253300006, 26.429825579000067], [85.69561394800007, 26.430191124000032], [85.69592741800005, 26.432189269000048], [85.69596566300004, 26.432983489000037], [85.69588718400007, 26.433453], [85.69556940000007, 26.434216648000074], [85.69596319100003, 26.434955581000054], [85.69616931700006, 26.435099301000037], [85.69681616000008, 26.435156005000067], [85.69832969200007, 26.435065533000056], [85.70026881200005, 26.434856358000047], [85.70040935200007, 26.434901031000038], [85.70054033900004, 26.435076568000056], [85.70187748700005, 26.438583324000035], [85.70396486700008, 26.441483969000046], [85.70444189700004, 26.440592433000063], [85.70522694600004, 26.439668881000046]]]]}}, {"type": "Feature", "properties": {"OBJECTID": 6674, "GPCODE": "98568", "GPNAME_1": "KOILI", "DIST_CEN_C": "04", "BLK_NAME": "NANPUR", "ST_NAME": "BIHAR", "ST_CODE_1": "10", "GPCODE2011": "101055", "REMARKS": "FINALIZED", "MAP_STATUS": "COMPLETED", "BLK_C_2001": "040016", "BLK_C_2011": "01078", "DIST_NAME": "SITAMARHI", "code2011": 0.0, "Shape_Leng": 0.14278313708, "Shape_Area": 0.00069615034, "Area": 7.6907}, "geometry": {"type": "MultiPolygon", "coordinates": [[[[85.65587615400005, 26.445007728000064], [85.65551099300006, 26.443812811000043], [85.65529174300008, 26.442739448000054], [85.65521189300006, 26.44142643400005], [85.65525898100003, 26.439120221000053], [85.65522194900007, 26.438569777000055], [85.65507886600005, 26.437789474000056], [85.65468869200004, 26.43659011400007], [85.65461166000006, 26.436089435000042], [85.65466015000004, 26.435597381000036], [85.65492664100003, 26.43442324600005], [85.65496510100007, 26.433949317000042], [85.65494335800008, 26.433466519000035], [85.65479043800008, 26.43273139300004], [85.65438491500004, 26.431437319000054], [85.65422689600007, 26.430693172000076], [85.65428928800003, 26.429907737000065], [85.65472577100007, 26.428570704000037], [85.65477484000007, 26.428272741000058], [85.65476397200007, 26.428024530000073], [85.65466198100006, 26.427555492000067], [85.65454074000007, 26.42728052900003], [85.65378485700006, 26.426118399000075], [85.653739, 26.425919959000055], [85.65383850400008, 26.425703009000074], [85.65429825200005, 26.425286561000064], [85.65437295300006, 26.42516448300006], [85.65433728800008, 26.425006632000077], [85.65412046200004, 26.424614641000062], [85.65407460500006, 26.424416200000053], [85.65413360200006, 26.424095602000023], [85.65429313000004, 26.423842427000068], [85.65443823100009, 26.423756277000052], [85.65500408800006, 26.42360125400006], [85.65660068400007, 26.42296043600004], [85.65730118300007, 26.422601909000036], [85.65853133600007, 26.421790607000048], [85.65976526800006, 26.42064983100005], [85.66030028500006, 26.420264694000025], [85.66069580800007, 26.420150697000054], [85.66139730800006, 26.42010358500005], [85.66178343500007, 26.420138574000077], [85.66268132200008, 26.420348140000044], [85.66297693400008, 26.420311113000025], [85.66331709700006, 26.42013864300003], [85.66365199300003, 26.41988950700005], [85.66383161900006, 26.419654277000063], [85.66399534900006, 26.419184546000054], [85.66430510600009, 26.418917358000044], [85.66457532900006, 26.418781197000044], [85.66298964200007, 26.41686780400005], [85.66256208100003, 26.416426754000042], [85.66214989000008, 26.416094032000046], [85.66171291900008, 26.41583353900006], [85.66121100800007, 26.415636420000055], [85.66029311600005, 26.415440456000056], [85.65961634500007, 26.415383766000048], [85.65854888600006, 26.41540941200003], [85.65625412000009, 26.415600939000058], [85.65530729800008, 26.415720962000023], [85.65463127700008, 26.415903349000075], [85.65430111900008, 26.41609384800006], [85.65402640200006, 26.41636085400006], [85.65325828700009, 26.41741001400004], [85.65262418900005, 26.418124815000056], [85.65155482900008, 26.419048444000055], [85.65065993300004, 26.419687336000038], [85.64981450500005, 26.42017256500003], [85.64931903600007, 26.420386051000037], [85.64871310700005, 26.420554650000042], [85.64824201600004, 26.42056052600003], [85.64785064600005, 26.420430705000058], [85.64750393500003, 26.420178973000077], [85.64678981000003, 26.419486001000053], [85.64655380900007, 26.41934670200004], [85.64597159600004, 26.419118194000077], [85.64570044400006, 26.41897454800005], [85.64514262700004, 26.41852480800003], [85.64482112800005, 26.418327108000028], [85.64460541600005, 26.418259971000055], [85.64437483900008, 26.418256143000065], [85.64408431100009, 26.41832010400003], [85.64342355200006, 26.41855205400003], [85.64278307100005, 26.418865279000045], [85.64241315000004, 26.41915051600006], [85.64219357300004, 26.419449014000065], [85.64202475300004, 26.419923320000066], [85.64203059000005, 26.420167021000054], [85.64239547200003, 26.421334846000036], [85.64251776100008, 26.421921157000043], [85.64260031700007, 26.42260692700006], [85.64262282900006, 26.423346957000035], [85.64256611500008, 26.424357962000045], [85.64247752400007, 26.424836552000045], [85.64233333000004, 26.425189026000055], [85.64194877500006, 26.425600700000075], [85.64158367900006, 26.425836333000063], [85.64113826700003, 26.426045224000063], [85.63881051600004, 26.42692706300005], [85.63776438100007, 26.42736763700003], [85.63691869900003, 26.427789566000058], [85.63635863800005, 26.428174691000038], [85.63601896800003, 26.428545706000023], [85.63580470600004, 26.428925364000065], [85.63556596100005, 26.42948556600004], [85.63521668000004, 26.429969399000072], [85.63486666600005, 26.430232083000078], [85.63374034200007, 26.430681867000033], [85.63344018700008, 26.430849699000078], [85.63322534500008, 26.43105780800005], [85.63247172400008, 26.432066192000036], [85.63211185800003, 26.432360517000063], [85.63185660800008, 26.432483009000066], [85.63146586200008, 26.432551749000027], [85.63121012500005, 26.432529846000023], [85.63095423400006, 26.432453829000053], [85.62960812700004, 26.431622557000026], [85.62842821000004, 26.431057090000024], [85.62880730900008, 26.431994687000042], [85.62996424900007, 26.433237200000065], [85.63025706300004, 26.43386367200003], [85.63014386300006, 26.434486810000067], [85.62916080200006, 26.43584324300008], [85.63015291900007, 26.438778499000023], [85.63034094300008, 26.43954514400008], [85.63037277600006, 26.44007764500003], [85.63027894700008, 26.44052014400006], [85.63002474000007, 26.440945037000063], [85.62931516200007, 26.441646329000037], [85.62779541300006, 26.442923019000034], [85.62752574200005, 26.44325320200005], [85.62738155700004, 26.443632621000063], [85.62737355000007, 26.444228312000064], [85.62749714500006, 26.445238877000065], [85.62778338300006, 26.446934989000056], [85.62903658200008, 26.446886497000037], [85.63006400200004, 26.44678454600006], [85.63033478500006, 26.44681539000004], [85.63045543900006, 26.446905296000068], [85.63057123000004, 26.44706293400003], [85.63071764800009, 26.44738753300004], [85.63087990800005, 26.44794211900006], [85.63100590900007, 26.448117797000066], [85.63133698400009, 26.44818466600003], [85.63215421900009, 26.448200530000065], [85.63232487600004, 26.44828127100004], [85.63258169500006, 26.44861901300004], [85.63270727300005, 26.448695394000026], [85.63295811400008, 26.448739837000062], [85.63356467500006, 26.44872922500008], [85.63373543200004, 26.44881907300004], [85.63394691800005, 26.44909374200006], [85.63479918800004, 26.45058970100007], [85.63504049400007, 26.450792148000062], [85.63541183800004, 26.450881396000057], [85.63730235100007, 26.45102525200008], [85.63759335900005, 26.451087569000038], [85.63773397300008, 26.451163957000063], [85.63797579000004, 26.451497260000053], [85.63828922000005, 26.45226811300006], [85.63880659300008, 26.454062819000058], [85.63941170700008, 26.455099089000043], [85.63990669400005, 26.456167305000065], [85.64013856200006, 26.45655471300006], [85.64095109900006, 26.456633749000048], [85.64171836400004, 26.456685789000062], [85.64180114200008, 26.45596352000007], [85.64247345400008, 26.45314570800008], [85.64253668700007, 26.45256790600007], [85.64254806600007, 26.451493767000045], [85.64261113400005, 26.450866361000067], [85.64270549500003, 26.45060883700006], [85.64283517800004, 26.450418977000027], [85.64354028000008, 26.449907023000037], [85.64368025100003, 26.449762258000078], [85.64376466500005, 26.44954089500004], [85.64381269100005, 26.448917988000062], [85.64403230500005, 26.448637629000075], [85.64471276200004, 26.44824758900006], [85.64582894100005, 26.447716557000035], [85.64615944300004, 26.447598232000075], [85.64732170300005, 26.447351308000066], [85.64875875100006, 26.44684189700007], [85.64952995500005, 26.446609628000033], [85.65312145000007, 26.44574209700005], [85.65587615400005, 26.445007728000064]]]]}}, {"type": "Feature", "properties": {"OBJECTID": 6676, "GPCODE": "98571", "GPNAME_1": "NANPUR  UTTARI", "DIST_CEN_C": "04", "BLK_NAME": "NANPUR", "ST_NAME": "BIHAR", "ST_CODE_1": "10", "GPCODE2011": "101058", "REMARKS": "FINALIZED", "MAP_STATUS": "COMPLETED", "BLK_C_2001": "040016", "BLK_C_2011": "01078", "DIST_NAME": "SITAMARHI", "code2011": 0.0, "Shape_Leng": 0.10874389277, "Shape_Area": 0.00052886876, "Area": 5.84259}, "geometry": {"type": "MultiPolygon", "coordinates": [[[[85.67459385000006, 26.436356381000053], [85.67457327100004, 26.436230111000043], [85.67435824400008, 26.435007778000056], [85.67369036700006, 26.43195008500004], [85.67335801500008, 26.430154900000048], [85.67323432200004, 26.429243662000033], [85.67290606200004, 26.42581034400007], [85.67257731600006, 26.42365421200003], [85.67224168500007, 26.42231492700006], [85.67078303200003, 26.418176386000027], [85.67024585000007, 26.416535318000058], [85.66904314600004, 26.41658848900005], [85.66861749900005, 26.416679944000066], [85.66841749500009, 26.416829491000044], [85.66784325100008, 26.417417838000063], [85.66694817700005, 26.417993599000056], [85.66626259400005, 26.41827533000003], [85.66545626100003, 26.418462761000058], [85.66485045900004, 26.418645042000037], [85.66457532900006, 26.418781197000044], [85.66430510600009, 26.418917358000044], [85.66399534900006, 26.419184546000054], [85.66383161900006, 26.419654277000063], [85.66365199300003, 26.41988950700005], [85.66331709700006, 26.42013864300003], [85.66297693400008, 26.420311113000025], [85.66268132200008, 26.420348140000044], [85.66178343500007, 26.420138574000077], [85.66139730800006, 26.42010358500005], [85.66069580800007, 26.420150697000054], [85.66030028500006, 26.420264694000025], [85.65976526800006, 26.42064983100005], [85.65853133600007, 26.421790607000048], [85.65730118300007, 26.422601909000036], [85.65660068400007, 26.42296043600004], [85.65500408800006, 26.42360125400006], [85.65443823100009, 26.423756277000052], [85.65429313000004, 26.423842427000068], [85.65413360200006, 26.424095602000023], [85.65407460500006, 26.424416200000053], [85.65412046200004, 26.424614641000062], [85.65433728800008, 26.425006632000077], [85.65437295300006, 26.42516448300006], [85.65429825200005, 26.425286561000064], [85.65383850400008, 26.425703009000074], [85.653739, 26.425919959000055], [85.65378485700006, 26.426118399000075], [85.65454074000007, 26.42728052900003], [85.65466198100006, 26.427555492000067], [85.65476397200007, 26.428024530000073], [85.65477484000007, 26.428272741000058], [85.65472577100007, 26.428570704000037], [85.65428928800003, 26.429907737000065], [85.65422689600007, 26.430693172000076], [85.65438491500004, 26.431437319000054], [85.65479043800008, 26.43273139300004], [85.65494335800008, 26.433466519000035], [85.65496510100007, 26.433949317000042], [85.65492664100003, 26.43442324600005], [85.65466015000004, 26.435597381000036], [85.65461166000006, 26.436089435000042], [85.65468869200004, 26.43659011400007], [85.65507886600005, 26.437789474000056], [85.65522194900007, 26.438569777000055], [85.65525898100003, 26.439120221000053], [85.65521189300006, 26.44142643400005], [85.65529174300008, 26.442739448000054], [85.65551099300006, 26.443812811000043], [85.65587615400005, 26.445007728000064], [85.65590664700005, 26.445115970000074], [85.65607324900003, 26.44545841000007], [85.656189, 26.445570932000066], [85.65639976100005, 26.44562902800004], [85.65771796200005, 26.44556654200005], [85.65800378900008, 26.445583817000056], [85.65825472300008, 26.445646256000032], [85.65899273000008, 26.44594648900005], [85.65917869500004, 26.44609494100007], [85.65924468400004, 26.44632486300003], [85.65940094400008, 26.447953566000024], [85.65959053800003, 26.44911285300003], [85.66014492100004, 26.45134510300005], [85.66030705700007, 26.451827507000075], [85.66044828800005, 26.45207532300003], [85.66230320300008, 26.453441901000076], [85.66321221800007, 26.453886041000032], [85.66340321500007, 26.454020868000043], [85.66356932600007, 26.45421890700004], [85.66374090200009, 26.45451173200007], [85.66440809500006, 26.45601258000005], [85.66461465000003, 26.456291805000035], [85.66486102600004, 26.45649420700005], [85.66506196300008, 26.456597378000026], [85.66565914700004, 26.456758084000057], [85.66610550500008, 26.456792910000047], [85.66661673500005, 26.456741812000075], [85.66720786500008, 26.456604708000043], [85.66746356100003, 26.456608423000034], [85.66775960300004, 26.456684308000035], [85.66865829100004, 26.457024602000047], [85.66906466000006, 26.457086639000067], [85.66959592800004, 26.457035450000035], [85.66998207300009, 26.45706140200008], [85.66890378000005, 26.452813452000044], [85.66884119500008, 26.452145762000043], [85.66886597400008, 26.45067894400006], [85.66879107400007, 26.449393005000047], [85.66798703400008, 26.443312132000074], [85.66802078500007, 26.442937408000034], [85.66807034900006, 26.44279285700003], [85.66826502900005, 26.44255763500007], [85.66859522900006, 26.44237613100006], [85.66905585600006, 26.442225888000053], [85.67041823400007, 26.441892473000053], [85.67061334500005, 26.441788114000076], [85.67071820300004, 26.441656928000043], [85.67073779400005, 26.44153951000004], [85.67069665300005, 26.44125981700006], [85.67048359700004, 26.44056996300003], [85.67041626400004, 26.439979016000052], [85.67023819600007, 26.439253008000037], [85.67011812000004, 26.437940070000025], [85.67027736800009, 26.43761924100005], [85.67034741700007, 26.437573902000054], [85.67050771500004, 26.437555390000057], [85.67062232000006, 26.437356477000037], [85.67076232100004, 26.437256783000066], [85.67166340000006, 26.43693823500007], [85.67230443700004, 26.436769382000023], [85.67261028200005, 26.436777436000057], [85.67274035700007, 26.436695865000047], [85.67298581600005, 26.436654473000033], [85.67322609400009, 26.436563566000075], [85.67422296900008, 26.43638456000008], [85.67459385000006, 26.436356381000053]]]]}}, {"type": "Feature", "properties": {"OBJECTID": 6679, "GPCODE": "98558", "GPNAME_1": "BAHERA ZAHIDPUR", "DIST_CEN_C": "04", "BLK_NAME": "NANPUR", "ST_NAME": "BIHAR", "ST_CODE_1": "10", "GPCODE2011": "101045", "REMARKS": "FINALIZED", "MAP_STATUS": "COMPLETED", "BLK_C_2001": "040016", "BLK_C_2011": "01078", "DIST_NAME": "SITAMARHI", "code2011": 0.0, "Shape_Leng": 0.12723767203, "Shape_Area": 0.00085516116, "Area": 9.44605}, "geometry": {"type": "MultiPolygon", "coordinates": [[[[85.69498150400005, 26.46119619800004], [85.69802216200009, 26.46046910000007], [85.70123691300006, 26.459416587000078], [85.70224215500008, 26.458772580000073], [85.70321544100005, 26.457627743000046], [85.70342727000008, 26.456683879000025], [85.70338718300007, 26.45541140800003], [85.70353067300005, 26.45491900600007], [85.70418159000008, 26.45469131300007], [85.70479204000009, 26.454396063000047], [85.70595348200004, 26.453968149000048], [85.70751222500007, 26.45384585100004], [85.70703767900005, 26.45299899200006], [85.70398737400006, 26.44994448700004], [85.70249304800006, 26.448577298000032], [85.70191259000006, 26.447568239000077], [85.70179945200005, 26.44685112800005], [85.70215712500004, 26.446001529000057], [85.70280647900006, 26.445412817000033], [85.70291527400008, 26.44502439400003], [85.70273332500005, 26.444632304000038], [85.70215061000005, 26.444340880000027], [85.70160674700008, 26.443724329000077], [85.70164049900006, 26.44336321700007], [85.70207585200006, 26.443167776000053], [85.70290723600004, 26.44296654900006], [85.70348644400008, 26.442378088000055], [85.70396486700008, 26.441483969000046], [85.70187748700005, 26.438583324000035], [85.70054033900004, 26.435076568000056], [85.70040935200007, 26.434901031000038], [85.70026881200005, 26.434856358000047], [85.69832969200007, 26.435065533000056], [85.69681616000008, 26.435156005000067], [85.69616931700006, 26.435099301000037], [85.69596319100003, 26.434955581000054], [85.69556940000007, 26.434216648000074], [85.69416626800006, 26.434333910000078], [85.69318882000005, 26.43434592500006], [85.69236127800008, 26.434240188000047], [85.69086631900007, 26.433924391000062], [85.69011919900004, 26.433886036000047], [85.68969833900007, 26.433923435000054], [85.68959834100008, 26.433991502000026], [85.68943060400005, 26.43469601700008], [85.68939820100007, 26.435413649000054], [85.68938918900005, 26.435688905000063], [85.68932963200007, 26.43584257200007], [85.68921979300006, 26.43596474900005], [85.68436811700008, 26.43614204900007], [85.68335522400008, 26.436068403000036], [85.68295355800007, 26.435916125000062], [85.68290802800004, 26.435789933000024], [85.68302462400004, 26.434801312000047], [85.68300796500006, 26.434363614000063], [85.68288656300007, 26.434070638000037], [85.68274093000008, 26.43400340000005], [85.68256551600007, 26.43400388200007], [85.68186439400006, 26.434191068000075], [85.68023225600007, 26.434746541000038], [85.67850484000007, 26.43528419300003], [85.67459385000006, 26.436356381000053], [85.67422296900008, 26.43638456000008], [85.67322609400009, 26.436563566000075], [85.67298581600005, 26.436654473000033], [85.67274035700007, 26.436695865000047], [85.67261028200005, 26.436777436000057], [85.67230443700004, 26.436769382000023], [85.67166340000006, 26.43693823500007], [85.67076232100004, 26.437256783000066], [85.67062232000006, 26.437356477000037], [85.67050771500004, 26.437555390000057], [85.67034741700007, 26.437573902000054], [85.67027736800009, 26.43761924100005], [85.67011812000004, 26.437940070000025], [85.67023819600007, 26.439253008000037], [85.67041626400004, 26.439979016000052], [85.67048359700004, 26.44056996300003], [85.67069665300005, 26.44125981700006], [85.67073779400005, 26.44153951000004], [85.67071820300004, 26.441656928000043], [85.67061334500005, 26.441788114000076], [85.67041823400007, 26.441892473000053], [85.66905585600006, 26.442225888000053], [85.66859522900006, 26.44237613100006], [85.66826502900005, 26.44255763500007], [85.66807034900006, 26.44279285700003], [85.66802078500007, 26.442937408000034], [85.66798703400008, 26.443312132000074], [85.66879107400007, 26.449393005000047], [85.66886597400008, 26.45067894400006], [85.66884119500008, 26.452145762000043], [85.66890378000005, 26.452813452000044], [85.66998207300009, 26.45706140200008], [85.67042378000008, 26.457181888000036], [85.67119685900008, 26.45746845900004], [85.67190948200005, 26.457633332000057], [85.67316259200004, 26.457539394000037], [85.67366898500006, 26.457542384000078], [85.67400547000005, 26.457708370000034], [85.67502102500004, 26.458468048000043], [85.67546802500004, 26.458656253000072], [85.67617536200004, 26.45878043400006], [85.67846704700008, 26.458881908000023], [85.67960573500005, 26.45903192700007], [85.68028339800009, 26.459228496000037], [85.68141306400008, 26.459644732000072], [85.68162403900004, 26.459752397000045], [85.68180012400006, 26.459914343000037], [85.68212797200005, 26.46042779800007], [85.68226943600007, 26.46072068500007], [85.68247238500004, 26.461369924000053], [85.68271997700003, 26.461883624000052], [85.68308792200008, 26.462383471000066], [85.68372250700008, 26.46313520800004], [85.68543963800005, 26.46507946400004], [85.68686627600005, 26.465779119000047], [85.68707989600006, 26.465259524000032], [85.68754978800007, 26.464865452000026], [85.68794341200004, 26.464214414000025], [85.68816221300006, 26.46375344200004], [85.68852241900004, 26.46352672300003], [85.68917358300007, 26.46336222700006], [85.68956857800003, 26.463067696000053], [85.68996821300004, 26.462673868000024], [85.69194080700004, 26.461923144000025], [85.69498150400005, 26.46119619800004]]]]}}, {"type": "Feature", "properties": {"OBJECTID": 6681, "GPCODE": "98560", "GPNAME_1": "BHADIYAN", "DIST_CEN_C": "04", "BLK_NAME": "NANPUR", "ST_NAME": "BIHAR", "ST_CODE_1": "10", "GPCODE2011": "101047", "REMARKS": "FINALIZED", "MAP_STATUS": "COMPLETED", "BLK_C_2001": "040016", "BLK_C_2011": "01078", "DIST_NAME": "SITAMARHI", "code2011": 0.0, "Shape_Leng": 0.1621078264, "Shape_Area": 0.00056759934, "Area": 6.26854}, "geometry": {"type": "MultiPolygon", "coordinates": [[[[85.63374858200007, 26.463327755000023], [85.63400655500004, 26.462487730000078], [85.63434049200004, 26.46188206000005], [85.63260764400007, 26.46249143400007], [85.63051183000005, 26.462501520000046], [85.63036628200007, 26.462447762000068], [85.63007961100004, 26.462195861000055], [85.62992403800007, 26.462146604000054], [85.62972343400008, 26.462147103000063], [85.62823045500005, 26.46249855800005], [85.62741853500006, 26.462609031000056], [85.62607514700005, 26.462716338000064], [85.62464229000005, 26.463049581000064], [85.62033240900007, 26.463742229000047], [85.61831832200005, 26.46421676700004], [85.61644987800008, 26.464757591000023], [85.61655530400003, 26.46482602800006], [85.61714909800008, 26.46549692600007], [85.61744686500003, 26.466091843000072], [85.61759954200005, 26.466795509000065], [85.61748568400003, 26.46726512200007], [85.61637006200004, 26.46807579700004], [85.61533108300006, 26.469319417000065], [85.61492348600007, 26.470462233000035], [85.61526474600004, 26.472140153000055], [85.61601656200008, 26.473613924000063], [85.61821609700007, 26.47302609700006], [85.62093636100008, 26.472247331000062], [85.62268505800006, 26.471841207000068], [85.62328061700003, 26.47146960500004], [85.62327855700005, 26.470833242000026], [85.62342572600005, 26.469826497000042], [85.62360963900005, 26.469320585000048], [85.62435559200009, 26.468953144000068], [85.62707248500004, 26.468706823000048], [85.62866106500007, 26.46844085300006], [85.62918126000005, 26.46803779100003], [85.63018057500005, 26.466961076000075], [85.63085018200007, 26.466286918000037], [85.63159520500005, 26.46564860700005], [85.63214931500005, 26.464906994000046], [85.63293505300004, 26.46446720700004], [85.63345489400007, 26.463964832000045], [85.63374858200007, 26.463327755000023]]], [[[85.65168785100008, 26.483229691000076], [85.65356493200005, 26.482245109000075], [85.65475993400008, 26.48123085000003], [85.65555648800006, 26.480998386000067], [85.65656852500007, 26.480733831000066], [85.65628617100003, 26.480305848000057], [85.65581280200007, 26.479734103000055], [85.65560579000004, 26.479346561000057], [85.65492788200004, 26.47764269000004], [85.65417974000007, 26.475938960000065], [85.65372490000004, 26.47493386900004], [85.65281583600006, 26.473099727000033], [85.65251832800004, 26.472604175000072], [85.65215073100006, 26.472176500000046], [85.65180905000005, 26.471965282000042], [85.65138252000008, 26.471876224000027], [85.65125180800004, 26.471781820000047], [85.65120136100006, 26.47169629800004], [85.65103355100007, 26.47101078600008], [85.65092253300008, 26.47083513800004], [85.65089188400003, 26.470654654000043], [85.65077085900003, 26.470460959000036], [85.65083721200006, 26.469346100000053], [85.65081581500004, 26.46895801200003], [85.65074421200006, 26.46857919200005], [85.65060256900006, 26.468195999000045], [85.65005732600008, 26.467150531000073], [85.64977419900003, 26.466460896000058], [85.64970378600003, 26.466411437000033], [85.64957342800005, 26.466402798000047], [85.64939822400004, 26.466475484000057], [85.64916262200006, 26.46650773600004], [85.64886722700004, 26.466648450000037], [85.64843062700004, 26.46651428200005], [85.64718717500006, 26.46654029700005], [85.64689085900005, 26.466410264000046], [85.64643837200003, 26.46606405500006], [85.64609079400003, 26.465577567000025], [85.64525065500004, 26.46329643200005], [85.64501321400007, 26.46280062900007], [85.64482190600006, 26.46254844300006], [85.64462598300008, 26.462449759000037], [85.64431498200008, 26.462414499000033], [85.64372338600003, 26.46242967200004], [85.64240005700003, 26.46253713300007], [85.64228964700004, 26.462514791000046], [85.64218435400005, 26.462492541000074], [85.64208372300004, 26.462393547000033], [85.64199771000006, 26.46216811800008], [85.64195621900006, 26.461757558000045], [85.64199394900004, 26.459577831000047], [85.64192694800005, 26.45756524500007], [85.64171836400004, 26.456685789000062], [85.64095109900006, 26.456633749000048], [85.64013856200006, 26.45655471300006], [85.63990669400005, 26.456167305000065], [85.63941170700008, 26.455099089000043], [85.63880659300008, 26.454062819000058], [85.63813634800005, 26.454524896000066], [85.63766593900004, 26.454787959000043], [85.63555240300008, 26.45547054700006], [85.63533236300003, 26.455620121000038], [85.63514270200005, 26.455868829000053], [85.63504806400005, 26.456067636000057], [85.63487473300006, 26.45670894600005], [85.63470252800005, 26.457706771000062], [85.63456596900005, 26.45885784400008], [85.63468626100007, 26.46034674300006], [85.63519634000005, 26.46144203600005], [85.63586868100003, 26.46157557300006], [85.63717719100003, 26.463047709000023], [85.63819372100005, 26.46563085400004], [85.63864249300008, 26.46636525200006], [85.63939132500008, 26.46690024800006], [85.63999159100007, 26.467941006000046], [85.64025628600007, 26.46911369000003], [85.63984735000008, 26.469787144000065], [85.63914220200007, 26.470326128000067], [85.63824735500003, 26.471131858000035], [85.63739110000006, 26.471504260000074], [85.63579821100006, 26.472004983000033], [85.63524304100008, 26.472412546000044], [85.63446300100009, 26.47308259600004], [85.63248979100007, 26.473827991000064], [85.63125936100005, 26.474769912000056], [85.63052163100008, 26.47611672900007], [85.62881782200003, 26.48103572100007], [85.62859534800003, 26.48201111800006], [85.62878836500005, 26.482746173000066], [85.62986820000003, 26.483248779000064], [85.63281681600006, 26.483222837000028], [85.63497829500005, 26.483235033000028], [85.63611730700006, 26.483444079000037], [85.63751234900008, 26.483697550000045], [85.63859698600004, 26.484132369000065], [85.63929410600008, 26.485628704000078], [85.63978618500005, 26.487274527000068], [85.64015868700005, 26.487711252000054], [85.64228383800008, 26.487335346000066], [85.64511636500004, 26.487056765000034], [85.64712698100004, 26.486920353000073], [85.64865418500005, 26.486243714000068], [85.65096453600006, 26.485799523000026], [85.65074695300007, 26.483782848000033], [85.65092660800008, 26.483525100000065], [85.65168785100008, 26.483229691000076]]]]}}, {"type": "Feature", "properties": {"OBJECTID": 6707, "GPCODE": "98566", "GPNAME_1": "JANIPUR", "DIST_CEN_C": "04", "BLK_NAME": "NANPUR", "ST_NAME": "BIHAR", "ST_CODE_1": "10", "GPCODE2011": "101053", "REMARKS": "FINALIZED", "MAP_STATUS": "COMPLETED", "BLK_C_2001": "040016", "BLK_C_2011": "01078", "DIST_NAME": "SITAMARHI", "code2011": 0.0, "Shape_Leng": 0.13758092194, "Shape_Area": 0.000849694, "Area": 9.38465}, "geometry": {"type": "MultiPolygon", "coordinates": [[[[85.66354293500007, 26.47903051000003], [85.66401268500005, 26.47857338500006], [85.66401041200004, 26.477950557000042], [85.66359798800005, 26.476196335000054], [85.66396301400005, 26.475901856000064], [85.66504567100003, 26.47576786600007], [85.66732675600008, 26.475630414000022], [85.66884036000005, 26.475400255000068], [85.66978171900007, 26.475040980000074], [85.67206305500008, 26.47496658700004], [85.67611746100005, 26.474336278000067], [85.67766977500008, 26.473745035000036], [85.67871489000004, 26.47296565000005], [85.67994179100003, 26.471170362000066], [85.68093955400008, 26.46846418900003], [85.68129535000008, 26.467059642000038], [85.68151464100004, 26.466702484000052], [85.68194573400007, 26.466669618000026], [85.68241818200005, 26.46696152800007], [85.68339833200008, 26.467608399000028], [85.68459997100007, 26.468453108000062], [85.68597470900005, 26.46867909100007], [85.68665596300008, 26.468519036000032], [85.68708969700003, 26.467836265000074], [85.68708593800005, 26.466857014000027], [85.68686627600005, 26.465779119000047], [85.68543963800005, 26.46507946400004], [85.68372250700008, 26.46313520800004], [85.68308792200008, 26.462383471000066], [85.68271997700003, 26.461883624000052], [85.68247238500004, 26.461369924000053], [85.68226943600007, 26.46072068500007], [85.68212797200005, 26.46042779800007], [85.68180012400006, 26.459914343000037], [85.68162403900004, 26.459752397000045], [85.68141306400008, 26.459644732000072], [85.68028339800009, 26.459228496000037], [85.67960573500005, 26.45903192700007], [85.67846704700008, 26.458881908000023], [85.67617536200004, 26.45878043400006], [85.67546802500004, 26.458656253000072], [85.67502102500004, 26.458468048000043], [85.67400547000005, 26.457708370000034], [85.67366898500006, 26.457542384000078], [85.67316259200004, 26.457539394000037], [85.67190948200005, 26.457633332000057], [85.67119685900008, 26.45746845900004], [85.67042378000008, 26.457181888000036], [85.66998207300009, 26.45706140200008], [85.66959592800004, 26.457035450000035], [85.66906466000006, 26.457086639000067], [85.66865829100004, 26.457024602000047], [85.66775960300004, 26.456684308000035], [85.66746356100003, 26.456608423000034], [85.66720786500008, 26.456604708000043], [85.66661673500005, 26.456741812000075], [85.66610550500008, 26.456792910000047], [85.66565914700004, 26.456758084000057], [85.66506196300008, 26.456597378000026], [85.66486102600004, 26.45649420700005], [85.66461465000003, 26.456291805000035], [85.66440809500006, 26.45601258000005], [85.66374090200009, 26.45451173200007], [85.66356932600007, 26.45421890700004], [85.66340321500007, 26.454020868000043], [85.66321221800007, 26.453886041000032], [85.66230320300008, 26.453441901000076], [85.66044828800005, 26.45207532300003], [85.66030705700007, 26.451827507000075], [85.66014492100004, 26.45134510300005], [85.65959053800003, 26.44911285300003], [85.65940094400008, 26.447953566000024], [85.65924468400004, 26.44632486300003], [85.65917869500004, 26.44609494100007], [85.65899273000008, 26.44594648900005], [85.65825472300008, 26.445646256000032], [85.65800378900008, 26.445583817000056], [85.65771796200005, 26.44556654200005], [85.65639976100005, 26.44562902800004], [85.656189, 26.445570932000066], [85.65607324900003, 26.44545841000007], [85.65590664700005, 26.445115970000074], [85.65587615400005, 26.445007728000064], [85.65312145000007, 26.44574209700005], [85.64952995500005, 26.446609628000033], [85.64875875100006, 26.44684189700007], [85.64732170300005, 26.447351308000066], [85.64615944300004, 26.447598232000075], [85.64582894100005, 26.447716557000035], [85.64471276200004, 26.44824758900006], [85.64403230500005, 26.448637629000075], [85.64381269100005, 26.448917988000062], [85.64376466500005, 26.44954089500004], [85.64368025100003, 26.449762258000078], [85.64354028000008, 26.449907023000037], [85.64283517800004, 26.450418977000027], [85.64270549500003, 26.45060883700006], [85.64261113400005, 26.450866361000067], [85.64254806600007, 26.451493767000045], [85.64253668700007, 26.45256790600007], [85.64247345400008, 26.45314570800008], [85.64180114200008, 26.45596352000007], [85.64171836400004, 26.456685789000062], [85.64192694800005, 26.45756524500007], [85.64199394900004, 26.459577831000047], [85.64195621900006, 26.461757558000045], [85.64199771000006, 26.46216811800008], [85.64208372300004, 26.462393547000033], [85.64218435400005, 26.462492541000074], [85.64228964700004, 26.462514791000046], [85.64240005700003, 26.46253713300007], [85.64372338600003, 26.46242967200004], [85.64431498200008, 26.462414499000033], [85.64462598300008, 26.462449759000037], [85.64482190600006, 26.46254844300006], [85.64501321400007, 26.46280062900007], [85.64525065500004, 26.46329643200005], [85.64609079400003, 26.465577567000025], [85.64643837200003, 26.46606405500006], [85.64689085900005, 26.466410264000046], [85.64718717500006, 26.46654029700005], [85.64843062700004, 26.46651428200005], [85.64886722700004, 26.466648450000037], [85.64916262200006, 26.46650773600004], [85.64939822400004, 26.466475484000057], [85.64957342800005, 26.466402798000047], [85.64970378600003, 26.466411437000033], [85.64977419900003, 26.466460896000058], [85.65005732600008, 26.467150531000073], [85.65060256900006, 26.468195999000045], [85.65074421200006, 26.46857919200005], [85.65081581500004, 26.46895801200003], [85.65083721200006, 26.469346100000053], [85.65077085900003, 26.470460959000036], [85.65089188400003, 26.470654654000043], [85.65092253300008, 26.47083513800004], [85.65103355100007, 26.47101078600008], [85.65120136100006, 26.47169629800004], [85.65125180800004, 26.471781820000047], [85.65138252000008, 26.471876224000027], [85.65180905000005, 26.471965282000042], [85.65215073100006, 26.472176500000046], [85.65251832800004, 26.472604175000072], [85.65281583600006, 26.473099727000033], [85.65372490000004, 26.47493386900004], [85.65417974000007, 26.475938960000065], [85.65492788200004, 26.47764269000004], [85.65560579000004, 26.479346561000057], [85.65581280200007, 26.479734103000055], [85.65628617100003, 26.480305848000057], [85.65656852500007, 26.480733831000066], [85.65714397200009, 26.480375621000064], [85.65746211300007, 26.479598554000063], [85.65782811900004, 26.47956139100006], [85.65873117800004, 26.479689712000038], [85.65981940700004, 26.47968652700007], [85.66184439200003, 26.479418984000063], [85.66354293500007, 26.47903051000003]]]]}}]}