{"type": "FeatureCollection", "features": [{"type": "Feature", "properties": {"OBJECTID": 6761, "GPCODE": "98707", "GPNAME_1": "DIWARI MATAUNA", "DIST_CEN_C": "04", "BLK_NAME": "SURSAND", "ST_NAME": "BIHAR", "ST_CODE_1": "10", "GPCODE2011": "101194", "REMARKS": "FINALIZED", "MAP_STATUS": "COMPLETED", "BLK_C_2001": "040006", "BLK_C_2011": "01068", "DIST_NAME": "SITAMARHI", "code2011": 0.0, "Shape_Leng": 0.24187433998, "Shape_Area": 0.00105734821, "Area": 11.6648}, "geometry": {"type": "MultiPolygon", "coordinates": [[[[85.79528439800004, 26.61568017700006], [85.80056810400004, 26.61503710100004], [85.80307114300007, 26.615281237000033], [85.80315848800007, 26.614944303000073], [85.80437920700007, 26.614004183000077], [85.80268832100006, 26.61222649800004], [85.80119839500009, 26.60933515000005], [85.80083480700006, 26.60889435300004], [85.79998040000004, 26.608690022000076], [85.79968066300006, 26.60795567400004], [85.79805009100005, 26.607118092000064], [85.79729522200006, 26.606737414000065], [85.79662990500003, 26.605115427000044], [85.79725122300005, 26.60487837200003], [85.79760825800008, 26.60396086800006], [85.79753956500008, 26.603225601000076], [85.79333066500004, 26.602799494000067], [85.79233922000003, 26.601205743000037], [85.79196329700005, 26.598134036000033], [85.79108291300008, 26.59348027200008], [85.78846756600007, 26.593454080000072], [85.78590458400004, 26.593906036000078], [85.78537995700003, 26.59334847100007], [85.78477652600003, 26.59095898700008], [85.78372201100007, 26.590872674000025], [85.78219663300007, 26.589912689000073], [85.78114123100005, 26.588558291000027], [85.77830501300008, 26.58632599200007], [85.77826882000005, 26.58499940400003], [85.77711680000004, 26.584444062000046], [85.77639003900003, 26.583557820000067], [85.77458309700006, 26.583564445000036], [85.77155445700004, 26.582018679000043], [85.77016355100005, 26.579663664000066], [85.76935349200005, 26.577013075000025], [85.76858317700004, 26.575364255000068], [85.76490370000005, 26.575219684000047], [85.76222198900007, 26.573731095000028], [85.75990769500004, 26.573594981000042], [85.75857149000007, 26.573306452000054], [85.75783875100007, 26.57218538400008], [85.75689795100004, 26.57165627300003], [85.75516064400006, 26.571477436000066], [85.75373547200007, 26.570358785000053], [85.75254630200004, 26.569266424000034], [85.75105752700006, 26.569677728000045], [85.74894042400007, 26.569843166000055], [85.74772581600007, 26.56959389000008], [85.74744853400006, 26.569536975000062], [85.74772584200008, 26.568331601000068], [85.74788694200004, 26.567631095000024], [85.74885020300007, 26.566404746000046], [85.74828724000008, 26.56504842100003], [85.74772581700006, 26.565197874000035], [85.74760053000006, 26.565231278000056], [85.74365203800005, 26.564297341000042], [85.74200092000007, 26.561938447000045], [85.73534805200006, 26.564646320000065], [85.73563281100007, 26.56673468400004], [85.73527206100005, 26.569244999000034], [85.73606232900005, 26.569806440000036], [85.73773343500005, 26.56858681800003], [85.74130965300003, 26.568105203000073], [85.74274747600003, 26.56753609200007], [85.74471267300004, 26.565877655000065], [85.74582805000006, 26.566167131000043], [85.74389878100004, 26.568005936000077], [85.74334662200005, 26.569158642000048], [85.74400573400004, 26.56953996200008], [85.74462522900006, 26.568887924000023], [85.74554611000008, 26.56944885300004], [85.74480025200006, 26.571076008000034], [85.74203894000004, 26.570819362000066], [85.74037917800007, 26.57351010600007], [85.74025410500008, 26.574778652000077], [85.74081682300005, 26.576107943000068], [85.74414388400004, 26.57831223200003], [85.74496608100003, 26.579270584000028], [85.74372544100004, 26.58021799100004], [85.74545190300006, 26.584851101000027], [85.74575243500004, 26.58702516200003], [85.74645767700008, 26.589946934000068], [85.74547281600007, 26.590866461000076], [85.74554765700003, 26.591931174000024], [85.74772569200007, 26.59157775600005], [85.74853221600006, 26.59144692600006], [85.75617833800004, 26.59059416100007], [85.75854056000009, 26.590143538000063], [85.76040724600006, 26.59001949800006], [85.76149203600005, 26.590132923000056], [85.76205133000008, 26.59060471400005], [85.76258277600004, 26.591609189000053], [85.76369745600005, 26.591663797000024], [85.76494135800004, 26.591451722000045], [85.76553300300003, 26.592424337000068], [85.76688328900008, 26.592419449000033], [85.76760222300004, 26.591559457000074], [85.77091161800007, 26.591899375000025], [85.77306797800009, 26.596936638000045], [85.77297027000003, 26.597528129000068], [85.77228634000005, 26.598356482000042], [85.77090891900008, 26.599042978000057], [85.77191167000007, 26.60208085200003], [85.77230894900003, 26.60222827800004], [85.77320713400007, 26.60435052100007], [85.77405622900005, 26.604487273000075], [85.77465410600007, 26.60569898700004], [85.77639605700006, 26.60569256100007], [85.77700037700004, 26.608289626000044], [85.77877147100008, 26.608048437000036], [85.78024761900008, 26.60700502700007], [85.78248031000004, 26.606703324000023], [85.78380794100008, 26.60613425300005], [85.78555618500008, 26.607454473000075], [85.78710189100008, 26.607331303000024], [85.78632411300003, 26.60957703200006], [85.78915986800007, 26.61154284400004], [85.79066962500008, 26.611243813000044], [85.79174093300009, 26.61484536200004], [85.79304553300005, 26.61468245900005], [85.79528439800004, 26.61568017700006]]]]}}, {"type": "Feature", "properties": {"OBJECTID": 6763, "GPCODE": "98702", "GPNAME_1": "AMANA", "DIST_CEN_C": "04", "BLK_NAME": "SURSAND", "ST_NAME": "BIHAR", "ST_CODE_1": "10", "GPCODE2011": "101189", "REMARKS": "FINALIZED", "MAP_STATUS": "COMPLETED", "BLK_C_2001": "040006", "BLK_C_2011": "01068", "DIST_NAME": "SITAMARHI", "code2011": 0.0, "Shape_Leng": 0.1902982905, "Shape_Area": 0.00089693316, "Area": 9.89505}, "geometry": {"type": "MultiPolygon", "coordinates": [[[[85.67932231600008, 26.61296352100004], [85.68000930700003, 26.612722261000044], [85.68191234100004, 26.612806756000055], [85.68189640700007, 26.61123183600006], [85.68145088100005, 26.610244901000044], [85.68054468200006, 26.609566209000036], [85.67936250000008, 26.608938009000042], [85.67811965700008, 26.60684333900008], [85.67798975200003, 26.605652339000073], [85.67828720300008, 26.604658707000056], [85.67838365200004, 26.603593399000033], [85.67942432900008, 26.601320326000064], [85.67961670200003, 26.60040365800006], [85.67928859700004, 26.599903788000063], [85.67859422100008, 26.599490632000027], [85.67692176200006, 26.599260994000076], [85.67623305800004, 26.59899689100007], [85.67458291700007, 26.59666864600007], [85.67730911900009, 26.59678235800004], [85.68208651200007, 26.596384409000052], [85.68242037600004, 26.595751568000026], [85.68576540600003, 26.594902062000074], [85.68931593100007, 26.593997625000043], [85.69269781400004, 26.59366217200005], [85.69269550100006, 26.59304400700006], [85.69345070600008, 26.592333155000063], [85.69475610800004, 26.591119604000028], [85.69511162100008, 26.589593171000047], [85.69497823400008, 26.58885350500003], [85.69425406600004, 26.588503802000048], [85.69451801300005, 26.587970469000027], [85.69530243600008, 26.587020368000026], [85.69486820400004, 26.58507676000005], [85.69383261500008, 26.580756717000042], [85.69406182400007, 26.580313819000025], [85.69570069800005, 26.57971751200006], [85.69563158000005, 26.578715887000044], [85.69441861600006, 26.579130320000047], [85.69363023700004, 26.579047073000027], [85.69267525300006, 26.57869351200003], [85.69198728300006, 26.578578354000058], [85.69103405800007, 26.578698581000026], [85.69041072500005, 26.578434280000067], [85.68872402100004, 26.57572278300006], [85.68872508200008, 26.57468041100003], [85.68838733000007, 26.574311398000077], [85.68801127300009, 26.57307151300006], [85.68663137800007, 26.57314343300004], [85.68494967500004, 26.573049323000077], [85.68345918600005, 26.573053815000037], [85.68256116500004, 26.573155884000073], [85.68237789100004, 26.573792755000056], [85.68242400900004, 26.575372065000067], [85.68223525200005, 26.57590965000003], [85.68145454600005, 26.576512146000027], [85.68015020500007, 26.57665148700005], [85.67820723000006, 26.576490394000075], [85.67772041500007, 26.57649184400003], [85.67723861700006, 26.57649329700007], [85.67653194700006, 26.57676619500006], [85.67593793600008, 26.57763890500007], [85.67567948600004, 26.578312080000046], [85.67560613700005, 26.57884482700007], [85.67601908100005, 26.57921362600007], [85.67687909300008, 26.579680336000024], [85.67714176100003, 26.58014890800007], [85.67717902400005, 26.580721912000058], [85.67680924800004, 26.58116076600004], [85.67600224900008, 26.581452021000075], [85.67506807200004, 26.58128782400007], [85.67454390400007, 26.580684698000027], [85.67398139700003, 26.580587095000055], [85.67312396900007, 26.580824300000074], [85.67182187900005, 26.58159986800007], [85.67133609900003, 26.58190357500007], [85.67104295300004, 26.582707756000048], [85.67100575700005, 26.583515644000045], [85.67060279400005, 26.584491567000043], [85.67015362100005, 26.58519694000006], [85.66974940800003, 26.58583442200006], [85.66912003800007, 26.588051992000032], [85.66872046100008, 26.588612734000037], [85.66745143500003, 26.588855688000024], [85.66562549200006, 26.589163318000033], [85.66443264100008, 26.589667704000078], [85.66432335200005, 26.589970380000068], [85.66443605400008, 26.590606360000038], [85.66451260900004, 26.59094464800006], [85.66417768200006, 26.591347235000057], [85.66324581300006, 26.591819258000044], [85.66298681800004, 26.592393121000043], [85.66307609500006, 26.593489443000067], [85.66262581000007, 26.593892422000067], [85.66199407800008, 26.59409277900005], [85.66102636100004, 26.594402457000058], [85.66072644000008, 26.594773400000065], [85.66077679800009, 26.597625263000054], [85.66160493000007, 26.600366646000055], [85.66138560700006, 26.600804984000035], [85.65884683500008, 26.60117785500006], [85.65692459500008, 26.601314184000046], [85.65494942600003, 26.602059962000055], [85.65416851000003, 26.602698471000053], [85.65462300100006, 26.604876813000033], [85.65640292200004, 26.60849545900004], [85.65715831100005, 26.60917025300006], [85.65781659000004, 26.609344338000028], [85.65889947300008, 26.60889902300005], [85.65984783400006, 26.608778904000076], [85.66060653500006, 26.60895275400003], [85.66188558000005, 26.610036619000027], [85.66267448500008, 26.610210289000065], [85.66330368000007, 26.61206773600003], [85.66654198000003, 26.612089880000042], [85.67004859400004, 26.611371097000074], [85.67074175800008, 26.611454784000045], [85.67372554300005, 26.611892657000055], [85.67196104000004, 26.613991804000023], [85.67232926900004, 26.61581844500006], [85.67312016600005, 26.616556111000023], [85.67306107800005, 26.61958885100006], [85.67397418300004, 26.62346255400007], [85.67483771400003, 26.626145112000074], [85.67684606100005, 26.627465810000047], [85.67805219300004, 26.62641074900006], [85.67947000800007, 26.620214992000058], [85.67907749000005, 26.61862769000004], [85.67982509900008, 26.617176853000046], [85.67936489100003, 26.61626664700003], [85.67873516400005, 26.61435066100006], [85.67932231600008, 26.61296352100004]]]]}}, {"type": "Feature", "properties": {"OBJECTID": 6765, "GPCODE": "98706", "GPNAME_1": "DADHAWARI", "DIST_CEN_C": "04", "BLK_NAME": "SURSAND", "ST_NAME": "BIHAR", "ST_CODE_1": "10", "GPCODE2011": "101193", "REMARKS": "FINALIZED", "MAP_STATUS": "COMPLETED", "BLK_C_2001": "040006", "BLK_C_2011": "01068", "DIST_NAME": "SITAMARHI", "code2011": 0.0, "Shape_Leng": 0.14291718718, "Shape_Area": 0.00059435145, "Area": 6.55648}, "geometry": {"type": "MultiPolygon", "coordinates": [[[[85.74170153900008, 26.603393312000037], [85.74689200900008, 26.600983515000053], [85.74772564000006, 26.60098385300006], [85.75388485000008, 26.600986069000044], [85.75686874300004, 26.60029849400007], [85.75788779200008, 26.600294907000034], [85.75913311200009, 26.59925253800003], [85.76040570700007, 26.59868844600004], [85.76188292500007, 26.599008035000054], [85.76369050900007, 26.599091731000044], [85.76726161400006, 26.59840194800006], [85.76919959100007, 26.598485105000066], [85.77090891900008, 26.599042978000057], [85.77228634000005, 26.598356482000042], [85.77297027000003, 26.597528129000068], [85.77306797800009, 26.596936638000045], [85.77091161800007, 26.591899375000025], [85.76760222300004, 26.591559457000074], [85.76688328900008, 26.592419449000033], [85.76553300300003, 26.592424337000068], [85.76494135800004, 26.591451722000045], [85.76369745600005, 26.591663797000024], [85.76258277600004, 26.591609189000053], [85.76205133000008, 26.59060471400005], [85.76149203600005, 26.590132923000056], [85.76040724600006, 26.59001949800006], [85.75854056000009, 26.590143538000063], [85.75617833800004, 26.59059416100007], [85.74853221600006, 26.59144692600006], [85.74772569200007, 26.59157775600005], [85.74554765700003, 26.591931174000024], [85.74547281600007, 26.590866461000076], [85.74645767700008, 26.589946934000068], [85.74575243500004, 26.58702516200003], [85.74188033100006, 26.58771547200007], [85.73598122600004, 26.58859321500006], [85.73231413400003, 26.58911104300006], [85.73211494600008, 26.590668669000024], [85.73362630100007, 26.590780849000055], [85.73396263500007, 26.591993639000066], [85.73255117500008, 26.59294157900007], [85.73154040800006, 26.593712135000033], [85.73118642500003, 26.59548680900008], [85.73102442800007, 26.59636738300003], [85.73155535200004, 26.597281688000066], [85.73139665900004, 26.598938315000055], [85.73124027700004, 26.599940713000024], [85.73077975100006, 26.60026714600008], [85.72950019900009, 26.600393372000042], [85.72923315500003, 26.601350945000036], [85.72938611800004, 26.601937097000075], [85.72915719800005, 26.602407178000078], [85.72860605400007, 26.603857644000072], [85.72881164100005, 26.606221611000024], [85.72852202100006, 26.60659709500004], [85.72691791800008, 26.608375936000073], [85.72511478300004, 26.609383841000067], [85.72495615600008, 26.60985815300006], [85.72611105600004, 26.611126885000033], [85.72736257600008, 26.612684080000065], [85.72874447500004, 26.612977280000052], [85.73019379000004, 26.61379826700005], [85.73072126600005, 26.61506451100007], [85.73105563800004, 26.615771937000034], [85.73154821900005, 26.615919199000075], [85.73218807000006, 26.61525362100008], [85.73448371200004, 26.614356822000047], [85.73648084900003, 26.612905958000056], [85.74271929500009, 26.611259897000025], [85.74251958300005, 26.610353559000032], [85.74337073100008, 26.60981813400008], [85.74170153900008, 26.603393312000037]]]]}}, {"type": "Feature", "properties": {"OBJECTID": 6770, "GPCODE": "98709", "GPNAME_1": "KORIYAHI", "DIST_CEN_C": "04", "BLK_NAME": "SURSAND", "ST_NAME": "BIHAR", "ST_CODE_1": "10", "GPCODE2011": "101196", "REMARKS": "FINALIZED", "MAP_STATUS": "COMPLETED", "BLK_C_2001": "040006", "BLK_C_2011": "01068", "DIST_NAME": "SITAMARHI", "code2011": 0.0, "Shape_Leng": 0.11444924576, "Shape_Area": 0.00069463181, "Area": 7.66276}, "geometry": {"type": "MultiPolygon", "coordinates": [[[[85.81751993800003, 26.602413734000038], [85.81755512900008, 26.602201584000056], [85.81755547400007, 26.60156986900006], [85.81782669500006, 26.601272106000067], [85.81792718100007, 26.60119539300007], [85.81860005600004, 26.600613520000024], [85.81858522100003, 26.600284138000063], [85.81882708900008, 26.598348198000053], [85.81882711000009, 26.598212819000025], [85.81903321600004, 26.59766686900008], [85.81923932200004, 26.597120920000066], [85.81965639300006, 26.596123723000062], [85.82028931800005, 26.595225904000074], [85.82044006000007, 26.594973289000052], [85.82047536300007, 26.594454298000073], [85.82045581400007, 26.593465956000045], [85.82038573500006, 26.59287026000004], [85.82026531700006, 26.592816110000058], [85.82004949000003, 26.592766333000043], [85.81896035000005, 26.592540273000054], [85.81796667800006, 26.59223307600007], [85.81665675900007, 26.591875955000035], [85.81584379400005, 26.591424354000026], [85.81519636000007, 26.591144318000033], [85.81441368500003, 26.590480556000045], [85.81395226800004, 26.589853090000076], [85.81371673600006, 26.58896847500006], [85.81373696800006, 26.588715832000048], [85.81381755700005, 26.588219456000047], [85.81389301300004, 26.58788101300007], [85.81432487000006, 26.587484060000065], [85.81520856600008, 26.586911300000054], [85.81589141900008, 26.586519012000053], [85.81634329500008, 26.586239388000024], [85.81664968100006, 26.585734071000047], [85.81690598200004, 26.58518358500004], [85.81690641100005, 26.584344231000046], [85.81673110800006, 26.58354987200005], [85.81653076300006, 26.58262925300005], [85.81645059000004, 26.582417058000033], [85.81624507000004, 26.581920626000056], [85.81585884400005, 26.58135635700006], [85.81528699300009, 26.58088226900003], [85.81484551100004, 26.58051653900003], [85.81458474900006, 26.58006513500004], [85.81436422300004, 26.579446761000042], [85.81411347900007, 26.578963784000052], [85.81371717500008, 26.578647729000068], [85.81299461600008, 26.578254784000023], [85.81085629300009, 26.578232163000052], [85.80860458800004, 26.579644461000044], [85.80235659900006, 26.57979516000006], [85.80134219900003, 26.578643859000067], [85.79708275700006, 26.578998709000075], [85.79549253000005, 26.58022324600006], [85.79254451800006, 26.580902352000066], [85.79424854000007, 26.588860746000023], [85.79408921700008, 26.59018812200003], [85.79108291300008, 26.59348027200008], [85.79196329700005, 26.598134036000033], [85.79233922000003, 26.601205743000037], [85.79333066500004, 26.602799494000067], [85.79753956500008, 26.603225601000076], [85.79760825800008, 26.60396086800006], [85.79725122300005, 26.60487837200003], [85.79662990500003, 26.605115427000044], [85.79729522200006, 26.606737414000065], [85.79805009100005, 26.607118092000064], [85.79968066300006, 26.60795567400004], [85.79998040000004, 26.608690022000076], [85.80083480700006, 26.60889435300004], [85.80119839500009, 26.60933515000005], [85.80268832100006, 26.61222649800004], [85.80437920700007, 26.614004183000077], [85.80630629100006, 26.612241448000077], [85.80681213900004, 26.611716535000028], [85.80956742300003, 26.60938964500008], [85.81068346200004, 26.608457307000037], [85.81370892800004, 26.60583271400003], [85.81452838200005, 26.605198118000033], [85.81704821000005, 26.602823949000026], [85.81737904400006, 26.60273791700007], [85.81751993800003, 26.602413734000038]]]]}}, {"type": "Feature", "properties": {"OBJECTID": 6772, "GPCODE": "98711", "GPNAME_1": "MALAHI", "DIST_CEN_C": "04", "BLK_NAME": "SURSAND", "ST_NAME": "BIHAR", "ST_CODE_1": "10", "GPCODE2011": "101198", "REMARKS": "FINALIZED", "MAP_STATUS": "COMPLETED", "BLK_C_2001": "040006", "BLK_C_2011": "01068", "DIST_NAME": "SITAMARHI", "code2011": 0.0, "Shape_Leng": 0.15307555142, "Shape_Area": 0.00098859366, "Area": 10.9043}, "geometry": {"type": "MultiPolygon", "coordinates": [[[[85.70303605200007, 26.63754743100003], [85.70479696200005, 26.63586755600005], [85.70626474000005, 26.633710321000024], [85.70720855400003, 26.63240765200004], [85.70824885200005, 26.630111815000078], [85.70971929100006, 26.628663035000045], [85.71050076700004, 26.62694569300004], [85.70900978100008, 26.624504640000055], [85.70867208300007, 26.621676270000023], [85.70862966900006, 26.619875841000066], [85.70833257700008, 26.618383038000047], [85.70780240100004, 26.617649206000067], [85.70645131500004, 26.61626362800007], [85.70555355800008, 26.61270597600003], [85.70505558400004, 26.611204831000066], [85.70580295400003, 26.609753856000054], [85.70684748800005, 26.60857264300006], [85.70563150500004, 26.60831029700006], [85.70451680100007, 26.60825518100006], [85.70107407500007, 26.608559495000065], [85.69969668100003, 26.60040937800005], [85.69893395900004, 26.597943344000043], [85.69846847400004, 26.597001618000036], [85.69839434200009, 26.594731945000035], [85.69322929000003, 26.594784195000045], [85.69269781400004, 26.59366217200005], [85.68931593100007, 26.593997625000043], [85.68576540600003, 26.594902062000074], [85.68242037600004, 26.595751568000026], [85.68208651200007, 26.596384409000052], [85.67730911900009, 26.59678235800004], [85.67458291700007, 26.59666864600007], [85.67623305800004, 26.59899689100007], [85.67692176200006, 26.599260994000076], [85.67859422100008, 26.599490632000027], [85.67928859700004, 26.599903788000063], [85.67961670200003, 26.60040365800006], [85.67942432900008, 26.601320326000064], [85.67838365200004, 26.603593399000033], [85.67828720300008, 26.604658707000056], [85.67798975200003, 26.605652339000073], [85.67811965700008, 26.60684333900008], [85.67936250000008, 26.608938009000042], [85.68054468200006, 26.609566209000036], [85.68145088100005, 26.610244901000044], [85.68189640700007, 26.61123183600006], [85.68191234100004, 26.612806756000055], [85.68000930700003, 26.612722261000044], [85.67932231600008, 26.61296352100004], [85.67873516400005, 26.61435066100006], [85.67936489100003, 26.61626664700003], [85.67982509900008, 26.617176853000046], [85.67907749000005, 26.61862769000004], [85.67947000800007, 26.620214992000058], [85.67805219300004, 26.62641074900006], [85.67867204100008, 26.625673248000055], [85.68329946800003, 26.625153843000078], [85.68423053000004, 26.628368570000077], [85.68957183100008, 26.628040818000045], [85.69096750000006, 26.63320355600007], [85.69160140500009, 26.63612128500006], [85.69199386300005, 26.63632761300005], [85.69211362800007, 26.637428389000036], [85.69552790400007, 26.637331940000024], [85.69739545300007, 26.637208744000077], [85.69891383500004, 26.638972956000032], [85.70065332200005, 26.63946837000003], [85.70303605200007, 26.63754743100003]]]]}}, {"type": "Feature", "properties": {"OBJECTID": 6775, "GPCODE": "98714", "GPNAME_1": "RADHAUR", "DIST_CEN_C": "04", "BLK_NAME": "SURSAND", "ST_NAME": "BIHAR", "ST_CODE_1": "10", "GPCODE2011": "101201", "REMARKS": "FINALIZED", "MAP_STATUS": "COMPLETED", "BLK_C_2001": "040006", "BLK_C_2011": "01068", "DIST_NAME": "SITAMARHI", "code2011": 0.0, "Shape_Leng": 0.13506234535, "Shape_Area": 0.00090243805, "Area": 9.9538}, "geometry": {"type": "MultiPolygon", "coordinates": [[[[85.66005167200007, 26.634875442000066], [85.66146236800006, 26.634785648000047], [85.66280853400008, 26.634899061000056], [85.66349872400008, 26.635515251000072], [85.66438704800004, 26.636780776000023], [85.66482967800005, 26.635579135000057], [85.66590482600003, 26.634366587000045], [85.66533912400007, 26.632066735000024], [85.66658244800004, 26.631535060000033], [85.66723532000003, 26.630174882000063], [85.66769126900004, 26.629907255000035], [85.66719325100007, 26.62825704100004], [85.66755228400007, 26.62757457300006], [85.67073735600007, 26.626658165000038], [85.67165369800006, 26.625978522000025], [85.67280045800004, 26.625149272000044], [85.67397418300004, 26.62346255400007], [85.67306107800005, 26.61958885100006], [85.67312016600005, 26.616556111000023], [85.67232926900004, 26.61581844500006], [85.67196104000004, 26.613991804000023], [85.67372554300005, 26.611892657000055], [85.67074175800008, 26.611454784000045], [85.67004859400004, 26.611371097000074], [85.66654198000003, 26.612089880000042], [85.66330368000007, 26.61206773600003], [85.66267448500008, 26.610210289000065], [85.66188558000005, 26.610036619000027], [85.66060653500006, 26.60895275400003], [85.65984783400006, 26.608778904000076], [85.65889947300008, 26.60889902300005], [85.65781659000004, 26.609344338000028], [85.65715831100005, 26.60917025300006], [85.65640292200004, 26.60849545900004], [85.65462300100006, 26.604876813000033], [85.65416851000003, 26.602698471000053], [85.65256364300006, 26.60314078300007], [85.65055134100004, 26.603349485000024], [85.64957774000004, 26.60345150300003], [85.64835094100005, 26.604330421000043], [85.64727670900004, 26.605800068000065], [85.64608370100007, 26.606340378000027], [85.64414833800004, 26.607049790000076], [85.64299026400005, 26.607522283000037], [85.64265664500005, 26.608330969000065], [85.64255028500008, 26.609504542000025], [85.64210496700008, 26.609943531000056], [85.64109710800005, 26.61031636200005], [85.63733818500003, 26.610723783000026], [85.63556209900008, 26.611053543000025], [85.63646424800004, 26.61654307300006], [85.63627274500004, 26.619318904000068], [85.63631351600003, 26.620997535000072], [85.63704124500003, 26.623874733000036], [85.63727925700005, 26.627461655000047], [85.63820808500003, 26.63037889800006], [85.63876824200008, 26.631207663000055], [85.63932625900009, 26.631409267000038], [85.63993941500007, 26.63305467200007], [85.64103567400008, 26.636440702000073], [85.64366536800009, 26.635991266000076], [85.64402588400003, 26.63569687300003], [85.64408636700006, 26.634279737000043], [85.64510435200003, 26.63389337700005], [85.64906532600008, 26.633616003000043], [85.65017972500004, 26.633522635000077], [85.65107265600005, 26.636146523000036], [85.65163148300007, 26.636560170000052], [85.65222577900005, 26.63705940600005], [85.65262447700007, 26.637617781000074], [85.65362827600006, 26.637461570000028], [85.65500599200004, 26.636546098000053], [85.65680524300006, 26.635566163000078], [85.66005167200007, 26.634875442000066]]]]}}, {"type": "Feature", "properties": {"OBJECTID": 6776, "GPCODE": "98705", "GPNAME_1": "BIRRAKH", "DIST_CEN_C": "04", "BLK_NAME": "SURSAND", "ST_NAME": "BIHAR", "ST_CODE_1": "10", "GPCODE2011": "101192", "REMARKS": "FINALIZED", "MAP_STATUS": "COMPLETED", "BLK_C_2001": "040006", "BLK_C_2011": "01068", "DIST_NAME": "SITAMARHI", "code2011": 0.0, "Shape_Leng": 0.11843240239, "Shape_Area": 0.00057161666, "Area": 6.30539}, "geometry": {"type": "MultiPolygon", "coordinates": [[[[85.72691791800008, 26.608375936000073], [85.72852202100006, 26.60659709500004], [85.72881164100005, 26.606221611000024], [85.72860605400007, 26.603857644000072], [85.72915719800005, 26.602407178000078], [85.72938611800004, 26.601937097000075], [85.72923315500003, 26.601350945000036], [85.72674100600005, 26.60204071800007], [85.72404781000006, 26.602667946000054], [85.72158757100004, 26.602558764000037], [85.71793432000004, 26.601654805000067], [85.71607252600006, 26.601814318000038], [85.71619328900005, 26.599422137000033], [85.71595824900004, 26.597162110000056], [85.71358982900006, 26.59616800300006], [85.71273497100003, 26.595787167000026], [85.71147261100003, 26.592686542000024], [85.71004797600006, 26.590425693000043], [85.70520631700003, 26.59223738000003], [85.70231866000006, 26.59316259800005], [85.70015310400004, 26.593909546000077], [85.69969782400005, 26.594294596000054], [85.69839434200009, 26.594731945000035], [85.69846847400004, 26.597001618000036], [85.69893395900004, 26.597943344000043], [85.69969668100003, 26.60040937800005], [85.70107407500007, 26.608559495000065], [85.70451680100007, 26.60825518100006], [85.70563150500004, 26.60831029700006], [85.70684748800005, 26.60857264300006], [85.70580295400003, 26.609753856000054], [85.70505558400004, 26.611204831000066], [85.70555355800008, 26.61270597600003], [85.70645131500004, 26.61626362800007], [85.70780240100004, 26.617649206000067], [85.70833257700008, 26.618383038000047], [85.70862966900006, 26.619875841000066], [85.71003089700008, 26.61997055100005], [85.71361042200004, 26.619895734000067], [85.72262983700006, 26.619162103000065], [85.72889804900007, 26.618491300000073], [85.73118885900004, 26.617626206000068], [85.73246968100005, 26.616561338000054], [85.73154821900005, 26.615919199000075], [85.73105563800004, 26.615771937000034], [85.73072126600005, 26.61506451100007], [85.73019379000004, 26.61379826700005], [85.72874447500004, 26.612977280000052], [85.72736257600008, 26.612684080000065], [85.72611105600004, 26.611126885000033], [85.72495615600008, 26.60985815300006], [85.72511478300004, 26.609383841000067], [85.72691791800008, 26.608375936000073]]]]}}, {"type": "Feature", "properties": {"OBJECTID": 6778, "GPCODE": "98712", "GPNAME_1": "MARUKI", "DIST_CEN_C": "04", "BLK_NAME": "SURSAND", "ST_NAME": "BIHAR", "ST_CODE_1": "10", "GPCODE2011": "101199", "REMARKS": "FINALIZED", "MAP_STATUS": "COMPLETED", "BLK_C_2001": "040006", "BLK_C_2011": "01068", "DIST_NAME": "SITAMARHI", "code2011": 0.0, "Shape_Leng": 0.15442497728, "Shape_Area": 0.00073093907, "Area": 8.06208}, "geometry": {"type": "MultiPolygon", "coordinates": [[[[85.63688347300007, 26.641104685000073], [85.64019663700003, 26.640752658000054], [85.64019100700006, 26.63910104300004], [85.64051444100005, 26.638215640000055], [85.64103941000008, 26.637532795000027], [85.64103567400008, 26.636440702000073], [85.63993941500007, 26.63305467200007], [85.63932625900009, 26.631409267000038], [85.63876824200008, 26.631207663000055], [85.63820808500003, 26.63037889800006], [85.63727925700005, 26.627461655000047], [85.63704124500003, 26.623874733000036], [85.63631351600003, 26.620997535000072], [85.63627274500004, 26.619318904000068], [85.63646424800004, 26.61654307300006], [85.63556209900008, 26.611053543000025], [85.63401676700005, 26.611337438000078], [85.63189521800007, 26.611979489000078], [85.63085682100007, 26.612216876000048], [85.62992205700004, 26.61194862600007], [85.62858119400005, 26.611816802000078], [85.62749723300004, 26.611955129000023], [85.62671579800008, 26.61249421100007], [85.62597473300008, 26.613096350000035], [85.62553071500008, 26.61393693100007], [85.62523039800004, 26.614240077000034], [85.62463807300009, 26.614273214000036], [85.62373781300005, 26.61377463900004], [85.62306554500003, 26.613911775000076], [85.62209884300006, 26.61461834100004], [85.62162380100006, 26.61521523600004], [85.62110322200004, 26.61568594000005], [85.62017011200004, 26.615922974000057], [85.61938706000007, 26.615961092000077], [85.61886426000007, 26.61575944200007], [85.61878774200005, 26.615389578000077], [85.61882669600004, 26.615019438000047], [85.61923706900006, 26.614616743000056], [85.62001917200007, 26.614280775000054], [85.62054054700008, 26.61404471000003], [85.62069043600007, 26.61380512900007], [85.62061415300008, 26.613507496000068], [85.61997551100006, 26.613170772000046], [85.61963756300008, 26.612679701000047], [85.61948539100007, 26.612210770000047], [85.61993352700006, 26.611067940000055], [85.62063901000005, 26.61033044800007], [85.62093359000005, 26.609824323000055], [85.62078691600004, 26.60949074800004], [85.61992825600004, 26.609425293000072], [85.61876858100004, 26.609428238000078], [85.61839631300006, 26.60919459300004], [85.61839521200005, 26.60885616300004], [85.61868948000006, 26.60825066500007], [85.61894846200005, 26.607613671000024], [85.61913141200006, 26.60674225400004], [85.61953947500007, 26.60563104000005], [85.62050351700003, 26.604125793000037], [85.62135897900004, 26.603216528000075], [85.62139227600005, 26.602647809000075], [85.62083372300003, 26.602211586000067], [85.61963152800007, 26.601483630000075], [85.61912838200004, 26.601128420000066], [85.61885714500005, 26.60093762400004], [85.61834361300004, 26.60374332400005], [85.61659724700007, 26.607069172000024], [85.61337317800007, 26.61149546100006], [85.61236722900009, 26.612504387000058], [85.60935494000006, 26.615702545000033], [85.60553295600005, 26.618519081000045], [85.60563929700004, 26.62043213800007], [85.60662378100005, 26.620556115000056], [85.60718207600007, 26.620879570000056], [85.60823530300007, 26.62211797200007], [85.60875902700008, 26.62261750500005], [85.60921670100004, 26.622851058000037], [85.60938488300008, 26.62364941800007], [85.60998026300007, 26.62455947500007], [85.61047779800003, 26.62791119900004], [85.61140090100008, 26.629235582000035], [85.61202503100003, 26.629703255000038], [85.61441437500008, 26.629489659000058], [85.61605517400005, 26.629106293000063], [85.61655041200004, 26.630106875000024], [85.61717792300004, 26.631635068000037], [85.61721390100007, 26.633458140000073], [85.61665872500004, 26.63413646500004], [85.61554476500004, 26.63437396200004], [85.61498792800006, 26.634555969000075], [85.61495844100006, 26.634759108000026], [85.61558229100007, 26.635141102000034], [85.61571400800005, 26.635497204000046], [85.61512854500006, 26.636139523000054], [85.61506619200009, 26.637060329000064], [85.61533300400004, 26.637267206000047], [85.61598642800004, 26.637473111000077], [85.61664443000006, 26.637502994000045], [85.61834911600005, 26.636699813000064], [85.61884103500006, 26.63663993700004], [85.61900843200004, 26.63716748400003], [85.61995307200004, 26.637345538000034], [85.62050904200004, 26.636901832000035], [85.62123186500008, 26.636809649000043], [85.62329447300004, 26.636420744000077], [85.62437888500006, 26.636359189000075], [85.62484253200006, 26.636858889000052], [85.62523481100004, 26.637033823000024], [85.62562573300005, 26.636798198000065], [85.62536200200003, 26.636004580000076], [85.62664091100004, 26.635527352000054], [85.62862739200006, 26.64097804100004], [85.62938007800005, 26.64082705000004], [85.63083126600003, 26.64229890300004], [85.63378228300007, 26.64175840300004], [85.63688347300007, 26.641104685000073]]]]}}, {"type": "Feature", "properties": {"OBJECTID": 6781, "GPCODE": "98708", "GPNAME_1": "KADARWANA", "DIST_CEN_C": "04", "BLK_NAME": "SURSAND", "ST_NAME": "BIHAR", "ST_CODE_1": "10", "GPCODE2011": "101195", "REMARKS": "FINALIZED", "MAP_STATUS": "COMPLETED", "BLK_C_2001": "040006", "BLK_C_2011": "01068", "DIST_NAME": "SITAMARHI", "code2011": 0.0, "Shape_Leng": 0.16308710151, "Shape_Area": 0.00077220417, "Area": 8.51627}, "geometry": {"type": "MultiPolygon", "coordinates": [[[[85.61827213900006, 26.658022690000053], [85.61889036700006, 26.65505170800003], [85.61959945700005, 26.65222487500006], [85.61946841900004, 26.652089885000066], [85.61902662800009, 26.652136092000035], [85.61807294300007, 26.65230104400007], [85.61786151900003, 26.65217077400007], [85.61738405700004, 26.65048870800007], [85.61739582500007, 26.647902934000058], [85.61539347100006, 26.64835032600007], [85.61423986800008, 26.64564112000005], [85.60974917200008, 26.646893584000054], [85.60748545800004, 26.647282870000026], [85.60584759400007, 26.647070368000072], [85.60539852700003, 26.64637648200005], [85.60719772500005, 26.64680517200003], [85.60824750200004, 26.646865797000032], [85.60909910500004, 26.646182149000026], [85.61210705000008, 26.644531898000025], [85.61450085700005, 26.64402487900003], [85.61899477600008, 26.643832804000056], [85.61826493600006, 26.641740799000047], [85.61799817500008, 26.640004050000073], [85.61861533000007, 26.638260547000073], [85.61900843200004, 26.63716748400003], [85.61884103500006, 26.63663993700004], [85.61834911600005, 26.636699813000064], [85.61664443000006, 26.637502994000045], [85.61598642800004, 26.637473111000077], [85.61533300400004, 26.637267206000047], [85.61506619200009, 26.637060329000064], [85.61512854500006, 26.636139523000054], [85.61571400800005, 26.635497204000046], [85.61558229100007, 26.635141102000034], [85.61495844100006, 26.634759108000026], [85.61498792800006, 26.634555969000075], [85.61554476500004, 26.63437396200004], [85.61665872500004, 26.63413646500004], [85.61721390100007, 26.633458140000073], [85.61717792300004, 26.631635068000037], [85.61655041200004, 26.630106875000024], [85.61605517400005, 26.629106293000063], [85.61441437500008, 26.629489659000058], [85.61202503100003, 26.629703255000038], [85.61140090100008, 26.629235582000035], [85.61047779800003, 26.62791119900004], [85.60998026300007, 26.62455947500007], [85.60938488300008, 26.62364941800007], [85.60921670100004, 26.622851058000037], [85.60875902700008, 26.62261750500005], [85.60823530300007, 26.62211797200007], [85.60718207600007, 26.620879570000056], [85.60662378100005, 26.620556115000056], [85.60563929700004, 26.62043213800007], [85.60553295600005, 26.618519081000045], [85.60368565300007, 26.61863641800005], [85.60088978600004, 26.618846447000067], [85.60093500500005, 26.618873450000024], [85.59996718300005, 26.61924586400005], [85.59851144700008, 26.61935319300005], [85.59595379800004, 26.618655456000056], [85.59588414200005, 26.618872269000065], [85.59582443400006, 26.61907096400006], [85.59577478900007, 26.619242521000047], [85.59574003200004, 26.61937802500006], [85.59571533200005, 26.619490901000063], [85.59570550100005, 26.619581159000063], [85.59570571500007, 26.619662408000067], [85.59571606000009, 26.619748173000062], [85.59572638900005, 26.619842864000077], [85.59574674300006, 26.619946585000037], [85.59576720300004, 26.620050393000042], [85.59579258400004, 26.62014510000006], [85.59581797500005, 26.620230787000025], [85.59584318600008, 26.62029384300007], [85.59587353000006, 26.620347974000026], [85.59591381800004, 26.620388498000068], [85.59596414100008, 26.62042443000007], [85.59602440700007, 26.620451357000036], [85.59610483900008, 26.620478208000065], [85.59620533300006, 26.62050958800006], [85.59632590300004, 26.620531877000076], [85.59646663800004, 26.620554089000052], [85.59663235200009, 26.620576237000023], [85.59681814100009, 26.62058929400007], [85.59702409500005, 26.620606875000078], [85.59724007400007, 26.62062888400004], [85.59745102300008, 26.620664507000072], [85.59766205400007, 26.62071816400004], [85.59785811000006, 26.62079434900005], [85.59803409000006, 26.620884227000033], [85.59818498000004, 26.62097858900006], [85.59830075900004, 26.621073102000025], [85.59838134300009, 26.621149639000066], [85.59841669100007, 26.621212701000047], [85.59842186400004, 26.621253283000044], [85.59839675700005, 26.621275897000032], [85.59835671500008, 26.621289567000076], [85.59831146300007, 26.621294221000028], [85.59827133600004, 26.62128976500003], [85.59823110700006, 26.621285313000044], [85.59819600100008, 26.621280954000042], [85.59816088100007, 26.62128552100006], [85.59812575500007, 26.621294598000077], [85.59808560000005, 26.621317291000025], [85.59805055400005, 26.621349003000034], [85.59801048600008, 26.621385219000047], [85.59797552800006, 26.62142585400005], [85.59793546500003, 26.621457561000057], [85.59789540200006, 26.62148926800006], [85.59785023000006, 26.621511956000063], [85.59781519600006, 26.621530048000068], [85.59778006400006, 26.621548235000034], [85.59774994400004, 26.621566336000058], [85.59772996100008, 26.621584442000028], [85.59770997800007, 26.621602548000055], [85.59768988800005, 26.621625168000037], [85.59766487700006, 26.621652288000064], [85.59762982100006, 26.621688418000076], [85.59757982000008, 26.621729222000056], [85.59752467900006, 26.621783461000064], [85.59746461700007, 26.62184680300004], [85.59739961800005, 26.62192817300007], [85.59733962100006, 26.622023076000062], [85.59728482200006, 26.622140615000035], [85.59723502100007, 26.622271596000076], [85.59719021500007, 26.622420618000035], [85.59715563100008, 26.62258317100003], [85.59712102700007, 26.622763761000044], [85.59709644100008, 26.622953288000076], [85.59707696800007, 26.623151926000048], [85.59706250700003, 26.62335507800003], [85.59704311700006, 26.623567149000053], [85.59702362800004, 26.623779315000036], [85.59699921800006, 26.623995982000054], [85.59696970000005, 26.62420362900008], [85.59693015700003, 26.624406849000025], [85.59689051900006, 26.624600962000045], [85.59684598000007, 26.624786140000026], [85.59679623600005, 26.62495319100003], [85.59674651400007, 26.62510220400003], [85.59669670400007, 26.625242295000078], [85.59664179700007, 26.625359745000026], [85.59659693500004, 26.625468186000035], [85.59655198800004, 26.625558502000047], [85.59650706300005, 26.62563078100004], [85.59647208000007, 26.625694054000064], [85.59643711300004, 26.625743799000077], [85.59641209100005, 26.62577993800005], [85.59638708300008, 26.62580715000007], [85.59636709400007, 26.62582976500005], [85.59634700900006, 26.625843274000033], [85.59633204200009, 26.625861385000064], [85.59631205300008, 26.625884], [85.59628694400004, 26.625906615000076], [85.59625691400004, 26.625938331000043], [85.59621684300004, 26.625974547000055], [85.59616674400007, 26.626006244000052], [85.59609657500005, 26.626042522000034], [85.59601126200005, 26.62606977100006], [85.59591099900007, 26.626101603000052], [85.59580562100007, 26.626128924000056], [85.59568519100003, 26.62616083200004], [85.59556977800008, 26.626188143000036], [85.59544944500004, 26.626224557000057], [85.59533402600005, 26.62626097800006], [85.59522372200007, 26.62629730900005], [85.59511832800007, 26.626338158000067], [85.59501805300005, 26.62637900800007], [85.59492279600005, 26.626419863000024], [85.59483755700006, 26.626474255000062], [85.59476243900008, 26.626537581000036], [85.59469241300008, 26.626628055000026], [85.59462756600004, 26.62675000100006], [85.59457271900004, 26.626903613000025], [85.59452807500008, 26.62708419200004], [85.59448845200006, 26.627264868000054], [85.59445886100008, 26.627440861000025], [85.59443422100009, 26.627589897000064], [85.59441945200007, 26.627698184000053], [85.59440471400006, 26.62778401500003], [85.59439489300007, 26.627865254000028], [85.59438004900005, 26.627950998000074], [85.59436538600005, 26.628059372000052], [85.59434073600005, 26.628212826000038], [85.59431113800008, 26.628397929000073], [85.59427167000007, 26.628619181000033], [85.59422715700003, 26.62886297500006], [85.59416776800003, 26.629133894000063], [85.59410334500006, 26.62941833700006], [85.59402386900007, 26.62970736500006], [85.59394438100009, 26.63000541300005], [85.59385989200007, 26.630289927000035], [85.59376527600006, 26.630565416000024], [85.59367569900007, 26.630822873000056], [85.59358604300007, 26.63105769400005], [85.59349631500004, 26.631270065000024], [85.59340650300004, 26.63146431000007], [85.59332163800008, 26.631631508000055], [85.59324170600007, 26.631780585000058], [85.59316681400009, 26.631911630000047], [85.59309685200003, 26.632029156000044], [85.59302689200007, 26.63214208000005], [85.59296195900004, 26.632250592000048], [85.59289692500005, 26.63235450600007], [85.59283700900005, 26.632463022000024], [85.59278210700006, 26.632571452000036], [85.59273222100006, 26.63267988700005], [85.59268233200004, 26.632788230000074], [85.59264248700003, 26.632892165000044], [85.59260765600004, 26.632996013000025], [85.59257282300007, 26.633104463000052], [85.59254802600003, 26.63320832100004], [85.59252322400005, 26.633316688000036], [85.59250343500008, 26.633424969000032], [85.59248375200008, 26.633533338000063], [85.59246396800006, 26.633641710000063], [85.59244417700006, 26.63375459200006], [85.59241947200007, 26.633867465000037], [85.59238462900004, 26.63398033200008], [85.59234477800004, 26.634088776000056], [85.59229488600005, 26.63420172000008], [85.59222493500005, 26.634305625000025], [85.59214485600006, 26.63440510600003], [85.59204973400006, 26.63450015500007], [85.59193957100007, 26.634586170000034], [85.59181927500003, 26.634667670000056], [85.59169396100003, 26.634749164000027], [85.59156865200003, 26.63483075000005], [85.59144835600006, 26.63491225000007], [85.59133317900006, 26.634993750000035], [85.59122291800008, 26.635075259000075], [85.59111265200005, 26.635156676000065], [85.59099747900007, 26.635238268000023], [85.59088721900008, 26.635315176000063], [85.59077194500009, 26.635392170000046], [85.59065165300007, 26.63546916000007], [85.59053135400006, 26.635555259000057], [85.59040111200005, 26.635645762000024], [85.59027086300006, 26.635745376000045], [85.59013558500004, 26.635854003000077], [85.59000533100004, 26.63595812500006], [85.58988510700004, 26.636062166000045], [85.58977994600008, 26.63615720300004], [85.58968984600006, 26.636243145000037], [85.58961471300006, 26.63631557800005], [85.58955964100005, 26.636392448000038], [85.58951971900007, 26.636469239000064], [85.58948991900007, 26.63655956300005], [85.58947013100004, 26.636667935000048], [85.58945534500003, 26.636785238000073], [85.58945079200004, 26.636911655000063], [85.58945114500006, 26.637042498000028], [85.58945652100005, 26.637168837000047], [85.58946190300009, 26.63729066600007], [85.58947741100008, 26.63742152100008], [85.58949782400003, 26.637561402000074], [85.58952844400005, 26.63772374200005], [85.58957427700005, 26.63792216300004], [85.58963522100004, 26.638156670000058], [85.58970636400005, 26.63842734600007], [85.58978751100005, 26.638720486000068], [85.58986884000007, 26.639031656000043], [85.58994504500004, 26.639347334000036], [85.59001633800005, 26.63966309500006], [85.59007750600006, 26.63996522900004], [85.59012345500008, 26.640240392000067], [85.59016432800007, 26.640479479000078], [85.59018498600005, 26.640673553000056], [85.59020048000008, 26.64081333300004], [85.59020077600007, 26.64090810500005], [85.59019598500004, 26.64097582000005], [85.59019110900005, 26.641030011000055], [85.59019124100007, 26.641088624000076], [85.59019146300005, 26.64116085300003], [85.59020682500005, 26.64124202100004], [85.59022217400008, 26.641336808000062], [85.59024755500008, 26.641431513000043], [85.59028296100007, 26.641535247000036], [85.59032850600005, 26.641634386000078], [85.59038399000008, 26.64172903000008], [85.59044936200007, 26.64182727800005], [85.59054020700006, 26.641911089000075], [85.59077343700005, 26.64203767300006], [85.59106324000004, 26.642156072000034], [85.59337588900007, 26.64304861000005], [85.59370363800008, 26.643485518000034], [85.59350969900004, 26.644104200000072], [85.59233224300004, 26.64502318700005], [85.59148537200008, 26.64561179100008], [85.59119043000004, 26.646086377000074], [85.59135752500003, 26.646523683000055], [85.59230755700008, 26.64684636800007], [85.59522205200005, 26.647398915000053], [85.59633869400005, 26.64798736800003], [85.59699887600004, 26.648748366000063], [85.59693556800005, 26.649398365000025], [85.59595636600005, 26.65107949800006], [85.59559832100007, 26.65228524200006], [85.59635432900006, 26.653167876000055], [85.59766094000008, 26.653430958000058], [85.59877623700004, 26.653545532000066], [85.59959543600007, 26.653719540000054], [85.60008787400005, 26.653808597000022], [85.60064834600007, 26.654777428000045], [85.60137232400007, 26.655041881000045], [85.60235213100003, 26.65518841900007], [85.60356730900008, 26.655095102000075], [85.60399359000007, 26.654918088000045], [85.60445091800005, 26.655002683000077], [85.60451799500004, 26.655562072000066], [85.60491226400006, 26.656386928000074], [85.60526922000008, 26.65649434100004], [85.60674651600004, 26.65672529400007], [85.60835370800004, 26.656721257000072], [85.60933467000007, 26.657251345000077], [85.61015877700004, 26.657366506000074], [85.61113999500003, 26.657955191000042], [85.61192942200006, 26.658246516000077], [85.61575150600004, 26.658232284000064], [85.61758471600007, 26.65822750800004], [85.61827213900006, 26.658022690000053]]]]}}, {"type": "Feature", "properties": {"OBJECTID": 6782, "GPCODE": "98715", "GPNAME_1": "SHRIKHANDI BHITTA  PASHCHIMI", "DIST_CEN_C": "04", "BLK_NAME": "SURSAND", "ST_NAME": "BIHAR", "ST_CODE_1": "10", "GPCODE2011": "101202", "REMARKS": "FINALIZED", "MAP_STATUS": "COMPLETED", "BLK_C_2001": "040006", "BLK_C_2011": "01068", "DIST_NAME": "SITAMARHI", "code2011": 0.0, "Shape_Leng": 0.15707171303, "Shape_Area": 0.00114741178, "Area": 12.6555}, "geometry": {"type": "MultiPolygon", "coordinates": [[[[85.77849162700005, 26.62846779800003], [85.77371591300005, 26.62428040900005], [85.77401743900003, 26.62126515600005], [85.77416820100007, 26.616893039000047], [85.77793726700008, 26.613877786000046], [85.77700037700004, 26.608289626000044], [85.77639605700006, 26.60569256100007], [85.77465410600007, 26.60569898700004], [85.77405622900005, 26.604487273000075], [85.77320713400007, 26.60435052100007], [85.77230894900003, 26.60222827800004], [85.77191167000007, 26.60208085200003], [85.77090891900008, 26.599042978000057], [85.76919959100007, 26.598485105000066], [85.76726161400006, 26.59840194800006], [85.76369050900007, 26.599091731000044], [85.76188292500007, 26.599008035000054], [85.76040570700007, 26.59868844600004], [85.75913311200009, 26.59925253800003], [85.75788779200008, 26.600294907000034], [85.75686874300004, 26.60029849400007], [85.75388485000008, 26.600986069000044], [85.74772564000006, 26.60098385300006], [85.74689200900008, 26.600983515000053], [85.74170153900008, 26.603393312000037], [85.74337073100008, 26.60981813400008], [85.74251958300005, 26.610353559000032], [85.74271929500009, 26.611259897000025], [85.73648084900003, 26.612905958000056], [85.73448371200004, 26.614356822000047], [85.73218807000006, 26.61525362100008], [85.73154821900005, 26.615919199000075], [85.73246968100005, 26.616561338000054], [85.73414741100004, 26.617936588000077], [85.73559934200006, 26.619348613000057], [85.73629263500004, 26.62061879500004], [85.73883502400008, 26.62459026600004], [85.73959545500009, 26.625115679000032], [85.74369927000004, 26.625485067000056], [85.74643776500005, 26.627100136000024], [85.74725548700007, 26.628094591000036], [85.74772573300004, 26.628167897000026], [85.74909450900003, 26.628381430000047], [85.74939556300006, 26.629504066000038], [85.74858470800007, 26.63124883000006], [85.74779606700008, 26.63116576400006], [85.74772644900008, 26.63130580400008], [85.74772579300009, 26.631307118000052], [85.74723844900006, 26.632286948000058], [85.74734239300005, 26.63308524000007], [85.74721351100004, 26.633469301000048], [85.74629380800008, 26.63329652300007], [85.74616155600006, 26.634064181000042], [85.74685705800005, 26.634652860000074], [85.74705539500007, 26.635211733000062], [85.74772574700006, 26.635377273000074], [85.74772636900008, 26.635377434000077], [85.74801044000003, 26.635447629000055], [85.74869669600008, 26.635061619000055], [85.74971788800008, 26.635468640000056], [85.75050239700005, 26.634581428000047], [85.75139295400004, 26.634993509000026], [85.75169154300005, 26.635520445000054], [85.75257635700007, 26.63575640600004], [85.75304816700003, 26.637879069000064], [85.75408575400007, 26.637621214000035], [85.75481803300005, 26.637504229000058], [85.75634390700003, 26.637137043000052], [85.75811375700005, 26.636730784000065], [85.75915138700003, 26.636418044000038], [85.75993637400006, 26.635893536000026], [85.76133179100003, 26.635048046000065], [85.76328556600004, 26.633764020000058], [85.76475091000003, 26.63273048900004], [85.76550973800005, 26.632190163000075], [85.76738487600005, 26.630984435000073], [85.76909433700007, 26.629849110000066], [85.76971342700006, 26.62954379000007], [85.77058515900006, 26.629450306000024], [85.77284298500007, 26.629091240000037], [85.77422907000005, 26.62887267600007], [85.77478693900008, 26.62887309900003], [85.77640827300007, 26.62866241100005], [85.77696619300008, 26.628607884000076], [85.77849162700005, 26.62846779800003]]]]}}, {"type": "Feature", "properties": {"OBJECTID": 6784, "GPCODE": "98704", "GPNAME_1": "BANAULI", "DIST_CEN_C": "04", "BLK_NAME": "SURSAND", "ST_NAME": "BIHAR", "ST_CODE_1": "10", "GPCODE2011": "101191", "REMARKS": "FINALIZED", "MAP_STATUS": "COMPLETED", "BLK_C_2001": "040006", "BLK_C_2011": "01068", "DIST_NAME": "SITAMARHI", "code2011": 0.0, "Shape_Leng": 0.13179033183, "Shape_Area": 0.00067178363, "Area": 7.40796}, "geometry": {"type": "MultiPolygon", "coordinates": [[[[85.69861711300007, 26.65295422300005], [85.69989165700008, 26.65265692500003], [85.70059205100006, 26.654536433000033], [85.70103760800004, 26.65543309900005], [85.70213369400005, 26.655754509000076], [85.70248183300004, 26.65615051900005], [85.70303504800006, 26.656324743000027], [85.70382248800007, 26.656055999000046], [85.70493513700006, 26.655479374000038], [85.70615950500007, 26.655209160000027], [85.70742870900006, 26.656103151000025], [85.70881973100006, 26.656039974000066], [85.71006445300003, 26.65584638000007], [85.71114291300006, 26.655504420000057], [85.71272516800008, 26.65430796000004], [85.71389988300007, 26.65295480800006], [85.71510526900005, 26.651714451000032], [85.71316222500008, 26.64441468900003], [85.71177816700003, 26.63990650200003], [85.71377918800005, 26.63845581100003], [85.71562350100004, 26.637118728000075], [85.71689335000008, 26.635733619000064], [85.71760768700005, 26.63360578000004], [85.71760046200006, 26.63181430000003], [85.71628393900005, 26.63037003900007], [85.71050076700004, 26.62694569300004], [85.70971929100006, 26.628663035000045], [85.70824885200005, 26.630111815000078], [85.70720855400003, 26.63240765200004], [85.70626474000005, 26.633710321000024], [85.70479696200005, 26.63586755600005], [85.70303605200007, 26.63754743100003], [85.70065332200005, 26.63946837000003], [85.69891383500004, 26.638972956000032], [85.69739545300007, 26.637208744000077], [85.69552790400007, 26.637331940000024], [85.69211362800007, 26.637428389000036], [85.68833096300006, 26.63967835400007], [85.68311641700006, 26.640493131000028], [85.68144675900004, 26.64117511300003], [85.67994185400005, 26.641590308000048], [85.67803737900005, 26.64127107400003], [85.67649177200008, 26.641573600000072], [85.67585113600006, 26.64214416300007], [85.67471059500008, 26.64468363900005], [85.67635087600007, 26.645527172000072], [85.67707928200008, 26.64693746000006], [85.67816208200009, 26.647760032000065], [85.67921714300007, 26.649205405000032], [85.67970970800008, 26.649321265000026], [85.68089638600009, 26.649701286000038], [85.68122508000005, 26.65031844300006], [85.68219853200009, 26.652752414000076], [85.68430984100007, 26.65192466800005], [85.68483664100006, 26.65312339600007], [85.68571759300005, 26.656284090000042], [85.68666711700007, 26.65637147900003], [85.68763965600004, 26.65722586800007], [85.69091277900003, 26.65680512800003], [85.69486227400006, 26.655998552000028], [85.69711831800004, 26.654958046000047], [85.69720746000007, 26.653369333000057], [85.69861711300007, 26.65295422300005]]]]}}, {"type": "Feature", "properties": {"OBJECTID": 6785, "GPCODE": "98713", "GPNAME_1": "PATHANPURA", "DIST_CEN_C": "04", "BLK_NAME": "SURSAND", "ST_NAME": "BIHAR", "ST_CODE_1": "10", "GPCODE2011": "101200", "REMARKS": "FINALIZED", "MAP_STATUS": "COMPLETED", "BLK_C_2001": "040006", "BLK_C_2011": "01068", "DIST_NAME": "SITAMARHI", "code2011": 0.0, "Shape_Leng": 0.15214445042, "Shape_Area": 0.00069569671, "Area": 7.67209}, "geometry": {"type": "MultiPolygon", "coordinates": [[[[85.68122508000005, 26.65031844300006], [85.68089638600009, 26.649701286000038], [85.67970970800008, 26.649321265000026], [85.67921714300007, 26.649205405000032], [85.67816208200009, 26.647760032000065], [85.67707928200008, 26.64693746000006], [85.67635087600007, 26.645527172000072], [85.67471059500008, 26.64468363900005], [85.67585113600006, 26.64214416300007], [85.67649177200008, 26.641573600000072], [85.67803737900005, 26.64127107400003], [85.67994185400005, 26.641590308000048], [85.68144675900004, 26.64117511300003], [85.68311641700006, 26.640493131000028], [85.68833096300006, 26.63967835400007], [85.69211362800007, 26.637428389000036], [85.69199386300005, 26.63632761300005], [85.69160140500009, 26.63612128500006], [85.69096750000006, 26.63320355600007], [85.68957183100008, 26.628040818000045], [85.68423053000004, 26.628368570000077], [85.68329946800003, 26.625153843000078], [85.67867204100008, 26.625673248000055], [85.67805219300004, 26.62641074900006], [85.67684606100005, 26.627465810000047], [85.67483771400003, 26.626145112000074], [85.67397418300004, 26.62346255400007], [85.67280045800004, 26.625149272000044], [85.67165369800006, 26.625978522000025], [85.67073735600007, 26.626658165000038], [85.66755228400007, 26.62757457300006], [85.66719325100007, 26.62825704100004], [85.66769126900004, 26.629907255000035], [85.66723532000003, 26.630174882000063], [85.66658244800004, 26.631535060000033], [85.66533912400007, 26.632066735000024], [85.66590482600003, 26.634366587000045], [85.66482967800005, 26.635579135000057], [85.66438704800004, 26.636780776000023], [85.66349872400008, 26.635515251000072], [85.66280853400008, 26.634899061000056], [85.66146236800006, 26.634785648000047], [85.66005167200007, 26.634875442000066], [85.65680524300006, 26.635566163000078], [85.65500599200004, 26.636546098000053], [85.65362827600006, 26.637461570000028], [85.65262447700007, 26.637617781000074], [85.65248628900008, 26.638295091000032], [85.65265374600006, 26.638795549000065], [85.65288711600004, 26.639476295000065], [85.65302296400006, 26.642413753000028], [85.65511498200004, 26.64182110300004], [85.65590295100003, 26.641697054000076], [85.65616500400006, 26.641935415000034], [85.65613996300004, 26.643379614000025], [85.65646741500007, 26.643672025000058], [85.65823985200007, 26.643581169000072], [85.65902869500007, 26.643696242000033], [85.65958739500007, 26.644078208000053], [85.65952909700007, 26.646018876000028], [85.65972800100008, 26.646871189000024], [85.66019051600006, 26.64701874700006], [85.66068288700006, 26.64707596200003], [85.66064967700004, 26.647608595000065], [85.66009666500008, 26.64884667700005], [85.66006863500007, 26.64943792500003], [85.66036557100006, 26.649613087000034], [85.66108333500006, 26.64949366600007], [85.66222779900005, 26.649341434000064], [85.66389881900005, 26.648952990000055], [85.66406903400008, 26.650220529000023], [85.66453167300006, 26.650368161000074], [85.66505346800005, 26.650222217000078], [85.66529130700007, 26.65211683800004], [85.66555312300005, 26.65366393900007], [85.66499618800003, 26.653814467000075], [85.66438897600005, 26.65396064400005], [85.66465728200006, 26.655931916000043], [85.66482577400006, 26.656703140000047], [85.66532396200006, 26.659725181000056], [85.66606316700006, 26.659971214000052], [85.66686672800006, 26.65996884900005], [85.66939735700004, 26.659740312000054], [85.67118469700006, 26.659572585000035], [85.67326025000006, 26.65855102100005], [85.67321825300007, 26.65669644700006], [85.67354282900004, 26.656194585000037], [85.67463752900005, 26.65611906500004], [85.67496648500008, 26.65545471300004], [85.67568363900006, 26.655172829000037], [85.67743641500005, 26.655167504000076], [85.67799091300003, 26.65435813600004], [85.68219853200009, 26.652752414000076], [85.68122508000005, 26.65031844300006]]]]}}, {"type": "Feature", "properties": {"OBJECTID": 6789, "GPCODE": "98710", "GPNAME_1": "KUMMA", "DIST_CEN_C": "04", "BLK_NAME": "SURSAND", "ST_NAME": "BIHAR", "ST_CODE_1": "10", "GPCODE2011": "101197", "REMARKS": "FINALIZED", "MAP_STATUS": "COMPLETED", "BLK_C_2001": "040006", "BLK_C_2011": "01068", "DIST_NAME": "SITAMARHI", "code2011": 0.0, "Shape_Leng": 0.18120765415, "Shape_Area": 0.00081002385, "Area": 8.93252}, "geometry": {"type": "MultiPolygon", "coordinates": [[[[85.65132858600003, 26.660437751000075], [85.65141177600003, 26.65981480100004], [85.65199817000007, 26.658044137000047], [85.65274942100007, 26.657423778000066], [85.65340282500006, 26.656140337000068], [85.65376988600008, 26.653413542000067], [85.65694325500004, 26.65320149100006], [85.66074456300004, 26.653068657000063], [85.66529130700007, 26.65211683800004], [85.66505346800005, 26.650222217000078], [85.66453167300006, 26.650368161000074], [85.66406903400008, 26.650220529000023], [85.66389881900005, 26.648952990000055], [85.66222779900005, 26.649341434000064], [85.66108333500006, 26.64949366600007], [85.66036557100006, 26.649613087000034], [85.66006863500007, 26.64943792500003], [85.66009666500008, 26.64884667700005], [85.66064967700004, 26.647608595000065], [85.66068288700006, 26.64707596200003], [85.66019051600006, 26.64701874700006], [85.65972800100008, 26.646871189000024], [85.65952909700007, 26.646018876000028], [85.65958739500007, 26.644078208000053], [85.65902869500007, 26.643696242000033], [85.65823985200007, 26.643581169000072], [85.65646741500007, 26.643672025000058], [85.65613996300004, 26.643379614000025], [85.65616500400006, 26.641935415000034], [85.65590295100003, 26.641697054000076], [85.65511498200004, 26.64182110300004], [85.65302296400006, 26.642413753000028], [85.65288711600004, 26.639476295000065], [85.65265374600006, 26.638795549000065], [85.65248628900008, 26.638295091000032], [85.65262447700007, 26.637617781000074], [85.65222577900005, 26.63705940600005], [85.65163148300007, 26.636560170000052], [85.65107265600005, 26.636146523000036], [85.65017972500004, 26.633522635000077], [85.64906532600008, 26.633616003000043], [85.64510435200003, 26.63389337700005], [85.64408636700006, 26.634279737000043], [85.64402588400003, 26.63569687300003], [85.64366536800009, 26.635991266000076], [85.64103567400008, 26.636440702000073], [85.64103941000008, 26.637532795000027], [85.64051444100005, 26.638215640000055], [85.64019100700006, 26.63910104300004], [85.64019663700003, 26.640752658000054], [85.63688347300007, 26.641104685000073], [85.63378228300007, 26.64175840300004], [85.63083126600003, 26.64229890300004], [85.62938007800005, 26.64082705000004], [85.62862739200006, 26.64097804100004], [85.62664091100004, 26.635527352000054], [85.62536200200003, 26.636004580000076], [85.62562573300005, 26.636798198000065], [85.62523481100004, 26.637033823000024], [85.62484253200006, 26.636858889000052], [85.62437888500006, 26.636359189000075], [85.62329447300004, 26.636420744000077], [85.62123186500008, 26.636809649000043], [85.62050904200004, 26.636901832000035], [85.61995307200004, 26.637345538000034], [85.61900843200004, 26.63716748400003], [85.61861533000007, 26.638260547000073], [85.61799817500008, 26.640004050000073], [85.61826493600006, 26.641740799000047], [85.61899477600008, 26.643832804000056], [85.61450085700005, 26.64402487900003], [85.61210705000008, 26.644531898000025], [85.60909910500004, 26.646182149000026], [85.60824750200004, 26.646865797000032], [85.60719772500005, 26.64680517200003], [85.60539852700003, 26.64637648200005], [85.60584759400007, 26.647070368000072], [85.60748545800004, 26.647282870000026], [85.60974917200008, 26.646893584000054], [85.61423986800008, 26.64564112000005], [85.61539347100006, 26.64835032600007], [85.61739582500007, 26.647902934000058], [85.61738405700004, 26.65048870800007], [85.61786151900003, 26.65217077400007], [85.61807294300007, 26.65230104400007], [85.61902662800009, 26.652136092000035], [85.61946841900004, 26.652089885000066], [85.61959945700005, 26.65222487500006], [85.61889036700006, 26.65505170800003], [85.61827213900006, 26.658022690000053], [85.61850489800008, 26.658550094000077], [85.61919435700008, 26.658990544000062], [85.62010873000008, 26.659078399000066], [85.62122260300004, 26.658718958000065], [85.62192340500008, 26.658008634000055], [85.62342043200005, 26.65810851300006], [85.62867002800004, 26.656916860000024], [85.63070056500004, 26.65735363300007], [85.63220746000007, 26.65740825900008], [85.63424116100003, 26.657285474000048], [85.63712234100007, 26.656776703000048], [85.64009274900008, 26.655942775000028], [85.64277139100005, 26.65496515800004], [85.64349645900006, 26.655522747000077], [85.64435236400004, 26.657582663000028], [85.64583839000005, 26.66031325800003], [85.64708361100008, 26.660192481000024], [85.64764839400004, 26.66084066800005], [85.64846812100006, 26.66114526000007], [85.64917803300006, 26.661644197000044], [85.65056804100004, 26.661274778000063], [85.65132858600003, 26.660437751000075]]]]}}, {"type": "Feature", "properties": {"OBJECTID": 6790, "GPCODE": "98717", "GPNAME_1": "SURSAND PASHCHIMI", "DIST_CEN_C": "04", "BLK_NAME": "SURSAND", "ST_NAME": "BIHAR", "ST_CODE_1": "10", "GPCODE2011": "101204", "REMARKS": "FINALIZED", "MAP_STATUS": "COMPLETED", "BLK_C_2001": "040006", "BLK_C_2011": "01068", "DIST_NAME": "SITAMARHI", "code2011": 0.0, "Shape_Leng": 0.11215312215, "Shape_Area": 0.00045163083, "Area": 4.98089}, "geometry": {"type": "MultiPolygon", "coordinates": [[[[85.71377918800005, 26.63845581100003], [85.71895452100006, 26.639755511000033], [85.72038219700005, 26.637899531000073], [85.72637843900003, 26.637613996000027], [85.73208914500003, 26.63832783400005], [85.73580110500006, 26.639755511000033], [85.73677539900007, 26.642075049000027], [85.73710601700003, 26.641897851000067], [85.73726423500005, 26.64130622400006], [85.73781148000006, 26.63892158500005], [85.73740996400005, 26.637799306000034], [85.73780132800005, 26.636529925000048], [85.73822186600006, 26.635057291000066], [85.73732749800007, 26.633760720000055], [85.73732455600003, 26.63305222500003], [85.73787847200003, 26.632251651000047], [85.73856162400006, 26.629956798000023], [85.73862064100007, 26.628481012000066], [85.73700839600008, 26.628369157000066], [85.73589599300004, 26.627723178000053], [85.73480343000006, 26.625840544000027], [85.73427428000008, 26.625395635000075], [85.73339007300007, 26.625258754000072], [85.73269085000004, 26.62257607400005], [85.73209319200004, 26.621337075000042], [85.73162747500004, 26.62044966800005], [85.73202245700008, 26.620037660000037], [85.73294053600006, 26.619858575000023], [85.73451704600006, 26.619853153000065], [85.73501207400005, 26.620560026000078], [85.73530924500005, 26.620793665000065], [85.73629263500004, 26.62061879500004], [85.73559934200006, 26.619348613000057], [85.73414741100004, 26.617936588000077], [85.73246968100005, 26.616561338000054], [85.73118885900004, 26.617626206000068], [85.72889804900007, 26.618491300000073], [85.72262983700006, 26.619162103000065], [85.71361042200004, 26.619895734000067], [85.71003089700008, 26.61997055100005], [85.70862966900006, 26.619875841000066], [85.70867208300007, 26.621676270000023], [85.70900978100008, 26.624504640000055], [85.71050076700004, 26.62694569300004], [85.71628393900005, 26.63037003900007], [85.71760046200006, 26.63181430000003], [85.71760768700005, 26.63360578000004], [85.71689335000008, 26.635733619000064], [85.71562350100004, 26.637118728000075], [85.71377918800005, 26.63845581100003]]]]}}, {"type": "Feature", "properties": {"OBJECTID": 6850, "GPCODE": "98703", "GPNAME_1": "BAGHADI", "DIST_CEN_C": "04", "BLK_NAME": "SURSAND", "ST_NAME": "BIHAR", "ST_CODE_1": "10", "GPCODE2011": "101190", "REMARKS": "FINALIZED", "MAP_STATUS": "COMPLETED", "BLK_C_2001": "040006", "BLK_C_2011": "01068", "DIST_NAME": "SITAMARHI", "code2011": 0.0, "Shape_Leng": 0.17899026745, "Shape_Area": 0.00111623135, "Area": 12.3155}, "geometry": {"type": "MultiPolygon", "coordinates": [[[[85.72674100600005, 26.60204071800007], [85.72923315500003, 26.601350945000036], [85.72950019900009, 26.600393372000042], [85.73077975100006, 26.60026714600008], [85.73124027700004, 26.599940713000024], [85.73139665900004, 26.598938315000055], [85.73155535200004, 26.597281688000066], [85.73102442800007, 26.59636738300003], [85.73118642500003, 26.59548680900008], [85.73154040800006, 26.593712135000033], [85.73255117500008, 26.59294157900007], [85.73396263500007, 26.591993639000066], [85.73362630100007, 26.590780849000055], [85.73211494600008, 26.590668669000024], [85.73231413400003, 26.58911104300006], [85.73256818700008, 26.587454037000043], [85.73499643500008, 26.58717952300003], [85.73567428900003, 26.584853206000048], [85.73241490900006, 26.583208119000062], [85.73253755900004, 26.58135298600007], [85.73102320700008, 26.580500613000027], [85.73117997700007, 26.578374578000023], [85.73209705300007, 26.578046610000058], [85.73032009000008, 26.576784547000045], [85.72842002400006, 26.578501224000036], [85.72671315000008, 26.57838961300007], [85.72451671700009, 26.57885275600006], [85.72424725000008, 26.57681390700003], [85.72507004500005, 26.576720884000054], [85.72515591400008, 26.57444623500004], [85.72630617300007, 26.57345856200004], [85.72623801000003, 26.572741278000024], [85.72577103100008, 26.571470280000028], [85.72587460400007, 26.569831831000045], [85.72399330500008, 26.568777542000078], [85.72230779700004, 26.567731722000076], [85.72087498100007, 26.568354665000072], [85.71868330000007, 26.56992782900005], [85.71769702000006, 26.570522194000034], [85.71664754100004, 26.570381229000077], [85.71494346800006, 26.56970993400006], [85.71105419500003, 26.565999565000027], [85.70997004800006, 26.565944397000067], [85.70845834000005, 26.565655955000068], [85.70731015100006, 26.56592585800007], [85.70550260700008, 26.565692528000056], [85.70468478800007, 26.565753796000024], [85.70350813600004, 26.567707037000048], [85.70223039500007, 26.56821648300007], [85.70061782200008, 26.567806476000044], [85.69949715100006, 26.567399350000073], [85.69900037000008, 26.56612825700006], [85.69860576600007, 26.56533531900004], [85.69745522100004, 26.564982368000074], [85.69662874300008, 26.564100497000027], [85.69488269400006, 26.562901057000033], [85.69481482800006, 26.56350596200008], [85.69466616500006, 26.564002815000038], [85.69411060000004, 26.56437466700004], [85.69403695900007, 26.564812560000064], [85.69385329600004, 26.565314089000026], [85.69333262400005, 26.56565411500003], [85.69214011700006, 26.56612715700004], [85.69173022600006, 26.566561715000034], [85.69154700100006, 26.567203019000033], [85.69110191500005, 26.567606092000062], [85.69024553300005, 26.568078038000067], [85.69006193600006, 26.568615634000025], [85.68995334300007, 26.570394022000073], [85.68986236400008, 26.572862730000054], [85.68942057000004, 26.57414125100007], [85.68913592400008, 26.574512166000034], [85.68872508200008, 26.57468041100003], [85.68872402100004, 26.57572278300006], [85.69041072500005, 26.578434280000067], [85.69103405800007, 26.578698581000026], [85.69198728300006, 26.578578354000058], [85.69267525300006, 26.57869351200003], [85.69363023700004, 26.579047073000027], [85.69441861600006, 26.579130320000047], [85.69563158000005, 26.578715887000044], [85.69570069800005, 26.57971751200006], [85.69406182400007, 26.580313819000025], [85.69383261500008, 26.580756717000042], [85.69486820400004, 26.58507676000005], [85.69530243600008, 26.587020368000026], [85.69451801300005, 26.587970469000027], [85.69425406600004, 26.588503802000048], [85.69497823400008, 26.58885350500003], [85.69511162100008, 26.589593171000047], [85.69475610800004, 26.591119604000028], [85.69345070600008, 26.592333155000063], [85.69269550100006, 26.59304400700006], [85.69269781400004, 26.59366217200005], [85.69322929000003, 26.594784195000045], [85.69839434200009, 26.594731945000035], [85.69969782400005, 26.594294596000054], [85.70015310400004, 26.593909546000077], [85.70231866000006, 26.59316259800005], [85.70520631700003, 26.59223738000003], [85.71004797600006, 26.590425693000043], [85.71147261100003, 26.592686542000024], [85.71273497100003, 26.595787167000026], [85.71358982900006, 26.59616800300006], [85.71595824900004, 26.597162110000056], [85.71619328900005, 26.599422137000033], [85.71607252600006, 26.601814318000038], [85.71793432000004, 26.601654805000067], [85.72158757100004, 26.602558764000037], [85.72404781000006, 26.602667946000054], [85.72674100600005, 26.60204071800007]]]]}}, {"type": "Feature", "properties": {"OBJECTID": 6853, "GPCODE": "98718", "GPNAME_1": "SURSAND PURVI", "DIST_CEN_C": "04", "BLK_NAME": "SURSAND", "ST_NAME": "BIHAR", "ST_CODE_1": "10", "GPCODE2011": "101205", "REMARKS": "FINALIZED", "MAP_STATUS": "COMPLETED", "BLK_C_2001": "040006", "BLK_C_2011": "01068", "DIST_NAME": "SITAMARHI", "code2011": 0.0, "Shape_Leng": 0.09256489886, "Shape_Area": 0.00023288107, "Area": 2.56823}, "geometry": {"type": "MultiPolygon", "coordinates": [[[[85.75304816700003, 26.637879069000064], [85.75257635700007, 26.63575640600004], [85.75169154300005, 26.635520445000054], [85.75139295400004, 26.634993509000026], [85.75050239700005, 26.634581428000047], [85.74971788800008, 26.635468640000056], [85.74869669600008, 26.635061619000055], [85.74801044000003, 26.635447629000055], [85.74772636900008, 26.635377434000077], [85.74772574700006, 26.635377273000074], [85.74705539500007, 26.635211733000062], [85.74685705800005, 26.634652860000074], [85.74616155600006, 26.634064181000042], [85.74629380800008, 26.63329652300007], [85.74721351100004, 26.633469301000048], [85.74734239300005, 26.63308524000007], [85.74723844900006, 26.632286948000058], [85.74772579300009, 26.631307118000052], [85.74772644900008, 26.63130580400008], [85.74779606700008, 26.63116576400006], [85.74858470800007, 26.63124883000006], [85.74939556300006, 26.629504066000038], [85.74909450900003, 26.628381430000047], [85.74772573300004, 26.628167897000026], [85.74725548700007, 26.628094591000036], [85.74643776500005, 26.627100136000024], [85.74369927000004, 26.625485067000056], [85.73959545500009, 26.625115679000032], [85.73883502400008, 26.62459026600004], [85.73629263500004, 26.62061879500004], [85.73530924500005, 26.620793665000065], [85.73501207400005, 26.620560026000078], [85.73451704600006, 26.619853153000065], [85.73294053600006, 26.619858575000023], [85.73202245700008, 26.620037660000037], [85.73162747500004, 26.62044966800005], [85.73209319200004, 26.621337075000042], [85.73269085000004, 26.62257607400005], [85.73339007300007, 26.625258754000072], [85.73427428000008, 26.625395635000075], [85.73480343000006, 26.625840544000027], [85.73589599300004, 26.627723178000053], [85.73700839600008, 26.628369157000066], [85.73862064100007, 26.628481012000066], [85.73856162400006, 26.629956798000023], [85.73787847200003, 26.632251651000047], [85.73732455600003, 26.63305222500003], [85.73732749800007, 26.633760720000055], [85.73822186600006, 26.635057291000066], [85.73780132800005, 26.636529925000048], [85.73740996400005, 26.637799306000034], [85.73781148000006, 26.63892158500005], [85.73726423500005, 26.64130622400006], [85.73710601700003, 26.641897851000067], [85.73677539900007, 26.642075049000027], [85.73624910800004, 26.642320513000072], [85.73636443600003, 26.64583092600003], [85.73676034400006, 26.646804324000072], [85.73715919800009, 26.648495224000044], [85.74080088700003, 26.645138866000025], [85.74602854300008, 26.640463596000075], [85.74772568300006, 26.639300449000075], [85.74861898300009, 26.638886601000024], [85.75030178500003, 26.63848822700004], [85.75201057700008, 26.638136918000043], [85.75304816700003, 26.637879069000064]]]]}}, {"type": "Feature", "properties": {"OBJECTID": 6879, "GPCODE": "98719", "GPNAME_1": "SURSAND UTTARI", "DIST_CEN_C": "04", "BLK_NAME": "SURSAND", "ST_NAME": "BIHAR", "ST_CODE_1": "10", "GPCODE2011": "101206", "REMARKS": "FINALIZED", "MAP_STATUS": "COMPLETED", "BLK_C_2001": "040006", "BLK_C_2011": "01068", "DIST_NAME": "SITAMARHI", "code2011": 0.0, "Shape_Leng": 0.07541838733, "Shape_Area": 0.00036103421, "Area": 3.98112}, "geometry": {"type": "MultiPolygon", "coordinates": [[[[85.73677539900007, 26.642075049000027], [85.73580110500006, 26.639755511000033], [85.73208914500003, 26.63832783400005], [85.72637843900003, 26.637613996000027], [85.72038219700005, 26.637899531000073], [85.71895452100006, 26.639755511000033], [85.71377918800005, 26.63845581100003], [85.71177816700003, 26.63990650200003], [85.71316222500008, 26.64441468900003], [85.71510526900005, 26.651714451000032], [85.71801645900007, 26.65253071500007], [85.71896252500005, 26.652996899000073], [85.72038065800007, 26.653434437000044], [85.72136934400004, 26.65449168600003], [85.72297975400005, 26.655280523000044], [85.72494724200004, 26.65618559400008], [85.72671806600005, 26.656883596000057], [85.72913642700007, 26.65628880400004], [85.73237204600008, 26.655393442000047], [85.73210098300007, 26.65422553600007], [85.73235948600006, 26.653606420000074], [85.73425782000004, 26.652390533000073], [85.73609008500006, 26.650998971000035], [85.73715919800009, 26.648495224000044], [85.73676034400006, 26.646804324000072], [85.73636443600003, 26.64583092600003], [85.73624910800004, 26.642320513000072], [85.73677539900007, 26.642075049000027]]]]}}, {"type": "Feature", "properties": {"OBJECTID": 6880, "GPCODE": "98715", "GPNAME_1": "SHRIKHANDI BHITTA PURVI", "DIST_CEN_C": "04", "BLK_NAME": "SURSAND", "ST_NAME": "BIHAR", "ST_CODE_1": "10", "GPCODE2011": "101203", "REMARKS": "FINALIZED", "MAP_STATUS": "COMPLETED", "BLK_C_2001": "040006", "BLK_C_2011": "01068", "DIST_NAME": "SITAMARHI", "code2011": 0.0, "Shape_Leng": 0.09066431666, "Shape_Area": 0.00040579197, "Area": 4.47556}, "geometry": {"type": "MultiPolygon", "coordinates": [[[[85.77700037700004, 26.608289626000044], [85.77793726700008, 26.613877786000046], [85.77416820100007, 26.616893039000047], [85.77401743900003, 26.62126515600005], [85.77371591300005, 26.62428040900005], [85.77849162700005, 26.62846779800003], [85.77952021900006, 26.62837436800004], [85.77985147600003, 26.62831181000007], [85.78132478700007, 26.628014870000072], [85.78313810400005, 26.627600548000032], [85.78489913300007, 26.627131261000045], [85.78763654500005, 26.626482143000032], [85.78987691400005, 26.626052333000075], [85.79248327700003, 26.625708719000045], [85.79388656300006, 26.625748679000026], [85.79511566000008, 26.62564736400003], [85.79680683800007, 26.62518576800005], [85.79984047800008, 26.624552252000058], [85.80020663500005, 26.62448973900007], [85.80142704900004, 26.624270805000037], [85.80161883200003, 26.624239592000038], [85.80182856400006, 26.62325990900007], [85.80207355800007, 26.62182558300003], [85.80211737300004, 26.62133188100006], [85.80251110900008, 26.618941380000024], [85.80259009300005, 26.618087091000064], [85.80307114300007, 26.615281237000033], [85.80056810400004, 26.61503710100004], [85.79528439800004, 26.61568017700006], [85.79304553300005, 26.61468245900005], [85.79174093300009, 26.61484536200004], [85.79066962500008, 26.611243813000044], [85.78915986800007, 26.61154284400004], [85.78632411300003, 26.60957703200006], [85.78710189100008, 26.607331303000024], [85.78555618500008, 26.607454473000075], [85.78380794100008, 26.60613425300005], [85.78248031000004, 26.606703324000023], [85.78024761900008, 26.60700502700007], [85.77877147100008, 26.608048437000036], [85.77700037700004, 26.608289626000044]]]]}}]}