{"type": "FeatureCollection", "features": [{"type": "Feature", "properties": {"OBJECTID": 6728, "GPCODE": "98695", "GPNAME_1": "GHARWARA", "DIST_CEN_C": "04", "BLK_NAME": "SUPPI", "ST_NAME": "BIHAR", "ST_CODE_1": "10", "GPCODE2011": "101182", "REMARKS": "FINALIZED", "MAP_STATUS": "COMPLETED", "BLK_C_2001": "040002", "BLK_C_2011": "01064", "DIST_NAME": "SITAMARHI", "code2011": 0.0, "Shape_Leng": 0.17236820889, "Shape_Area": 0.00079609972, "Area": 8.77921}, "geometry": {"type": "MultiPolygon", "coordinates": [[[[85.37620028800006, 26.677379049000024], [85.37781753500008, 26.677147467000054], [85.37874178900006, 26.677173727000024], [85.37932481500007, 26.677475585000025], [85.37978748300003, 26.67789033100007], [85.38022036800004, 26.67869319600004], [85.38061872200007, 26.679933848000076], [85.38096079800005, 26.680402783000034], [85.38145368700003, 26.680930398000044], [85.38507433600006, 26.679825858000072], [85.38611889500004, 26.679545036000036], [85.38682673000005, 26.679214955000077], [85.38697631100007, 26.67824910400003], [85.38685429200007, 26.677057859000058], [85.38660724600004, 26.67625929700006], [85.38620455800003, 26.675596281000026], [85.38540513800007, 26.674960787000032], [85.38414373700004, 26.674465559000055], [85.38353011700008, 26.673829840000053], [85.38322284300006, 26.673117164000075], [85.38324119800006, 26.67162793400007], [85.38438121000007, 26.671432818000028], [85.38570142900005, 26.67074106800004], [85.38631372500004, 26.67024413400003], [85.38690129200006, 26.67016229500007], [85.38822281300008, 26.670571702000075], [85.38970019400006, 26.67109821100007], [85.39043355400008, 26.671070419000046], [85.39255769000005, 26.670599034000077], [85.39589719000008, 26.66995927000005], [85.39715756700008, 26.669628612000054], [85.39944625200008, 26.668276868000078], [85.39906852100006, 26.667496528000072], [85.39841745000007, 26.665137059000074], [85.39818936000006, 26.663526280000042], [85.39862406500004, 26.661756766000053], [85.39638910600007, 26.66184936700006], [85.39427015000007, 26.662320820000048], [85.39331582100004, 26.662321821000035], [85.39269739900004, 26.661799014000053], [85.39191093400007, 26.659498272000064], [85.39145150500008, 26.657553691000032], [85.39101873000004, 26.65682306800005], [85.39012895800005, 26.656232749000026], [85.38895834700008, 26.655850374000067], [85.38733097400006, 26.655779704000054], [85.38509644700008, 26.656115790000058], [85.38409752100006, 26.656586075000064], [85.38322455500008, 26.657412726000075], [85.38288414200008, 26.65836076200003], [85.38280951300004, 26.65892940200007], [85.38256384500005, 26.659326785000076], [85.38193636800008, 26.659593551000057], [85.38073659900004, 26.660131713000055], [85.37842303600007, 26.661817047000056], [85.37793103100006, 26.662011609000047], [85.37685648900003, 26.662220079000065], [85.37619846200005, 26.66220713200005], [85.37492250000008, 26.661987176000025], [85.37319960700006, 26.66184878100006], [85.37207948300005, 26.661849724000035], [85.37024084900008, 26.661476762000063], [85.36774910400004, 26.660991437000064], [85.36704368000005, 26.65876270900003], [85.36695102600004, 26.656578600000046], [85.36661104800004, 26.653162777000034], [85.36495926800006, 26.653773347000026], [85.36394502700006, 26.653968165000038], [85.36154958900005, 26.654137078000076], [85.36099197700008, 26.654083368000045], [85.36042436000008, 26.653984450000053], [85.35956025900003, 26.653628642000058], [85.35851513100005, 26.653200713000047], [85.35781200900004, 26.653115528000058], [85.35724446900008, 26.653129498000055], [85.35649132300006, 26.653297034000047], [85.35547222000008, 26.653807758000028], [85.35530544000005, 26.658054408000055], [85.35368428900006, 26.659255917000053], [85.35270047700004, 26.659892945000024], [85.35211856500007, 26.660773423000023], [85.35153255300008, 26.662547309000047], [85.35101080400005, 26.663238110000066], [85.34996656900006, 26.663762347000045], [85.34867602600008, 26.66412429500008], [85.34667799500005, 26.66528539600006], [85.34470926400007, 26.66561615200004], [85.34504191000008, 26.666884072000073], [85.34498196200008, 26.667353452000043], [85.34492202600006, 26.667687387000058], [85.34526388700004, 26.66807525200005], [85.34573692300006, 26.669090314000073], [85.34859395300003, 26.667960194000045], [85.34982439100008, 26.667706576000057], [85.35099459300005, 26.667624585000056], [85.35203931600006, 26.667515492000064], [85.35328911900007, 26.666521765000027], [85.35633850100004, 26.66715582300003], [85.35881563800007, 26.668061043000023], [85.35964483900005, 26.668475555000043], [85.36020309300005, 26.669219720000058], [85.36048030300003, 26.67021235900006], [85.36048169000009, 26.67162030000003], [85.36036298600004, 26.673524800000052], [85.35996230100005, 26.674689400000034], [85.35941079500003, 26.675736776000065], [85.35941662300007, 26.676621281000052], [85.35938942800004, 26.679653845000075], [85.35907900400008, 26.680732630000023], [85.35880368200003, 26.68175279700006], [85.35981868500005, 26.682058822000045], [85.36175704600004, 26.68133980600004], [85.36375572600008, 26.68061621700008], [85.36562940900006, 26.68058761900005], [85.36797027200004, 26.68047739700006], [85.36998906200006, 26.679898050000077], [85.37155534000004, 26.67889942000005], [85.37275511400009, 26.678153764000058], [85.37358367200005, 26.67787775800008], [85.37438229400004, 26.67782296300004], [85.37620028800006, 26.677379049000024]]]]}}, {"type": "Feature", "properties": {"OBJECTID": 6736, "GPCODE": "98701", "GPNAME_1": "SASAULA", "DIST_CEN_C": "04", "BLK_NAME": "SUPPI", "ST_NAME": "BIHAR", "ST_CODE_1": "10", "GPCODE2011": "101188", "REMARKS": "FINALIZED", "MAP_STATUS": "COMPLETED", "BLK_C_2001": "040002", "BLK_C_2011": "01064", "DIST_NAME": "SITAMARHI", "code2011": 0.0, "Shape_Leng": 0.11590322007, "Shape_Area": 0.00064798743, "Area": 7.14516}, "geometry": {"type": "MultiPolygon", "coordinates": [[[[85.34667833800006, 26.689342960000033], [85.34818557800008, 26.689341885000033], [85.34882877800004, 26.689589629000068], [85.35003041000004, 26.690635745000066], [85.35073930700008, 26.691271552000046], [85.35147805500003, 26.691465142000027], [85.35184471600007, 26.69141067000004], [85.35221628200009, 26.691162254000062], [85.35267274800003, 26.690417296000078], [85.35294802100003, 26.689203192000036], [85.35340803000008, 26.686833643000057], [85.35362345900006, 26.686224254000024], [85.35420592400004, 26.68586732400007], [85.35503460500007, 26.68561396100006], [85.35724909000004, 26.684624077000024], [85.35795174300006, 26.683874366000055], [85.35816706500003, 26.683156673000042], [85.35822686900008, 26.682687299000065], [85.35880368200003, 26.68175279700006], [85.35907900400008, 26.680732630000023], [85.35938942800004, 26.679653845000075], [85.35941662300007, 26.676621281000052], [85.35941079500003, 26.675736776000065], [85.35996230100005, 26.674689400000034], [85.36036298600004, 26.673524800000052], [85.36048169000009, 26.67162030000003], [85.36048030300003, 26.67021235900006], [85.36020309300005, 26.669219720000058], [85.35964483900005, 26.668475555000043], [85.35881563800007, 26.668061043000023], [85.35633850100004, 26.66715582300003], [85.35328911900007, 26.666521765000027], [85.35203931600006, 26.667515492000064], [85.35099459300005, 26.667624585000056], [85.34982439100008, 26.667706576000057], [85.34859395300003, 26.667960194000045], [85.34573692300006, 26.669090314000073], [85.34407454900008, 26.66942082500003], [85.34250748200003, 26.66953469200007], [85.34091040300007, 26.66981104900003], [85.33915811200006, 26.67077789500007], [85.33774685700007, 26.670999859000062], [85.33688312200007, 26.671280185000057], [85.33645147900006, 26.671749790000035], [85.33523636000007, 26.67240938300006], [85.33639481700004, 26.676519806000044], [85.33664152800003, 26.67729130400005], [85.33658169400007, 26.677841917000023], [85.33609479000006, 26.678225803000032], [85.33340828600006, 26.679567663000057], [85.33209227800006, 26.679789551000056], [85.33123356300007, 26.680173644000035], [85.33070301600003, 26.682886155000062], [85.33050283900008, 26.684064083000067], [85.32978503400005, 26.684790994000025], [85.32909742000004, 26.685743590000072], [85.32746691300008, 26.68886729600007], [85.32614653600007, 26.690262507000057], [85.32499673000007, 26.69114309200006], [85.32307314500008, 26.692177465000043], [85.32353673500006, 26.694257632000074], [85.32411056700005, 26.69596315700005], [85.32417111700005, 26.696269980000068], [85.32411098300008, 26.69658136000004], [85.32819023500008, 26.69601964000003], [85.34234725800007, 26.69485134300004], [85.34231621000004, 26.693687083000043], [85.34293293800005, 26.692165922000072], [85.34367059800007, 26.691172642000026], [85.34493092800005, 26.690314372000046], [85.34667833800006, 26.689342960000033]]]]}}, {"type": "Feature", "properties": {"OBJECTID": 6741, "GPCODE": "98697", "GPNAME_1": "KOTHIA RAI", "DIST_CEN_C": "04", "BLK_NAME": "SUPPI", "ST_NAME": "BIHAR", "ST_CODE_1": "10", "GPCODE2011": "101184", "REMARKS": "FINALIZED", "MAP_STATUS": "COMPLETED", "BLK_C_2001": "040002", "BLK_C_2011": "01064", "DIST_NAME": "SITAMARHI", "code2011": 0.0, "Shape_Leng": 0.20666319736, "Shape_Area": 0.0010311179, "Area": 11.368}, "geometry": {"type": "MultiPolygon", "coordinates": [[[[85.40263995900006, 26.704605653000044], [85.40292634700006, 26.704316714000072], [85.40484066500005, 26.704650349000076], [85.40586059100008, 26.704153661000078], [85.40614162200006, 26.703025479000075], [85.40587516000005, 26.70264196000005], [85.40406631000008, 26.70222262900006], [85.40113702800005, 26.701776455000072], [85.40064958300007, 26.70151932600004], [85.40070460200008, 26.700490396000077], [85.40136757800008, 26.699700549000056], [85.40190510400004, 26.699312328000076], [85.40335196200004, 26.698896913000056], [85.40469841300006, 26.698752239000044], [85.40503499000005, 26.698382067000068], [85.40492924000006, 26.697741351000047], [85.40390932600008, 26.697597082000073], [85.40025670500006, 26.697160086000054], [85.39949285900008, 26.69650136200005], [85.39922133600004, 26.695540169000026], [85.39823628900007, 26.69410980400005], [85.39825634000005, 26.69370361400007], [85.39783180400008, 26.69235626300008], [85.39692421100006, 26.691213336000033], [85.39628125600007, 26.69132683500004], [85.39495546900008, 26.69171170900006], [85.39233864800008, 26.692242375000035], [85.38950659100004, 26.693436535000046], [85.38769910800005, 26.694376908000038], [85.38597488900007, 26.69360242500005], [85.38498905000006, 26.692633080000064], [85.38348018800008, 26.691203960000053], [85.38280705700004, 26.691263324000033], [85.38203320900004, 26.691151227000034], [85.38132938700005, 26.690763723000032], [85.38030859000008, 26.689934393000044], [85.37938302700007, 26.688829525000074], [85.37816013800006, 26.687012002000074], [85.37877207800005, 26.68617660700005], [85.37904649100005, 26.684493116000056], [85.37938646600008, 26.68305323000004], [85.37978264500003, 26.682443669000065], [85.38145368700003, 26.680930398000044], [85.38096079800005, 26.680402783000034], [85.38061872200007, 26.679933848000076], [85.38022036800004, 26.67869319600004], [85.37978748300003, 26.67789033100007], [85.37932481500007, 26.677475585000025], [85.37874178900006, 26.677173727000024], [85.37781753500008, 26.677147467000054], [85.37620028800006, 26.677379049000024], [85.37438229400004, 26.67782296300004], [85.37358367200005, 26.67787775800008], [85.37275511400009, 26.678153764000058], [85.37155534000004, 26.67889942000005], [85.36998906200006, 26.679898050000077], [85.36797027200004, 26.68047739700006], [85.36562940900006, 26.68058761900005], [85.36375572600008, 26.68061621700008], [85.36175704600004, 26.68133980600004], [85.35981868500005, 26.682058822000045], [85.35880368200003, 26.68175279700006], [85.35822686900008, 26.682687299000065], [85.35816706500003, 26.683156673000042], [85.35795174300006, 26.683874366000055], [85.35724909000004, 26.684624077000024], [85.35503460500007, 26.68561396100006], [85.35420592400004, 26.68586732400007], [85.35362345900006, 26.686224254000024], [85.35340803000008, 26.686833643000057], [85.35294802100003, 26.689203192000036], [85.35267274800003, 26.690417296000078], [85.35221628200009, 26.691162254000062], [85.35184471600007, 26.69141067000004], [85.35147805500003, 26.691465142000027], [85.35073930700008, 26.691271552000046], [85.35003041000004, 26.690635745000066], [85.34882877800004, 26.689589629000068], [85.34818557800008, 26.689341885000033], [85.34667833800006, 26.689342960000033], [85.34493092800005, 26.690314372000046], [85.34579643600006, 26.69205571200007], [85.34724574700004, 26.694875195000066], [85.34746296900005, 26.696201761000054], [85.34767933300003, 26.696589752000023], [85.35054272800005, 26.69614546300005], [85.35112579100007, 26.696474471000045], [85.35235817700004, 26.698107281000034], [85.35361466600006, 26.698571181000034], [85.35509270000006, 26.69948167000007], [85.35610785800003, 26.699814856000046], [85.35814269500008, 26.699840384000026], [85.35972064100008, 26.700177593000035], [85.36027388800005, 26.700727768000036], [85.36037005100007, 26.70144970900003], [85.36012459300008, 26.702167409000026], [85.35870914100008, 26.70370736900003], [85.36025305500004, 26.70508701800003], [85.36359810500005, 26.703843393000056], [85.37060292800004, 26.699776168000028], [85.37463482200008, 26.697421561000056], [85.37528214200006, 26.696703489000072], [85.37663280600003, 26.695935074000033], [85.37833183000004, 26.69666460700006], [85.37931767400005, 26.69766104100006], [85.38018339500007, 26.699045738000052], [85.38198829600003, 26.70006391900006], [85.38214055100008, 26.701313819000063], [85.38334580500003, 26.705157520000057], [85.38399852400005, 26.708974718000036], [85.38372511700004, 26.711465995000026], [85.38385312500003, 26.717747545000066], [85.38440898800008, 26.720373463000044], [85.38443794200003, 26.720400608000034], [85.38755406000007, 26.719842483000036], [85.39487706600005, 26.716906445000063], [85.39613295700008, 26.712726359000044], [85.40422841000003, 26.707353581000064], [85.40294672000005, 26.705584850000037], [85.40263995900006, 26.704605653000044]]]]}}, {"type": "Feature", "properties": {"OBJECTID": 6747, "GPCODE": "98694", "GPNAME_1": "BARHAHARWA", "DIST_CEN_C": "04", "BLK_NAME": "SUPPI", "ST_NAME": "BIHAR", "ST_CODE_1": "10", "GPCODE2011": "101181", "REMARKS": "FINALIZED", "MAP_STATUS": "COMPLETED", "BLK_C_2001": "040002", "BLK_C_2011": "01064", "DIST_NAME": "SITAMARHI", "code2011": 0.0, "Shape_Leng": 0.10509450392, "Shape_Area": 0.00055640127, "Area": 6.13266}, "geometry": {"type": "MultiPolygon", "coordinates": [[[[85.34305418200006, 26.741945833000045], [85.34704899500008, 26.740805916000056], [85.35345283700008, 26.741455760000065], [85.36276715400004, 26.742337645000077], [85.36391046600005, 26.739683249000052], [85.36196176400006, 26.736079147000055], [85.36208153700005, 26.735194539000076], [85.36349734200007, 26.733641070000033], [85.36512217100005, 26.73018304200008], [85.36660085700004, 26.726499411000077], [85.36699699900004, 26.725587483000027], [85.36638287400007, 26.72461774800007], [85.36529647400005, 26.723738694000076], [85.36471793500004, 26.723143497000024], [85.36360703600008, 26.72275632000003], [85.36256179800006, 26.72278415100004], [85.36077366300003, 26.72372874900003], [85.35942999300005, 26.72171257100007], [85.35921278500007, 26.720629689000077], [85.35979989400005, 26.719663497000056], [85.36096915800005, 26.718110258000024], [85.36119886100005, 26.716643415000078], [85.35823852300007, 26.716009434000057], [85.35672633500008, 26.71628587300006], [85.35586733100007, 26.716674599000044], [85.35454116400007, 26.717090773000052], [85.35386271000004, 26.717064159000074], [85.35305682700005, 26.714930190000075], [85.35265947500005, 26.71451535700004], [85.35201117300005, 26.714515770000048], [85.35034344600007, 26.71509915300004], [85.34892760700006, 26.716512589000047], [85.34667764000005, 26.71787247000003], [85.34628153400007, 26.718897150000032], [85.34603232200004, 26.721302562000062], [85.34529490800008, 26.72285549700007], [85.34406443300009, 26.723826530000053], [85.34136672100004, 26.72487071300003], [85.34170614600004, 26.728214498000057], [85.33939489700003, 26.728906336000023], [85.33874731200007, 26.729849929000068], [85.33829148700005, 26.73170494900006], [85.33834736000006, 26.732530746000066], [85.33803277100003, 26.73513927600004], [85.33832128600005, 26.73775202300004], [85.33936419600008, 26.740847055000074], [85.34016944700005, 26.742191369000068], [85.34025520500006, 26.742678660000024], [85.34022527300004, 26.74294042500003], [85.34305418200006, 26.741945833000045]]]]}}, {"type": "Feature", "properties": {"OBJECTID": 6783, "GPCODE": "98696", "GPNAME_1": "HARPUR PIPRA", "DIST_CEN_C": "04", "BLK_NAME": "SUPPI", "ST_NAME": "BIHAR", "ST_CODE_1": "10", "GPCODE2011": "101183", "REMARKS": "FINALIZED", "MAP_STATUS": "COMPLETED", "BLK_C_2001": "040002", "BLK_C_2011": "01064", "DIST_NAME": "SITAMARHI", "code2011": 0.0, "Shape_Leng": 0.1761256028, "Shape_Area": 0.00078828586, "Area": 8.69407}, "geometry": {"type": "MultiPolygon", "coordinates": [[[[85.33688312200007, 26.671280185000057], [85.33774685700007, 26.670999859000062], [85.33915811200006, 26.67077789500007], [85.34091040300007, 26.66981104900003], [85.34250748200003, 26.66953469200007], [85.34407454900008, 26.66942082500003], [85.34573692300006, 26.669090314000073], [85.34526388700004, 26.66807525200005], [85.34492202600006, 26.667687387000058], [85.34498196200008, 26.667353452000043], [85.34504191000008, 26.666884072000073], [85.34470926400007, 26.66561615200004], [85.34667799500005, 26.66528539600006], [85.34867602600008, 26.66412429500008], [85.34996656900006, 26.663762347000045], [85.35101080400005, 26.663238110000066], [85.35153255300008, 26.662547309000047], [85.35211856500007, 26.660773423000023], [85.35270047700004, 26.659892945000024], [85.35368428900006, 26.659255917000053], [85.35530544000005, 26.658054408000055], [85.35547222000008, 26.653807758000028], [85.35649132300006, 26.653297034000047], [85.35724446900008, 26.653129498000055], [85.35781200900004, 26.653115528000058], [85.35851513100005, 26.653200713000047], [85.35956025900003, 26.653628642000058], [85.36042436000008, 26.653984450000053], [85.36099197700008, 26.654083368000045], [85.36154958900005, 26.654137078000076], [85.36394502700006, 26.653968165000038], [85.36495926800006, 26.653773347000026], [85.36661104800004, 26.653162777000034], [85.36949270500008, 26.652140435000035], [85.37087867300005, 26.651999368000077], [85.37253622700007, 26.65216496100004], [85.37419348000003, 26.652082289000077], [85.37490125100004, 26.651801848000048], [85.37520732400003, 26.65155340000007], [85.37772752500007, 26.650671199000044], [85.37997168300006, 26.650091502000066], [85.38095525700004, 26.649427245000027], [85.38135636500004, 26.64884472400007], [85.38150629500007, 26.64815415000004], [85.38141498100003, 26.64735545800005], [85.38027840400008, 26.645957558000077], [85.37935799600007, 26.64473994100007], [85.37858776300004, 26.64311146500006], [85.37821497500005, 26.642037822000077], [85.37778724600008, 26.641234935000057], [85.37716882400008, 26.64062621000005], [85.37636994000007, 26.64021626400006], [85.37584759600009, 26.640131032000056], [85.37428604500008, 26.64031286000005], [85.37408532800004, 26.640466509000078], [85.37270520000004, 26.641212325000026], [85.37197236200007, 26.641573950000065], [85.37032608000004, 26.64236061200006], [85.36951331500006, 26.643051712000045], [85.36930746000007, 26.64313762300003], [85.36799272000007, 26.644050278000066], [85.36541114100004, 26.643695898000033], [85.36295126300007, 26.64452376400004], [85.36287967000004, 26.643264677000047], [85.36286951300008, 26.643169972000067], [85.36303997200008, 26.64283591900005], [85.36353656000006, 26.64222174100007], [85.36433855100006, 26.640826658000037], [85.36141899300009, 26.638757560000045], [85.36058972500007, 26.63805421400008], [85.35949961300008, 26.637612830000023], [85.35933018500003, 26.638993898000024], [85.35919519700008, 26.639616771000078], [85.35891959900005, 26.64018105200006], [85.35903577000005, 26.64093915600006], [85.35852868000006, 26.641092954000044], [85.35781624400005, 26.641702717000044], [85.35698308600007, 26.64217719900006], [85.35545150700005, 26.64231824600006], [85.35440220800007, 26.642585242000052], [85.35359409600005, 26.642933339000024], [85.35298204000009, 26.643619702000024], [85.35247513600007, 26.643940482000062], [85.35201805700007, 26.643940817000043], [85.35150096300003, 26.64404496900005], [85.35129133400005, 26.645547839000074], [85.35159829000008, 26.64625167300005], [85.35162898600004, 26.64685636200005], [85.35145879000004, 26.64742503000008], [85.35139901600007, 26.64794861300004], [85.34925532400007, 26.648821035000026], [85.34844710800007, 26.649218794000035], [85.34734329700007, 26.650361280000027], [85.34593811700006, 26.651598689000025], [85.34538614600007, 26.65213611000007], [85.34436686500004, 26.652430073000062], [85.34375415800008, 26.65248013300004], [85.34257862600003, 26.65208829000005], [85.34209621500008, 26.651768236000066], [85.34031397700005, 26.652572632000044], [85.33883778000006, 26.652930065000078], [85.33827053300007, 26.653237299000068], [85.33814510600007, 26.653490102000035], [85.33827124300007, 26.654266179000047], [85.33813115000004, 26.65494320600004], [85.33790549200006, 26.65534949700003], [85.33730817300005, 26.655769547000034], [85.33617345900007, 26.656217], [85.33427514600004, 26.65637160500006], [85.33299955100006, 26.656552848000047], [85.33177926300004, 26.656729530000064], [85.33072959400005, 26.65674370100004], [85.32963464700003, 26.65673078800006], [85.32938349800008, 26.65665421500006], [85.32891592400006, 26.656027119000044], [85.32764904900006, 26.65423174500006], [85.32660952300006, 26.65425042100003], [85.32641922600004, 26.65510341600003], [85.32610831500006, 26.655857178000076], [85.32592279000005, 26.656254448000027], [85.32390969600004, 26.657640934000028], [85.32135946200003, 26.659514987000023], [85.32109356700005, 26.659961905000046], [85.32076730100005, 26.660332108000034], [85.32039576100004, 26.66045863200003], [85.31995381800004, 26.660508505000053], [85.31971786200006, 26.66063493400003], [85.31954735300008, 26.661158571000044], [85.31924620800004, 26.66142495500003], [85.31899504800003, 26.661411487000066], [85.31831187500006, 26.661326092000024], [85.31941765600004, 26.66255301500007], [85.31974441500006, 26.66299067400007], [85.31977479700004, 26.663459921000026], [85.31946893200006, 26.664249835000078], [85.31958472700006, 26.66468747600004], [85.32018302400007, 26.66572513500006], [85.32386044300006, 26.666752192000047], [85.32499082900006, 26.667193828000052], [85.32578530300003, 26.668511145000025], [85.32713281500008, 26.670518621000042], [85.32759014200008, 26.670847851000076], [85.32799204100007, 26.670901729000036], [85.32890629000008, 26.67090120100005], [85.32945379600005, 26.67090089900006], [85.33037323800005, 26.671256920000076], [85.33104134600006, 26.67136485900005], [85.33223669800003, 26.671088928000074], [85.33300018100005, 26.67106139200007], [85.33364319800006, 26.671200906000024], [85.33428648600005, 26.671638253000026], [85.33523636000007, 26.67240938300006], [85.33645147900006, 26.671749790000035], [85.33688312200007, 26.671280185000057]]]]}}, {"type": "Feature", "properties": {"OBJECTID": 6788, "GPCODE": "98700", "GPNAME_1": "NARAHA", "DIST_CEN_C": "04", "BLK_NAME": "SUPPI", "ST_NAME": "BIHAR", "ST_CODE_1": "10", "GPCODE2011": "101187", "REMARKS": "FINALIZED", "MAP_STATUS": "COMPLETED", "BLK_C_2001": "040002", "BLK_C_2011": "01064", "DIST_NAME": "SITAMARHI", "code2011": 0.0, "Shape_Leng": 0.17175478697, "Shape_Area": 0.00080912184, "Area": 8.92426}, "geometry": {"type": "MultiPolygon", "coordinates": [[[[85.39862406500004, 26.661756766000053], [85.39982095000005, 26.659120064000035], [85.40057713400006, 26.657399915000042], [85.40194467200007, 26.654713411000046], [85.40287656900006, 26.653087759000073], [85.40321697000007, 26.652198376000058], [85.40334610300005, 26.651124237000033], [85.40336315300004, 26.648885905000043], [85.40343681200005, 26.64768540400007], [85.40415272700005, 26.645969731000037], [85.40504367300008, 26.64384783500003], [85.40603073600005, 26.642186010000046], [85.40682833800008, 26.641535263000037], [85.40734488800007, 26.641074471000024], [85.40793168900007, 26.640527701000053], [85.40915007900009, 26.639140911000027], [85.40977702200007, 26.638625782000076], [85.41013319400008, 26.638404238000078], [85.41127210800005, 26.637676442000043], [85.41231094100004, 26.63723753100004], [85.41274769400007, 26.637169352000058], [85.41426435100004, 26.637244313000053], [85.41545472100006, 26.637432491000027], [85.41627875500006, 26.637778985000068], [85.41697209700004, 26.63802638100003], [85.41747937800005, 26.638043812000035], [85.41782061700007, 26.637930612000048], [85.41805633300004, 26.63768211200005], [85.41834174900004, 26.637135689000047], [85.41853036600008, 26.635646300000076], [85.41848937500004, 26.63510030300006], [85.41831800900007, 26.63468984600007], [85.41806154600005, 26.63440582000004], [85.41691562900007, 26.63370321800005], [85.41592547500005, 26.633108682000056], [85.41403983000004, 26.63127412600005], [85.41265166000005, 26.62961505000004], [85.41142499400007, 26.62861457200006], [85.41101323800007, 26.62856989900007], [85.41086268900006, 26.628628744000025], [85.41064210700006, 26.628886282000053], [85.40953442700004, 26.63034059200004], [85.40743305600006, 26.63220222500007], [85.40581346100004, 26.633824063000077], [85.40485099200004, 26.635039044000052], [85.40445531400007, 26.635793156000034], [85.40425070600008, 26.63676814400003], [85.40365065500004, 26.638632587000075], [85.40347059800007, 26.63915170000007], [85.40329014000008, 26.639400111000043], [85.40302409300006, 26.639454556000032], [85.40201449200003, 26.639284162000024], [85.40118045600008, 26.638973642000053], [85.40053192800008, 26.638405701000067], [85.39957622800006, 26.63720182900005], [85.39821429100004, 26.63633225600006], [85.39739512300008, 26.635836708000056], [85.39623385200008, 26.63483156700005], [85.39573639600007, 26.63452065300004], [85.39548026800009, 26.63450738800003], [85.39474245000008, 26.63481951500006], [85.39438106700004, 26.634919187000037], [85.39254835000008, 26.635006832000045], [85.38961095700006, 26.635108986000034], [85.38720554900004, 26.635030112000038], [85.38628120900006, 26.634706055000038], [85.38573853800006, 26.63439068400004], [85.38445636500006, 26.632947837000074], [85.38419988900006, 26.632623086000024], [85.38403905800004, 26.63254653300004], [85.38393360500004, 26.63254665900007], [85.38358230500006, 26.63270043500006], [85.38224237400004, 26.63332893000006], [85.38062143300004, 26.634156249000057], [85.37903549400005, 26.634911404000036], [85.37672638400005, 26.635630991000028], [85.37563192200008, 26.635830487000078], [85.37530576300009, 26.636029389000043], [85.37482440700006, 26.636643548000052], [85.37460396300008, 26.637104015000034], [85.37438584900008, 26.639757707000058], [85.37428604500008, 26.64031286000005], [85.37584759600009, 26.640131032000056], [85.37636994000007, 26.64021626400006], [85.37716882400008, 26.64062621000005], [85.37778724600008, 26.641234935000057], [85.37821497500005, 26.642037822000077], [85.37858776300004, 26.64311146500006], [85.37935799600007, 26.64473994100007], [85.38027840400008, 26.645957558000077], [85.38141498100003, 26.64735545800005], [85.38150629500007, 26.64815415000004], [85.38135636500004, 26.64884472400007], [85.38095525700004, 26.649427245000027], [85.37997168300006, 26.650091502000066], [85.37772752500007, 26.650671199000044], [85.37520732400003, 26.65155340000007], [85.37490125100004, 26.651801848000048], [85.37419348000003, 26.652082289000077], [85.37253622700007, 26.65216496100004], [85.37087867300005, 26.651999368000077], [85.36949270500008, 26.652140435000035], [85.36661104800004, 26.653162777000034], [85.36695102600004, 26.656578600000046], [85.36704368000005, 26.65876270900003], [85.36774910400004, 26.660991437000064], [85.37024084900008, 26.661476762000063], [85.37207948300005, 26.661849724000035], [85.37319960700006, 26.66184878100006], [85.37492250000008, 26.661987176000025], [85.37619846200005, 26.66220713200005], [85.37685648900003, 26.662220079000065], [85.37793103100006, 26.662011609000047], [85.37842303600007, 26.661817047000056], [85.38073659900004, 26.660131713000055], [85.38193636800008, 26.659593551000057], [85.38256384500005, 26.659326785000076], [85.38280951300004, 26.65892940200007], [85.38288414200008, 26.65836076200003], [85.38322455500008, 26.657412726000075], [85.38409752100006, 26.656586075000064], [85.38509644700008, 26.656115790000058], [85.38733097400006, 26.655779704000054], [85.38895834700008, 26.655850374000067], [85.39012895800005, 26.656232749000026], [85.39101873000004, 26.65682306800005], [85.39145150500008, 26.657553691000032], [85.39191093400007, 26.659498272000064], [85.39269739900004, 26.661799014000053], [85.39331582100004, 26.662321821000035], [85.39427015000007, 26.662320820000048], [85.39638910600007, 26.66184936700006], [85.39862406500004, 26.661756766000053]]]]}}, {"type": "Feature", "properties": {"OBJECTID": 6798, "GPCODE": "98692", "GPNAME_1": "AKHTA UTTAR", "DIST_CEN_C": "04", "BLK_NAME": "SUPPI", "ST_NAME": "BIHAR", "ST_CODE_1": "10", "GPCODE2011": "101179", "REMARKS": "FINALIZED", "MAP_STATUS": "COMPLETED", "BLK_C_2001": "040002", "BLK_C_2011": "01064", "DIST_NAME": "SITAMARHI", "code2011": 0.0, "Shape_Leng": 0.14673438953, "Shape_Area": 0.00082169402, "Area": 9.06096}, "geometry": {"type": "MultiPolygon", "coordinates": [[[[85.31520960500006, 26.699013657000023], [85.31948958900006, 26.697824757000035], [85.32350831700006, 26.696811882000077], [85.32411098300008, 26.69658136000004], [85.32417111700005, 26.696269980000068], [85.32411056700005, 26.69596315700005], [85.32353673500006, 26.694257632000074], [85.32307314500008, 26.692177465000043], [85.32499673000007, 26.69114309200006], [85.32614653600007, 26.690262507000057], [85.32746691300008, 26.68886729600007], [85.32909742000004, 26.685743590000072], [85.32978503400005, 26.684790994000025], [85.33050283900008, 26.684064083000067], [85.33070301600003, 26.682886155000062], [85.33123356300007, 26.680173644000035], [85.33209227800006, 26.679789551000056], [85.33340828600006, 26.679567663000057], [85.33609479000006, 26.678225803000032], [85.33658169400007, 26.677841917000023], [85.33664152800003, 26.67729130400005], [85.33639481700004, 26.676519806000044], [85.33523636000007, 26.67240938300006], [85.33428648600005, 26.671638253000026], [85.33364319800006, 26.671200906000024], [85.33300018100005, 26.67106139200007], [85.33223669800003, 26.671088928000074], [85.33104134600006, 26.67136485900005], [85.33037323800005, 26.671256920000076], [85.32945379600005, 26.67090089900006], [85.32890629000008, 26.67090120100005], [85.32799204100007, 26.670901729000036], [85.32759014200008, 26.670847851000076], [85.32713281500008, 26.670518621000042], [85.32578530300003, 26.668511145000025], [85.32499082900006, 26.667193828000052], [85.32386044300006, 26.666752192000047], [85.32018302400007, 26.66572513500006], [85.31958472700006, 26.66468747600004], [85.31946893200006, 26.664249835000078], [85.31977479700004, 26.663459921000026], [85.31974441500006, 26.66299067400007], [85.31941765600004, 26.66255301500007], [85.31831187500006, 26.661326092000024], [85.31727739000007, 26.66150261100006], [85.31650902900003, 26.66165638800004], [85.31591625300007, 26.66145814500004], [85.31538852600005, 26.660858173000065], [85.31524751900008, 26.66037086800003], [85.31537745100007, 26.659161365000045], [85.31520647900004, 26.658813923000025], [85.31445272200006, 26.658196032000035], [85.31358864900005, 26.657709039000054], [85.31341762600005, 26.657379724000066], [85.31378352900003, 26.656012145000034], [85.31379822100007, 26.655362308000065], [85.31374295300003, 26.65526305800006], [85.31362743500006, 26.65523605800007], [85.31340148000004, 26.655312820000063], [85.31243733100007, 26.65556596500005], [85.31085053000004, 26.656193994000034], [85.30689815500006, 26.65662883600004], [85.30493956700008, 26.656936486000063], [85.30261887000006, 26.65715283700007], [85.30394124200006, 26.66417962400004], [85.30704530000008, 26.667692111000065], [85.30949587200007, 26.66940751100003], [85.30982261500003, 26.670551111000066], [85.30973028500006, 26.674793313000066], [85.31112958700004, 26.67537057000004], [85.31251824400005, 26.67773945600004], [85.31243655900005, 26.681170258000066], [85.31014935800005, 26.683865887000024], [85.30761710000007, 26.685172859000033], [85.30394240200008, 26.68643415500003], [85.30303157400004, 26.689957070000048], [85.30292129200006, 26.69044900600005], [85.30283605500006, 26.690837136000027], [85.30315296900005, 26.69163573800006], [85.30372629100003, 26.692903659000024], [85.30401314200003, 26.693986574000064], [85.30407064700006, 26.698652742000036], [85.30495987500007, 26.698422263000054], [85.30622099700008, 26.698502977000032], [85.30725600100004, 26.69865601600003], [85.30869288200006, 26.698474882000028], [85.31019007500004, 26.698420137000028], [85.31174279300006, 26.69878499400005], [85.31520960500006, 26.699013657000023]]]]}}, {"type": "Feature", "properties": {"OBJECTID": 6800, "GPCODE": "98693", "GPNAME_1": "BABHANGAMA", "DIST_CEN_C": "04", "BLK_NAME": "SUPPI", "ST_NAME": "BIHAR", "ST_CODE_1": "10", "GPCODE2011": "101180", "REMARKS": "FINALIZED", "MAP_STATUS": "COMPLETED", "BLK_C_2001": "040002", "BLK_C_2011": "01064", "DIST_NAME": "SITAMARHI", "code2011": 0.0, "Shape_Leng": 0.13864626361, "Shape_Area": 0.000494823, "Area": 5.45525}, "geometry": {"type": "MultiPolygon", "coordinates": [[[[85.35672633500008, 26.71628587300006], [85.35823852300007, 26.716009434000057], [85.36119886100005, 26.716643415000078], [85.36216455600004, 26.71237814500006], [85.36228207100004, 26.70933651300004], [85.36142067400004, 26.707067278000068], [85.36025305500004, 26.70508701800003], [85.35870914100008, 26.70370736900003], [85.36012459300008, 26.702167409000026], [85.36037005100007, 26.70144970900003], [85.36027388800005, 26.700727768000036], [85.35972064100008, 26.700177593000035], [85.35814269500008, 26.699840384000026], [85.35610785800003, 26.699814856000046], [85.35509270000006, 26.69948167000007], [85.35361466600006, 26.698571181000034], [85.35235817700004, 26.698107281000034], [85.35112579100007, 26.696474471000045], [85.35054272800005, 26.69614546300005], [85.34767933300003, 26.696589752000023], [85.34746296900005, 26.696201761000054], [85.34724574700004, 26.694875195000066], [85.34579643600006, 26.69205571200007], [85.34493092800005, 26.690314372000046], [85.34367059800007, 26.691172642000026], [85.34293293800005, 26.692165922000072], [85.34231621000004, 26.693687083000043], [85.34234725800007, 26.69485134300004], [85.32819023500008, 26.69601964000003], [85.32411098300008, 26.69658136000004], [85.32350831700006, 26.696811882000077], [85.31948958900006, 26.697824757000035], [85.31520960500006, 26.699013657000023], [85.31666866700004, 26.702411057000063], [85.31741829500004, 26.70406683400006], [85.31943845300003, 26.704611928000077], [85.32225777000008, 26.705436358000043], [85.32366985400006, 26.705801179000048], [85.32418769100008, 26.706238676000055], [85.32924273100008, 26.706705232000047], [85.33243822300005, 26.70648683400003], [85.33551761200005, 26.70554185700007], [85.33841580800004, 26.70434867000006], [85.34224418000008, 26.70400777100008], [85.34446059300006, 26.704723900000033], [85.35002878900008, 26.705879854000045], [85.35243151300006, 26.706929583000033], [85.35400537800007, 26.708255176000023], [85.35449829500004, 26.708805403000042], [85.35413300500005, 26.710434763000023], [85.35354565600005, 26.71104441400007], [85.35154736800007, 26.71272913400003], [85.34929746100005, 26.71416570200006], [85.35034344600007, 26.71509915300004], [85.35201117300005, 26.714515770000048], [85.35265947500005, 26.71451535700004], [85.35305682700005, 26.714930190000075], [85.35386271000004, 26.717064159000074], [85.35454116400007, 26.717090773000052], [85.35586733100007, 26.716674599000044], [85.35672633500008, 26.71628587300006]]]]}}, {"type": "Feature", "properties": {"OBJECTID": 6807, "GPCODE": "98698", "GPNAME_1": "MANIYARI", "DIST_CEN_C": "04", "BLK_NAME": "SUPPI", "ST_NAME": "BIHAR", "ST_CODE_1": "10", "GPCODE2011": "101185", "REMARKS": "FINALIZED", "MAP_STATUS": "COMPLETED", "BLK_C_2001": "040002", "BLK_C_2011": "01064", "DIST_NAME": "SITAMARHI", "code2011": 0.0, "Shape_Leng": 0.12714482109, "Shape_Area": 0.00059584605, "Area": 6.56828}, "geometry": {"type": "MultiPolygon", "coordinates": [[[[85.34603232200004, 26.721302562000062], [85.34628153400007, 26.718897150000032], [85.34667764000005, 26.71787247000003], [85.34892760700006, 26.716512589000047], [85.35034344600007, 26.71509915300004], [85.34929746100005, 26.71416570200006], [85.35154736800007, 26.71272913400003], [85.35354565600005, 26.71104441400007], [85.35413300500005, 26.710434763000023], [85.35449829500004, 26.708805403000042], [85.35400537800007, 26.708255176000023], [85.35243151300006, 26.706929583000033], [85.35002878900008, 26.705879854000045], [85.34446059300006, 26.704723900000033], [85.34224418000008, 26.70400777100008], [85.33841580800004, 26.70434867000006], [85.33551761200005, 26.70554185700007], [85.33243822300005, 26.70648683400003], [85.32924273100008, 26.706705232000047], [85.32418769100008, 26.706238676000055], [85.32487701200006, 26.707610131000024], [85.32669243100008, 26.709978345000025], [85.32764342400003, 26.71176487300005], [85.32787506600005, 26.712513869000077], [85.32755868500004, 26.71277129300006], [85.32684019700008, 26.712902522000036], [85.32301165200005, 26.71360407900005], [85.32044958100005, 26.714629693000063], [85.31998745600004, 26.714837484000043], [85.31846478700004, 26.71473446400006], [85.31650518100008, 26.714812134000056], [85.31520884900004, 26.71509704500005], [85.31409381000003, 26.71584660900004], [85.31408964400003, 26.71741254500006], [85.31420561400006, 26.718112017000067], [85.31471870700005, 26.719018850000054], [85.31589989700007, 26.719532705000063], [85.31681953300006, 26.719559403000062], [85.31854816600008, 26.71960816400008], [85.31921160400003, 26.719684572000062], [85.31964389500007, 26.719919067000035], [85.32007137100004, 26.72046038700006], [85.32070974000004, 26.720744382000078], [85.32186062600005, 26.720924311000033], [85.32435297900008, 26.720692873000075], [85.32527727600007, 26.720146338000063], [85.32648269300006, 26.719319837000057], [85.32682941600007, 26.719188818000077], [85.32700523900007, 26.719215785000074], [85.32709086700004, 26.71947298400005], [85.32625786200003, 26.721206279000057], [85.32541962600004, 26.722655347000057], [85.32416436300008, 26.72419934800007], [85.32330042500007, 26.724948910000023], [85.32312497800007, 26.725517583000055], [85.32324112200007, 26.726397465000048], [85.32387456100008, 26.726758164000046], [85.32551329400007, 26.727506491000042], [85.32934344900008, 26.728384335000044], [85.33235932700006, 26.729253613000026], [85.33696413000007, 26.730983699000035], [85.33791424200007, 26.731344146000026], [85.33829148700005, 26.73170494900006], [85.33874731200007, 26.729849929000068], [85.33939489700003, 26.728906336000023], [85.34170614600004, 26.728214498000057], [85.34136672100004, 26.72487071300003], [85.34406443300009, 26.723826530000053], [85.34529490800008, 26.72285549700007], [85.34603232200004, 26.721302562000062]]]]}}, {"type": "Feature", "properties": {"OBJECTID": 6857, "GPCODE": "98699", "GPNAME_1": "MOHANI MANDAL", "DIST_CEN_C": "04", "BLK_NAME": "SUPPI", "ST_NAME": "BIHAR", "ST_CODE_1": "10", "GPCODE2011": "101186", "REMARKS": "FINALIZED", "MAP_STATUS": "COMPLETED", "BLK_C_2001": "040002", "BLK_C_2011": "01064", "DIST_NAME": "SITAMARHI", "code2011": 0.0, "Shape_Leng": 0.14904801535, "Shape_Area": 0.00070598829, "Area": 7.78431}, "geometry": {"type": "MultiPolygon", "coordinates": [[[[85.41277856100004, 26.686868317000062], [85.41479649100006, 26.685787409000056], [85.41574496000004, 26.68506878100004], [85.41729967100008, 26.683311527000058], [85.41794608700008, 26.682182540000042], [85.41806104600005, 26.68180793600004], [85.41804054600004, 26.68153260300005], [85.41773292700003, 26.680711704000032], [85.41703732700006, 26.679137550000064], [85.41631282200007, 26.678335100000027], [85.41437089500005, 26.67633821100003], [85.41358643700005, 26.675761505000025], [85.41294318000007, 26.675554693000038], [85.41217944800007, 26.67543816400007], [85.40999960300007, 26.675594102000048], [85.40898990500006, 26.67558174000004], [85.40853262500008, 26.675460416000078], [85.40807475900004, 26.67486063700005], [85.40767156700008, 26.67392247400005], [85.40744344200004, 26.67242903700003], [85.40717644500006, 26.671887817000027], [85.40677880200008, 26.67125641900003], [85.40550148000005, 26.67018378100005], [85.40378720200005, 26.66910714900007], [85.40300325200008, 26.668832640000062], [85.40066758100005, 26.668857734000028], [85.39994404100008, 26.66866900200006], [85.39944625200008, 26.668276868000078], [85.39715756700008, 26.669628612000054], [85.39589719000008, 26.66995927000005], [85.39255769000005, 26.670599034000077], [85.39043355400008, 26.671070419000046], [85.38970019400006, 26.67109821100007], [85.38822281300008, 26.670571702000075], [85.38690129200006, 26.67016229500007], [85.38631372500004, 26.67024413400003], [85.38570142900005, 26.67074106800004], [85.38438121000007, 26.671432818000028], [85.38324119800006, 26.67162793400007], [85.38322284300006, 26.673117164000075], [85.38353011700008, 26.673829840000053], [85.38414373700004, 26.674465559000055], [85.38540513800007, 26.674960787000032], [85.38620455800003, 26.675596281000026], [85.38660724600004, 26.67625929700006], [85.38685429200007, 26.677057859000058], [85.38697631100007, 26.67824910400003], [85.38682673000005, 26.679214955000077], [85.38611889500004, 26.679545036000036], [85.38507433600006, 26.679825858000072], [85.38145368700003, 26.680930398000044], [85.37978264500003, 26.682443669000065], [85.37938646600008, 26.68305323000004], [85.37904649100005, 26.684493116000056], [85.37877207800005, 26.68617660700005], [85.37816013800006, 26.687012002000074], [85.37938302700007, 26.688829525000074], [85.38030859000008, 26.689934393000044], [85.38132938700005, 26.690763723000032], [85.38203320900004, 26.691151227000034], [85.38280705700004, 26.691263324000033], [85.38348018800008, 26.691203960000053], [85.38498905000006, 26.692633080000064], [85.38597488900007, 26.69360242500005], [85.38769910800005, 26.694376908000038], [85.38950659100004, 26.693436535000046], [85.39233864800008, 26.692242375000035], [85.39495546900008, 26.69171170900006], [85.39628125600007, 26.69132683500004], [85.39692421100006, 26.691213336000033], [85.39783180400008, 26.69235626300008], [85.39825634000005, 26.69370361400007], [85.40032597700008, 26.69278721200004], [85.40243577000007, 26.691667704000054], [85.40438977700006, 26.690489494000076], [85.40633865200004, 26.689108178000026], [85.40723266500004, 26.688417523000055], [85.40775005800003, 26.688142133000042], [85.40889533300003, 26.68783496100008], [85.41055795100004, 26.687031275000038], [85.41174347400005, 26.68676023300003], [85.41238660900007, 26.686967697000057], [85.41249735300005, 26.68759039200006], [85.41248231200007, 26.68766259000006], [85.41232680900004, 26.688610264000033], [85.41216121100007, 26.688912723000044], [85.41183473400008, 26.689314404000072], [85.41159869800003, 26.68956270500007], [85.41131742200008, 26.689756807000037], [85.41074479800005, 26.690000621000024], [85.40992100200003, 26.690285120000055], [85.40932319300003, 26.69048388300007], [85.40884592800006, 26.690610304000074], [85.40859981000006, 26.69075478900004], [85.40848439200005, 26.690939852000042], [85.40840906900007, 26.69114745400003], [85.40840913800008, 26.69131436300006], [85.40843426100008, 26.691382046000058], [85.40859522300008, 26.69206796900005], [85.40946975100007, 26.693299753000076], [85.41002772700006, 26.69423375100007], [85.41025898500004, 26.694797814000026], [85.41056067900007, 26.695456610000065], [85.41106338500003, 26.69641763000004], [85.41190769300005, 26.697238777000052], [85.41353579300005, 26.698091195000075], [85.41539497000008, 26.698686355000063], [85.41653553700007, 26.69876731100004], [85.41770106900003, 26.698460117000025], [85.41920290600007, 26.697588662000044], [85.41736313100006, 26.695707921000064], [85.41663352100005, 26.694941636000067], [85.41562131300003, 26.693300221000072], [85.41400628600007, 26.69171356800007], [85.41282453900004, 26.690929751000056], [85.41246223900004, 26.69053749300008], [85.41219480900008, 26.689707475000034], [85.41259239000004, 26.687616278000064], [85.41260379700003, 26.687152782000055], [85.41277856100004, 26.686868317000062]]]]}}, {"type": "Feature", "properties": {"OBJECTID": 6890, "GPCODE": "98691", "GPNAME_1": "AKHTA  POORAV", "DIST_CEN_C": "04", "BLK_NAME": "SUPPI", "ST_NAME": "BIHAR", "ST_CODE_1": "10", "GPCODE2011": "999046", "REMARKS": "FINALIZED", "MAP_STATUS": "COMPLETED", "BLK_C_2001": "040002", "BLK_C_2011": "01064", "DIST_NAME": "SITAMARHI", "code2011": 0.0, "Shape_Leng": 0.07252272843, "Shape_Area": 0.00018991514, "Area": 2.09436}, "geometry": {"type": "MultiPolygon", "coordinates": [[[[85.30394124200006, 26.66417962400004], [85.30261887000006, 26.65715283700007], [85.30178064500006, 26.657230981000055], [85.30053008300007, 26.65729462300004], [85.29986215400004, 26.657574660000023], [85.29905375400006, 26.657904347000056], [85.29760743700007, 26.658216208000056], [85.29828065600003, 26.66116715800007], [85.29985873200008, 26.66465647600006], [85.30178317000008, 26.671053647000065], [85.30285393000008, 26.675415435000048], [85.30329606700008, 26.677216500000043], [85.30384412000006, 26.682670848000043], [85.30394240200008, 26.68643415500003], [85.30761710000007, 26.685172859000033], [85.31014935800005, 26.683865887000024], [85.31243655900005, 26.681170258000066], [85.31251824400005, 26.67773945600004], [85.31112958700004, 26.67537057000004], [85.30973028500006, 26.674793313000066], [85.30982261500003, 26.670551111000066], [85.30949587200007, 26.66940751100003], [85.30704530000008, 26.667692111000065], [85.30394124200006, 26.66417962400004]]]]}}]}