{"type": "FeatureCollection", "features": [{"type": "Feature", "properties": {"OBJECTID": 1884, "GPCODE": "98720", "GPNAME_1": "ANDAR", "DIST_CEN_C": "16", "BLK_NAME": "ANDAR", "ST_NAME": "BIHAR", "ST_CODE_1": null, "GPCODE2011": "101207", "REMARKS": null, "MAP_STATUS": null, "BLK_C_2001": "160015", "BLK_C_2011": "01243", "DIST_NAME": "SIWAN", "code2011": 0.0, "Shape_Leng": 0.08188556624, "Shape_Area": 0.00034098355, "Area": 3.78289}, "geometry": {"type": "MultiPolygon", "coordinates": [[[[84.29005626500003, 26.107164786000055], [84.29176639600007, 26.107090421000066], [84.29269116900008, 26.10709654900006], [84.29386374600006, 26.106752378000067], [84.29425643000008, 26.106402975000037], [84.29450965300003, 26.105389328000058], [84.29543968000007, 26.10473660100007], [84.29700922100005, 26.10412874800005], [84.29774943700005, 26.10469775200005], [84.29780799600007, 26.10363764400006], [84.29802610500008, 26.10076897600004], [84.29856161300006, 26.098831973000074], [84.29901177700003, 26.097557855000048], [84.30030553000006, 26.094569974000024], [84.30046359700003, 26.09294182900004], [84.30116776900007, 26.089909436000028], [84.30132378500008, 26.08916129800008], [84.30093713000008, 26.088761662000024], [84.30015384700005, 26.088580499000045], [84.29874127100004, 26.088968340000065], [84.29747046000006, 26.08913597700007], [84.29693895200006, 26.088735351000025], [84.29630743800004, 26.088333980000073], [84.29542595300006, 26.088549321000073], [84.29450255000006, 26.088407791000066], [84.29385280700006, 26.088398986000072], [84.29312811200003, 26.089016981000043], [84.29288213000007, 26.08976445500008], [84.29297062400008, 26.090559235000057], [84.29291637800003, 26.091086897000025], [84.29228334000004, 26.091479821000064], [84.29037528000003, 26.091949966000072], [84.28954232900008, 26.09211130600005], [84.28861816300008, 26.092290309000077], [84.28715229100004, 26.09245528400004], [84.28714228500007, 26.092456410000068], [84.28607884000007, 26.09231849400004], [84.28569222000004, 26.091918729000042], [84.28550235100005, 26.091299207000077], [84.28511860700007, 26.09055211100008], [84.28507371000006, 26.089933575000032], [84.28434622300006, 26.089662447000023], [84.28253942700007, 26.08996165800005], [84.28053927200006, 26.09007913800008], [84.27844193900006, 26.089843907000045], [84.27712350900003, 26.09031787300006], [84.27658764600005, 26.09044963300005], [84.27686591800006, 26.091859443000033], [84.27700600900005, 26.093051786000046], [84.27738604100006, 26.09424123200006], [84.27766611400006, 26.095434428000033], [84.27804873500008, 26.096303517000024], [84.27837142800007, 26.098390491000032], [84.27870427300007, 26.099845823000067], [84.27927933100005, 26.101041138000028], [84.27956080200005, 26.10205380700006], [84.27980287000008, 26.102407483000036], [84.28028433800006, 26.103426076000062], [84.28075903800004, 26.104661226000076], [84.28138116400004, 26.106208743000025], [84.28171958100006, 26.106387023000025], [84.28206341200007, 26.106520240000066], [84.28268587900004, 26.108022644000073], [84.28316302200005, 26.108969005000063], [84.28472621800006, 26.10854175000003], [84.28751732500007, 26.107720979000078], [84.28863876900004, 26.107507377000047], [84.29005626500003, 26.107164786000055]]]]}}, {"type": "Feature", "properties": {"OBJECTID": 1885, "GPCODE": "98721", "GPNAME_1": "ARAKPUR", "DIST_CEN_C": "16", "BLK_NAME": "ANDAR", "ST_NAME": "BIHAR", "ST_CODE_1": null, "GPCODE2011": "101208", "REMARKS": null, "MAP_STATUS": null, "BLK_C_2001": "160015", "BLK_C_2011": "01243", "DIST_NAME": "SIWAN", "code2011": 0.0, "Shape_Leng": 0.12616171741, "Shape_Area": 0.00076173445, "Area": 8.44998}, "geometry": {"type": "MultiPolygon", "coordinates": [[[[84.22641954300008, 26.128985233000037], [84.22670132600007, 26.12781956500004], [84.22595622300008, 26.12757920200005], [84.22604316900004, 26.12537664000007], [84.22603391000007, 26.12268449100003], [84.22593619300005, 26.121673954000073], [84.22579303300006, 26.120259245000057], [84.22554710100007, 26.11864475300007], [84.22531847600004, 26.117550787000027], [84.22481255700006, 26.115827554000077], [84.22308257700007, 26.115845394000075], [84.22180180400005, 26.115880051000033], [84.22032509900004, 26.115804221000076], [84.21875139000008, 26.115702010000064], [84.21703846400004, 26.11574831200005], [84.21681247400005, 26.115696531000026], [84.21611895200004, 26.115078313000026], [84.21553299200008, 26.11480470200007], [84.21497911500006, 26.114530131000038], [84.21427663900005, 26.114606993000052], [84.21398789100004, 26.113630503000024], [84.21380094200003, 26.112824928000066], [84.21358393400004, 26.112078145000055], [84.21291809100006, 26.11035909700007], [84.21222940800004, 26.10988549800004], [84.21157664700007, 26.10952679600007], [84.21102376000005, 26.109281174000046], [84.21050860200006, 26.109208197000044], [84.20914046900003, 26.109505656000067], [84.20767724700005, 26.109834656000032], [84.20656045900006, 26.10998054600003], [84.20617438100004, 26.109933065000064], [84.20600088300006, 26.10953243000006], [84.20581877500007, 26.10887148100005], [84.20561043100008, 26.108384998000076], [84.20527875000005, 26.108046513000033], [84.20434066400009, 26.107782258000043], [84.20359763300007, 26.107599622000066], [84.20290900300006, 26.107126073000074], [84.20234658300006, 26.106591141000024], [84.20217023500004, 26.106103791000066], [84.20190549600005, 26.105850375000045], [84.20171819700005, 26.10600009500007], [84.20108354200005, 26.10619094300006], [84.20053929000005, 26.106205596000052], [84.19929737600006, 26.106441682000025], [84.19871198500005, 26.107152192000058], [84.19806921600008, 26.108066991000044], [84.19748381100004, 26.108777496000073], [84.19708761900006, 26.10939612100003], [84.19704265200005, 26.109976307000068], [84.19754779000004, 26.11071545300007], [84.19787945800005, 26.111053953000066], [84.19596604500003, 26.11133697300005], [84.19466277200007, 26.11166154800003], [84.19383418300004, 26.11179959800006], [84.19339167200008, 26.11198515600006], [84.19281626800006, 26.112029609000047], [84.19220315900003, 26.111901316000058], [84.19155425700006, 26.111658205000026], [84.19115062700007, 26.112537832000044], [84.19063579800007, 26.113449066000044], [84.18999971000005, 26.114566208000042], [84.18932390500004, 26.11545286000006], [84.18915649200005, 26.116210084000045], [84.18868324800007, 26.117409724000026], [84.18842411000008, 26.11926946400007], [84.18807357700007, 26.121276419000026], [84.18734423400008, 26.122975015000065], [84.18627112000007, 26.12445127600006], [84.18575154800004, 26.125217845000066], [84.18589768100009, 26.125763995000057], [84.18601278100004, 26.12633987600003], [84.18616092300005, 26.12694386000004], [84.18688444100007, 26.12750341800006], [84.18774744000007, 26.128406647000077], [84.18889872100004, 26.129302133000067], [84.18955067000007, 26.129632049000065], [84.19043625300003, 26.130245127000023], [84.19098769100003, 26.130447438000033], [84.19153927200006, 26.130649799000025], [84.19275085700008, 26.131427862000066], [84.19394181900003, 26.132553794000046], [84.19490011000005, 26.133425523000028], [84.19604432500006, 26.133134132000066], [84.19702172200004, 26.13264465800006], [84.19803693100005, 26.132327915000076], [84.19905786600003, 26.13218467400003], [84.20023988400004, 26.13206598800008], [84.20148587000006, 26.131945572000063], [84.20252496800003, 26.132351888000073], [84.20357613200008, 26.132641914000033], [84.20461756800006, 26.13215066600003], [84.20522122100004, 26.131989729000054], [84.20594812700006, 26.131680610000046], [84.20708857800008, 26.131273554000074], [84.20794170500005, 26.13090313500004], [84.20875986600004, 26.13044677700003], [84.20932194300008, 26.12999741300007], [84.20994702500008, 26.129517358000044], [84.21060610500007, 26.129094270000053], [84.21152615400007, 26.12880890200006], [84.21315601600008, 26.12818593800006], [84.21395184700003, 26.128019685000027], [84.21446420700005, 26.128005849000033], [84.21479010700006, 26.128170711000053], [84.21509276000006, 26.128596833000074], [84.21536802100007, 26.12916836900007], [84.21544935500003, 26.129687254000032], [84.21562962600007, 26.13029034500005], [84.21612152100005, 26.130624475000047], [84.21610722100007, 26.13163812700003], [84.21683761400004, 26.132400016000076], [84.21746908100005, 26.133077788000037], [84.21749115200004, 26.133743038000034], [84.21803520400005, 26.134683619000043], [84.21889238600005, 26.134920989000022], [84.22075365300003, 26.134986438000055], [84.22203547900006, 26.13498075600006], [84.22265775700004, 26.134413849000055], [84.22309453900004, 26.13405470400005], [84.22378932000004, 26.133746187000042], [84.22421456200004, 26.13303993200003], [84.22467380800003, 26.132390643000065], [84.22530461200006, 26.132084035000048], [84.22581724400004, 26.131114867000065], [84.22625521600008, 26.12982919700005], [84.22641954300008, 26.128985233000037]]]]}}, {"type": "Feature", "properties": {"OBJECTID": 1886, "GPCODE": "98722", "GPNAME_1": "ASAW", "DIST_CEN_C": "16", "BLK_NAME": "ANDAR", "ST_NAME": "BIHAR", "ST_CODE_1": null, "GPCODE2011": "101209", "REMARKS": null, "MAP_STATUS": null, "BLK_C_2001": "160015", "BLK_C_2011": "01243", "DIST_NAME": "SIWAN", "code2011": 0.0, "Shape_Leng": 0.12034507117, "Shape_Area": 0.00057985725, "Area": 6.43394}, "geometry": {"type": "MultiPolygon", "coordinates": [[[[84.22433044400003, 26.10252331600003], [84.22540075100005, 26.101944340000045], [84.22670759000005, 26.101735183000073], [84.22798138900004, 26.10149810300004], [84.22855769600005, 26.101482485000076], [84.22930457500007, 26.10178067700008], [84.23008834900008, 26.102222635000032], [84.23068679500005, 26.10287227300006], [84.23190144900008, 26.102781350000043], [84.23292585800004, 26.102753561000043], [84.23423751300004, 26.102689071000043], [84.23462175500003, 26.102678643000047], [84.23510674800008, 26.102810248000026], [84.23574740900006, 26.103285053000036], [84.23598426600006, 26.102699638000047], [84.23588947600007, 26.101775798000062], [84.23568121000005, 26.100333942000077], [84.23564701500004, 26.099784783000075], [84.23598857100006, 26.099457072000064], [84.23676165100005, 26.099580850000052], [84.23727582100008, 26.09962477600004], [84.23767853500004, 26.099208520000047], [84.23807257000004, 26.098531949000062], [84.23780215700003, 26.09714967000008], [84.23773065900008, 26.095964645000038], [84.23745912300006, 26.09550881100006], [84.23677717800007, 26.095237884000028], [84.23561605200007, 26.095008863000032], [84.23488075600005, 26.095057723000025], [84.23408140800007, 26.095108410000023], [84.23337317200009, 26.095011851000038], [84.23306871400007, 26.094527912000046], [84.23315349100005, 26.09322286400004], [84.23356187300004, 26.092980132000037], [84.23380450100007, 26.092568319000065], [84.23361274400008, 26.09161811200005], [84.23362257000008, 26.090951975000053], [84.23483326000007, 26.090745446000028], [84.23581596100007, 26.090429226000026], [84.23641280600003, 26.089110266000034], [84.23710616200003, 26.088280885000074], [84.23788426100003, 26.087593876000028], [84.23814341200006, 26.086718302000065], [84.23808541200003, 26.085938224000074], [84.23771980200007, 26.085542833000034], [84.23759872200003, 26.084793459000025], [84.23608943100004, 26.084689680000054], [84.23583044800006, 26.084609831000023], [84.23555701700008, 26.08409615200003], [84.23550856400004, 26.083605264000028], [84.23555238400007, 26.082996181000055], [84.23592972100005, 26.082783274000064], [84.23617328000006, 26.082400235000023], [84.23606570200008, 26.082055815000047], [84.23554293400008, 26.081751568000072], [84.23505705600007, 26.081590997000035], [84.23485346200005, 26.081249183000068], [84.23463820600006, 26.08056016000006], [84.23479989200007, 26.07916603500007], [84.23403280900004, 26.07826042800008], [84.23350332100006, 26.077753694000023], [84.23175492600006, 26.076237819000028], [84.23049764400008, 26.076966699000025], [84.22901346000003, 26.077614931000028], [84.22784254800007, 26.078051904000063], [84.22657379400005, 26.078433721000067], [84.22533882400006, 26.078872501000035], [84.22416511000006, 26.079222732000062], [84.22349961000003, 26.079443414000025], [84.22280405500004, 26.079722797000045], [84.22236650000008, 26.080053083000053], [84.22199384900006, 26.08041060200003], [84.22191607600007, 26.080962801000055], [84.22186749400004, 26.081427329000064], [84.22121796400006, 26.08164756800005], [84.21991324200008, 26.081914521000044], [84.21927489400008, 26.08198967800007], [84.21764437300004, 26.08209166100005], [84.21690616700005, 26.08205372900005], [84.21647083400006, 26.081486504000054], [84.21587266300008, 26.080836798000064], [84.21500551400004, 26.08077335100006], [84.21382398600008, 26.080892153000036], [84.21273665900009, 26.08095042000008], [84.21064031500003, 26.081499223000037], [84.20859085200004, 26.082017740000026], [84.20639749500003, 26.08254011100007], [84.20646402800008, 26.082856941000045], [84.20645310500004, 26.083494207000058], [84.20669529700007, 26.084037675000047], [84.20669078300006, 26.08510898800006], [84.20705725400006, 26.085533416000033], [84.20777297100005, 26.085861451000028], [84.20861009200007, 26.085983639000062], [84.20872525900006, 26.086559521000027], [84.20872774700007, 26.087601652000046], [84.20875838000006, 26.088527243000044], [84.20920222000007, 26.089354897000078], [84.20984587700008, 26.090408624000077], [84.21019859200004, 26.091383411000038], [84.21022444800008, 26.092164359000037], [84.20908063300004, 26.092455864000044], [84.20824442500003, 26.092362552000054], [84.20680581900007, 26.09245924000004], [84.20646229300007, 26.09272905200004], [84.20695391000004, 26.093786979000072], [84.20716903500005, 26.09447594100004], [84.20744771900007, 26.09539456300007], [84.20860784200005, 26.095594920000053], [84.20931308700006, 26.095604793000064], [84.21014825700007, 26.095669137000073], [84.21047704600005, 26.09592081200003], [84.21075136000007, 26.096463494000034], [84.21118576000003, 26.097001763000037], [84.212011, 26.097732230000076], [84.21294327500004, 26.097822837000024], [84.21371824000005, 26.098004567000032], [84.21433801400008, 26.098335254000062], [84.21509453200008, 26.098922791000064], [84.21558044800008, 26.09908333000004], [84.21645059800005, 26.099233484000024], [84.21718986400003, 26.09930038300007], [84.21806087700008, 26.099479495000026], [84.21868162800007, 26.099839037000038], [84.21912279400004, 26.100579851000077], [84.21946217000004, 26.101149657000065], [84.21974037300004, 26.101807996000048], [84.22023878400006, 26.102344508000044], [84.22081413800004, 26.10230004600004], [84.22096615500004, 26.10301968500005], [84.22078944600008, 26.10348767000005], [84.22087750800006, 26.104209039000068], [84.22136043900008, 26.103790658000037], [84.22233367200005, 26.103185341000028], [84.22331650300004, 26.102869294000072], [84.22433044400003, 26.10252331600003]]]]}}, {"type": "Feature", "properties": {"OBJECTID": 1887, "GPCODE": "98723", "GPNAME_1": "BALIA", "DIST_CEN_C": "16", "BLK_NAME": "ANDAR", "ST_NAME": "BIHAR", "ST_CODE_1": null, "GPCODE2011": "101210", "REMARKS": null, "MAP_STATUS": null, "BLK_C_2001": "160015", "BLK_C_2011": "01243", "DIST_NAME": "SIWAN", "code2011": 0.0, "Shape_Leng": 0.19578434815, "Shape_Area": 0.00063416531, "Area": 7.03361}, "geometry": {"type": "MultiPolygon", "coordinates": [[[[84.30039715100008, 26.122851827000034], [84.30195943600006, 26.122550795000052], [84.30425298800003, 26.122701250000034], [84.30606050300008, 26.122356598000067], [84.30733388000004, 26.121927181000046], [84.30723920400004, 26.12126319300006], [84.30661311200004, 26.120157935000066], [84.30627993800005, 26.119320969000057], [84.30610857100004, 26.11636845700008], [84.30577822000004, 26.115174961000037], [84.30569526000005, 26.113062484000068], [84.30610835100003, 26.110799734000068], [84.30561663100008, 26.11101762100003], [84.30408912900003, 26.112609718000044], [84.30203647000008, 26.112993325000048], [84.30130522200005, 26.113164513000072], [84.30100638600004, 26.113645347000045], [84.29993019900007, 26.114432543000078], [84.29880191900008, 26.114867385000025], [84.29763175400007, 26.114904773000035], [84.29675523400005, 26.11511555800007], [84.29626714100004, 26.114895691000072], [84.29558657200005, 26.114358726000034], [84.29496029300003, 26.113916807000066], [84.29413122600005, 26.11382108600003], [84.29339243100003, 26.114303519000032], [84.29214031200007, 26.11457955700007], [84.28994118800006, 26.115138030000026], [84.28701144000007, 26.11578189000005], [84.28607759700003, 26.116258510000023], [84.28519917300008, 26.116694856000038], [84.28427804400008, 26.115628168000057], [84.28317642200005, 26.113418582000065], [84.28226545400008, 26.111738286000048], [84.28045655900007, 26.11225407300003], [84.27747218600007, 26.11285222600003], [84.27610639400007, 26.112973872000055], [84.27542359900008, 26.113325746000044], [84.27483852500006, 26.112748710000062], [84.27416373800008, 26.11212590300005], [84.27372792400007, 26.11164012100005], [84.27309341900008, 26.111590682000042], [84.27322923600008, 26.11269265800007], [84.27283310300004, 26.113439133000043], [84.27214523100008, 26.11440471900005], [84.27194367500005, 26.115193076000025], [84.27116098300007, 26.11553974900005], [84.27061811200008, 26.115888046000066], [84.27112647200005, 26.117276907000075], [84.27145705100008, 26.11780708200007], [84.27169402700008, 26.118160722000027], [84.27213133100008, 26.118475009000065], [84.27232376300003, 26.118783206000046], [84.27290865600008, 26.118787162000046], [84.27374253600004, 26.118309956000076], [84.27481912800005, 26.118096123000043], [84.27613422700006, 26.118059906000042], [84.27749865600003, 26.118114266000077], [84.27857303700006, 26.118162119000033], [84.27925974100003, 26.117950110000038], [84.27955115600008, 26.117776089000074], [84.28004216200009, 26.117643991000023], [84.28048132000004, 26.117737231000035], [84.28061679200005, 26.118884395000066], [84.28074907100006, 26.120424076000063], [84.28211718700004, 26.120036167000023], [84.28392618300006, 26.119520272000045], [84.28568545900004, 26.119577250000077], [84.28797217400006, 26.119944502000067], [84.28982680300004, 26.119956846000036], [84.29159294500005, 26.119797105000032], [84.29281229600008, 26.11985035300006], [84.29295372800004, 26.120289052000032], [84.29344400400004, 26.12024712500005], [84.29408037000007, 26.120075366000037], [84.29490978900003, 26.120125982000047], [84.29549257600007, 26.120396165000045], [84.29621850900008, 26.120883838000054], [84.29743261400006, 26.121595788000036], [84.29889095000004, 26.122399660000042], [84.30039715100008, 26.122851827000034]]], [[[84.29605220900004, 26.14507538600003], [84.29727329700006, 26.14495259200004], [84.29771117100006, 26.145221785000047], [84.29830365000004, 26.144300518000023], [84.29841656800005, 26.142094619000034], [84.29937323400009, 26.138797622000027], [84.30051177700005, 26.13651716000004], [84.30139846500003, 26.135683664000055], [84.30167089400004, 26.13600581700007], [84.30250011200008, 26.136101496000038], [84.30294580500004, 26.135400435000065], [84.30378388200006, 26.13439064100004], [84.30535197200004, 26.133390062000046], [84.30638183200006, 26.13277852600004], [84.30726136500004, 26.132211166000047], [84.30746808300006, 26.131373204000056], [84.30732230700005, 26.130844264000075], [84.30917755600007, 26.130815778000056], [84.30958192900005, 26.129008765000037], [84.30960692600007, 26.12588160400003], [84.30974601300005, 26.125377099000048], [84.30940704300008, 26.124625802000025], [84.30882701100006, 26.12400825900005], [84.30883725100006, 26.12273119100007], [84.30830409000004, 26.12250662400004], [84.30771780100008, 26.122678808000046], [84.30625021200007, 26.123021185000027], [84.30434162800003, 26.123491492000028], [84.30209979600005, 26.123743087000037], [84.29990585000007, 26.123638356000072], [84.29853712700003, 26.123498441000038], [84.29804895300003, 26.123892354000077], [84.29788654200007, 26.126048386000036], [84.29680445900004, 26.126921210000035], [84.29460152600006, 26.127921970000045], [84.29254528000007, 26.12870257000003], [84.29074012700005, 26.128731137000045], [84.29070148200003, 26.127954704000047], [84.29041159800005, 26.12733454800008], [84.28865892900006, 26.12705665200008], [84.28738475800003, 26.12758063600006], [84.28532993300007, 26.12818062300005], [84.28328003300004, 26.128785141000037], [84.28210447400005, 26.12886295900006], [84.28209506200005, 26.130009118000032], [84.28256687900006, 26.132214436000027], [84.28216091100006, 26.13415218500006], [84.28139566300007, 26.135997263000036], [84.28192449500006, 26.136749936000058], [84.28265546700004, 26.137237713000047], [84.28304331000004, 26.137506572000063], [84.28454927200005, 26.137999575000038], [84.28468156600007, 26.13954374000008], [84.28447426000008, 26.141040627000052], [84.28383379500008, 26.142313432000037], [84.28367254300008, 26.14367965400004], [84.28370516900003, 26.146405566000055], [84.28437007600007, 26.147641983000028], [84.28484597500005, 26.14874627300003], [84.28552882100007, 26.149017057000037], [84.28655973800005, 26.14831553700003], [84.28759199400008, 26.147442426000055], [84.28862142900005, 26.146921314000053], [84.29042756500007, 26.146802468000033], [84.29169339300006, 26.146720639000023], [84.29296877500008, 26.146070331000033], [84.29355632700003, 26.14576279700003], [84.29433785100008, 26.145592020000038], [84.29605220900004, 26.14507538600003]]]]}}, {"type": "Feature", "properties": {"OBJECTID": 1888, "GPCODE": "98725", "GPNAME_1": "JAIJOR", "DIST_CEN_C": "16", "BLK_NAME": "ANDAR", "ST_NAME": "BIHAR", "ST_CODE_1": null, "GPCODE2011": "101211", "REMARKS": null, "MAP_STATUS": null, "BLK_C_2001": "160015", "BLK_C_2011": "01243", "DIST_NAME": "SIWAN", "code2011": 0.0, "Shape_Leng": 0.15800686538, "Shape_Area": 0.00095071426, "Area": 10.5484}, "geometry": {"type": "MultiPolygon", "coordinates": [[[[84.24633269600008, 26.10360529600007], [84.24712339800004, 26.103294235000078], [84.24792355800008, 26.103275581000048], [84.24827967600004, 26.10319823900005], [84.25052856400004, 26.102681327000028], [84.25325762200004, 26.102700277000054], [84.25572093900007, 26.10281653000004], [84.25563679400005, 26.10153890400005], [84.25549813900005, 26.100788833000024], [84.25691233000003, 26.10084366800004], [84.25895354600004, 26.100632054000073], [84.26212425600005, 26.100432726000065], [84.26709503600006, 26.10077350100005], [84.27045327400003, 26.10145976900003], [84.27205946300006, 26.10186777900003], [84.27240100500006, 26.102267245000064], [84.27282725900005, 26.10271233900005], [84.27390372000008, 26.102498510000032], [84.27639407900006, 26.101766240000075], [84.27859239800006, 26.10129816400007], [84.27927933100005, 26.101041138000028], [84.27870427300007, 26.099845823000067], [84.27837142800007, 26.098390491000032], [84.27804873500008, 26.096303517000024], [84.27766611400006, 26.095434428000033], [84.27738604100006, 26.09424123200006], [84.27700600900005, 26.093051786000046], [84.27686591800006, 26.091859443000033], [84.27658764600005, 26.09044963300005], [84.27712350900003, 26.09031787300006], [84.27844193900006, 26.089843907000045], [84.27841211100008, 26.089220907000026], [84.27793098500007, 26.088779998000064], [84.27646664700006, 26.088770079000028], [84.27589645900008, 26.087001781000026], [84.27580234000004, 26.086297157000047], [84.27649061400007, 26.08586403700008], [84.27736817000005, 26.085513434000063], [84.27690009200006, 26.08348408200004], [84.27661542400006, 26.082250228000078], [84.27614084800007, 26.081015044000026], [84.27604531000009, 26.080486337000025], [84.27448901000008, 26.080123848000028], [84.27233356600004, 26.080899031000058], [84.27047363700007, 26.081594857000027], [84.26949327800008, 26.082292175000077], [84.26680200500005, 26.081384892000074], [84.26200956700006, 26.08312561200006], [84.26100527900007, 26.082496004000063], [84.25964027100008, 26.082576909000068], [84.25791386500003, 26.08283130600006], [84.25691484100008, 26.081587926000054], [84.25615374800003, 26.079380506000064], [84.25480733000006, 26.07725927000007], [84.25443464300008, 26.07523046700004], [84.25375756800008, 26.074341272000026], [84.25346638100007, 26.073901548000038], [84.25298244300006, 26.073807982000062], [84.25092616300003, 26.074678279000068], [84.24792170000006, 26.075558358000023], [84.24633772900006, 26.07592839800003], [84.24429783100004, 26.076244470000063], [84.24369256500006, 26.076347820000024], [84.24347435300007, 26.076527428000077], [84.24324342400007, 26.07680877000007], [84.24301251200006, 26.07709009000007], [84.24261760300004, 26.077737719000027], [84.24217624800008, 26.07795238500006], [84.24134503900007, 26.078003980000062], [84.24095442500004, 26.078303960000028], [84.24023658800007, 26.078873572000077], [84.23963709000003, 26.079150420000076], [84.23897354500008, 26.079429006000055], [84.23842941200007, 26.079443792000063], [84.23765538900005, 26.079291150000074], [84.23697555600006, 26.07907796300003], [84.23557092200008, 26.079231982000067], [84.23479989200007, 26.07916603500007], [84.23463820600006, 26.08056016000006], [84.23485346200005, 26.081249183000068], [84.23505705600007, 26.081590997000035], [84.23554293400008, 26.081751568000072], [84.23606570200008, 26.082055815000047], [84.23617328000006, 26.082400235000023], [84.23592972100005, 26.082783274000064], [84.23555238400007, 26.082996181000055], [84.23550856400004, 26.083605264000028], [84.23555701700008, 26.08409615200003], [84.23583044800006, 26.084609831000023], [84.23608943100004, 26.084689680000054], [84.23759872200003, 26.084793459000025], [84.23771980200007, 26.085542833000034], [84.23808541200003, 26.085938224000074], [84.23814341200006, 26.086718302000065], [84.23788426100003, 26.087593876000028], [84.23710616200003, 26.088280885000074], [84.23641280600003, 26.089110266000034], [84.23581596100007, 26.090429226000026], [84.23483326000007, 26.090745446000028], [84.23362257000008, 26.090951975000053], [84.23361274400008, 26.09161811200005], [84.23380450100007, 26.092568319000065], [84.23356187300004, 26.092980132000037], [84.23315349100005, 26.09322286400004], [84.23306871400007, 26.094527912000046], [84.23337317200009, 26.095011851000038], [84.23408140800007, 26.095108410000023], [84.23488075600005, 26.095057723000025], [84.23561605200007, 26.095008863000032], [84.23677717800007, 26.095237884000028], [84.23745912300006, 26.09550881100006], [84.23773065900008, 26.095964645000038], [84.23780215700003, 26.09714967000008], [84.23807257000004, 26.098531949000062], [84.23767853500004, 26.099208520000047], [84.23727582100008, 26.09962477600004], [84.23676165100005, 26.099580850000052], [84.23598857100006, 26.099457072000064], [84.23564701500004, 26.099784783000075], [84.23568121000005, 26.100333942000077], [84.23588947600007, 26.101775798000062], [84.23598426600006, 26.102699638000047], [84.23574740900006, 26.103285053000036], [84.23637304700009, 26.103789162000055], [84.23692788600005, 26.104092533000028], [84.23718787100006, 26.104201251000063], [84.23747608100007, 26.104193424000073], [84.23782728500004, 26.104154986000026], [84.23842883300006, 26.103935988000046], [84.23912737900008, 26.10374334200003], [84.23998794300007, 26.103604087000065], [84.24072232100008, 26.103526239000075], [84.24101139400005, 26.103547372000037], [84.24143533300008, 26.10376740600003], [84.24201937100008, 26.103983177000032], [84.24289537500005, 26.10430669300007], [84.24344540700008, 26.104465494000067], [84.24433988300007, 26.104383275000032], [84.24493852200004, 26.104077450000034], [84.24556624100006, 26.103684043000044], [84.24633269600008, 26.10360529600007]]]]}}, {"type": "Feature", "properties": {"OBJECTID": 1889, "GPCODE": "98726", "GPNAME_1": "JAMALPUR", "DIST_CEN_C": "16", "BLK_NAME": "ANDAR", "ST_NAME": "BIHAR", "ST_CODE_1": null, "GPCODE2011": "101212", "REMARKS": null, "MAP_STATUS": null, "BLK_C_2001": "160015", "BLK_C_2011": "01243", "DIST_NAME": "SIWAN", "code2011": 0.0, "Shape_Leng": 0.12565993817, "Shape_Area": 0.00036580287, "Area": 4.05793}, "geometry": {"type": "MultiPolygon", "coordinates": [[[[84.29339243100003, 26.114303519000032], [84.29413122600005, 26.11382108600003], [84.29496029300003, 26.113916807000066], [84.29558657200005, 26.114358726000034], [84.29626714100004, 26.114895691000072], [84.29675523400005, 26.11511555800007], [84.29763175400007, 26.114904773000035], [84.29880191900008, 26.114867385000025], [84.29993019900007, 26.114432543000078], [84.30100638600004, 26.113645347000045], [84.30130522200005, 26.113164513000072], [84.30203647000008, 26.112993325000048], [84.30408912900003, 26.112609718000044], [84.30561663100008, 26.11101762100003], [84.30503039200005, 26.111189796000076], [84.30434878100004, 26.110788186000036], [84.30386309900007, 26.11025701500006], [84.30318646700005, 26.109237250000035], [84.30236306400008, 26.108437627000058], [84.30080386500003, 26.10776393900005], [84.30075677900004, 26.107411639000077], [84.30012865700007, 26.106568150000044], [84.29891262300004, 26.106117925000035], [84.29803642100006, 26.105669834000025], [84.29779398900007, 26.105361384000048], [84.29774943700005, 26.10469775200005], [84.29700922100005, 26.10412874800005], [84.29543968000007, 26.10473660100007], [84.29450965300003, 26.105389328000058], [84.29425643000008, 26.106402975000037], [84.29386374600006, 26.106752378000067], [84.29269116900008, 26.10709654900006], [84.29176639600007, 26.107090421000066], [84.29005626500003, 26.107164786000055], [84.28863876900004, 26.107507377000047], [84.28751732500007, 26.107720979000078], [84.28472621800006, 26.10854175000003], [84.28316302200005, 26.108969005000063], [84.28268587900004, 26.108022644000073], [84.28206341200007, 26.106520240000066], [84.28171958100006, 26.106387023000025], [84.28138116400004, 26.106208743000025], [84.28075903800004, 26.104661226000076], [84.28028433800006, 26.103426076000062], [84.27980287000008, 26.102407483000036], [84.27956080200005, 26.10205380700006], [84.27927933100005, 26.101041138000028], [84.27859239800006, 26.10129816400007], [84.27639407900006, 26.101766240000075], [84.27390372000008, 26.102498510000032], [84.27282725900005, 26.10271233900005], [84.27240100500006, 26.102267245000064], [84.27205946300006, 26.10186777900003], [84.27045327400003, 26.10145976900003], [84.26709503600006, 26.10077350100005], [84.26212425600005, 26.100432726000065], [84.25895354600004, 26.100632054000073], [84.25691233000003, 26.10084366800004], [84.25549813900005, 26.100788833000024], [84.25563679400005, 26.10153890400005], [84.25572093900007, 26.10281653000004], [84.25595736800005, 26.103828991000057], [84.25569606700003, 26.10576763800003], [84.25631377500008, 26.107798176000074], [84.25763666100005, 26.107410145000074], [84.25880601900008, 26.10746327100003], [84.26046669100003, 26.10733933700004], [84.26261696800003, 26.106650081000055], [84.26428012400004, 26.106223705000048], [84.26520707000003, 26.105963773000042], [84.26666873900007, 26.10632581400006], [84.26788423900007, 26.10682139900007], [84.26890496000004, 26.107311259000028], [84.26986341200006, 26.108062353000037], [84.27034778300003, 26.108729045000075], [84.27126522700007, 26.10961525500005], [84.27233040400006, 26.11076872900003], [84.27309341900008, 26.111590682000042], [84.27372792400007, 26.11164012100005], [84.27416373800008, 26.11212590300005], [84.27483852500006, 26.112748710000062], [84.27542359900008, 26.113325746000044], [84.27610639400007, 26.112973872000055], [84.27747218600007, 26.11285222600003], [84.28045655900007, 26.11225407300003], [84.28226545400008, 26.111738286000048], [84.28317642200005, 26.113418582000065], [84.28427804400008, 26.115628168000057], [84.28519917300008, 26.116694856000038], [84.28607759700003, 26.116258510000023], [84.28701144000007, 26.11578189000005], [84.28994118800006, 26.115138030000026], [84.29214031200007, 26.11457955700007], [84.29339243100003, 26.114303519000032]]]]}}, {"type": "Feature", "properties": {"OBJECTID": 1890, "GPCODE": "98727", "GPNAME_1": "KHERHAI", "DIST_CEN_C": "16", "BLK_NAME": "ANDAR", "ST_NAME": "BIHAR", "ST_CODE_1": null, "GPCODE2011": "101213", "REMARKS": null, "MAP_STATUS": null, "BLK_C_2001": "160015", "BLK_C_2011": "01243", "DIST_NAME": "SIWAN", "code2011": 0.0, "Shape_Leng": 0.13774210055, "Shape_Area": 0.00079658489, "Area": 8.83658}, "geometry": {"type": "MultiPolygon", "coordinates": [[[[84.23998451000006, 26.132091197000022], [84.24029719700007, 26.130895767000027], [84.24053408500004, 26.13031035700004], [84.24103390700003, 26.129920456000036], [84.24177036600008, 26.12990044000003], [84.24288535500006, 26.12969637300006], [84.24390815000004, 26.129610674000048], [84.24480956200006, 26.129730925000047], [84.24596232800008, 26.129699565000067], [84.24690945300006, 26.129268483000033], [84.24792049600006, 26.128910570000073], [84.24928150000005, 26.12821907500006], [84.24971351400006, 26.128574060000062], [84.25005317200004, 26.129194679000022], [84.25058324600008, 26.12977145600007], [84.25131611100005, 26.129424503000052], [84.25214868800003, 26.129123422000077], [84.25230079800008, 26.12828509700006], [84.25246349300005, 26.126787990000025], [84.25300813100006, 26.12564556600006], [84.25307158300006, 26.124062072000072], [84.25341677100005, 26.123446168000044], [84.25444605300004, 26.12292536700005], [84.25446139500008, 26.12112036900004], [84.25408080000005, 26.120016686000042], [84.25301167900005, 26.11992802700007], [84.25257398700006, 26.119658703000027], [84.25233352000004, 26.119129072000078], [84.25169898500008, 26.11907954700007], [84.25121241300008, 26.118683625000074], [84.25048671800005, 26.118191230000036], [84.24927031600004, 26.117785638000043], [84.24792182400006, 26.11799703300005], [84.24754611100008, 26.118105460000038], [84.24745219300007, 26.117210603000046], [84.24735334000007, 26.116171019000035], [84.24720878800008, 26.115682852000077], [84.24715941500006, 26.115163104000032], [84.24714694900007, 26.113831723000033], [84.24720058700007, 26.113279904000024], [84.24792241400007, 26.113132972000074], [84.25015420700004, 26.112020071000074], [84.25156756300004, 26.111592081000026], [84.25264456200006, 26.11133329200004], [84.25426043100003, 26.110599911000065], [84.25552479900006, 26.11064927500007], [84.25664691900005, 26.11096830300005], [84.25643625600009, 26.109861270000067], [84.25625610500003, 26.108700301000056], [84.25631377500008, 26.107798176000074], [84.25569606700003, 26.10576763800003], [84.25595736800005, 26.103828991000057], [84.25572093900007, 26.10281653000004], [84.25325762200004, 26.102700277000054], [84.25052856400004, 26.102681327000028], [84.24827967600004, 26.10319823900005], [84.24792355800008, 26.103275581000048], [84.24712339800004, 26.103294235000078], [84.24633269600008, 26.10360529600007], [84.24556624100006, 26.103684043000044], [84.24493852200004, 26.104077450000034], [84.24433988300007, 26.104383275000032], [84.24344540700008, 26.104465494000067], [84.24289537500005, 26.10430669300007], [84.24201937100008, 26.103983177000032], [84.24143533300008, 26.10376740600003], [84.24101139400005, 26.103547372000037], [84.24072232100008, 26.103526239000075], [84.23998794300007, 26.103604087000065], [84.23912737900008, 26.10374334200003], [84.23842883300006, 26.103935988000046], [84.23782728500004, 26.104154986000026], [84.23747608100007, 26.104193424000073], [84.23718787100006, 26.104201251000063], [84.23692788600005, 26.104092533000028], [84.23637304700009, 26.103789162000055], [84.23574740900006, 26.103285053000036], [84.23510674800008, 26.102810248000026], [84.23462175500003, 26.102678643000047], [84.23423751300004, 26.102689071000043], [84.23292585800004, 26.102753561000043], [84.23190144900008, 26.102781350000043], [84.23068679500005, 26.10287227300006], [84.23008834900008, 26.102222635000032], [84.22930457500007, 26.10178067700008], [84.22855769600005, 26.101482485000076], [84.22798138900004, 26.10149810300004], [84.22670759000005, 26.101735183000073], [84.22540075100005, 26.101944340000045], [84.22433044400003, 26.10252331600003], [84.22331650300004, 26.102869294000072], [84.22233367200005, 26.103185341000028], [84.22136043900008, 26.103790658000037], [84.22087750800006, 26.104209039000068], [84.22088863500005, 26.105511471000057], [84.22125395900008, 26.106862208000052], [84.22175211200005, 26.108354117000033], [84.22223106700005, 26.10926756300006], [84.22314164600004, 26.110632527000064], [84.22345844600005, 26.11172429900006], [84.22403251000009, 26.112606265000068], [84.22446894600006, 26.11320241800007], [84.22469755300006, 26.114296298000056], [84.22481255700006, 26.115827554000077], [84.22531847600004, 26.117550787000027], [84.22554710100007, 26.11864475300007], [84.22579303300006, 26.120259245000057], [84.22593619300005, 26.121673954000073], [84.22603391000007, 26.12268449100003], [84.22604316900004, 26.12537664000007], [84.22595622300008, 26.12757920200005], [84.22670132600007, 26.12781956500004], [84.22641954300008, 26.128985233000037], [84.22625521600008, 26.12982919700005], [84.22581724400004, 26.131114867000065], [84.22530461200006, 26.132084035000048], [84.22575675900003, 26.132187568000063], [84.22681734000008, 26.132274622000068], [84.22793237700006, 26.13207075400004], [84.22847491400006, 26.131998167000063], [84.22896289700003, 26.13221649600007], [84.22958865400005, 26.132720713000026], [84.22976321900006, 26.13315018700007], [84.23016381500008, 26.13363151300007], [84.23093238500007, 26.13361067900007], [84.23182043200006, 26.133325968000065], [84.23332259300008, 26.133198442000037], [84.23520522800004, 26.13294470900007], [84.23642305900006, 26.132940552000036], [84.23766323500007, 26.132646340000065], [84.23828487200007, 26.132542673000046], [84.23907577600005, 26.132231752000052], [84.23965029300007, 26.13215825700007], [84.23998451000006, 26.132091197000022]]]]}}, {"type": "Feature", "properties": {"OBJECTID": 1891, "GPCODE": "98728", "GPNAME_1": "MANPUR PATEJI", "DIST_CEN_C": "16", "BLK_NAME": "ANDAR", "ST_NAME": "BIHAR", "ST_CODE_1": null, "GPCODE2011": "101214", "REMARKS": null, "MAP_STATUS": null, "BLK_C_2001": "160015", "BLK_C_2011": "01243", "DIST_NAME": "SIWAN", "code2011": 0.0, "Shape_Leng": 0.1845288986, "Shape_Area": 0.00092559868, "Area": 10.2724}, "geometry": {"type": "MultiPolygon", "coordinates": [[[[84.21382398600008, 26.080892153000036], [84.21500551400004, 26.08077335100006], [84.21587266300008, 26.080836798000064], [84.21647083400006, 26.081486504000054], [84.21690616700005, 26.08205372900005], [84.21764437300004, 26.08209166100005], [84.21927489400008, 26.08198967800007], [84.21991324200008, 26.081914521000044], [84.22121796400006, 26.08164756800005], [84.22186749400004, 26.081427329000064], [84.22191607600007, 26.080962801000055], [84.22199384900006, 26.08041060200003], [84.22236650000008, 26.080053083000053], [84.22280405500004, 26.079722797000045], [84.22349961000003, 26.079443414000025], [84.22416511000006, 26.079222732000062], [84.22533882400006, 26.078872501000035], [84.22657379400005, 26.078433721000067], [84.22784254800007, 26.078051904000063], [84.22901346000003, 26.077614931000028], [84.23049764400008, 26.076966699000025], [84.23175492600006, 26.076237819000028], [84.23101321900003, 26.07512884500005], [84.23014343800008, 26.074023340000053], [84.22879072300003, 26.072844042000042], [84.22864639300008, 26.072355839000068], [84.22853210800008, 26.071808839000028], [84.22860684500006, 26.071647591000044], [84.22868158300008, 26.07148634200007], [84.22978155100003, 26.070848528000056], [84.23051007700008, 26.070597208000038], [84.23149070900007, 26.070223171000066], [84.23262272300008, 26.069584466000038], [84.23358361100009, 26.069095262000076], [84.23357205700006, 26.068748139000036], [84.23331042300003, 26.067626231000077], [84.23263953000009, 26.066718001000027], [84.23198425200007, 26.065317133000065], [84.23171590000004, 26.06399264600003], [84.23151458000007, 26.062753221000037], [84.23165847500007, 26.061301765000053], [84.23212117200006, 26.06076809800004], [84.23265570400008, 26.060464137000054], [84.23354987700003, 26.06038197600003], [84.23463509100003, 26.06026563200004], [84.23563018200008, 26.06032549400004], [84.23636142200007, 26.060160859000064], [84.23772703400005, 26.059805312000037], [84.24017398300003, 26.05921769200006], [84.24135239000003, 26.05901188400003], [84.24162473300004, 26.058772781000073], [84.24189698100008, 26.058533758000067], [84.24124261000009, 26.057161886000074], [84.24051361200009, 26.055473590000076], [84.23991462600003, 26.05383964500004], [84.23927485000007, 26.051932074000035], [84.23870391400004, 26.051151192000077], [84.23773999400004, 26.051061512000047], [84.23665197100007, 26.051091074000055], [84.23598086100003, 26.051138296000033], [84.23471488900003, 26.05160718600007], [84.23443845400004, 26.051962134000064], [84.23232535600005, 26.05199050300007], [84.23104138000008, 26.05190956000007], [84.22938303700005, 26.052128309000068], [84.22833081300007, 26.052272624000068], [84.22729108200008, 26.052792934000024], [84.22628331000004, 26.053312462000065], [84.22516896100007, 26.053516330000036], [84.22431160000008, 26.05374222100005], [84.22329132200008, 26.053885637000064], [84.22234179600008, 26.054229795000026], [84.22219175200007, 26.053568061000078], [84.22207367300007, 26.052905370000076], [84.22124251400004, 26.052956769000048], [84.22076252500005, 26.052969760000053], [84.22060124300003, 26.053900662000046], [84.22038869600004, 26.054253853000034], [84.21994834300006, 26.054497334000075], [84.21924428200003, 26.054516384000067], [84.21827268100003, 26.05419531900003], [84.21721946700006, 26.054310593000025], [84.21604116600008, 26.05451621700007], [84.21460864100004, 26.054786501000024], [84.21378523600004, 26.055069307000053], [84.21322925700008, 26.055692323000073], [84.21210720500005, 26.055664740000054], [84.21179526200007, 26.054949388000068], [84.21157836200007, 26.054202476000057], [84.21087179700004, 26.053179330000034], [84.21049583400008, 26.052465702000063], [84.21027320300004, 26.05154526900003], [84.20992328000006, 26.050165048000054], [84.20945229500006, 26.049482974000057], [84.20933237100007, 26.048762431000057], [84.20918410300004, 26.048158251000075], [84.20860612100006, 26.04811595800004], [84.20758118800006, 26.04811462300006], [84.20693152500007, 26.047842693000064], [84.20673092800007, 26.047587547000035], [84.20636074300006, 26.047047426000063], [84.20621078800008, 26.046385582000028], [84.20621597100006, 26.04557477700007], [84.20604593800005, 26.044305566000048], [84.20579511300008, 26.043501665000065], [84.20546264500007, 26.04313429000007], [84.20510777600003, 26.04305697700005], [84.20456570600004, 26.043129485000065], [84.20386457500007, 26.04323527100007], [84.20286912800003, 26.043637983000053], [84.20251911300005, 26.04419798400005], [84.20231714300007, 26.044869317000064], [84.20234007400006, 26.045563488000028], [84.20215217200007, 26.04617655000004], [84.20156134400008, 26.04671358400003], [84.20074082900004, 26.047083128000054], [84.19978556400008, 26.047253632000036], [84.19899700100007, 26.047622214000057], [84.19856512300004, 26.048126056000058], [84.19829241300005, 26.04859662000007], [84.19796998700008, 26.049502752000024], [84.19777562200005, 26.050405527000066], [84.19743982500006, 26.050906686000076], [84.19739679000008, 26.051544739000065], [84.19747514000005, 26.051976952000075], [84.19780464200005, 26.05225753800005], [84.19838646000005, 26.052415642000028], [84.19912629600003, 26.05251150500004], [84.19996414300005, 26.052662617000067], [84.20081430900007, 26.053189823000025], [84.20147354100004, 26.053751067000064], [84.20235047900007, 26.055088201000046], [84.20279234900005, 26.055857961000072], [84.20353178400006, 26.05690915400004], [84.20502927600006, 26.058605881000062], [84.20610395400007, 26.059619122000072], [84.20674129900004, 26.061454808000065], [84.20721805600004, 26.06231049300004], [84.20776651200003, 26.063395806000074], [84.20873346100007, 26.065512131000048], [84.20919837800005, 26.066976026000077], [84.20948937400004, 26.068994709000037], [84.20851921500008, 26.069686767000064], [84.20785565000006, 26.069965223000054], [84.20672924700006, 26.07077726400007], [84.20596105300007, 26.070797980000066], [84.20439365100003, 26.07086922900004], [84.20279618800004, 26.07099916100003], [84.20197350400008, 26.071310777000065], [84.20162274200004, 26.07184133100003], [84.20168051200005, 26.072621431000073], [84.20212912900007, 26.073593664000043], [84.20240855800006, 26.075265226000056], [84.20217542200004, 26.07596637200004], [84.20104033100006, 26.07651804900007], [84.19925458100005, 26.07676879400003], [84.19819639100007, 26.076739387000032], [84.19687200200008, 26.077382917000023], [84.19605604800006, 26.077897070000063], [84.19535317700007, 26.07892927900008], [84.19529777500009, 26.07919129000004], [84.19529776700006, 26.079191327000046], [84.19524236100006, 26.07945336000006], [84.19550023600004, 26.081443945000046], [84.19597115900007, 26.084065766000037], [84.19668493300009, 26.084336105000034], [84.19792578300007, 26.08407106800007], [84.19932373200004, 26.083715003000066], [84.20072358300007, 26.08341676400005], [84.20186733900005, 26.083125411000026], [84.20384627300007, 26.082898425000053], [84.20550506100005, 26.082679952000035], [84.20639749500003, 26.08254011100007], [84.20859085200004, 26.082017740000026], [84.21064031500003, 26.081499223000037], [84.21273665900009, 26.08095042000008], [84.21382398600008, 26.080892153000036]]]]}}, {"type": "Feature", "properties": {"OBJECTID": 1892, "GPCODE": "98730", "GPNAME_1": "PATAR", "DIST_CEN_C": "16", "BLK_NAME": "ANDAR", "ST_NAME": "BIHAR", "ST_CODE_1": null, "GPCODE2011": "101215", "REMARKS": null, "MAP_STATUS": null, "BLK_C_2001": "160015", "BLK_C_2011": "01243", "DIST_NAME": "SIWAN", "code2011": 0.0, "Shape_Leng": 0.23828125786, "Shape_Area": 0.00216719971, "Area": 24.061}, "geometry": {"type": "MultiPolygon", "coordinates": [[[[84.21721946700006, 26.054310593000025], [84.21827268100003, 26.05419531900003], [84.21924428200003, 26.054516384000067], [84.21994834300006, 26.054497334000075], [84.22038869600004, 26.054253853000034], [84.22060124300003, 26.053900662000046], [84.22076252500005, 26.052969760000053], [84.22124251400004, 26.052956769000048], [84.22207367300007, 26.052905370000076], [84.22219175200007, 26.053568061000078], [84.22234179600008, 26.054229795000026], [84.22329132200008, 26.053885637000064], [84.22431160000008, 26.05374222100005], [84.22516896100007, 26.053516330000036], [84.22628331000004, 26.053312462000065], [84.22729108200008, 26.052792934000024], [84.22833081300007, 26.052272624000068], [84.22938303700005, 26.052128309000068], [84.23104138000008, 26.05190956000007], [84.23232535600005, 26.05199050300007], [84.23443845400004, 26.051962134000064], [84.23471488900003, 26.05160718600007], [84.23598086100003, 26.051138296000033], [84.23578904800007, 26.050188064000054], [84.23579703600006, 26.049464063000073], [84.23600365300007, 26.048937334000072], [84.23652453700004, 26.048228392000055], [84.23710077200008, 26.04725729200004], [84.23728090300006, 26.046412829000076], [84.23707542900007, 26.046013077000055], [84.23661009200003, 26.04550460100006], [84.23623882500004, 26.044935676000023], [84.23535361400008, 26.04432281800007], [84.23468860500003, 26.043588099000033], [84.23458510200004, 26.042403894000074], [84.23432832500004, 26.041426519000026], [84.23414328100006, 26.040678855000067], [84.23369848700008, 26.039822367000056], [84.23351825900005, 26.039219255000035], [84.23315183600005, 26.03879496600007], [84.23266313900007, 26.03854767100006], [84.23192624300003, 26.038538680000045], [84.23103895700007, 26.038823318000027], [84.23075089400004, 26.038831134000077], [84.23042231500006, 26.03857948800004], [84.22992112200006, 26.037956179000048], [84.22974476100006, 26.037468742000044], [84.22941641800008, 26.036261729000046], [84.22920160100006, 26.03461730500004], [84.22874329900003, 26.033355828000026], [84.22832814000003, 26.031948403000058], [84.22765362600006, 26.03092444600003], [84.22664566700007, 26.029504185000064], [84.22654128800008, 26.028290997000056], [84.22764892600009, 26.026929164000023], [84.22808340300008, 26.02651213400003], [84.22800218400005, 26.02599321100007], [84.22753877700006, 26.025542544000075], [84.22661793900005, 26.02481472000005], [84.22566383500003, 26.025014259000045], [84.22463610800008, 26.024926324000035], [84.22423299500008, 26.02435822800004], [84.22330834500008, 26.023514703000046], [84.22212006400008, 26.022446741000067], [84.22053245300003, 26.020926346000067], [84.21967762300005, 26.020254587000068], [84.21856674200006, 26.019589844000052], [84.21779694100007, 26.019552778000048], [84.21690687900008, 26.019750532000046], [84.21621067900008, 26.020001024000067], [84.21546579000005, 26.020715970000026], [84.21445736700008, 26.021206466000024], [84.21307249500006, 26.021938698000042], [84.21225408800007, 26.02236615100003], [84.21085397900003, 26.02263563300005], [84.21039648800007, 26.02235843300008], [84.20973355200005, 26.02168153100007], [84.20909837900007, 26.01990364100004], [84.20856349400003, 26.019223276000048], [84.20766272400004, 26.017162991000077], [84.20686323600006, 26.014289374000043], [84.20663420200003, 26.012211041000057], [84.20672015300005, 26.010934892000023], [84.20706194000007, 26.00965174600003], [84.20709152400008, 26.008608688000038], [84.20757662200003, 26.007784908000076], [84.20754219200006, 26.006743576000076], [84.20738357000005, 26.005821381000032], [84.20607804100007, 26.00313516600005], [84.20504378000004, 26.000904767000065], [84.20478536500008, 26.000376983000024], [84.20428841100005, 25.999361742000076], [84.20290764300006, 25.996329975000037], [84.20127666500008, 25.993478800000048], [84.19976803100008, 25.990450441000064], [84.19859676000004, 25.989039804000072], [84.19788583600007, 25.988784210000063], [84.19562336900003, 25.98925719400006], [84.19403232400003, 25.989368676000026], [84.19132589600008, 25.990196854000033], [84.18974613100005, 25.990651393000064], [84.18750617100005, 25.991810276000024], [84.18637074000003, 25.993076881000036], [84.18417994400005, 25.994577887000048], [84.181933, 25.99553088400006], [84.17943033300008, 25.995632337000075], [84.17686864000007, 25.996250388000078], [84.17499656300004, 25.997055914000043], [84.17265720400007, 25.999247344000025], [84.17160198700003, 26.00037610700008], [84.17137320900008, 26.000620796000078], [84.17013276600005, 26.00216481600006], [84.16967774400007, 26.003344326000047], [84.16918823200007, 26.00462784000007], [84.16885830900009, 26.006147490000046], [84.16840101400004, 26.00725839200004], [84.16790463200005, 26.00833609700004], [84.16793970800006, 26.01056701600004], [84.16986608600007, 26.011408189000065], [84.17118871000008, 26.012368485000025], [84.17256946200007, 26.01394534800005], [84.17559721100008, 26.018259229000023], [84.17722757800004, 26.02164905400008], [84.17884451300006, 26.024627253000062], [84.18054196100007, 26.027740592000043], [84.18110922800008, 26.028824040000075], [84.18191106300003, 26.030107267000062], [84.18314112500008, 26.030554986000027], [84.18535337300005, 26.030839014000037], [84.18752078700004, 26.03079122200006], [84.18951226900003, 26.030969386000038], [84.19100321600007, 26.031508330000065], [84.19302130200003, 26.032496313000024], [84.19505668800008, 26.034004924000044], [84.19653137600005, 26.035991825000053], [84.19678250600003, 26.037780079000072], [84.19681876500005, 26.03887922900003], [84.19651792200006, 26.039466334000053], [84.19500670700006, 26.040259771000024], [84.19430462800005, 26.040336548000028], [84.19367420200007, 26.04064296100006], [84.19323384800003, 26.04088646100007], [84.19286122900007, 26.041243922000035], [84.19282399500008, 26.042055496000046], [84.19337786100004, 26.043314491000046], [84.19392230300008, 26.044284188000063], [84.19472467400004, 26.04530483600007], [84.19545348800006, 26.046037909000063], [84.19623298500005, 26.046364376000042], [84.19763720600008, 26.046210802000076], [84.19885325500007, 26.04617806500005], [84.19942157400004, 26.045931104000033], [84.20017625200006, 26.04550554000008], [84.20079522100008, 26.04485187800003], [84.20179634500005, 26.044130117000066], [84.20286912800003, 26.043637983000053], [84.20386457500007, 26.04323527100007], [84.20456570600004, 26.043129485000065], [84.20510777600003, 26.04305697700005], [84.20546264500007, 26.04313429000007], [84.20579511300008, 26.043501665000065], [84.20604593800005, 26.044305566000048], [84.20621597100006, 26.04557477700007], [84.20621078800008, 26.046385582000028], [84.20636074300006, 26.047047426000063], [84.20673092800007, 26.047587547000035], [84.20693152500007, 26.047842693000064], [84.20758118800006, 26.04811462300006], [84.20860612100006, 26.04811595800004], [84.20918410300004, 26.048158251000075], [84.20933237100007, 26.048762431000057], [84.20945229500006, 26.049482974000057], [84.20992328000006, 26.050165048000054], [84.21027320300004, 26.05154526900003], [84.21049583400008, 26.052465702000063], [84.21087179700004, 26.053179330000034], [84.21157836200007, 26.054202476000057], [84.21179526200007, 26.054949388000068], [84.21210720500005, 26.055664740000054], [84.21322925700008, 26.055692323000073], [84.21378523600004, 26.055069307000053], [84.21460864100004, 26.054786501000024], [84.21604116600008, 26.05451621700007], [84.21721946700006, 26.054310593000025]]]]}}, {"type": "Feature", "properties": {"OBJECTID": 1893, "GPCODE": "98731", "GPNAME_1": "SAHSARAON", "DIST_CEN_C": "16", "BLK_NAME": "ANDAR", "ST_NAME": "BIHAR", "ST_CODE_1": null, "GPCODE2011": "101216", "REMARKS": null, "MAP_STATUS": null, "BLK_C_2001": "160015", "BLK_C_2011": "01243", "DIST_NAME": "SIWAN", "code2011": 0.0, "Shape_Leng": 0.16441669713, "Shape_Area": 0.00081459852, "Area": 9.03836}, "geometry": {"type": "MultiPolygon", "coordinates": [[[[84.22481255700006, 26.115827554000077], [84.22469755300006, 26.114296298000056], [84.22446894600006, 26.11320241800007], [84.22403251000009, 26.112606265000068], [84.22345844600005, 26.11172429900006], [84.22314164600004, 26.110632527000064], [84.22223106700005, 26.10926756300006], [84.22175211200005, 26.108354117000033], [84.22125395900008, 26.106862208000052], [84.22088863500005, 26.105511471000057], [84.22087750800006, 26.104209039000068], [84.22078944600008, 26.10348767000005], [84.22096615500004, 26.10301968500005], [84.22081413800004, 26.10230004600004], [84.22023878400006, 26.102344508000044], [84.21974037300004, 26.101807996000048], [84.21946217000004, 26.101149657000065], [84.21912279400004, 26.100579851000077], [84.21868162800007, 26.099839037000038], [84.21806087700008, 26.099479495000026], [84.21718986400003, 26.09930038300007], [84.21645059800005, 26.099233484000024], [84.21558044800008, 26.09908333000004], [84.21509453200008, 26.098922791000064], [84.21433801400008, 26.098335254000062], [84.21371824000005, 26.098004567000032], [84.21294327500004, 26.097822837000024], [84.212011, 26.097732230000076], [84.21118576000003, 26.097001763000037], [84.21075136000007, 26.096463494000034], [84.21047704600005, 26.09592081200003], [84.21014825700007, 26.095669137000073], [84.20931308700006, 26.095604793000064], [84.20860784200005, 26.095594920000053], [84.20744771900007, 26.09539456300007], [84.20716903500005, 26.09447594100004], [84.20695391000004, 26.093786979000072], [84.20646229300007, 26.09272905200004], [84.20680581900007, 26.09245924000004], [84.20824442500003, 26.092362552000054], [84.20908063300004, 26.092455864000044], [84.21022444800008, 26.092164359000037], [84.21019859200004, 26.091383411000038], [84.20984587700008, 26.090408624000077], [84.20920222000007, 26.089354897000078], [84.20875838000006, 26.088527243000044], [84.20872774700007, 26.087601652000046], [84.20872525900006, 26.086559521000027], [84.20861009200007, 26.085983639000062], [84.20777297100005, 26.085861451000028], [84.20705725400006, 26.085533416000033], [84.20669078300006, 26.08510898800006], [84.20669529700007, 26.084037675000047], [84.20645310500004, 26.083494207000058], [84.20646402800008, 26.082856941000045], [84.20639749500003, 26.08254011100007], [84.20550506100005, 26.082679952000035], [84.20384627300007, 26.082898425000053], [84.20186733900005, 26.083125411000026], [84.20072358300007, 26.08341676400005], [84.19932373200004, 26.083715003000066], [84.19792578300007, 26.08407106800007], [84.19668493300009, 26.084336105000034], [84.19597115900007, 26.084065766000037], [84.19550023600004, 26.081443945000046], [84.19524236100006, 26.07945336000006], [84.19529776700006, 26.079191327000046], [84.19446935100007, 26.07932965300006], [84.19373985400006, 26.079551927000068], [84.19208966400004, 26.080030502000056], [84.19071513000006, 26.08012532500004], [84.19002955300004, 26.07973842100006], [84.18908704900008, 26.07932951500004], [84.18836665100008, 26.078856659000053], [84.18730358200008, 26.078682538000066], [84.18512408400005, 26.07865424000005], [84.18366115200007, 26.07898293100004], [84.18187343100004, 26.079175638000038], [84.18050080000006, 26.07932820900004], [84.17954051200007, 26.07935394100008], [84.17842491200008, 26.079528598000024], [84.17756159200007, 26.079580712000052], [84.17616457600008, 26.079965456000025], [84.17624218300006, 26.080062029000032], [84.17666567400005, 26.08058900900005], [84.17767632800008, 26.082096249000074], [84.17926694100004, 26.083703816000025], [84.18081431300004, 26.084965187000023], [84.18160627300006, 26.085667716000046], [84.18288739700006, 26.087601977000077], [84.18388676300003, 26.08876213900004], [84.18441324300005, 26.089182234000077], [84.18573255200005, 26.09105727800005], [84.18663880100007, 26.092306799000028], [84.18742944400003, 26.093935741000053], [84.18816928800004, 26.095971357000053], [84.18917014400006, 26.098144727000033], [84.18939672600004, 26.099672929000064], [84.19018935800005, 26.101359778000074], [84.19027057300008, 26.101878688000056], [84.19056006300008, 26.102884104000054], [84.19083177900006, 26.10432429900004], [84.19135974300008, 26.105757701000073], [84.19139956900005, 26.106480377000025], [84.19143939500003, 26.107203052000045], [84.19124046100006, 26.10894532700007], [84.19155425700006, 26.111658205000026], [84.19220315900003, 26.111901316000058], [84.19281626800006, 26.112029609000047], [84.19339167200008, 26.11198515600006], [84.19383418300004, 26.11179959800006], [84.19466277200007, 26.11166154800003], [84.19596604500003, 26.11133697300005], [84.19787945800005, 26.111053953000066], [84.19754779000004, 26.11071545300007], [84.19704265200005, 26.109976307000068], [84.19708761900006, 26.10939612100003], [84.19748381100004, 26.108777496000073], [84.19806921600008, 26.108066991000044], [84.19871198500005, 26.107152192000058], [84.19929737600006, 26.106441682000025], [84.20053929000005, 26.106205596000052], [84.20108354200005, 26.10619094300006], [84.20171819700005, 26.10600009500007], [84.20190549600005, 26.105850375000045], [84.20217023500004, 26.106103791000066], [84.20234658300006, 26.106591141000024], [84.20290900300006, 26.107126073000074], [84.20359763300007, 26.107599622000066], [84.20434066400009, 26.107782258000043], [84.20527875000005, 26.108046513000033], [84.20561043100008, 26.108384998000076], [84.20581877500007, 26.10887148100005], [84.20600088300006, 26.10953243000006], [84.20617438100004, 26.109933065000064], [84.20656045900006, 26.10998054600003], [84.20767724700005, 26.109834656000032], [84.20914046900003, 26.109505656000067], [84.21050860200006, 26.109208197000044], [84.21102376000005, 26.109281174000046], [84.21157664700007, 26.10952679600007], [84.21222940800004, 26.10988549800004], [84.21291809100006, 26.11035909700007], [84.21358393400004, 26.112078145000055], [84.21380094200003, 26.112824928000066], [84.21398789100004, 26.113630503000024], [84.21427663900005, 26.114606993000052], [84.21497911500006, 26.114530131000038], [84.21553299200008, 26.11480470200007], [84.21611895200004, 26.115078313000026], [84.21681247400005, 26.115696531000026], [84.21703846400004, 26.11574831200005], [84.21875139000008, 26.115702010000064], [84.22032509900004, 26.115804221000076], [84.22180180400005, 26.115880051000033], [84.22308257700007, 26.115845394000075], [84.22481255700006, 26.115827554000077]]]]}}, {"type": "Feature", "properties": {"OBJECTID": 1894, "GPCODE": "98733", "GPNAME_1": "BHAWRAJPUR", "DIST_CEN_C": "16", "BLK_NAME": "ANDAR", "ST_NAME": "BIHAR", "ST_CODE_1": null, "GPCODE2011": "101217", "REMARKS": null, "MAP_STATUS": null, "BLK_C_2001": "160015", "BLK_C_2011": "01243", "DIST_NAME": "SIWAN", "code2011": 0.0, "Shape_Leng": 0.17779026027, "Shape_Area": 0.00073794483, "Area": 8.18532}, "geometry": {"type": "MultiPolygon", "coordinates": [[[[84.30830409000004, 26.12250662400004], [84.30811268900004, 26.122063151000077], [84.30733388000004, 26.121927181000046], [84.30606050300008, 26.122356598000067], [84.30425298800003, 26.122701250000034], [84.30195943600006, 26.122550795000052], [84.30039715100008, 26.122851827000034], [84.29889095000004, 26.122399660000042], [84.29743261400006, 26.121595788000036], [84.29621850900008, 26.120883838000054], [84.29549257600007, 26.120396165000045], [84.29490978900003, 26.120125982000047], [84.29408037000007, 26.120075366000037], [84.29344400400004, 26.12024712500005], [84.29295372800004, 26.120289052000032], [84.29281229600008, 26.11985035300006], [84.29159294500005, 26.119797105000032], [84.28982680300004, 26.119956846000036], [84.28797217400006, 26.119944502000067], [84.28568545900004, 26.119577250000077], [84.28392618300006, 26.119520272000045], [84.28211718700004, 26.120036167000023], [84.28074907100006, 26.120424076000063], [84.28061679200005, 26.118884395000066], [84.28048132000004, 26.117737231000035], [84.28004216200009, 26.117643991000023], [84.27955115600008, 26.117776089000074], [84.27925974100003, 26.117950110000038], [84.27857303700006, 26.118162119000033], [84.27749865600003, 26.118114266000077], [84.27613422700006, 26.118059906000042], [84.27481912800005, 26.118096123000043], [84.27374253600004, 26.118309956000076], [84.27290865600008, 26.118787162000046], [84.27232376300003, 26.118783206000046], [84.27213133100008, 26.118475009000065], [84.27169402700008, 26.118160722000027], [84.27145705100008, 26.11780708200007], [84.27112647200005, 26.117276907000075], [84.27061811200008, 26.115888046000066], [84.27116098300007, 26.11553974900005], [84.27194367500005, 26.115193076000025], [84.27214523100008, 26.11440471900005], [84.27283310300004, 26.113439133000043], [84.27322923600008, 26.11269265800007], [84.27309341900008, 26.111590682000042], [84.27233040400006, 26.11076872900003], [84.27126522700007, 26.10961525500005], [84.27034778300003, 26.108729045000075], [84.26986341200006, 26.108062353000037], [84.26890496000004, 26.107311259000028], [84.26788423900007, 26.10682139900007], [84.26666873900007, 26.10632581400006], [84.26520707000003, 26.105963773000042], [84.26428012400004, 26.106223705000048], [84.26261696800003, 26.106650081000055], [84.26046669100003, 26.10733933700004], [84.25880601900008, 26.10746327100003], [84.25763666100005, 26.107410145000074], [84.25631377500008, 26.107798176000074], [84.25625610500003, 26.108700301000056], [84.25643625600009, 26.109861270000067], [84.25664691900005, 26.11096830300005], [84.25552479900006, 26.11064927500007], [84.25426043100003, 26.110599911000065], [84.25264456200006, 26.11133329200004], [84.25156756300004, 26.111592081000026], [84.25015420700004, 26.112020071000074], [84.24792241400007, 26.113132972000074], [84.24720058700007, 26.113279904000024], [84.24714694900007, 26.113831723000033], [84.24715941500006, 26.115163104000032], [84.24720878800008, 26.115682852000077], [84.24735334000007, 26.116171019000035], [84.24745219300007, 26.117210603000046], [84.24754611100008, 26.118105460000038], [84.24792182400006, 26.11799703300005], [84.24927031600004, 26.117785638000043], [84.25048671800005, 26.118191230000036], [84.25121241300008, 26.118683625000074], [84.25169898500008, 26.11907954700007], [84.25233352000004, 26.119129072000078], [84.25257398700006, 26.119658703000027], [84.25301167900005, 26.11992802700007], [84.25408080000005, 26.120016686000042], [84.25583994600004, 26.119500823000067], [84.25691270300007, 26.11915616400006], [84.25787910400004, 26.120746817000054], [84.25846256100004, 26.120926834000045], [84.25869576400004, 26.121722629000033], [84.25937141200006, 26.122828370000036], [84.25970396500009, 26.12371063100005], [84.26082882900005, 26.123718391000068], [84.26175143600005, 26.12399101500006], [84.26194273000004, 26.124430033000067], [84.26287289600003, 26.12439579100004], [84.26384478300008, 26.124754395000025], [84.26427241500005, 26.12563736100003], [84.26431387700006, 26.12664849600003], [84.26464844200007, 26.127887224000062], [84.26454297700008, 26.12854537800007], [84.26404042500008, 26.130040097000062], [84.26421472300007, 26.132509808000066], [84.26444202600004, 26.134623282000064], [84.26404577000005, 26.13536963000007], [84.26359986200004, 26.136070580000023], [84.26349188500006, 26.137022011000056], [84.26475918100004, 26.137342077000028], [84.26514550200005, 26.13778247600004], [84.26543273400006, 26.13870948500005], [84.26581985600006, 26.13906417900006], [84.26682939300008, 26.13911618900005], [84.26751405700008, 26.139161432000037], [84.26829473000004, 26.139080999000043], [84.26863882500004, 26.138600477000068], [84.26874433200004, 26.137937906000047], [84.26903802600003, 26.137502108000035], [84.27026240100008, 26.13697798900006], [84.27202282300004, 26.136331050000024], [84.27481094000007, 26.135952839000026], [84.27676237300005, 26.135790041000064], [84.28003334200008, 26.13568122600003], [84.28139566300007, 26.135997263000036], [84.28216091100006, 26.13415218500006], [84.28256687900006, 26.132214436000027], [84.28209506200005, 26.130009118000032], [84.28210447400005, 26.12886295900006], [84.28328003300004, 26.128785141000037], [84.28532993300007, 26.12818062300005], [84.28738475800003, 26.12758063600006], [84.28865892900006, 26.12705665200008], [84.29041159800005, 26.12733454800008], [84.29070148200003, 26.127954704000047], [84.29074012700005, 26.128731137000045], [84.29254528000007, 26.12870257000003], [84.29460152600006, 26.127921970000045], [84.29680445900004, 26.126921210000035], [84.29788654200007, 26.126048386000036], [84.29804895300003, 26.123892354000077], [84.29853712700003, 26.123498441000038], [84.29990585000007, 26.123638356000072], [84.30209979600005, 26.123743087000037], [84.30434162800003, 26.123491492000028], [84.30625021200007, 26.123021185000027], [84.30771780100008, 26.122678808000046], [84.30830409000004, 26.12250662400004]]]]}}]}