{"type": "FeatureCollection", "features": [{"type": "Feature", "properties": {"OBJECTID": 611, "GPCODE": "99279", "GPNAME_1": "SHAHPUR KHURD", "DIST_CEN_C": null, "BLK_NAME": "CHEHRA KALAN", "ST_NAME": "BIHAR", "ST_CODE_1": "10", "GPCODE2011": "101720", "REMARKS": "FINALIZED", "MAP_STATUS": "COMPLETED", "BLK_C_2001": "180006", "BLK_C_2011": "01273", "DIST_NAME": "VAISHALI", "code2011": 0.0, "Shape_Leng": 0.1411930266, "Shape_Area": 0.00039616053, "Area": 4.39738}, "geometry": {"type": "MultiPolygon", "coordinates": [[[[85.41121575300008, 25.89493009200004], [85.41246256800008, 25.894504462000043], [85.41428915400007, 25.894750696000074], [85.41603545400005, 25.894712612000035], [85.41704821500008, 25.894571495000037], [85.41887295700008, 25.893513316000053], [85.42003428300006, 25.89266797600004], [85.42065752000008, 25.89235127200004], [85.42143519100006, 25.891826899000023], [85.42244811000006, 25.89189336900006], [85.42338161000004, 25.892172069000026], [85.42419432200006, 25.891751335000038], [85.42567115900005, 25.891749599000036], [85.42734244000007, 25.891571560000045], [85.42877963400008, 25.891709658000025], [85.43002231800006, 25.891848080000045], [85.43080042300005, 25.891707229000076], [85.43079982900008, 25.891287479000027], [85.43182234100004, 25.89109666300004], [85.43180159600007, 25.890591157000074], [85.43184641100004, 25.890496321000057], [85.43178133000004, 25.89034749600006], [85.43180103300006, 25.890198476000023], [85.43176095900003, 25.89010374700007], [85.43186518300007, 25.889733559000035], [85.43235417600005, 25.889769073000025], [85.43264348100007, 25.889714507000065], [85.43317739200006, 25.889695784000025], [85.43371613100004, 25.88961842300006], [85.43394055500005, 25.889582048000022], [85.43379815900005, 25.88783104600003], [85.43388543300006, 25.886188134000065], [85.43340070200009, 25.88460221200006], [85.43186269600005, 25.884714458000076], [85.43116144600003, 25.884034899000028], [85.43087016000004, 25.882728519000068], [85.43136127100007, 25.881945466000047], [85.43253738900006, 25.881647482000062], [85.43237012300006, 25.880701919000046], [85.43183924300007, 25.879380276000063], [85.43173886200003, 25.87901934100006], [85.43058696800006, 25.879341187000023], [85.43014701000004, 25.87879560600004], [85.42815199400007, 25.879159178000066], [85.42757401500006, 25.879642747000048], [85.42686561000005, 25.879697828000076], [85.42580304500007, 25.879739651000023], [85.42487576900004, 25.880259875000036], [85.42349891000003, 25.880302138000047], [85.42327967200004, 25.88054604100006], [85.42256764200005, 25.881467661000045], [85.42172999600007, 25.88182968700005], [85.42104171000005, 25.882011012000078], [85.42035342200006, 25.882192334000024], [85.41884686900005, 25.882315953000045], [85.41782987300007, 25.88287682200007], [85.41729523600003, 25.882277140000042], [85.41667661400004, 25.88231846000008], [85.41534511400005, 25.882757758000025], [85.41414835400008, 25.883201474000032], [85.41399430000007, 25.88369354100007], [85.41397456600004, 25.883806375000063], [85.41389501700007, 25.884063730000037], [85.41414015900006, 25.88447414700005], [85.41408060500004, 25.884754101000055], [85.41428535900008, 25.884844120000025], [85.41418572600008, 25.88495706300006], [85.41428569200008, 25.885146484000074], [85.41424608300008, 25.885349690000055], [85.41416163600007, 25.885570845000075], [85.41404195000007, 25.885607141000037], [85.41391721700006, 25.88566598700004], [85.41389731900006, 25.88568398900003], [85.41340354000005, 25.885774819000062], [85.41290935500007, 25.88563096200005], [85.41257992700008, 25.885536528000046], [85.41237540100008, 25.885554871000068], [85.41184161300004, 25.885609612000053], [85.41134776700005, 25.885686903000078], [85.41081402600008, 25.885800290000077], [85.41028045000007, 25.88596790200006], [85.40995125000006, 25.886058526000056], [85.40968177500008, 25.88604072800007], [85.40967195800005, 25.886135538000076], [85.40860971200004, 25.886497744000053], [85.40820986700004, 25.885974652000073], [85.40776541300005, 25.885654661000046], [85.40723621600006, 25.885398013000042], [85.40537503600007, 25.885318820000066], [85.40527054300009, 25.88549490500003], [85.40522090700006, 25.885711623000077], [85.40522611100005, 25.885896605000028], [85.40524626900003, 25.886009433000027], [85.40514186000007, 25.886307422000073], [85.40508207700003, 25.88639779700003], [85.40499750300006, 25.88654676400006], [85.40491765200005, 25.886528819000034], [85.40483285900007, 25.88656951300004], [85.40479302000006, 25.886623747000044], [85.40460837800003, 25.886587803000054], [85.40428409800006, 25.88658819400007], [85.40395477300007, 25.886570437000046], [85.40362530500005, 25.88649412500007], [85.40329603700008, 25.886530505000053], [85.40296676900005, 25.886530883000034], [85.40263750100007, 25.886531260000027], [85.40234817500004, 25.88659019100004], [85.40201896300005, 25.886644705000037], [85.40169457400003, 25.886608910000064], [85.40138525400005, 25.886609237000073], [85.40132047700007, 25.886663506000048], [85.40113579500007, 25.886605], [85.40111583500004, 25.886609560000068], [85.40097105800004, 25.886587144000032], [85.40095125500005, 25.88664583800005], [85.40074672600008, 25.886700167000072], [85.40066193500007, 25.886740951000036], [85.40052229200006, 25.886777193000057], [85.40047756000007, 25.886908109000046], [85.40039782200006, 25.886998438000035], [85.40041803200006, 25.887165405000076], [85.40049824400006, 25.887463155000034], [85.40060339800004, 25.887760960000037], [85.40072850100006, 25.888058718000025], [85.40080871400005, 25.88835646700005], [85.40080913400004, 25.888654406000057], [85.40084908400007, 25.88867235600003], [85.40082923600005, 25.888785191000068], [85.40091413200008, 25.888821286000052], [85.40086939900004, 25.88895220300003], [85.40080977000008, 25.88920950200003], [85.40077002500004, 25.88934042900007], [85.40062544000006, 25.889358611000034], [85.40052559000009, 25.88935876000005], [85.40044079400008, 25.889399452000077], [85.40042110300004, 25.88956642200003], [85.40052111300008, 25.889733291000027], [85.40060631900008, 25.890031143000044], [85.40075137300005, 25.89032885200004], [85.40081164000009, 25.89062664900007], [85.40090682400006, 25.890960524000036], [85.40072763600006, 25.891240569000047], [85.40028407000005, 25.891683272000023], [85.40077400900003, 25.892422945000078], [85.40108460200008, 25.893388436000066], [85.40165858200004, 25.893505255000036], [85.40176332200008, 25.893505120000043], [85.40196797500005, 25.893559065000034], [85.40202787700008, 25.893540966000046], [85.40229742800005, 25.893649009000058], [85.40240231500007, 25.893707520000078], [85.40242237800004, 25.893779746000064], [85.40252217000005, 25.89380215700004], [85.40258717000006, 25.893933041000025], [85.40268725200008, 25.89411344100006], [85.40281214900006, 25.894226133000075], [85.40322134200005, 25.894302443000072], [85.40359063900007, 25.894338151000056], [85.40371543100008, 25.894337963000055], [85.40396492500008, 25.89437386800006], [85.40420948000008, 25.894427714000074], [85.40439417900006, 25.894522309000024], [85.40445434800006, 25.894671223000046], [85.40451935100003, 25.894838107000055], [85.40455941300007, 25.89489223700008], [85.40465936800007, 25.895045570000036], [85.40472454000007, 25.895302774000072], [85.40484440600005, 25.895356804000073], [85.40486938500004, 25.895379324000032], [85.40498914500006, 25.895397264000053], [85.40498920300007, 25.89545140200005], [85.40523880200004, 25.89548730100006], [85.40515400800007, 25.89556408900006], [85.40529903200007, 25.895803143000023], [85.40531913900008, 25.895897926000032], [85.40537951800007, 25.896272414000066], [85.40550464500006, 25.896606259000066], [85.40558976000005, 25.89679122700005], [85.40560992500008, 25.896940148000056], [85.40573478600004, 25.89703028100007], [85.40591483400004, 25.897382107000055], [85.40571038800005, 25.897477136000077], [85.40625054600008, 25.89841530900003], [85.40633157900004, 25.899331395000047], [85.40683604700007, 25.899682819000077], [85.40737942800007, 25.899257996000074], [85.40757330200006, 25.89869817300007], [85.40807705800006, 25.898589340000058], [85.40858476100004, 25.897641020000037], [85.40928183700004, 25.896480332000067], [85.41012919800005, 25.895879110000067], [85.41121575300008, 25.89493009200004]]], [[[85.42494847300009, 25.90236106800006], [85.42479070800005, 25.90028973400007], [85.42455220500005, 25.89761812100005], [85.42443311900007, 25.894702764000044], [85.42384757400004, 25.89347131200003], [85.42272025400007, 25.893756971000073], [85.42272240400007, 25.895201273000055], [85.42182986800003, 25.895658109000067], [85.42035287900006, 25.895623811000064], [85.41949993200006, 25.895800821000023], [85.41911147000008, 25.89632931400007], [85.41919247600003, 25.89717321300003], [85.41950500200005, 25.89935269500006], [85.41946712100008, 25.90079249100006], [85.41880903300006, 25.901145297000028], [85.41721176500005, 25.90083119600007], [85.41535123600005, 25.901392929000053], [85.41441870900007, 25.901818238000033], [85.41441933100003, 25.90220640000007], [85.41511811600003, 25.90234102100004], [85.41605076200005, 25.901987890000044], [85.41640053900005, 25.90233950800007], [85.41779741000005, 25.902130336000027], [85.42016772600005, 25.90212758200005], [85.42071473400006, 25.90430230000004], [85.42289019600008, 25.90415980000006], [85.42320369900006, 25.903527565000047], [85.42494982400007, 25.90328176500003], [85.42494847300009, 25.90236106800006]]]]}}, {"type": "Feature", "properties": {"OBJECTID": 562, "GPCODE": "99271", "GPNAME_1": "BASTI SARSIKAN", "DIST_CEN_C": null, "BLK_NAME": "CHEHRA KALAN", "ST_NAME": "BIHAR", "ST_CODE_1": "10", "GPCODE2011": "101712", "REMARKS": "FINALIZED", "MAP_STATUS": "COMPLETED", "BLK_C_2001": "180006", "BLK_C_2011": "01273", "DIST_NAME": "VAISHALI", "code2011": 0.0, "Shape_Leng": 0.18681033165, "Shape_Area": 0.00065265324, "Area": 7.24593}, "geometry": {"type": "MultiPolygon", "coordinates": [[[[85.45353451400007, 25.88968679100003], [85.45467685600005, 25.88954972600004], [85.45626367400007, 25.88964678600007], [85.45764529500008, 25.889383088000045], [85.46107088400004, 25.88814599600005], [85.46357461400004, 25.887573650000036], [85.46622890900005, 25.887538214000074], [85.46693193200008, 25.887302399000077], [85.46762909200004, 25.886534124000036], [85.46833188800008, 25.886167561000036], [85.46895548600008, 25.886130464000075], [85.46969417000008, 25.886296310000034], [85.47013800100007, 25.88612869900004], [85.47028180600006, 25.885663631000057], [85.47017061900004, 25.88492816300004], [85.46969652000007, 25.882148634000032], [85.46895422200004, 25.880046631000027], [85.46832415200004, 25.879280309000023], [85.46762486700004, 25.878848076000054], [85.46614743400005, 25.878448596000055], [85.46445031400003, 25.87798628300004], [85.46356627100005, 25.87748658000004], [85.46301096900004, 25.876620931000048], [85.46171905100005, 25.873959933000037], [85.46123892100007, 25.873261153000044], [85.45986756400004, 25.87079435100003], [85.45938487000006, 25.86866026100006], [85.45912705000006, 25.866728954000052], [85.45923466900007, 25.865528355000038], [85.45985171500007, 25.864647353000066], [85.46023362900007, 25.863423686000033], [85.46114405400004, 25.862081940000053], [85.46282202000003, 25.860341901000027], [85.46373864200007, 25.859672549000038], [85.46412681700008, 25.85913941800004], [85.46449482800006, 25.85852062400005], [85.46545895700007, 25.856596498000044], [85.46582727500004, 25.856108532000064], [85.46676422400003, 25.855709984000043], [85.46847942300008, 25.85530572700003], [85.46899237100007, 25.85488974100008], [85.46916124200004, 25.854487778000077], [85.46930421600007, 25.85359401100004], [85.46961321300006, 25.85074114200006], [85.46981632400008, 25.84998254800007], [85.46985533300005, 25.84949509200004], [85.46959491500007, 25.848944865000078], [85.46911413200007, 25.847912059000066], [85.46894214700006, 25.846562883000047], [85.46912523100008, 25.84579532300006], [85.46849654500005, 25.84568795100006], [85.46778331100006, 25.84567093000004], [85.46756391400004, 25.84573001800004], [85.46746435300008, 25.84579778600005], [85.46703660900005, 25.846443830000055], [85.46680244900006, 25.846597632000055], [85.46635861300007, 25.846643423000046], [85.46575985000004, 25.846531490000075], [85.46535551100004, 25.846338051000032], [85.46520562300003, 25.84615777500005], [85.46475876800008, 25.844569725000042], [85.46459376800004, 25.844321748000027], [85.46446393000008, 25.84423165000004], [85.46408464300004, 25.844123882000076], [85.46339133200007, 25.84407529500004], [85.46204532600007, 25.844133743000043], [85.46070316700008, 25.844192012000065], [85.46013949500008, 25.844138678000036], [85.45992482100007, 25.844039674000044], [85.45954020700003, 25.843724352000038], [85.45863731700007, 25.843621863000067], [85.45846760600006, 25.843572384000026], [85.45820798400007, 25.843419338000047], [85.45796831600006, 25.843216606000055], [85.45769772800008, 25.84251294300003], [85.45751278800003, 25.84231455200006], [85.45563124800003, 25.841563502000042], [85.45563149500003, 25.841561324000054], [85.45556635600008, 25.84155463600007], [85.45529730200008, 25.841703935000055], [85.45463524300004, 25.842458616000044], [85.45448579100008, 25.842540004000057], [85.45442142100006, 25.842792899000074], [85.45431189400006, 25.842901339000036], [85.45423709000005, 25.842910498000037], [85.45404239400006, 25.84284301300005], [85.45315487800008, 25.842961588000037], [85.45230202500005, 25.84296283200007], [85.45202772000005, 25.84300384000005], [85.45163367100008, 25.84295024200003], [85.45137409500006, 25.842869373000042], [85.45129925100008, 25.84280625100007], [85.45104883900007, 25.842192752000074], [85.45087886100004, 25.841953776000025], [85.45064406100005, 25.841764582000053], [85.45031967600005, 25.841638653000075], [85.45018978400003, 25.841489890000048], [85.44973038400008, 25.841188121000073], [85.44957056800007, 25.84104390500005], [85.44929067800007, 25.840687783000078], [85.44918082800007, 25.840629292000074], [85.44895137100008, 25.840593496000054], [85.44848260100008, 25.84064830500006], [85.44769033300008, 25.841069033000053], [85.44736647700006, 25.841286165000042], [85.44762610300006, 25.84143020500005], [85.44787542600005, 25.84141180900008], [85.44802533000006, 25.84157414500004], [85.44802560800008, 25.84175912200004], [85.44736361400004, 25.842554375000077], [85.44683086100008, 25.84311923300004], [85.44599413700007, 25.84383348800003], [85.44586985700005, 25.84406830900008], [85.44561602400006, 25.84440268900005], [85.44553189900006, 25.844781866000062], [85.44540765900007, 25.845043849000035], [85.44509113300006, 25.846678084000075], [85.44499160600003, 25.84681360600007], [85.44462288800008, 25.84701720000004], [85.44442366600003, 25.847229596000034], [85.44423925600006, 25.84728853200005], [85.44412980200008, 25.84744659200004], [85.44408026300005, 25.847699422000062], [85.44409142900008, 25.848398919000033], [85.44401205400004, 25.848660804000076], [85.44421930300007, 25.850307926000028], [85.44424549900003, 25.851106709000078], [85.44388805400007, 25.852131703000055], [85.44655280300003, 25.852836703000037], [85.44726241500007, 25.853634588000034], [85.44775393300006, 25.855276724000078], [85.44828637200004, 25.85744236000005], [85.44868672900003, 25.858258705000026], [85.44939360500007, 25.860342908000064], [85.44966532100005, 25.861741632000076], [85.44953313900004, 25.863186076000034], [85.44966907400004, 25.863984694000067], [85.45002461400009, 25.864787592000027], [85.45020111100007, 25.865870504000043], [85.45029437100004, 25.865924221000057], [85.45029094800003, 25.865924539000048], [85.449059, 25.866039028000046], [85.44777206300006, 25.866081402000077], [85.44777264700008, 25.866442509000024], [85.44737386600008, 25.86664163200004], [85.44777473600004, 25.867683637000027], [85.44888300100007, 25.86816057200008], [85.45007305200005, 25.868508434000034], [85.44976168600004, 25.86854747500007], [85.44934446100007, 25.869631189000074], [85.44879138600004, 25.870051728000078], [85.44788414300007, 25.87047269100003], [85.44764610300007, 25.871344059000023], [85.44967617900005, 25.87110210900005], [85.45149161100005, 25.870860375000063], [85.45224668400004, 25.87186123500004], [85.45344439700006, 25.87209882800005], [85.45388417700008, 25.872576586000037], [85.45441795300007, 25.87253974500004], [85.45486319900004, 25.87325670900003], [85.45619022300008, 25.873295467000048], [85.45685644600007, 25.874815510000076], [85.45743172900006, 25.875735357000053], [85.45835982200003, 25.875774639000042], [85.45902960700005, 25.876495780000027], [85.46031202900008, 25.87665190100006], [85.46066755900006, 25.87741416600005], [85.46173043700009, 25.877534424000032], [85.46178658900004, 25.87823389500005], [85.46180180900006, 25.87839182600004], [85.46182744900005, 25.878761904000044], [85.46180763500007, 25.87883865400005], [85.46176289700009, 25.878910939000036], [85.46174354900006, 25.879281030000072], [85.46164380900007, 25.87928121400006], [85.46115017100004, 25.879471452000075], [85.46070139700004, 25.87958046700004], [85.46020754300008, 25.879639868000027], [85.45971379600007, 25.87969465900005], [85.45925986000003, 25.87979013200004], [85.45876619700005, 25.879899151000075], [85.45827739000003, 25.879976600000077], [85.45782349800004, 25.880049416000077], [85.45732964100006, 25.880108808000045], [85.45687593500008, 25.88023584800004], [85.45646691800005, 25.88031316400003], [85.45642701900005, 25.880313182000066], [85.45630257200008, 25.880480335000073], [85.45599333200005, 25.88049890700006], [85.45593371500007, 25.880665905000058], [85.45547985500008, 25.880725270000028], [85.45513066900008, 25.88076181400004], [85.45509094200008, 25.880910805000042], [85.45502611100005, 25.88091095900006], [85.45494642600005, 25.880996804000063], [85.45514748100004, 25.881826919000048], [85.45540426600007, 25.883216654000023], [85.45540460000007, 25.88338366800008], [85.45540002500007, 25.883604812000044], [85.45536055100007, 25.88386667900005], [85.45534103200004, 25.884123888000033], [85.45536140600007, 25.884385683000062], [85.45534198100006, 25.884647492000056], [85.45536236200007, 25.88490468400005], [85.45542762000008, 25.885166380000044], [85.45546804100007, 25.885428025000067], [85.45546847700007, 25.88568536300005], [85.45544873800003, 25.88581625100005], [85.45542899900005, 25.885947138000063], [85.45530474900005, 25.88620460900006], [85.45528484700003, 25.886227129000076], [85.45524004200007, 25.88628136600005], [85.45508048500005, 25.886353804000066], [85.45510056700004, 25.886430536000034], [85.45502078900006, 25.88646675500007], [85.45481125600008, 25.886448960000052], [85.45477133700007, 25.886503210000058], [85.45473148700006, 25.88652578400007], [85.45471159800007, 25.88654388300006], [85.45442238900006, 25.886652629000025], [85.45425782500007, 25.88668896300004], [85.45413309100007, 25.88671174800004], [85.45409325000008, 25.886729810000077], [85.45398853500006, 25.886766073000047], [85.45392876400007, 25.88682028200003], [85.45390877400007, 25.886838384000043], [85.45384903500008, 25.886879057000044], [85.45382910500007, 25.886915204000047], [85.45376423000005, 25.886933406000026], [85.45348004600004, 25.887024019000023], [85.45319080600007, 25.887101182000038], [85.45294634100009, 25.887137643000074], [85.45273687600007, 25.887178495000057], [85.45265231000008, 25.887305023000067], [85.45258332100008, 25.88782868100003], [85.45227513900005, 25.888528662000056], [85.45241037700004, 25.88880825700005], [85.45284906800003, 25.888586459000066], [85.45353716600005, 25.888305743000046], [85.45411502200005, 25.88780394300005], [85.45502290900004, 25.88768079700003], [85.45677354800006, 25.88733981400003], [85.45816966600006, 25.886773684000048], [85.45927714000004, 25.88669535400004], [85.45889862000007, 25.88709755600007], [85.45850014000007, 25.887459207000063], [85.45812659400008, 25.88782081100004], [85.45768721200005, 25.887631897000063], [85.45631066800007, 25.887954255000068], [85.45418558500006, 25.888237083000035], [85.45303449500005, 25.889042094000047], [85.45309868900006, 25.889927713000077], [85.45353451400007, 25.88968679100003]]]]}}, {"type": "Feature", "properties": {"OBJECTID": 605, "GPCODE": "99278", "GPNAME_1": "RASULPUR FATAH", "DIST_CEN_C": null, "BLK_NAME": "CHEHRA KALAN", "ST_NAME": "BIHAR", "ST_CODE_1": "10", "GPCODE2011": "101719", "REMARKS": "FINALIZED", "MAP_STATUS": "COMPLETED", "BLK_C_2001": "180006", "BLK_C_2011": "01273", "DIST_NAME": "VAISHALI", "code2011": 0.0, "Shape_Leng": 0.15128684441, "Shape_Area": 0.00067451343, "Area": 7.48865}, "geometry": {"type": "MultiPolygon", "coordinates": [[[[85.45685644600007, 25.874815510000076], [85.45619022300008, 25.873295467000048], [85.45486319900004, 25.87325670900003], [85.45441795300007, 25.87253974500004], [85.45388417700008, 25.872576586000037], [85.45344439700006, 25.87209882800005], [85.45224668400004, 25.87186123500004], [85.45149161100005, 25.870860375000063], [85.44967617900005, 25.87110210900005], [85.44764610300007, 25.871344059000023], [85.44788414300007, 25.87047269100003], [85.44879138600004, 25.870051728000078], [85.44934446100007, 25.869631189000074], [85.44976168600004, 25.86854747500007], [85.45007305200005, 25.868508434000034], [85.44888300100007, 25.86816057200008], [85.44777473600004, 25.867683637000027], [85.44737386600008, 25.86664163200004], [85.44777264700008, 25.866442509000024], [85.44777206300006, 25.866081402000077], [85.449059, 25.866039028000046], [85.45029094800003, 25.865924539000048], [85.45029437100004, 25.865924221000057], [85.45020111100007, 25.865870504000043], [85.45002461400009, 25.864787592000027], [85.44966907400004, 25.863984694000067], [85.44953313900004, 25.863186076000034], [85.44966532100005, 25.861741632000076], [85.44939360500007, 25.860342908000064], [85.44868672900003, 25.858258705000026], [85.44828637200004, 25.85744236000005], [85.44775393300006, 25.855276724000078], [85.44726241500007, 25.853634588000034], [85.44655280300003, 25.852836703000037], [85.44388805400007, 25.852131703000055], [85.44357895100006, 25.85220429800006], [85.44332429500008, 25.852060262000066], [85.44311960200008, 25.851956651000023], [85.43912668800004, 25.85031913000006], [85.43894895200003, 25.851492799000027], [85.43862523900003, 25.851759535000042], [85.43827132600006, 25.851931473000036], [85.43712977800004, 25.85237520800007], [85.43662638900008, 25.852628603000028], [85.43579919800004, 25.853139706000036], [85.43468315100006, 25.853926442000045], [85.43432921300007, 25.854062276000036], [85.43393030500005, 25.85415299600004], [85.43315239800006, 25.854266797000037], [85.43115732400008, 25.85440023500007], [85.43028119500008, 25.85225749400007], [85.42835924000008, 25.847877545000074], [85.42134294900006, 25.848905955000077], [85.41831932200006, 25.84820538100007], [85.41671472800004, 25.849254290000033], [85.41712484000004, 25.853546021000056], [85.41977565100007, 25.855041338000035], [85.41960263700008, 25.856165273000045], [85.42128380400004, 25.856321268000045], [85.42261269000005, 25.85768274700007], [85.42235189600007, 25.860165300000062], [85.42235599200006, 25.862968072000058], [85.42206295800008, 25.867283050000026], [85.42400839200008, 25.867185996000046], [85.42463687800006, 25.86715820300003], [85.42517063600008, 25.867121370000064], [85.42640827600007, 25.867072370000074], [85.42640773800008, 25.867074752000065], [85.42614502400005, 25.868235052000045], [85.42614689200008, 25.869440085000065], [85.42672442700007, 25.872007394000036], [85.42694872600003, 25.875229611000066], [85.42752824400003, 25.87575238100004], [85.43019227500008, 25.875717488000078], [85.43058920100003, 25.874313382000025], [85.43156205800005, 25.874352827000052], [85.43178115100005, 25.874032123000063], [85.43304320500005, 25.873962853000023], [85.43317896400004, 25.874630641000067], [85.43393229200007, 25.874629669000058], [85.43548356300005, 25.874487765000026], [85.43555233500007, 25.87382876600003], [85.43724849200004, 25.873781412000028], [85.43831182100007, 25.87424498200005], [85.43990380200006, 25.874522677000073], [85.44149944500003, 25.87407825500003], [85.44291509200008, 25.87331369900005], [85.44623337900003, 25.873792184000024], [85.44632387000007, 25.87417564800006], [85.44624209100004, 25.876021700000024], [85.44595567300007, 25.877809350000064], [85.44654679500007, 25.87923924300003], [85.44743618100006, 25.880041325000036], [85.44805641800008, 25.88100189200003], [85.45133822700006, 25.88035646800006], [85.45355262000004, 25.87995167400004], [85.45293117500006, 25.878305198000078], [85.45310487000006, 25.877745365000067], [85.45363834400007, 25.87758211700003], [85.45345667300006, 25.87638181600005], [85.45407869100006, 25.875415133000047], [85.45685644600007, 25.874815510000076]]]]}}, {"type": "Feature", "properties": {"OBJECTID": 606, "GPCODE": "99274", "GPNAME_1": "KARHATIYA BUZURG", "DIST_CEN_C": null, "BLK_NAME": "CHEHRA KALAN", "ST_NAME": "BIHAR", "ST_CODE_1": "10", "GPCODE2011": "101715", "REMARKS": "FINALIZED", "MAP_STATUS": "COMPLETED", "BLK_C_2001": "180006", "BLK_C_2011": "01273", "DIST_NAME": "VAISHALI", "code2011": 0.0, "Shape_Leng": 0.16125341281, "Shape_Area": 0.00053767875, "Area": 5.96928}, "geometry": {"type": "MultiPolygon", "coordinates": [[[[85.41884686900005, 25.882315953000045], [85.42035342200006, 25.882192334000024], [85.42104171000005, 25.882011012000078], [85.42172999600007, 25.88182968700005], [85.42256764200005, 25.881467661000045], [85.42327967200004, 25.88054604100006], [85.42349891000003, 25.880302138000047], [85.42487576900004, 25.880259875000036], [85.42580304500007, 25.879739651000023], [85.42686561000005, 25.879697828000076], [85.42757401500006, 25.879642747000048], [85.42815199400007, 25.879159178000066], [85.43014701000004, 25.87879560600004], [85.43058696800006, 25.879341187000023], [85.43173886200003, 25.87901934100006], [85.43333577300007, 25.87925651100005], [85.43528904500005, 25.880860707000068], [85.43751069200005, 25.88181916800005], [85.44052518400008, 25.882460683000033], [85.44087960300004, 25.882536967000078], [85.44344631900003, 25.88093130200008], [85.44654679500007, 25.87923924300003], [85.44595567300007, 25.877809350000064], [85.44624209100004, 25.876021700000024], [85.44632387000007, 25.87417564800006], [85.44623337900003, 25.873792184000024], [85.44291509200008, 25.87331369900005], [85.44149944500003, 25.87407825500003], [85.43990380200006, 25.874522677000073], [85.43831182100007, 25.87424498200005], [85.43724849200004, 25.873781412000028], [85.43555233500007, 25.87382876600003], [85.43548356300005, 25.874487765000026], [85.43393229200007, 25.874629669000058], [85.43317896400004, 25.874630641000067], [85.43304320500005, 25.873962853000023], [85.43178115100005, 25.874032123000063], [85.43156205800005, 25.874352827000052], [85.43058920100003, 25.874313382000025], [85.43019227500008, 25.875717488000078], [85.42752824400003, 25.87575238100004], [85.42694872600003, 25.875229611000066], [85.42672442700007, 25.872007394000036], [85.42614689200008, 25.869440085000065], [85.42614502400005, 25.868235052000045], [85.42640773800008, 25.867074752000065], [85.42640827600007, 25.867072370000074], [85.42517063600008, 25.867121370000064], [85.42463687800006, 25.86715820300003], [85.42400839200008, 25.867185996000046], [85.42206295800008, 25.867283050000026], [85.42235599200006, 25.862968072000058], [85.42235189600007, 25.860165300000062], [85.42261269000005, 25.85768274700007], [85.42128380400004, 25.856321268000045], [85.41960263700008, 25.856165273000045], [85.41977565100007, 25.855041338000035], [85.41712484000004, 25.853546021000056], [85.41055118700007, 25.85391895300006], [85.41050240000004, 25.85474943500003], [85.40759468400006, 25.854937679000045], [85.39843175300007, 25.85506468600005], [85.39840216900006, 25.855353544000025], [85.39849233900009, 25.855610718000037], [85.39898686000004, 25.856219503000034], [85.39917668400005, 25.85639081100004], [85.39973055100006, 25.856543689000034], [85.40046391400006, 25.85662413500006], [85.40078330400007, 25.856750247000036], [85.40141195400008, 25.856907523000075], [85.40163661800005, 25.857029186000034], [85.40179157900008, 25.85729976300007], [85.40182748900008, 25.858021871000062], [85.40191255500008, 25.858288059000074], [85.40206740000008, 25.858414263000043], [85.40272122700009, 25.85871144400005], [85.40287606600003, 25.858878253000057], [85.40294118700007, 25.85910839400003], [85.40298268300006, 25.86029078300004], [85.40315448200005, 25.86198759000007], [85.40316028300003, 25.86263302900005], [85.40308118700005, 25.86321079100003], [85.40289725200006, 25.86364422500003], [85.40263318700005, 25.86394241800008], [85.40217465000006, 25.864200124000035], [85.40133683400006, 25.864458284000023], [85.40062918700005, 25.864973511000073], [85.40050958900008, 25.865095517000043], [85.40041527700004, 25.86542510700008], [85.40054621800004, 25.866377236000062], [85.40057711500003, 25.867144446000054], [85.40201359000008, 25.86698503300005], [85.40312121200003, 25.867141794000077], [85.40356207200006, 25.86854492300006], [85.40369677900009, 25.868664299000045], [85.40383173200007, 25.868783892000067], [85.40458003900005, 25.868783050000047], [85.40489337700006, 25.868024513000023], [85.40595058000008, 25.867743525000037], [85.40670340800006, 25.86745846100007], [85.40697335600004, 25.867819231000055], [85.40790126800005, 25.86789942400003], [85.40830096600007, 25.868341315000066], [85.40989175400006, 25.867937898000037], [85.41272375000005, 25.866810960000066], [85.41356640300006, 25.866489499000068], [85.41369683100004, 25.867012930000044], [85.41392269500005, 25.868014600000038], [85.41560391000007, 25.86805335300005], [85.41582124100006, 25.870079573000055], [85.41599824400004, 25.87180343500006], [85.41542491200005, 25.872020699000075], [85.41551841700004, 25.87466536900007], [85.41636171200008, 25.874822300000062], [85.41627333300005, 25.875824399000066], [85.41627306700008, 25.875832655000067], [85.41614430500005, 25.87983685300003], [85.41644531900005, 25.88103699000004], [85.41667661400004, 25.88231846000008], [85.41729523600003, 25.882277140000042], [85.41782987300007, 25.88287682200007], [85.41884686900005, 25.882315953000045]]]]}}, {"type": "Feature", "properties": {"OBJECTID": 637, "GPCODE": "99272", "GPNAME_1": "CHEHRA KALAN", "DIST_CEN_C": null, "BLK_NAME": "CHEHRA KALAN", "ST_NAME": "BIHAR", "ST_CODE_1": "10", "GPCODE2011": "101713", "REMARKS": "FINALIZED", "MAP_STATUS": "COMPLETED", "BLK_C_2001": "180006", "BLK_C_2011": "01273", "DIST_NAME": "VAISHALI", "code2011": 0.0, "Shape_Leng": 0.14355380276, "Shape_Area": 0.00058054303, "Area": 6.44377}, "geometry": {"type": "MultiPolygon", "coordinates": [[[[85.37461708200004, 25.924171279000063], [85.37527500800007, 25.92332674200003], [85.37620862500006, 25.92357413800005], [85.37667248900004, 25.923361644000067], [85.37694543900005, 25.92188560900007], [85.37702474500009, 25.921357417000024], [85.37865625600006, 25.92097238300005], [85.37873943100004, 25.919451335000076], [85.37912772100003, 25.918534881000028], [85.38029015600006, 25.918114100000025], [85.38067873300008, 25.91748185800003], [85.38153686900006, 25.917268983000042], [85.38155095700006, 25.91650622900005], [85.38081212500003, 25.91626318400006], [85.38011258900008, 25.915523612000072], [85.37945275100003, 25.914576424000074], [85.37828338100007, 25.913137762000076], [85.37777729100009, 25.911202013000036], [85.37730540100006, 25.908638893000045], [85.37729463600004, 25.907925885000054], [85.37884658500008, 25.907924492000063], [85.38026337300005, 25.907521528000075], [85.38181581500004, 25.90788119800004], [85.38278907200004, 25.908078846000024], [85.38518435600008, 25.908036082000024], [85.38532278500008, 25.906853497000043], [85.38536095400008, 25.90534153400006], [85.38555484100004, 25.904741048000062], [85.38613875300007, 25.904740464000042], [85.38594182700007, 25.902736855000057], [85.38527669500007, 25.901509872000076], [85.38527497000007, 25.900029482000036], [85.38539336300005, 25.89883791500006], [85.38570206300005, 25.898237323000046], [85.38609120500007, 25.89813317000005], [85.38651340800004, 25.89648094200004], [85.38643674100007, 25.894932979000032], [85.38664993200007, 25.893759303000024], [85.38635947600005, 25.892875037000067], [85.38751097100004, 25.891872011000032], [85.38865743600007, 25.890950175000057], [85.38892611400007, 25.89030906200003], [85.38905387700004, 25.888625481000076], [85.38905295600006, 25.887862769000037], [85.39002565100003, 25.88766318000006], [85.39020471200007, 25.887144034000073], [85.39064879500006, 25.887179669000034], [85.39069411400004, 25.887500084000067], [85.39264001700008, 25.887538860000063], [85.39268286800007, 25.88588242700007], [85.39267960700005, 25.883196997000027], [85.39232396400007, 25.881956269000057], [85.39195950700008, 25.88176706400003], [85.39142878600006, 25.880205990000036], [85.39115785000007, 25.87892448100007], [85.38713271600005, 25.87984903000006], [85.38536190400004, 25.880094445000054], [85.38354619800003, 25.880375920000063], [85.38164029200004, 25.880377637000038], [85.38071047500006, 25.87869506800007], [85.37924905200003, 25.87901682300003], [85.37977368000008, 25.879702330000043], [85.38008440100003, 25.880947675000073], [85.37902225600004, 25.881508281000038], [85.37809456000008, 25.881748326000036], [85.37623415800005, 25.882232901000066], [85.37583590000008, 25.883072653000056], [85.37486327300007, 25.883357873000023], [85.37344668300005, 25.883638891000032], [85.37365236600004, 25.884726371000056], [85.37418960700006, 25.887930330000074], [85.37450238800005, 25.89125638400003], [85.37441560400003, 25.894041111000035], [85.37437138900003, 25.894718089000037], [85.37379231000006, 25.894438836000063], [85.37321807200004, 25.894069183000056], [85.37309319700006, 25.893992559000026], [85.37255936500009, 25.893974979000063], [85.37190076800005, 25.894016117000035], [85.37157155500006, 25.894129216000067], [85.37130203700008, 25.894088887000066], [85.37120235900005, 25.894201801000065], [85.37103771700004, 25.89418390900005], [85.37077351000005, 25.894481949000067], [85.37081385600004, 25.89481588900003], [85.37087395200007, 25.895113700000024], [85.37093915300005, 25.895407007000074], [85.37034062400005, 25.895615113000076], [85.36964220400006, 25.895800789000077], [85.36910852300008, 25.89600426000004], [85.36886414600008, 25.896135420000064], [85.36811156300007, 25.896975480000037], [85.36616608100007, 25.89753669600003], [85.36617198200008, 25.898461920000045], [85.36627723000004, 25.89890862200008], [85.36633732400009, 25.899170341000058], [85.36639726900006, 25.89924248600005], [85.36637739500009, 25.899319223000077], [85.36648256200004, 25.89972532400003], [85.36658282700006, 25.900172105000024], [85.36662796300004, 25.90039769400005], [85.36666796300005, 25.900433789000033], [85.36674793900005, 25.900582677000045], [85.36670828200005, 25.90087600700008], [85.36668848100004, 25.90106562300008], [85.36664866400008, 25.901173984000025], [85.36674851700008, 25.901209950000066], [85.36674860300008, 25.901250643000026], [85.36697831800006, 25.901399342000047], [85.36697838600008, 25.901548314000024], [85.36720335800004, 25.90195884700006], [85.36730334800006, 25.90212122400004], [85.36744829600008, 25.902364824000074], [85.36761340800007, 25.902811487000065], [85.36767866200006, 25.903222092000078], [85.36773870400003, 25.90336651000007], [85.36773882700004, 25.90349743400003], [85.36786365500006, 25.903592109000044], [85.36821376600005, 25.90437260300007], [85.36821385700006, 25.904444784000077], [85.36837866900004, 25.904616159000057], [85.36841878600006, 25.904819177000036], [85.36835411700008, 25.90493207800006], [85.36833415500007, 25.90500430700007], [85.36821453300007, 25.905076657000052], [85.36804990200005, 25.905153504000054], [85.36794531400005, 25.905338585000038], [85.36796534100006, 25.905451420000077], [85.36800537200008, 25.905546164000043], [85.36809031800004, 25.905600321000065], [85.36817520700004, 25.905672434000053], [85.36819016400005, 25.905708471000025], [85.36829509100005, 25.90582123400003], [85.36835502700006, 25.905897890000062], [85.36841997000005, 25.905933953000044], [85.36843999700005, 25.906046788000026], [85.36858484500004, 25.90615504400006], [85.36862487700006, 25.906249788000025], [85.36880956300007, 25.90634433200006], [85.36887463100004, 25.90651131800007], [85.36893453800008, 25.906529324000076], [85.36897448700006, 25.906583467000075], [85.36899453500007, 25.906619513000066], [85.36926432400008, 25.90695778500003], [85.36950923400008, 25.907309620000035], [85.36971908800007, 25.907571236000024], [85.36989563600008, 25.907889831000034], [85.36993406700003, 25.90795918300006], [85.37010405900008, 25.90827493000006], [85.37029405500004, 25.908608771000047], [85.37035408900005, 25.908757699000034], [85.37041411900003, 25.908906536000075], [85.37041436500004, 25.909204474000035], [85.37025009200005, 25.909538562000023], [85.37011066200006, 25.909836529000074], [85.37006593200005, 25.91005775600007], [85.37004605800007, 25.910134493000044], [85.37004640200007, 25.910432336000042], [85.37015150300005, 25.910730157000046], [85.37025161600008, 25.911027965000073], [85.37035671500007, 25.911325694000027], [85.37048178300006, 25.911618959000066], [85.37054188700006, 25.911916766000047], [85.37060708200005, 25.912214581000057], [85.37062722700006, 25.91232290000005], [85.37058742100004, 25.91253051500007], [85.37046266500005, 25.91251262800006], [85.37039785800005, 25.912566791000074], [85.37025817700004, 25.91260300500005], [85.37017345700008, 25.912679860000026], [85.37007361400003, 25.91273854700006], [85.36988899100004, 25.91275679000006], [85.36980423700004, 25.91277490500005], [85.36976432600005, 25.912811084000055], [85.36973947600006, 25.912883297000064], [85.36965956600005, 25.91284729000006], [85.36957974600006, 25.91288346500005], [85.36957981900008, 25.91299625100004], [85.36965998000005, 25.913294103000055], [85.36966007100006, 25.913366284000062], [85.36974509700008, 25.913497041000028], [85.36982504200006, 25.913591789000066], [85.36982503700006, 25.913627881000025], [85.36982538400008, 25.913925815000027], [85.36990554200008, 25.91422357500005], [85.36995068200008, 25.914521437000076], [85.36997097700004, 25.914855419000048], [85.37001122600003, 25.915153174000068], [85.37011134200003, 25.91545098200004], [85.37013663200008, 25.91574888300005], [85.37013671800008, 25.91585715700006], [85.37019658100007, 25.915857119000066], [85.37021671300005, 25.915969949000043], [85.37026160900007, 25.91596987400004], [85.37026168600005, 25.916082752000023], [85.37028208400005, 25.916416730000037], [85.37067207300004, 25.917120431000058], [85.37222423900005, 25.917222957000035], [85.37203097000008, 25.91852295900003], [85.37234643800008, 25.91957873000007], [85.37263703800005, 25.920612064000068], [85.37281294200005, 25.921839481000063], [85.37297801400007, 25.92214176600004], [85.37306286800003, 25.922195831000067], [85.37308312300007, 25.92251176700006], [85.37328798500005, 25.922714623000047], [85.37326838200005, 25.923012506000077], [85.37336828500008, 25.92314330000005], [85.37339332600004, 25.923215541000047], [85.37349328300007, 25.92332828700006], [85.37349345700005, 25.92347716100005], [85.37351943800007, 25.924483620000046], [85.37461708200004, 25.924171279000063]]]]}}, {"type": "Feature", "properties": {"OBJECTID": 642, "GPCODE": "99270", "GPNAME_1": "AKHTIYARPUR SEHAN", "DIST_CEN_C": null, "BLK_NAME": "CHEHRA KALAN", "ST_NAME": "BIHAR", "ST_CODE_1": "10", "GPCODE2011": "101711", "REMARKS": "FINALIZED", "MAP_STATUS": "COMPLETED", "BLK_C_2001": "180006", "BLK_C_2011": "01273", "DIST_NAME": "VAISHALI", "code2011": 0.0, "Shape_Leng": 0.18028728401, "Shape_Area": 0.00059116268, "Area": 6.56087}, "geometry": {"type": "MultiPolygon", "coordinates": [[[[85.42961257600007, 25.924221991000024], [85.43007518200005, 25.923205949000078], [85.43088853400008, 25.923132657000053], [85.43081188200006, 25.921972906000065], [85.43092575000009, 25.92137699700004], [85.43030329300007, 25.919021830000077], [85.42921268700007, 25.917267553000045], [85.42633830200003, 25.917411009000034], [85.42505562500008, 25.917412607000074], [85.42451096700006, 25.91692130900003], [85.42427515500003, 25.916082079000034], [85.42454892900008, 25.915589802000056], [85.42406411000007, 25.915111978000027], [85.42344024500005, 25.915112805000035], [85.42145911500006, 25.915187311000068], [85.42037121400006, 25.915188627000077], [85.41998164400007, 25.915013068000064], [85.41963141400004, 25.914381571000035], [85.41962903800004, 25.912761345000035], [85.41974502900007, 25.910195690000023], [85.41997474800007, 25.910215540000024], [85.42034380900003, 25.910084195000024], [85.42075299600003, 25.910065624000026], [85.42112727000006, 25.910006559000067], [85.42149650700009, 25.91000613400007], [85.42186572000008, 25.90993343200006], [85.42227486500008, 25.909932997000055], [85.42264425900004, 25.909950611000056], [85.42278886000008, 25.909932317000028], [85.42301848000005, 25.90995010100005], [85.42340780700005, 25.909976778000043], [85.42365236800003, 25.910003525000036], [85.42402160600005, 25.909962490000055], [85.42506969100003, 25.91002891900007], [85.42491578400006, 25.910629354000037], [85.42495234900008, 25.911717037000074], [85.42514808900006, 25.912456935000023], [85.42620130800003, 25.91259554800007], [85.42729885600005, 25.912391108000065], [85.42923959400008, 25.91200064800006], [85.43184439400005, 25.911893607000025], [85.43265790600003, 25.911892575000024], [85.43328310400005, 25.912839564000024], [85.43526488600008, 25.913189068000065], [85.43652708300004, 25.912925689000076], [85.43640829900005, 25.91173598000006], [85.43628874400008, 25.910538520000046], [85.43636447000006, 25.907938740000077], [85.43651819300004, 25.90730671600005], [85.43688690200008, 25.90693162200006], [85.43735596800008, 25.906899407000026], [85.43820985800005, 25.907281990000058], [85.43879349100007, 25.907105173000048], [85.43847843000003, 25.906722006000052], [85.43844280100006, 25.906297774000052], [85.43902129900005, 25.906053276000023], [85.43929499500007, 25.905560969000078], [85.43944903200008, 25.905172651000044], [85.44061237300008, 25.90555932700005], [85.44096573900003, 25.90499471700008], [85.44216835400005, 25.904961530000037], [85.44251747300007, 25.90485274200006], [85.44232192400005, 25.904293318000043], [85.44236109200006, 25.903832957000077], [85.44317336000006, 25.903132327000037], [85.44437916100009, 25.902043006000042], [85.44654172200006, 25.900167128000078], [85.44441412800006, 25.899046216000045], [85.44308050100005, 25.89824455400003], [85.44206212500006, 25.897966174000032], [85.44188253900006, 25.89797539700004], [85.44145331900006, 25.897917290000066], [85.44091921900008, 25.89778706900006], [85.44038505600008, 25.897643405000053], [85.43981093900004, 25.897477104000075], [85.43927668300006, 25.897288323000055], [85.43873758600006, 25.897121991000063], [85.43820312700007, 25.896806795000032], [85.43807835900003, 25.896752777000074], [85.43793815500004, 25.896473161000074], [85.43779328500005, 25.896396550000077], [85.43775338500006, 25.896396655000046], [85.43762824800007, 25.896157578000043], [85.43762817300006, 25.896062836000056], [85.43748335400005, 25.896008873000028], [85.43748303000007, 25.89580576700007], [85.43723826300004, 25.895621049000056], [85.43703310300003, 25.895264792000035], [85.43665804000005, 25.894746247000057], [85.43620829600007, 25.894300009000062], [85.43554879700008, 25.893799862000037], [85.43503441100006, 25.893484599000033], [85.43446013200008, 25.893187445000024], [85.43392575700005, 25.89289027700005], [85.43348625200008, 25.892633533000037], [85.43310179800005, 25.892426429000068], [85.43291703600005, 25.892349916000057], [85.43266748500008, 25.89229610500007], [85.43264734700006, 25.892205837000063], [85.43258723600007, 25.892020838000064], [85.43229775500004, 25.892021270000043], [85.43225773700004, 25.891944586000022], [85.43203318100007, 25.891908777000026], [85.43192796300008, 25.891647087000024], [85.43184317400005, 25.89164719100006], [85.43180301700005, 25.891462232000038], [85.43182234100004, 25.89109666300004], [85.43079982900008, 25.891287479000027], [85.43080042300005, 25.891707229000076], [85.43002231800006, 25.891848080000045], [85.42877963400008, 25.891709658000025], [85.42734244000007, 25.891571560000045], [85.42567115900005, 25.891749599000036], [85.42419432200006, 25.891751335000038], [85.42338161000004, 25.892172069000026], [85.42384757400004, 25.89347131200003], [85.42443311900007, 25.894702764000044], [85.42455220500005, 25.89761812100005], [85.42479070800005, 25.90028973400007], [85.42494847300009, 25.90236106800006], [85.42494982400007, 25.90328176500003], [85.42320369900006, 25.903527565000047], [85.42289019600008, 25.90415980000006], [85.42071473400006, 25.90430230000004], [85.42016772600005, 25.90212758200005], [85.41779741000005, 25.902130336000027], [85.41640053900005, 25.90233950800007], [85.41605076200005, 25.901987890000044], [85.41511811600003, 25.90234102100004], [85.41507899000004, 25.902905230000044], [85.41418676800004, 25.903641911000022], [85.41348901400005, 25.904242921000048], [85.41387463800004, 25.90529407300005], [85.41415114600005, 25.90677412200006], [85.41446165900004, 25.90750939900005], [85.41489228300009, 25.908564967000075], [85.41493259200007, 25.90888085100005], [85.41532202000008, 25.90898424200003], [85.41606020100005, 25.908739711000067], [85.41671908700005, 25.90880665700007], [85.41710891900004, 25.909266539000043], [85.41741486600006, 25.910322293000036], [85.41725605500005, 25.910954287000038], [85.41730103900005, 25.910999403000062], [85.41728115000006, 25.91105359000005], [85.41722162500008, 25.91127930700003], [85.41713718700004, 25.91157273700003], [85.41711734100005, 25.91164948000005], [85.41707750800003, 25.91173980800005], [85.41697292300006, 25.91187078400003], [85.41695303400007, 25.91196566700006], [85.41693325500006, 25.91205594300004], [85.41641929800005, 25.91211516100003], [85.41635938200005, 25.912097173000063], [85.41633949200008, 25.912151359000063], [85.41621467100003, 25.912115372000073], [85.41603004800004, 25.912097578000044], [85.41570072200005, 25.91213407600003], [85.41537132900004, 25.912116343000037], [85.41504200200006, 25.912152839000044], [85.41471766500007, 25.91218934500006], [85.41438828300005, 25.91220779500003], [85.41405893800004, 25.912172012000042], [85.41372961100006, 25.912208505000024], [85.41340016400005, 25.912172724000072], [85.41329540900006, 25.912172867000038], [85.41315047700004, 25.912042188000044], [85.41298557800008, 25.91191597900007], [85.41282075000004, 25.911762698000075], [85.41261589300007, 25.911618541000053], [85.41253591100008, 25.91148772300005], [85.41239114600006, 25.911487874000045], [85.41228628400006, 25.911411231000045], [85.41220631300007, 25.911316597000052], [85.41191660800007, 25.911149884000054], [85.41185663900006, 25.91111385000005], [85.41111811000007, 25.911173397000027], [85.41057443900007, 25.91134549700007], [85.41051953100003, 25.911359098000048], [85.41007075300007, 25.911603308000053], [85.40963684500008, 25.911766252000064], [85.40914300400004, 25.91195632000006], [85.40873414200007, 25.912196008000024], [85.40873463300005, 25.91258868400007], [85.40875514300006, 25.912994843000035], [85.40859085800008, 25.913292881000075], [85.40851104300003, 25.913292983000076], [85.40842624600003, 25.91332916700003], [85.40834143600006, 25.913369862000025], [85.40826151600004, 25.91329317800006], [85.40816163600005, 25.91322114700006], [85.40813659000008, 25.913144399000032], [85.40803660400007, 25.913072279000062], [85.40795170000007, 25.912995677000026], [85.40797652800006, 25.912923458000023], [85.40797148600006, 25.912905402000035], [85.40795142200005, 25.912792573000047], [85.40787145400003, 25.91269793600003], [85.40782643700004, 25.912589656000023], [85.40774597900008, 25.91217904100006], [85.40768557000007, 25.911808979000057], [85.40754064200007, 25.911601506000068], [85.40748072700006, 25.911583515000075], [85.40739560400004, 25.911398641000062], [85.40707591700004, 25.911177809000037], [85.40641228700008, 25.91124624200006], [85.40567456700006, 25.91187889100007], [85.40509572300004, 25.911951741000053], [85.40455178000008, 25.911916205000068], [85.40412295000004, 25.912232534000054], [85.40428938800005, 25.913568264000048], [85.40444682800006, 25.915644203000056], [85.40440925400009, 25.917435956000077], [85.40429661600007, 25.919087967000053], [85.40445198600008, 25.919579768000062], [85.40488146100006, 25.91979136300006], [85.40530607100004, 25.92003461400003], [85.40619909400004, 25.919826100000023], [85.40775640800007, 25.91992818800003], [85.41004663800004, 25.91957371600006], [85.41156407800008, 25.91977962800007], [85.41323639200004, 25.920057576000033], [85.41343181400003, 25.92058535800004], [85.41366743900005, 25.92139293300005], [85.41627269600008, 25.921426095000072], [85.41689159800006, 25.92138928600008], [85.41724183400004, 25.92202078500003], [85.41825497000008, 25.922055700000044], [85.41845095000008, 25.922971636000057], [85.42015770500007, 25.922861330000046], [85.42167503700006, 25.92293180100006], [85.42311284700008, 25.923245982000026], [85.42400613000007, 25.92317270500007], [85.42447529100008, 25.923208201000023], [85.42471069200008, 25.923772143000065], [85.42595367000007, 25.923874411000043], [85.42747088900006, 25.923872553000024], [85.42843942200005, 25.92408352800004], [85.42961257600007, 25.924221991000024]]]]}}, {"type": "Feature", "properties": {"OBJECTID": 649, "GPCODE": "99280", "GPNAME_1": "VISHUNPUR  ARRA", "DIST_CEN_C": null, "BLK_NAME": "CHEHRA KALAN", "ST_NAME": "BIHAR", "ST_CODE_1": "10", "GPCODE2011": "101721", "REMARKS": "FINALIZED", "MAP_STATUS": "COMPLETED", "BLK_C_2001": "180006", "BLK_C_2011": "01273", "DIST_NAME": "VAISHALI", "code2011": 0.0, "Shape_Leng": 0.13987908753, "Shape_Area": 0.00058432074, "Area": 6.48437}, "geometry": {"type": "MultiPolygon", "coordinates": [[[[85.40079121700006, 25.93368119300004], [85.40177951100009, 25.93353661900005], [85.40215886500005, 25.933590674000072], [85.40257320900008, 25.93373503400005], [85.40295377400008, 25.933486498000036], [85.40300731600007, 25.93315253800006], [85.40308444900006, 25.93104473300008], [85.40280728300007, 25.929005102000076], [85.40237583900006, 25.92731756300003], [85.40280338700006, 25.925945128000023], [85.40307678300007, 25.925100825000072], [85.40401011400007, 25.92509984000003], [85.40423861200009, 25.924291802000027], [85.40474743600004, 25.92411522900005], [85.40462598800008, 25.92285160600005], [85.40530444000007, 25.922593644000074], [85.40518876000004, 25.921952875000045], [85.40382608100003, 25.921814452000035], [85.40343639400004, 25.92153048700004], [85.40254286200008, 25.921355427000037], [85.40134017600008, 25.921428908000053], [85.39931880600005, 25.921358774000055], [85.39817071900006, 25.921233579000045], [85.39537022300004, 25.92067230500004], [85.39513519000008, 25.920320445000073], [85.39361721000006, 25.919690123000066], [85.39358183800005, 25.919374250000033], [85.39357925200005, 25.91937493300003], [85.39348606300007, 25.91855296600005], [85.39297336000004, 25.915529565000043], [85.39254673600004, 25.913526104000027], [85.39151831400005, 25.913229238000042], [85.39155240200006, 25.912538708000056], [85.39155194200004, 25.912538013000074], [85.39173694400006, 25.91247532600005], [85.39231061400005, 25.912289732000033], [85.39284438600004, 25.912099624000064], [85.39337820000009, 25.911932163000074], [85.39397685800003, 25.91176457200004], [85.39397675500004, 25.911728483000047], [85.39411647900005, 25.911710293000056], [85.39420118300006, 25.911597332000042], [85.39448546300008, 25.91147073600007], [85.39463916100004, 25.910590442000057], [85.39510294700005, 25.910377891000053], [85.39592132000007, 25.910309392000045], [85.39685420400008, 25.910060232000035], [85.39660241800004, 25.90824609300006], [85.39653481900007, 25.906052763000048], [85.39401346700004, 25.90625798800005], [85.39294224400004, 25.90634516600005], [85.39086151600003, 25.906550351000078], [85.38997289800005, 25.90622626100003], [85.38899480900005, 25.906191058000047], [85.38735815900003, 25.906309930000077], [85.38629003000005, 25.906112370000073], [85.38642579500004, 25.906992312000057], [85.38691615000005, 25.908156279000025], [85.38518435600008, 25.908036082000024], [85.38278907200004, 25.908078846000024], [85.38181581500004, 25.90788119800004], [85.38026337300005, 25.907521528000075], [85.37884658500008, 25.907924492000063], [85.37729463600004, 25.907925885000054], [85.37730540100006, 25.908638893000045], [85.37777729100009, 25.911202013000036], [85.37828338100007, 25.913137762000076], [85.37945275100003, 25.914576424000074], [85.38011258900008, 25.915523612000072], [85.38081212500003, 25.91626318400006], [85.38155095700006, 25.91650622900005], [85.38153686900006, 25.917268983000042], [85.38067873300008, 25.91748185800003], [85.38029015600006, 25.918114100000025], [85.37912772100003, 25.918534881000028], [85.37873943100004, 25.919451335000076], [85.37865625600006, 25.92097238300005], [85.37702474500009, 25.921357417000024], [85.37694543900005, 25.92188560900007], [85.37667248900004, 25.923361644000067], [85.37620862500006, 25.92357413800005], [85.37527500800007, 25.92332674200003], [85.37461708200004, 25.924171279000063], [85.37351943800007, 25.924483620000046], [85.37361956500007, 25.92481751500003], [85.37353537700005, 25.925372757000048], [85.37353567600007, 25.925688644000047], [85.37335619400005, 25.925891870000044], [85.37335627800007, 25.925932470000078], [85.37285770100004, 25.926488105000033], [85.37269827300008, 25.926691282000036], [85.37203997800003, 25.927233456000067], [85.37185545800008, 25.927382531000035], [85.37179059500005, 25.92741865000005], [85.37164604100008, 25.927549681000073], [85.37144146800006, 25.92766271100004], [85.37144650600004, 25.927680767000027], [85.37082782700008, 25.92793854200005], [85.37045870900005, 25.928087720000065], [85.37029392200003, 25.928069831000073], [85.37011932600007, 25.928133212000034], [85.36961541800008, 25.928345684000078], [85.36873233700004, 25.92863079600005], [85.36858755800006, 25.928594815000054], [85.36852268800004, 25.92866702500004], [85.36846281400005, 25.92870315500005], [85.36846294900005, 25.92876189100008], [85.36809862200005, 25.928838899000027], [85.36712563900005, 25.92911945700007], [85.36775052800004, 25.93013897000003], [85.36845123000006, 25.93200236800004], [85.36958439100005, 25.932639016000053], [85.37079910500006, 25.93276896900005], [85.37084818200003, 25.932613764000052], [85.37235059100004, 25.93230240200006], [85.37466152800005, 25.932216691000065], [85.37573968300006, 25.93213096100004], [85.37676788200008, 25.93195939000003], [85.38041641600006, 25.931498994000037], [85.38041821100006, 25.931498885000053], [85.38250781400006, 25.931372503000034], [85.38392532000006, 25.931255102000023], [85.38499839400004, 25.931196369000077], [85.38607650800003, 25.931155684000032], [85.38703982500004, 25.930984077000062], [85.38759385300006, 25.930871185000058], [85.38789829300003, 25.930911846000072], [85.38822767900007, 25.931096839000077], [85.38855869900004, 25.931560244000025], [85.38889171100004, 25.932026438000037], [85.38891167000008, 25.932026484000062], [85.38926613800004, 25.93271248900004], [85.38939096900003, 25.932969745000037], [85.38993002700005, 25.93296969000005], [85.39029435000003, 25.93329903500006], [85.39187700800005, 25.93542910900004], [85.39211506200007, 25.935720549000052], [85.39235620700003, 25.936015772000076], [85.39235976800006, 25.93601667300004], [85.39248106200006, 25.936047357000064], [85.39286036300007, 25.935975115000076], [85.39584999600004, 25.93485998700004], [85.39692493600006, 25.934579220000046], [85.39849537100008, 25.93416902900003], [85.40079121700006, 25.93368119300004]]]]}}, {"type": "Feature", "properties": {"OBJECTID": 661, "GPCODE": "99276", "GPNAME_1": "MANSURPUR HALAIYA", "DIST_CEN_C": null, "BLK_NAME": "CHEHRA KALAN", "ST_NAME": "BIHAR", "ST_CODE_1": "10", "GPCODE2011": "101717", "REMARKS": "FINALIZED", "MAP_STATUS": "COMPLETED", "BLK_C_2001": "180006", "BLK_C_2011": "01273", "DIST_NAME": "VAISHALI", "code2011": 0.0, "Shape_Leng": 0.14945180113, "Shape_Area": 0.00051389594, "Area": 5.7041}, "geometry": {"type": "MultiPolygon", "coordinates": [[[[85.39945400300007, 25.90995372200007], [85.40159455200006, 25.909703259000025], [85.40287727800006, 25.909846405000053], [85.40274402500006, 25.907115989000033], [85.40243297900008, 25.905848155000058], [85.40320570800003, 25.905287686000065], [85.40585041800006, 25.905212653000035], [85.40691809400005, 25.905089588000067], [85.40831474500004, 25.90459618600005], [85.41025901300009, 25.903226537000023], [85.41072247800008, 25.90276562400004], [85.41122559100006, 25.90216936400003], [85.41091470200007, 25.90104590800007], [85.41040933200009, 25.900062623000053], [85.41017290000008, 25.898654737000072], [85.41005679800008, 25.897670998000024], [85.40997660600004, 25.897391209000034], [85.41025002500004, 25.896614637000027], [85.41012919800005, 25.895879110000067], [85.40928183700004, 25.896480332000067], [85.40858476100004, 25.897641020000037], [85.40807705800006, 25.898589340000058], [85.40757330200006, 25.89869817300007], [85.40737942800007, 25.899257996000074], [85.40683604700007, 25.899682819000077], [85.40633157900004, 25.899331395000047], [85.40625054600008, 25.89841530900003], [85.40571038800005, 25.897477136000077], [85.40591483400004, 25.897382107000055], [85.40573478600004, 25.89703028100007], [85.40560992500008, 25.896940148000056], [85.40558976000005, 25.89679122700005], [85.40550464500006, 25.896606259000066], [85.40537951800007, 25.896272414000066], [85.40531913900008, 25.895897926000032], [85.40529903200007, 25.895803143000023], [85.40515400800007, 25.89556408900006], [85.40523880200004, 25.89548730100006], [85.40498920300007, 25.89545140200005], [85.40498914500006, 25.895397264000053], [85.40486938500004, 25.895379324000032], [85.40484440600005, 25.895356804000073], [85.40472454000007, 25.895302774000072], [85.40465936800007, 25.895045570000036], [85.40455941300007, 25.89489223700008], [85.40451935100003, 25.894838107000055], [85.40445434800006, 25.894671223000046], [85.40439417900006, 25.894522309000024], [85.40420948000008, 25.894427714000074], [85.40396492500008, 25.89437386800006], [85.40371543100008, 25.894337963000055], [85.40359063900007, 25.894338151000056], [85.40322134200005, 25.894302443000072], [85.40281214900006, 25.894226133000075], [85.40268725200008, 25.89411344100006], [85.40258717000006, 25.893933041000025], [85.40252217000005, 25.89380215700004], [85.40242237800004, 25.893779746000064], [85.40240231500007, 25.893707520000078], [85.40229742800005, 25.893649009000058], [85.40202787700008, 25.893540966000046], [85.40196797500005, 25.893559065000034], [85.40176332200008, 25.893505120000043], [85.40165858200004, 25.893505255000036], [85.40108460200008, 25.893388436000066], [85.40077400900003, 25.892422945000078], [85.40028407000005, 25.891683272000023], [85.40072763600006, 25.891240569000047], [85.40090682400006, 25.890960524000036], [85.40081164000009, 25.89062664900007], [85.40075137300005, 25.89032885200004], [85.40060631900008, 25.890031143000044], [85.40052111300008, 25.889733291000027], [85.40042110300004, 25.88956642200003], [85.40044079400008, 25.889399452000077], [85.40052559000009, 25.88935876000005], [85.40062544000006, 25.889358611000034], [85.40077002500004, 25.88934042900007], [85.40080977000008, 25.88920950200003], [85.40086939900004, 25.88895220300003], [85.40091413200008, 25.888821286000052], [85.40082923600005, 25.888785191000068], [85.40084908400007, 25.88867235600003], [85.40080913400004, 25.888654406000057], [85.40080871400005, 25.88835646700005], [85.40072850100006, 25.888058718000025], [85.40060339800004, 25.887760960000037], [85.40049824400006, 25.887463155000034], [85.40041803200006, 25.887165405000076], [85.40039782200006, 25.886998438000035], [85.40047756000007, 25.886908109000046], [85.40052229200006, 25.886777193000057], [85.40066193500007, 25.886740951000036], [85.40074672600008, 25.886700167000072], [85.40095125500005, 25.88664583800005], [85.40097105800004, 25.886587144000032], [85.40111583500004, 25.886609560000068], [85.40113579500007, 25.886605], [85.40132047700007, 25.886663506000048], [85.40138525400005, 25.886609237000073], [85.40169457400003, 25.886608910000064], [85.40201896300005, 25.886644705000037], [85.40234817500004, 25.88659019100004], [85.40263750100007, 25.886531260000027], [85.40296676900005, 25.886530883000034], [85.40329603700008, 25.886530505000053], [85.40362530500005, 25.88649412500007], [85.40395477300007, 25.886570437000046], [85.40428409800006, 25.88658819400007], [85.40460837800003, 25.886587803000054], [85.40479302000006, 25.886623747000044], [85.40483285900007, 25.88656951300004], [85.40491765200005, 25.886528819000034], [85.40499750300006, 25.88654676400006], [85.40508207700003, 25.88639779700003], [85.40514186000007, 25.886307422000073], [85.40524626900003, 25.886009433000027], [85.40522611100005, 25.885896605000028], [85.40522090700006, 25.885711623000077], [85.40527054300009, 25.88549490500003], [85.40537503600007, 25.885318820000066], [85.40723621600006, 25.885398013000042], [85.40776541300005, 25.885654661000046], [85.40820986700004, 25.885974652000073], [85.40860971200004, 25.886497744000053], [85.40967195800005, 25.886135538000076], [85.40968177500008, 25.88604072800007], [85.40995125000006, 25.886058526000056], [85.41028045000007, 25.88596790200006], [85.41081402600008, 25.885800290000077], [85.41134776700005, 25.885686903000078], [85.41184161300004, 25.885609612000053], [85.41237540100008, 25.885554871000068], [85.41257992700008, 25.885536528000046], [85.41290935500007, 25.88563096200005], [85.41340354000005, 25.885774819000062], [85.41389731900006, 25.88568398900003], [85.41391721700006, 25.88566598700004], [85.41404195000007, 25.885607141000037], [85.41416163600007, 25.885570845000075], [85.41424608300008, 25.885349690000055], [85.41428569200008, 25.885146484000074], [85.41418572600008, 25.88495706300006], [85.41428535900008, 25.884844120000025], [85.41408060500004, 25.884754101000055], [85.41414015900006, 25.88447414700005], [85.41389501700007, 25.884063730000037], [85.41397456600004, 25.883806375000063], [85.41399430000007, 25.88369354100007], [85.41414835400008, 25.883201474000032], [85.41534511400005, 25.882757758000025], [85.41667661400004, 25.88231846000008], [85.41644531900005, 25.88103699000004], [85.41614430500005, 25.87983685300003], [85.41211855300008, 25.880161834000035], [85.40985893600003, 25.880525343000045], [85.40773407100005, 25.88092483500003], [85.40693553700004, 25.880686473000026], [85.40587295400007, 25.880768858000067], [85.40542834300004, 25.880327049000073], [85.40471996100007, 25.88036849300005], [85.40410188700008, 25.880851982000024], [85.40343816800004, 25.88070827100006], [85.40272914700006, 25.880266793000033], [85.40042408200009, 25.880151846000047], [85.39980438300006, 25.87938968900005], [85.39811821300003, 25.87947265500003], [85.39798917100006, 25.87999183000005], [85.39759081600005, 25.880588016000047], [85.39387472600004, 25.881273217000057], [85.39232396400007, 25.881956269000057], [85.39267960700005, 25.883196997000027], [85.39268286800007, 25.88588242700007], [85.39264001700008, 25.887538860000063], [85.39069411400004, 25.887500084000067], [85.39064879500006, 25.887179669000034], [85.39020471200007, 25.887144034000073], [85.39002565100003, 25.88766318000006], [85.38905295600006, 25.887862769000037], [85.38905387700004, 25.888625481000076], [85.38892611400007, 25.89030906200003], [85.38865743600007, 25.890950175000057], [85.38751097100004, 25.891872011000032], [85.38635947600005, 25.892875037000067], [85.38664993200007, 25.893759303000024], [85.38643674100007, 25.894932979000032], [85.38651340800004, 25.89648094200004], [85.38609120500007, 25.89813317000005], [85.38570206300005, 25.898237323000046], [85.38539336300005, 25.89883791500006], [85.38527497000007, 25.900029482000036], [85.38527669500007, 25.901509872000076], [85.38594182700007, 25.902736855000057], [85.38613875300007, 25.904740464000042], [85.38555484100004, 25.904741048000062], [85.38536095400008, 25.90534153400006], [85.38532278500008, 25.906853497000043], [85.38518435600008, 25.908036082000024], [85.38691615000005, 25.908156279000025], [85.38642579500004, 25.906992312000057], [85.38629003000005, 25.906112370000073], [85.38735815900003, 25.906309930000077], [85.38899480900005, 25.906191058000047], [85.38997289800005, 25.90622626100003], [85.39086151600003, 25.906550351000078], [85.39294224400004, 25.90634516600005], [85.39401346700004, 25.90625798800005], [85.39653481900007, 25.906052763000048], [85.39660241800004, 25.90824609300006], [85.39685420400008, 25.910060232000035], [85.39945400300007, 25.90995372200007]]]]}}, {"type": "Feature", "properties": {"OBJECTID": 668, "GPCODE": "99277", "GPNAME_1": "MATHNA MILIK", "DIST_CEN_C": null, "BLK_NAME": "CHEHRA KALAN", "ST_NAME": "BIHAR", "ST_CODE_1": "10", "GPCODE2011": "101718", "REMARKS": "FINALIZED", "MAP_STATUS": "COMPLETED", "BLK_C_2001": "180006", "BLK_C_2011": "01273", "DIST_NAME": "VAISHALI", "code2011": 0.0, "Shape_Leng": 0.10453720013, "Shape_Area": 0.00050391664, "Area": 5.59157}, "geometry": {"type": "MultiPolygon", "coordinates": [[[[85.41965591600007, 25.939805637000063], [85.42027468900005, 25.939304504000063], [85.42081360100008, 25.93873111000005], [85.42173169900008, 25.938044801000046], [85.42231560500005, 25.937715205000075], [85.42281969900006, 25.937615712000024], [85.42399268800006, 25.93760175500006], [85.42522573400004, 25.937799949000066], [85.42620416400007, 25.93805681400005], [85.42669340600008, 25.93811536100003], [85.42669579500006, 25.93811536000004], [85.42765670300008, 25.938115035000067], [85.42873490200003, 25.938055915000064], [85.42924397600007, 25.938001619000033], [85.42949347400008, 25.937870650000036], [85.42976291000008, 25.937541031000023], [85.43017691000006, 25.936895536000065], [85.43047621000005, 25.936552353000025], [85.43076062900008, 25.93634015400005], [85.43110997300005, 25.936267850000036], [85.43169401600005, 25.93632169400007], [85.43261263000005, 25.93672304100005], [85.43319679300004, 25.93693947500003], [85.43347628200007, 25.93690772000008], [85.43362089100003, 25.93673620900006], [85.43355545200006, 25.935680121000075], [85.43356538400008, 25.935449962000064], [85.43363452900007, 25.934113973000024], [85.43364943700004, 25.93384773200006], [85.43380780600006, 25.931166762000032], [85.43275923100003, 25.93031042100006], [85.43241343900007, 25.928086311000072], [85.43136550500003, 25.928227546000073], [85.43136266000005, 25.926363538000032], [85.42945607000007, 25.926365933000056], [85.42961257600007, 25.924221991000024], [85.42843942200005, 25.92408352800004], [85.42747088900006, 25.923872553000024], [85.42595367000007, 25.923874411000043], [85.42471069200008, 25.923772143000065], [85.42447529100008, 25.923208201000023], [85.42400613000007, 25.92317270500007], [85.42311284700008, 25.923245982000026], [85.42167503700006, 25.92293180100006], [85.42015770500007, 25.922861330000046], [85.41845095000008, 25.922971636000057], [85.41825497000008, 25.922055700000044], [85.41724183400004, 25.92202078500003], [85.41689159800006, 25.92138928600008], [85.41627269600008, 25.921426095000072], [85.41366743900005, 25.92139293300005], [85.41343181400003, 25.92058535800004], [85.41323639200004, 25.920057576000033], [85.41156407800008, 25.91977962800007], [85.41004663800004, 25.91957371600006], [85.40775640800007, 25.91992818800003], [85.40619909400004, 25.919826100000023], [85.40530607100004, 25.92003461400003], [85.40518876000004, 25.921952875000045], [85.40530444000007, 25.922593644000074], [85.40462598800008, 25.92285160600005], [85.40474743600004, 25.92411522900005], [85.40423861200009, 25.924291802000027], [85.40401011400007, 25.92509984000003], [85.40307678300007, 25.925100825000072], [85.40280338700006, 25.925945128000023], [85.40237583900006, 25.92731756300003], [85.40280728300007, 25.929005102000076], [85.40308444900006, 25.93104473300008], [85.40300731600007, 25.93315253800006], [85.40295377400008, 25.933486498000036], [85.40257320900008, 25.93373503400005], [85.40460003000004, 25.93499386600007], [85.40510429500006, 25.93548119600007], [85.40537398400005, 25.936338600000056], [85.40590865800004, 25.93829728000003], [85.40610522200006, 25.938803036000024], [85.40630329200008, 25.939312666000035], [85.40639822100007, 25.939610536000032], [85.40715686900006, 25.939565236000078], [85.40884907100008, 25.93956485700005], [85.40894892600005, 25.939695722000067], [85.40907399000008, 25.940769812000042], [85.40896451400005, 25.94169957500003], [85.40872497100008, 25.942214101000047], [85.40850562100007, 25.94310329900003], [85.40861564800008, 25.943662862000053], [85.40904533400004, 25.944994206000047], [85.40904757000004, 25.944993778000025], [85.41407679100007, 25.944031557000073], [85.413602, 25.942483675000062], [85.41352197600008, 25.941969199000027], [85.41358672200005, 25.941585589000056], [85.41399590800006, 25.941025844000023], [85.41445489800003, 25.940578903000073], [85.41524855000006, 25.94046587100007], [85.41648142300005, 25.94022173600007], [85.41815858000007, 25.940135508000026], [85.41913185300007, 25.940022377000048], [85.41965591600007, 25.939805637000063]]]]}}, {"type": "Feature", "properties": {"OBJECTID": 683, "GPCODE": "99269", "GPNAME_1": "ABAVAKARPUR", "DIST_CEN_C": null, "BLK_NAME": "CHEHRA KALAN", "ST_NAME": "BIHAR", "ST_CODE_1": "10", "GPCODE2011": "101710", "REMARKS": "FINALIZED", "MAP_STATUS": "COMPLETED", "BLK_C_2001": "180006", "BLK_C_2011": "01273", "DIST_NAME": "VAISHALI", "code2011": 0.0, "Shape_Leng": 0.126024931, "Shape_Area": 0.00029814705, "Area": 3.30895}, "geometry": {"type": "MultiPolygon", "coordinates": [[[[85.40518876000004, 25.921952875000045], [85.40530607100004, 25.92003461400003], [85.40488146100006, 25.91979136300006], [85.40445198600008, 25.919579768000062], [85.40429661600007, 25.919087967000053], [85.40440925400009, 25.917435956000077], [85.40444682800006, 25.915644203000056], [85.40428938800005, 25.913568264000048], [85.40412295000004, 25.912232534000054], [85.40455178000008, 25.911916205000068], [85.40509572300004, 25.911951741000053], [85.40567456700006, 25.91187889100007], [85.40641228700008, 25.91124624200006], [85.40707591700004, 25.911177809000037], [85.40739560400004, 25.911398641000062], [85.40748072700006, 25.911583515000075], [85.40754064200007, 25.911601506000068], [85.40768557000007, 25.911808979000057], [85.40774597900008, 25.91217904100006], [85.40782643700004, 25.912589656000023], [85.40787145400003, 25.91269793600003], [85.40795142200005, 25.912792573000047], [85.40797148600006, 25.912905402000035], [85.40797652800006, 25.912923458000023], [85.40795170000007, 25.912995677000026], [85.40803660400007, 25.913072279000062], [85.40813659000008, 25.913144399000032], [85.40816163600005, 25.91322114700006], [85.40826151600004, 25.91329317800006], [85.40834143600006, 25.913369862000025], [85.40842624600003, 25.91332916700003], [85.40851104300003, 25.913292983000076], [85.40859085800008, 25.913292881000075], [85.40875514300006, 25.912994843000035], [85.40873463300005, 25.91258868400007], [85.40873414200007, 25.912196008000024], [85.40914300400004, 25.91195632000006], [85.40963684500008, 25.911766252000064], [85.41007075300007, 25.911603308000053], [85.41051953100003, 25.911359098000048], [85.41057443900007, 25.91134549700007], [85.41111811000007, 25.911173397000027], [85.41185663900006, 25.91111385000005], [85.41191660800007, 25.911149884000054], [85.41220631300007, 25.911316597000052], [85.41228628400006, 25.911411231000045], [85.41239114600006, 25.911487874000045], [85.41253591100008, 25.91148772300005], [85.41261589300007, 25.911618541000053], [85.41282075000004, 25.911762698000075], [85.41298557800008, 25.91191597900007], [85.41315047700004, 25.912042188000044], [85.41329540900006, 25.912172867000038], [85.41340016400005, 25.912172724000072], [85.41372961100006, 25.912208505000024], [85.41405893800004, 25.912172012000042], [85.41438828300005, 25.91220779500003], [85.41471766500007, 25.91218934500006], [85.41504200200006, 25.912152839000044], [85.41537132900004, 25.912116343000037], [85.41570072200005, 25.91213407600003], [85.41603004800004, 25.912097578000044], [85.41621467100003, 25.912115372000073], [85.41633949200008, 25.912151359000063], [85.41635938200005, 25.912097173000063], [85.41641929800005, 25.91211516100003], [85.41693325500006, 25.91205594300004], [85.41695303400007, 25.91196566700006], [85.41697292300006, 25.91187078400003], [85.41707750800003, 25.91173980800005], [85.41711734100005, 25.91164948000005], [85.41713718700004, 25.91157273700003], [85.41722162500008, 25.91127930700003], [85.41728115000006, 25.91105359000005], [85.41730103900005, 25.910999403000062], [85.41725605500005, 25.910954287000038], [85.41741486600006, 25.910322293000036], [85.41710891900004, 25.909266539000043], [85.41671908700005, 25.90880665700007], [85.41606020100005, 25.908739711000067], [85.41532202000008, 25.90898424200003], [85.41493259200007, 25.90888085100005], [85.41489228300009, 25.908564967000075], [85.41446165900004, 25.90750939900005], [85.41415114600005, 25.90677412200006], [85.41387463800004, 25.90529407300005], [85.41348901400005, 25.904242921000048], [85.41418676800004, 25.903641911000022], [85.41507899000004, 25.902905230000044], [85.41511811600003, 25.90234102100004], [85.41441933100003, 25.90220640000007], [85.41441870900007, 25.901818238000033], [85.41535123600005, 25.901392929000053], [85.41721176500005, 25.90083119600007], [85.41880903300006, 25.901145297000028], [85.41946712100008, 25.90079249100006], [85.41950500200005, 25.89935269500006], [85.41919247600003, 25.89717321300003], [85.41911147000008, 25.89632931400007], [85.41949993200006, 25.895800821000023], [85.42035287900006, 25.895623811000064], [85.42182986800003, 25.895658109000067], [85.42272240400007, 25.895201273000055], [85.42272025400007, 25.893756971000073], [85.42384757400004, 25.89347131200003], [85.42338161000004, 25.892172069000026], [85.42244811000006, 25.89189336900006], [85.42143519100006, 25.891826899000023], [85.42065752000008, 25.89235127200004], [85.42003428300006, 25.89266797600004], [85.41887295700008, 25.893513316000053], [85.41704821500008, 25.894571495000037], [85.41603545400005, 25.894712612000035], [85.41428915400007, 25.894750696000074], [85.41246256800008, 25.894504462000043], [85.41121575300008, 25.89493009200004], [85.41012919800005, 25.895879110000067], [85.41025002500004, 25.896614637000027], [85.40997660600004, 25.897391209000034], [85.41005679800008, 25.897670998000024], [85.41017290000008, 25.898654737000072], [85.41040933200009, 25.900062623000053], [85.41091470200007, 25.90104590800007], [85.41122559100006, 25.90216936400003], [85.41072247800008, 25.90276562400004], [85.41025901300009, 25.903226537000023], [85.40831474500004, 25.90459618600005], [85.40691809400005, 25.905089588000067], [85.40585041800006, 25.905212653000035], [85.40320570800003, 25.905287686000065], [85.40243297900008, 25.905848155000058], [85.40274402500006, 25.907115989000033], [85.40287727800006, 25.909846405000053], [85.40159455200006, 25.909703259000025], [85.39945400300007, 25.90995372200007], [85.39685420400008, 25.910060232000035], [85.39592132000007, 25.910309392000045], [85.39510294700005, 25.910377891000053], [85.39463916100004, 25.910590442000057], [85.39448546300008, 25.91147073600007], [85.39420118300006, 25.911597332000042], [85.39411647900005, 25.911710293000056], [85.39397675500004, 25.911728483000047], [85.39397685800003, 25.91176457200004], [85.39337820000009, 25.911932163000074], [85.39284438600004, 25.912099624000064], [85.39231061400005, 25.912289732000033], [85.39173694400006, 25.91247532600005], [85.39155194200004, 25.912538013000074], [85.39155240200006, 25.912538708000056], [85.39151831400005, 25.913229238000042], [85.39254673600004, 25.913526104000027], [85.39297336000004, 25.915529565000043], [85.39348606300007, 25.91855296600005], [85.39357925200005, 25.91937493300003], [85.39358183800005, 25.919374250000033], [85.39361721000006, 25.919690123000066], [85.39513519000008, 25.920320445000073], [85.39537022300004, 25.92067230500004], [85.39817071900006, 25.921233579000045], [85.39931880600005, 25.921358774000055], [85.40134017600008, 25.921428908000053], [85.40254286200008, 25.921355427000037], [85.40343639400004, 25.92153048700004], [85.40382608100003, 25.921814452000035], [85.40518876000004, 25.921952875000045]]]]}}, {"type": "Feature", "properties": {"OBJECTID": 684, "GPCODE": "99273", "GPNAME_1": "CHHAURAHI", "DIST_CEN_C": null, "BLK_NAME": "CHEHRA KALAN", "ST_NAME": "BIHAR", "ST_CODE_1": "10", "GPCODE2011": "101714", "REMARKS": "FINALIZED", "MAP_STATUS": "COMPLETED", "BLK_C_2001": "180006", "BLK_C_2011": "01273", "DIST_NAME": "VAISHALI", "code2011": 0.0, "Shape_Leng": 0.17514443543, "Shape_Area": 0.00056330597, "Area": 6.25232}, "geometry": {"type": "MultiPolygon", "coordinates": [[[[85.45331286600003, 25.913893857000062], [85.45403671100007, 25.911746712000024], [85.45392579200006, 25.911146588000065], [85.45369814700007, 25.909328078000044], [85.45332963200008, 25.906882498000073], [85.45319266400008, 25.906774704000043], [85.45305475800006, 25.90666617200003], [85.45305447300007, 25.906481204000045], [85.45323336600006, 25.906065667000064], [85.45336215200007, 25.905483295000067], [85.45330661600008, 25.905108838000046], [85.45304624500005, 25.904608229000075], [85.45230673800006, 25.904008936000025], [85.45131302300007, 25.90364476700006], [85.45108806700006, 25.903374299000063], [85.45094255200007, 25.902909627000042], [85.45105045200006, 25.901808224000035], [85.45094616300008, 25.90055096800006], [85.45082623200005, 25.899105105000046], [85.45037300900003, 25.896659614000043], [85.45074092300007, 25.895891808000044], [85.45110861000006, 25.894957077000072], [85.45125657500006, 25.893959506000044], [85.45128962900003, 25.89282204400007], [85.45147308400004, 25.892189967000036], [85.45202501900008, 25.89102024700003], [85.45287155800008, 25.890053269000077], [85.45309868900006, 25.889927713000077], [85.45303449500005, 25.889042094000047], [85.45418558500006, 25.888237083000035], [85.45631066800007, 25.887954255000068], [85.45768721200005, 25.887631897000063], [85.45812659400008, 25.88782081100004], [85.45850014000007, 25.887459207000063], [85.45889862000007, 25.88709755600007], [85.45927714000004, 25.88669535400004], [85.45816966600006, 25.886773684000048], [85.45677354800006, 25.88733981400003], [85.45502290900004, 25.88768079700003], [85.45411502200005, 25.88780394300005], [85.45353716600005, 25.888305743000046], [85.45284906800003, 25.888586459000066], [85.45241037700004, 25.88880825700005], [85.45227513900005, 25.888528662000056], [85.45258332100008, 25.88782868100003], [85.45265231000008, 25.887305023000067], [85.45273687600007, 25.887178495000057], [85.45294634100009, 25.887137643000074], [85.45319080600007, 25.887101182000038], [85.45348004600004, 25.887024019000023], [85.45376423000005, 25.886933406000026], [85.45382910500007, 25.886915204000047], [85.45384903500008, 25.886879057000044], [85.45390877400007, 25.886838384000043], [85.45392876400007, 25.88682028200003], [85.45398853500006, 25.886766073000047], [85.45409325000008, 25.886729810000077], [85.45413309100007, 25.88671174800004], [85.45425782500007, 25.88668896300004], [85.45442238900006, 25.886652629000025], [85.45471159800007, 25.88654388300006], [85.45473148700006, 25.88652578400007], [85.45477133700007, 25.886503210000058], [85.45481125600008, 25.886448960000052], [85.45502078900006, 25.88646675500007], [85.45510056700004, 25.886430536000034], [85.45508048500005, 25.886353804000066], [85.45524004200007, 25.88628136600005], [85.45528484700003, 25.886227129000076], [85.45530474900005, 25.88620460900006], [85.45542899900005, 25.885947138000063], [85.45544873800003, 25.88581625100005], [85.45546847700007, 25.88568536300005], [85.45546804100007, 25.885428025000067], [85.45542762000008, 25.885166380000044], [85.45536236200007, 25.88490468400005], [85.45534198100006, 25.884647492000056], [85.45536140600007, 25.884385683000062], [85.45534103200004, 25.884123888000033], [85.45536055100007, 25.88386667900005], [85.45540002500007, 25.883604812000044], [85.45540460000007, 25.88338366800008], [85.45540426600007, 25.883216654000023], [85.45514748100004, 25.881826919000048], [85.45494642600005, 25.880996804000063], [85.45502611100005, 25.88091095900006], [85.45509094200008, 25.880910805000042], [85.45513066900008, 25.88076181400004], [85.45547985500008, 25.880725270000028], [85.45593371500007, 25.880665905000058], [85.45599333200005, 25.88049890700006], [85.45630257200008, 25.880480335000073], [85.45642701900005, 25.880313182000066], [85.45646691800005, 25.88031316400003], [85.45687593500008, 25.88023584800004], [85.45732964100006, 25.880108808000045], [85.45782349800004, 25.880049416000077], [85.45827739000003, 25.879976600000077], [85.45876619700005, 25.879899151000075], [85.45925986000003, 25.87979013200004], [85.45971379600007, 25.87969465900005], [85.46020754300008, 25.879639868000027], [85.46070139700004, 25.87958046700004], [85.46115017100004, 25.879471452000075], [85.46164380900007, 25.87928121400006], [85.46174354900006, 25.879281030000072], [85.46176289700009, 25.878910939000036], [85.46180763500007, 25.87883865400005], [85.46182744900005, 25.878761904000044], [85.46180180900006, 25.87839182600004], [85.46178658900004, 25.87823389500005], [85.46173043700009, 25.877534424000032], [85.46066755900006, 25.87741416600005], [85.46031202900008, 25.87665190100006], [85.45902960700005, 25.876495780000027], [85.45835982200003, 25.875774639000042], [85.45743172900006, 25.875735357000053], [85.45685644600007, 25.874815510000076], [85.45407869100006, 25.875415133000047], [85.45345667300006, 25.87638181600005], [85.45363834400007, 25.87758211700003], [85.45310487000006, 25.877745365000067], [85.45293117500006, 25.878305198000078], [85.45355262000004, 25.87995167400004], [85.45133822700006, 25.88035646800006], [85.44805641800008, 25.88100189200003], [85.44743618100006, 25.880041325000036], [85.44654679500007, 25.87923924300003], [85.44344631900003, 25.88093130200008], [85.44087960300004, 25.882536967000078], [85.44052518400008, 25.882460683000033], [85.43751069200005, 25.88181916800005], [85.43528904500005, 25.880860707000068], [85.43333577300007, 25.87925651100005], [85.43173886200003, 25.87901934100006], [85.43183924300007, 25.879380276000063], [85.43237012300006, 25.880701919000046], [85.43253738900006, 25.881647482000062], [85.43136127100007, 25.881945466000047], [85.43087016000004, 25.882728519000068], [85.43116144600003, 25.884034899000028], [85.43186269600005, 25.884714458000076], [85.43340070200009, 25.88460221200006], [85.43388543300006, 25.886188134000065], [85.43379815900005, 25.88783104600003], [85.43394055500005, 25.889582048000022], [85.43371613100004, 25.88961842300006], [85.43317739200006, 25.889695784000025], [85.43264348100007, 25.889714507000065], [85.43235417600005, 25.889769073000025], [85.43186518300007, 25.889733559000035], [85.43176095900003, 25.89010374700007], [85.43180103300006, 25.890198476000023], [85.43178133000004, 25.89034749600006], [85.43184641100004, 25.890496321000057], [85.43180159600007, 25.890591157000074], [85.43182234100004, 25.89109666300004], [85.43180301700005, 25.891462232000038], [85.43184317400005, 25.89164719100006], [85.43192796300008, 25.891647087000024], [85.43203318100007, 25.891908777000026], [85.43225773700004, 25.891944586000022], [85.43229775500004, 25.892021270000043], [85.43258723600007, 25.892020838000064], [85.43264734700006, 25.892205837000063], [85.43266748500008, 25.89229610500007], [85.43291703600005, 25.892349916000057], [85.43310179800005, 25.892426429000068], [85.43348625200008, 25.892633533000037], [85.43392575700005, 25.89289027700005], [85.43446013200008, 25.893187445000024], [85.43503441100006, 25.893484599000033], [85.43554879700008, 25.893799862000037], [85.43620829600007, 25.894300009000062], [85.43665804000005, 25.894746247000057], [85.43703310300003, 25.895264792000035], [85.43723826300004, 25.895621049000056], [85.43748303000007, 25.89580576700007], [85.43748335400005, 25.896008873000028], [85.43762817300006, 25.896062836000056], [85.43762824800007, 25.896157578000043], [85.43775338500006, 25.896396655000046], [85.43779328500005, 25.896396550000077], [85.43793815500004, 25.896473161000074], [85.43807835900003, 25.896752777000074], [85.43820312700007, 25.896806795000032], [85.43873758600006, 25.897121991000063], [85.43927668300006, 25.897288323000055], [85.43981093900004, 25.897477104000075], [85.44038505600008, 25.897643405000053], [85.44091921900008, 25.89778706900006], [85.44145331900006, 25.897917290000066], [85.44188253900006, 25.89797539700004], [85.44206212500006, 25.897966174000032], [85.44308050100005, 25.89824455400003], [85.44441412800006, 25.899046216000045], [85.44654172200006, 25.900167128000078], [85.44437916100009, 25.902043006000042], [85.44317336000006, 25.903132327000037], [85.44236109200006, 25.903832957000077], [85.44232192400005, 25.904293318000043], [85.44251747300007, 25.90485274200006], [85.44216835400005, 25.904961530000037], [85.44096573900003, 25.90499471700008], [85.44061237300008, 25.90555932700005], [85.43944903200008, 25.905172651000044], [85.43929499500007, 25.905560969000078], [85.43902129900005, 25.906053276000023], [85.43844280100006, 25.906297774000052], [85.43847843000003, 25.906722006000052], [85.43879349100007, 25.907105173000048], [85.43820985800005, 25.907281990000058], [85.43735596800008, 25.906899407000026], [85.43688690200008, 25.90693162200006], [85.43651819300004, 25.90730671600005], [85.43636447000006, 25.907938740000077], [85.43628874400008, 25.910538520000046], [85.43640829900005, 25.91173598000006], [85.43704980000007, 25.91210363400006], [85.43759387500006, 25.91217054200007], [85.43813852300008, 25.912594123000076], [85.43871738000007, 25.912593335000054], [85.44019426800008, 25.912415423000027], [85.44077796600004, 25.912306363000027], [85.44147650300005, 25.91223776000004], [85.44175898800006, 25.912914002000036], [85.44270603300004, 25.913201963000063], [85.44381958300005, 25.913331794000044], [85.44489164400005, 25.913212506000036], [85.44517660900004, 25.91351007000003], [85.44552638100004, 25.913825531000043], [85.44581639400008, 25.914141056000062], [85.44614617900004, 25.914384292000022], [85.44647597600004, 25.914623015000075], [85.44666081100007, 25.91477169500007], [85.44703044400006, 25.914956266000047], [85.44777469700006, 25.915325322000058], [85.44791458500004, 25.915410937000047], [85.44895314100006, 25.915702846000045], [85.45039085900004, 25.915962639000043], [85.45101006400006, 25.916219030000036], [85.45138980500008, 25.916439698000033], [85.45180454000007, 25.916759501000058], [85.45250133800005, 25.915456283000026], [85.45331286600003, 25.913893857000062]]]]}}, {"type": "Feature", "properties": {"OBJECTID": 694, "GPCODE": "99275", "GPNAME_1": "KHAJE CHAND CHHAPRA", "DIST_CEN_C": null, "BLK_NAME": "CHEHRA KALAN", "ST_NAME": "BIHAR", "ST_CODE_1": "10", "GPCODE2011": "101716", "REMARKS": "FINALIZED", "MAP_STATUS": "COMPLETED", "BLK_C_2001": "180006", "BLK_C_2011": "01273", "DIST_NAME": "VAISHALI", "code2011": 0.0, "Shape_Leng": 0.10664274676, "Shape_Area": 0.00034997828, "Area": 3.88375}, "geometry": {"type": "MultiPolygon", "coordinates": [[[[85.43793517800003, 25.930451954000034], [85.43761889400008, 25.927130418000047], [85.43837761200007, 25.927188726000054], [85.43893168300008, 25.927328388000035], [85.43940594900005, 25.92745905000004], [85.43974028800005, 25.927431812000066], [85.44011948100007, 25.927255690000038], [85.44057841900008, 25.926727365000033], [85.44074791700007, 25.92644301400003], [85.44080729500007, 25.92545456000005], [85.44206003400006, 25.92538178800004], [85.44199464200005, 25.924578432000033], [85.44471951000008, 25.924306414000057], [85.44614181700007, 25.924034879000033], [85.44636144500004, 25.924075445000028], [85.44666669100008, 25.925379579000037], [85.44680150600004, 25.92542016400006], [85.44740027900008, 25.92525282500003], [85.44881245100004, 25.924877578000064], [85.45073361000004, 25.92427632600004], [85.45170174600008, 25.92411786400004], [85.45230062400003, 25.924031711000055], [85.45278251600007, 25.922476381000024], [85.45309986700005, 25.921230284000046], [85.45322837900005, 25.920553185000074], [85.45326239300005, 25.919970916000068], [85.45322658400005, 25.919469999000057], [85.45311085500003, 25.918969210000057], [85.45253973600006, 25.917670155000053], [85.45214953100003, 25.917129162000037], [85.45180454000007, 25.916759501000058], [85.45138980500008, 25.916439698000033], [85.45101006400006, 25.916219030000036], [85.45039085900004, 25.915962639000043], [85.44895314100006, 25.915702846000045], [85.44791458500004, 25.915410937000047], [85.44777469700006, 25.915325322000058], [85.44703044400006, 25.914956266000047], [85.44666081100007, 25.91477169500007], [85.44647597600004, 25.914623015000075], [85.44614617900004, 25.914384292000022], [85.44581639400008, 25.914141056000062], [85.44552638100004, 25.913825531000043], [85.44517660900004, 25.91351007000003], [85.44489164400005, 25.913212506000036], [85.44381958300005, 25.913331794000044], [85.44270603300004, 25.913201963000063], [85.44175898800006, 25.912914002000036], [85.44147650300005, 25.91223776000004], [85.44077796600004, 25.912306363000027], [85.44019426800008, 25.912415423000027], [85.43871738000007, 25.912593335000054], [85.43813852300008, 25.912594123000076], [85.43759387500006, 25.91217054200007], [85.43704980000007, 25.91210363400006], [85.43640829900005, 25.91173598000006], [85.43652708300004, 25.912925689000076], [85.43526488600008, 25.913189068000065], [85.43328310400005, 25.912839564000024], [85.43265790600003, 25.911892575000024], [85.43184439400005, 25.911893607000025], [85.42923959400008, 25.91200064800006], [85.42729885600005, 25.912391108000065], [85.42620130800003, 25.91259554800007], [85.42514808900006, 25.912456935000023], [85.42495234900008, 25.911717037000074], [85.42491578400006, 25.910629354000037], [85.42506969100003, 25.91002891900007], [85.42402160600005, 25.909962490000055], [85.42365236800003, 25.910003525000036], [85.42340780700005, 25.909976778000043], [85.42301848000005, 25.90995010100005], [85.42278886000008, 25.909932317000028], [85.42264425900004, 25.909950611000056], [85.42227486500008, 25.909932997000055], [85.42186572000008, 25.90993343200006], [85.42149650700009, 25.91000613400007], [85.42112727000006, 25.910006559000067], [85.42075299600003, 25.910065624000026], [85.42034380900003, 25.910084195000024], [85.41997474800007, 25.910215540000024], [85.41974502900007, 25.910195690000023], [85.41962903800004, 25.912761345000035], [85.41963141400004, 25.914381571000035], [85.41998164400007, 25.915013068000064], [85.42037121400006, 25.915188627000077], [85.42145911500006, 25.915187311000068], [85.42344024500005, 25.915112805000035], [85.42406411000007, 25.915111978000027], [85.42454892900008, 25.915589802000056], [85.42427515500003, 25.916082079000034], [85.42451096700006, 25.91692130900003], [85.42505562500008, 25.917412607000074], [85.42633830200003, 25.917411009000034], [85.42921268700007, 25.917267553000045], [85.43030329300007, 25.919021830000077], [85.43092575000009, 25.92137699700004], [85.43081188200006, 25.921972906000065], [85.43088853400008, 25.923132657000053], [85.43007518200005, 25.923205949000078], [85.42961257600007, 25.924221991000024], [85.42945607000007, 25.926365933000056], [85.43136266000005, 25.926363538000032], [85.43136550500003, 25.928227546000073], [85.43241343900007, 25.928086311000072], [85.43275923100003, 25.93031042100006], [85.43380780600006, 25.931166762000032], [85.43477101500008, 25.93101290800007], [85.43770061600009, 25.93047911000008], [85.43793517800003, 25.930451954000034]]]]}}]}