{"type": "FeatureCollection", "features": [{"type": "Feature", "properties": {"OBJECTID": 457, "GPCODE": "99376", "GPNAME_1": "BASUDEVPUR CHANDEL", "DIST_CEN_C": null, "BLK_NAME": "MAHNAR", "ST_NAME": "BIHAR", "ST_CODE_1": "10", "GPCODE2011": "101817", "REMARKS": "FINALIZED", "MAP_STATUS": "COMPLETED", "BLK_C_2001": "180016", "BLK_C_2011": "01283", "DIST_NAME": "VAISHALI", "code2011": 0.0, "Shape_Leng": 0.13491229839, "Shape_Area": 0.00053949348, "Area": 5.99979}, "geometry": {"type": "MultiPolygon", "coordinates": [[[[85.54961766600007, 25.662253848000034], [85.55021885600007, 25.66172457700003], [85.55023734400004, 25.661128722000058], [85.55085793900008, 25.66039633500003], [85.55242289900008, 25.658935271000075], [85.55362605400006, 25.658129376000034], [85.55572737200004, 25.656143696000072], [85.55512956000007, 25.654104854000025], [85.55485360300008, 25.65133423900005], [85.55479571700005, 25.648129890000064], [85.55575794200007, 25.646670060000076], [85.55677042300005, 25.645354578000024], [85.55682317800006, 25.644578091000028], [85.55553817700007, 25.644436357000075], [85.55489039200006, 25.64229844500005], [85.55230680800008, 25.638611814000058], [85.55117643100004, 25.636574104000033], [85.55110177000006, 25.628653340000028], [85.55050249900006, 25.623987776000035], [85.54937631300004, 25.623552250000046], [85.54707181900005, 25.62375105900003], [85.54589282300003, 25.624096423000026], [85.54552124000008, 25.62482379100004], [85.54525495900003, 25.625894043000073], [85.54597978300006, 25.627070555000046], [85.54613609300003, 25.627860119000047], [85.54667754400003, 25.629388987000027], [85.54673083700004, 25.63077899900003], [85.54670786600008, 25.631568884000046], [85.54645581100004, 25.632309665000037], [85.545764, 25.63240582800006], [85.54548597200005, 25.632731359000047], [85.54525306100004, 25.63317408200004], [85.54509966700004, 25.633567089000053], [85.54446279800004, 25.633730816000025], [85.54397438200004, 25.633546745000046], [85.54349066100008, 25.63322279700003], [85.54221076000005, 25.63308547200006], [85.54100893800006, 25.632275459000027], [85.54054567200006, 25.63218607400006], [85.54047142300004, 25.63237125200004], [85.54044787900006, 25.632926498000074], [85.54132106200007, 25.633687456000075], [85.54260171000004, 25.634127291000027], [85.54298623300008, 25.63461391900006], [85.54288299000007, 25.635146683000073], [85.54229758900004, 25.636028002000046], [85.54155723100007, 25.63661167300006], [85.54063699600005, 25.636983584000063], [85.53997394500004, 25.636614818000055], [85.53930801600006, 25.637148763000027], [85.53915412000003, 25.63733410900005], [85.53934081400007, 25.640420881000068], [85.53875330000005, 25.640444590000072], [85.53852520800007, 25.640837672000032], [85.53898403200003, 25.641116659000033], [85.53959706400008, 25.64139521100003], [85.54024074500006, 25.641949133000026], [85.54024272300006, 25.642738949000034], [85.53885854000004, 25.64276426600003], [85.53840142100006, 25.64318494400004], [85.53942603800004, 25.644758024000055], [85.53937727000005, 25.645200429000056], [85.53853599100006, 25.645269837000058], [85.53843478000005, 25.646660094000026], [85.53443463500008, 25.648058046000074], [85.53469436900008, 25.65047673400005], [85.53179380800003, 25.651529505000042], [85.53228989900003, 25.652864501000067], [85.53363478500006, 25.653015346000075], [85.53383332400006, 25.654838341000072], [85.53295785500006, 25.655264319000025], [85.53080270300006, 25.655715310000062], [85.53046546200005, 25.656275540000024], [85.52899585000006, 25.658178528000064], [85.52814936700008, 25.660351079000066], [85.53196396000004, 25.660330162000037], [85.53217690100007, 25.65985585800007], [85.53245040500008, 25.65967934100007], [85.53326182100005, 25.659542333000047], [85.53418300600003, 25.65950446200003], [85.53465027700008, 25.659133448000034], [85.53505260800006, 25.658708385000068], [85.53558992100005, 25.658495205000065], [85.53642135700005, 25.658412354000063], [85.53791651800003, 25.658910432000027], [85.53883265300004, 25.658849967000037], [85.54013925200007, 25.65960109200006], [85.54075895200003, 25.660529575000055], [85.54126135700005, 25.662315843000044], [85.54219195600007, 25.66205675200007], [85.54541991700006, 25.66243842800003], [85.54727310700008, 25.662678398000025], [85.54929979500008, 25.662620125000046], [85.54961766600007, 25.662253848000034]]]]}}, {"type": "Feature", "properties": {"OBJECTID": 462, "GPCODE": "99388", "GPNAME_1": "SARMASTPUR", "DIST_CEN_C": null, "BLK_NAME": "MAHNAR", "ST_NAME": "BIHAR", "ST_CODE_1": "10", "GPCODE2011": "101829", "REMARKS": "FINALIZED", "MAP_STATUS": "COMPLETED", "BLK_C_2001": "180016", "BLK_C_2011": "01283", "DIST_NAME": "VAISHALI", "code2011": 0.0, "Shape_Leng": 0.11572683797, "Shape_Area": 0.00048456749, "Area": 5.38794}, "geometry": {"type": "MultiPolygon", "coordinates": [[[[85.53725904500004, 25.683726155000045], [85.54044522800007, 25.683056375000035], [85.54233828700006, 25.683201517000043], [85.54245989500004, 25.68200975700006], [85.54202510100004, 25.681414881000023], [85.54194133400006, 25.67971804700005], [85.54187490400005, 25.679063712000072], [85.54207729400008, 25.67831856600003], [85.54228392100003, 25.677275629000064], [85.54215545500006, 25.67563296900005], [85.54268813500005, 25.675559729000042], [85.54289396300004, 25.67622732800004], [85.54285650400004, 25.677161643000034], [85.54314809200008, 25.67828037700008], [85.54372113900007, 25.67838748400004], [85.54536925200006, 25.678199112000073], [85.54678809500007, 25.677957021000054], [85.54929848100005, 25.677988042000038], [85.55016578700008, 25.67824808000006], [85.55033101200007, 25.678581722000047], [85.55086312500003, 25.67828266600003], [85.55143555700005, 25.678132555000047], [85.55221611200005, 25.677571275000048], [85.55299689800006, 25.677122888000042], [85.55401268500003, 25.67703050500006], [85.55446400600005, 25.676253236000036], [85.55637451900003, 25.67546846500005], [85.55717062100007, 25.67515534300003], [85.55809222600004, 25.675248183000065], [85.55820095600006, 25.674900423000054], [85.55983254400007, 25.674152289000062], [85.55989639000006, 25.67378209700007], [85.55895573600003, 25.67213221000003], [85.56083671000005, 25.67147377400005], [85.56192037500006, 25.67070866000006], [85.56276197100004, 25.67067080100003], [85.56369803100006, 25.670583048000026], [85.56353140000004, 25.66972131800003], [85.56288685200008, 25.66889677300003], [85.56213861600008, 25.668465120000064], [85.56245423700005, 25.667245844000036], [85.56180215500007, 25.663555269000028], [85.56158013300006, 25.66244097200007], [85.55992039500006, 25.66190738000006], [85.55911194600003, 25.661277288000065], [85.55809038600006, 25.65909494400006], [85.55728407500004, 25.65730936700004], [85.55701287800008, 25.656434327000056], [85.55572737200004, 25.656143696000072], [85.55362605400006, 25.658129376000034], [85.55242289900008, 25.658935271000075], [85.55085793900008, 25.66039633500003], [85.55023734400004, 25.661128722000058], [85.55021885600007, 25.66172457700003], [85.54961766600007, 25.662253848000034], [85.54929979500008, 25.662620125000046], [85.54727310700008, 25.662678398000025], [85.54541991700006, 25.66243842800003], [85.54219195600007, 25.66205675200007], [85.54126135700005, 25.662315843000044], [85.53686641900003, 25.665393668000036], [85.53448623800006, 25.667632396000045], [85.53358764000006, 25.668839212000023], [85.53227231400007, 25.670719313000063], [85.53133753500003, 25.671362050000027], [85.52985020700004, 25.672109629000033], [85.52854244800005, 25.67301481800007], [85.52879392600005, 25.674097523000057], [85.52942299000006, 25.67471011200007], [85.53005709000007, 25.675412953000034], [85.53141577500008, 25.67499061600006], [85.53171411500006, 25.676867593000054], [85.53206560300004, 25.678081], [85.53262908100004, 25.678377828000066], [85.53344017300003, 25.67801972500007], [85.53350263800007, 25.677058186000068], [85.53436442100008, 25.677133312000024], [85.53422090000004, 25.67960683700005], [85.53585983100004, 25.679707508000035], [85.53693456500008, 25.67925858700005], [85.53720302500005, 25.681131091000054], [85.53660623100006, 25.681493273000058], [85.53675696300007, 25.68203464900006], [85.53725904500004, 25.683726155000045]]]]}}, {"type": "Feature", "properties": {"OBJECTID": 466, "GPCODE": "99385", "GPNAME_1": "MAHINDWARA", "DIST_CEN_C": null, "BLK_NAME": "MAHNAR", "ST_NAME": "BIHAR", "ST_CODE_1": "10", "GPCODE2011": "101826", "REMARKS": "FINALIZED", "MAP_STATUS": "COMPLETED", "BLK_C_2001": "180016", "BLK_C_2011": "01283", "DIST_NAME": "VAISHALI", "code2011": 0.0, "Shape_Leng": 0.14078262488, "Shape_Area": 0.00040103875, "Area": 4.45825}, "geometry": {"type": "MultiPolygon", "coordinates": [[[[85.52701305400007, 25.705039879000026], [85.52745071600003, 25.704736629000024], [85.52796418700007, 25.70485751700005], [85.52824932600004, 25.705366946000026], [85.52825061000004, 25.70592662000007], [85.52899759000007, 25.705785310000067], [85.52961408000004, 25.70527411000006], [85.53012725100007, 25.705273075000036], [85.53092507700006, 25.705596564000075], [85.53182186200007, 25.705639983000026], [85.53549837500003, 25.70561022100003], [85.53698767600008, 25.70548995400003], [85.53729466100003, 25.704722134000065], [85.53899271300008, 25.704411798000024], [85.54017184600008, 25.70375959000006], [85.54055166200004, 25.702242316000024], [85.54090647500004, 25.70065741600007], [85.54222113300006, 25.700456205000023], [85.54365053300006, 25.700317932000075], [85.54544462900003, 25.70061226000007], [85.54729327300004, 25.700798073000044], [85.54848926300008, 25.700958077000053], [85.54905808100006, 25.70130898800005], [85.54950785500006, 25.701876691000052], [85.55022727500005, 25.702710207000052], [85.55132866500009, 25.70287043600007], [85.55282359200004, 25.703029770000057], [85.55386939300007, 25.702919288000032], [85.55437420300007, 25.70354109400006], [85.55482437700005, 25.704271307000056], [85.55542323100008, 25.704676284000072], [85.55610585000005, 25.70472896600006], [85.55709169400006, 25.704483208000056], [85.55771647200004, 25.703371627000024], [85.55741478400006, 25.702289024000038], [85.55726362700005, 25.701616827000066], [85.55776724700007, 25.699882715000058], [85.55812410400006, 25.69917789400006], [85.55824181200006, 25.69847352000005], [85.55797139000003, 25.697905413000058], [85.55719900300005, 25.69782583600005], [85.55642257300008, 25.698071111000047], [85.55609289200004, 25.697719782000036], [85.55558411900006, 25.697450092000054], [85.55462592700007, 25.696775054000057], [85.55435583300005, 25.696342395000045], [85.55412006700004, 25.695719998000072], [85.55367112700003, 25.69547726500008], [85.55307349500004, 25.695505524000055], [85.55235667200003, 25.695723693000048], [85.55172922400004, 25.695779166000023], [85.55059416100005, 25.69607939800005], [85.54973826000008, 25.695323019000057], [85.54913058800008, 25.694870071000025], [85.54903875600007, 25.693604744000027], [85.54849687000006, 25.692026130000045], [85.54832220400004, 25.689905251000027], [85.54675185100007, 25.68940295300007], [85.54455459400003, 25.689154706000068], [85.54365246600008, 25.688962459000038], [85.54388487100005, 25.687785829000063], [85.54436663200005, 25.686470301000043], [85.54480877100008, 25.68520948500003], [85.54526004500008, 25.684387127000036], [85.54574889200006, 25.682671062000054], [85.54595047100008, 25.68159201800006], [85.54565907900007, 25.68058609600007], [85.54532883900004, 25.67999099700006], [85.54541134400006, 25.679092740000044], [85.54536925200006, 25.678199112000073], [85.54372113900007, 25.67838748400004], [85.54314809200008, 25.67828037700008], [85.54285650400004, 25.677161643000034], [85.54289396300004, 25.67622732800004], [85.54268813500005, 25.675559729000042], [85.54215545500006, 25.67563296900005], [85.54228392100003, 25.677275629000064], [85.54207729400008, 25.67831856600003], [85.54187490400005, 25.679063712000072], [85.54194133400006, 25.67971804700005], [85.54202510100004, 25.681414881000023], [85.54245989500004, 25.68200975700006], [85.54233828700006, 25.683201517000043], [85.54044522800007, 25.683056375000035], [85.53725904500004, 25.683726155000045], [85.53749651200008, 25.68510670200004], [85.53759290000005, 25.685824156000024], [85.53733023400008, 25.686366260000057], [85.53701736200009, 25.686786658000074], [85.53683376800006, 25.687071312000057], [85.53587297400009, 25.687285390000056], [85.53469756900006, 25.687359851000053], [85.53414665500009, 25.688164357000062], [85.53470686700007, 25.689174259000026], [85.53614606400004, 25.68899987700007], [85.537027, 25.688722891000054], [85.53758976300008, 25.688681108000026], [85.53784626600003, 25.689678060000062], [85.53709484200004, 25.689990957000077], [85.53664752000003, 25.690402513000038], [85.53673380200007, 25.691083856000034], [85.53757293900009, 25.69201649200005], [85.53759856900007, 25.69437245000006], [85.53641799800005, 25.694397284000047], [85.53506594600003, 25.693519838000043], [85.53428881100007, 25.693507819000047], [85.53341321400006, 25.693974396000044], [85.53263381700003, 25.69507268900003], [85.53140902100006, 25.695345861000078], [85.53024898700005, 25.695600788000036], [85.52972175500008, 25.695944807000046], [85.52907976400007, 25.698333621000074], [85.52611912500004, 25.699797045000025], [85.52395465300003, 25.700893320000034], [85.52289545000008, 25.70168968300004], [85.52205540700004, 25.702517207000028], [85.52121099000004, 25.703629068000055], [85.52048666400003, 25.70493023000006], [85.52255651700006, 25.705977989000075], [85.52406186000007, 25.706345258000056], [85.52526744500005, 25.706320461000075], [85.52608800200005, 25.70571407700004], [85.52701305400007, 25.705039879000026]]]]}}, {"type": "Feature", "properties": {"OBJECTID": 613, "GPCODE": "99381", "GPNAME_1": "HASANPUR SOUTH", "DIST_CEN_C": null, "BLK_NAME": "MAHNAR", "ST_NAME": "BIHAR", "ST_CODE_1": "10", "GPCODE2011": "101822", "REMARKS": "FINALIZED", "MAP_STATUS": "COMPLETED", "BLK_C_2001": "180016", "BLK_C_2011": "01283", "DIST_NAME": "VAISHALI", "code2011": 0.0, "Shape_Leng": 0.21788850088, "Shape_Area": 0.00153495269, "Area": 17.0829}, "geometry": {"type": "MultiPolygon", "coordinates": [[[[85.54696045500003, 25.576807459000065], [85.54529237700007, 25.574382616000037], [85.54367168300007, 25.56894271500005], [85.54543473100006, 25.56753098300004], [85.55420891900008, 25.564159510000025], [85.55693708900003, 25.562745711000048], [85.55253009900008, 25.55745611800006], [85.55308914300008, 25.54632483200004], [85.55019534800005, 25.545067], [85.54831581500008, 25.543468570000073], [85.54723884600008, 25.540505445000065], [85.54450707900008, 25.540316889000053], [85.54407960800006, 25.540462201000025], [85.54275750100004, 25.547077012000045], [85.54095457400007, 25.554514252000047], [85.53753499300007, 25.556028422000054], [85.53400428500004, 25.55686126200004], [85.53277005500007, 25.55676885400004], [85.53169677400007, 25.555263439000043], [85.52981306400005, 25.551863963000073], [85.52744406800008, 25.54511185000007], [85.52663517200006, 25.541660602000036], [85.52812776800005, 25.539568106000047], [85.52871099400005, 25.537915061000035], [85.52533916200008, 25.538404343000025], [85.52255429300004, 25.538847343000043], [85.52111242500007, 25.539238202000035], [85.51912769200004, 25.53934110700004], [85.51730628900003, 25.539100732000065], [85.51575357800004, 25.538859814000034], [85.51441694600004, 25.53958892600008], [85.51318867600008, 25.53983489500007], [85.51142266600004, 25.539887660000034], [85.50906295100003, 25.539115550000076], [85.50869504500008, 25.541544444000067], [85.50875160000004, 25.544703715000026], [85.50747014300003, 25.545730582000033], [85.50688263800004, 25.547821330000033], [85.50574427800007, 25.55062160800003], [85.50551637600006, 25.553424859000074], [85.50454749100004, 25.556378342000073], [85.50345340200005, 25.556651057000067], [85.50042802300004, 25.55653438300004], [85.49933455500008, 25.557109402000037], [85.50045496200005, 25.559946464000063], [85.50185600100008, 25.56364959800004], [85.50047928000004, 25.56440568200003], [85.49918696500004, 25.565134542000067], [85.49776877700003, 25.565114403000052], [85.49737582700004, 25.565187259000027], [85.49670091500008, 25.566050432000054], [85.49776599000006, 25.568585262000056], [85.49884791400007, 25.569567289000076], [85.49987665800006, 25.571339355000077], [85.50052533200005, 25.57219129400005], [85.50100338300007, 25.57233037000003], [85.50162453600007, 25.57191861000007], [85.50229082400006, 25.571687231000055], [85.50285788800005, 25.571577986000023], [85.50406659200007, 25.571327651000047], [85.50469327500008, 25.57115052900008], [85.50510596200007, 25.571009909000054], [85.50582752300005, 25.57102217700003], [85.50618177300004, 25.57145029800006], [85.50668929900007, 25.571413328000062], [85.50724609000008, 25.57114602400003], [85.50804759500005, 25.57130261700007], [85.50844213900007, 25.571960835000027], [85.50885304000008, 25.57327355600006], [85.50914754500008, 25.573733353000023], [85.51007928600006, 25.574246241000026], [85.51090427100007, 25.576054661000057], [85.51139334100003, 25.57667663700005], [85.51198200100004, 25.577312023000047], [85.51302778700006, 25.577666676000035], [85.51350985200008, 25.577349878000064], [85.51423133600008, 25.577312470000038], [85.51497776500008, 25.577293053000062], [85.51591279000007, 25.577025087000038], [85.51593397100004, 25.577611819000026], [85.51658128900004, 25.577768596000055], [85.51759689000005, 25.577978871000028], [85.51885089600006, 25.57790888900007], [85.52078619600007, 25.577675149000072], [85.52193979800006, 25.577244192000023], [85.52322809100008, 25.577011601000038], [85.52445754100006, 25.577099563000047], [85.52491131600004, 25.577504946000033], [85.52640075200009, 25.578156578000062], [85.52739656600005, 25.578371361000052], [85.52800346900005, 25.57824384500003], [85.52903801900004, 25.578011674000038], [85.53078844300006, 25.577453211000034], [85.53246858700004, 25.57665105500007], [85.53346376200005, 25.576576914000043], [85.53373939400007, 25.577393295000036], [85.53431243300008, 25.579802393000023], [85.53466624300006, 25.580018367000037], [85.53684530100008, 25.57974322900003], [85.53914763000006, 25.57896247000008], [85.54343205800006, 25.578804973000047], [85.54723274000008, 25.57826475300004], [85.54739090500004, 25.57782661300007], [85.54696045500003, 25.576807459000065]]]]}}, {"type": "Feature", "properties": {"OBJECTID": 616, "GPCODE": "99386", "GPNAME_1": "MOHMADPUR", "DIST_CEN_C": null, "BLK_NAME": "MAHNAR", "ST_NAME": "BIHAR", "ST_CODE_1": "10", "GPCODE2011": "101827", "REMARKS": "FINALIZED", "MAP_STATUS": "COMPLETED", "BLK_C_2001": "180016", "BLK_C_2011": "01283", "DIST_NAME": "VAISHALI", "code2011": 0.0, "Shape_Leng": 0.13331405747, "Shape_Area": 0.00045596905, "Area": 5.07001}, "geometry": {"type": "MultiPolygon", "coordinates": [[[[85.52340964600006, 25.68260636100007], [85.52350256400007, 25.681884014000048], [85.52368359200005, 25.680457448000027], [85.52402534800007, 25.679630849000034], [85.52417335400008, 25.679016776000026], [85.52469566800005, 25.678722397000058], [85.52482422100007, 25.678306917000043], [85.52521107500007, 25.677602113000034], [85.52546718900004, 25.676342410000075], [85.52507146800008, 25.675363829000048], [85.52596052100006, 25.674283391000074], [85.52669149200005, 25.67377198500003], [85.52854244800005, 25.67301481800007], [85.52985020700004, 25.672109629000033], [85.53133753500003, 25.671362050000027], [85.53227231400007, 25.670719313000063], [85.53358764000006, 25.668839212000023], [85.53448623800006, 25.667632396000045], [85.53686641900003, 25.665393668000036], [85.54126135700005, 25.662315843000044], [85.54075895200003, 25.660529575000055], [85.54013925200007, 25.65960109200006], [85.53883265300004, 25.658849967000037], [85.53791651800003, 25.658910432000027], [85.53642135700005, 25.658412354000063], [85.53558992100005, 25.658495205000065], [85.53505260800006, 25.658708385000068], [85.53465027700008, 25.659133448000034], [85.53418300600003, 25.65950446200003], [85.53326182100005, 25.659542333000047], [85.53245040500008, 25.65967934100007], [85.53217690100007, 25.65985585800007], [85.53196396000004, 25.660330162000037], [85.52814936700008, 25.660351079000066], [85.52805276700008, 25.661646568000037], [85.52766176300008, 25.662676345000023], [85.52803246500008, 25.66360093000003], [85.52723617200007, 25.66384613300005], [85.52616095200005, 25.664042219000066], [85.52561275600004, 25.663885265000033], [85.52517672000005, 25.662681104000058], [85.52431433700008, 25.662308034000034], [85.52327906400006, 25.66255821200008], [85.52243769200004, 25.662668144000065], [85.52038444400006, 25.66199497200006], [85.51839200400008, 25.661818107000045], [85.51521986300008, 25.66186], [85.51407003500003, 25.662128365000058], [85.51348394300004, 25.662819956000078], [85.51342610200004, 25.663673119000066], [85.51368093400004, 25.664060808000045], [85.51514773900004, 25.665281277000076], [85.51530830000007, 25.665831628000035], [85.51200588100005, 25.667823413000065], [85.51252459600005, 25.668156526000075], [85.51386398100004, 25.66805476600007], [85.51417143900005, 25.66968354200003], [85.51421732100005, 25.670157381000024], [85.51354535200005, 25.670334555000068], [85.51235495600008, 25.670296113000063], [85.51240261200007, 25.671573292000062], [85.50878688600005, 25.671620372000064], [85.50735818400005, 25.67191624800006], [85.50700977400004, 25.672016174000078], [85.50577826300008, 25.671409003000065], [85.50473679100008, 25.671117501000026], [85.50413550200005, 25.671736837000026], [85.50413773000008, 25.67281560200007], [85.50452736300008, 25.673324877000027], [85.50647657600007, 25.674206109000067], [85.50851599200007, 25.675281193000046], [85.50914515700003, 25.67606542200008], [85.51074535600003, 25.67668988400004], [85.51024830200004, 25.67716022600007], [85.50966611300004, 25.677395898000043], [85.50741521700007, 25.677557826000054], [85.50299818300005, 25.677976288000025], [85.50299702900008, 25.67975910800004], [85.50399381300008, 25.680073293000078], [85.50512983900006, 25.680269913000075], [85.50630275300006, 25.681387135000023], [85.50800227200006, 25.681858091000038], [85.50966104800005, 25.681945350000035], [85.51171871200006, 25.68223955600007], [85.51228273200007, 25.682780199000035], [85.51261449600008, 25.68412906700007], [85.51307778600005, 25.684186951000072], [85.51383868900007, 25.683648489000063], [85.51499761300005, 25.682897168000068], [85.51549382300004, 25.682052218000024], [85.51684866900007, 25.68208139500007], [85.51844735700007, 25.682019757000035], [85.51980855600004, 25.68264911400007], [85.52093874600007, 25.684628425000028], [85.52168787100004, 25.68551157400003], [85.52270130500006, 25.684318173000065], [85.52340964600006, 25.68260636100007]]]]}}, {"type": "Feature", "properties": {"OBJECTID": 698, "GPCODE": "181621", "GPNAME_1": "MAHNAR BAZAR (NP)", "DIST_CEN_C": null, "BLK_NAME": "MAHNAR", "ST_NAME": "BIHAR", "ST_CODE_1": "10", "GPCODE2011": "801339", "REMARKS": "FINALIZED", "MAP_STATUS": "COMPLETED", "BLK_C_2001": "180016", "BLK_C_2011": "01283", "DIST_NAME": "VAISHALI", "code2011": 0.0, "Shape_Leng": 0.16232421948, "Shape_Area": 0.00082089383, "Area": 9.13277}, "geometry": {"type": "MultiPolygon", "coordinates": [[[[85.49924083500008, 25.629269962000023], [85.50132174600003, 25.626838235000037], [85.50207048800007, 25.625388136000026], [85.50384293500008, 25.623101287000054], [85.50451682600004, 25.621619656000064], [85.50461986700003, 25.620897396000032], [85.50484127200008, 25.61966930600005], [85.50340579100003, 25.618863973000032], [85.50262877000006, 25.618657674000076], [85.50195024100003, 25.617936669000073], [85.50160026200007, 25.617233218000024], [85.50352062400003, 25.61669284000004], [85.50327341900004, 25.615136091000068], [85.50277644500005, 25.61316915900005], [85.50226116700009, 25.61196495300004], [85.50176402700004, 25.609885114000065], [85.50257982800008, 25.60964449000005], [85.50251874500003, 25.608976666000046], [85.50206978100005, 25.60853062500007], [85.50135001300004, 25.60710111800006], [85.50063024800005, 25.60567602800006], [85.50034452300008, 25.604746781000074], [85.49993050900008, 25.60430520500006], [85.49977019900007, 25.603804453000066], [85.49898421100005, 25.601671003000035], [85.50054199500005, 25.601555518000055], [85.50017083800003, 25.60022011700005], [85.49922684700005, 25.59866463000003], [85.49776767800006, 25.59586880300003], [85.49718728800008, 25.59369126400003], [85.49738070900008, 25.591246858000034], [85.49776664900008, 25.590547481000044], [85.49889105100004, 25.59035147800006], [85.49892757600009, 25.58879432300006], [85.49776798900007, 25.588814381000077], [85.49714139000008, 25.588588861000062], [85.49776884900007, 25.587999396000043], [85.49710358000004, 25.58595562900007], [85.49704779900009, 25.583918415000028], [85.49587235400008, 25.582033805000037], [85.49472481500004, 25.581167794000066], [85.49511115100006, 25.579885056000023], [85.49502442800008, 25.578429051000057], [85.49258057000003, 25.578252579000036], [85.48966318900005, 25.577702231000046], [85.49012395300008, 25.579127795000034], [85.48998215500006, 25.580418835000046], [85.48972727200004, 25.582350990000066], [85.48839042200007, 25.588324406000027], [85.48627535000008, 25.593409945000076], [85.48410248000005, 25.597082809000028], [85.48343253800005, 25.598072353000077], [85.48197655100006, 25.596756791000075], [85.47948411100003, 25.594783762000077], [85.47533301200008, 25.592064179000033], [85.47346912200004, 25.593430074000025], [85.47171531600009, 25.595107214000052], [85.47135400500008, 25.59619100200007], [85.47155964800004, 25.59703913000004], [85.47286055900008, 25.598025671000073], [85.47498960300004, 25.599994759000026], [85.47602695600006, 25.601112498000077], [85.47830897000006, 25.602341050000064], [85.47945614400004, 25.603562458000056], [85.47919481500008, 25.604835578000063], [85.47863119800007, 25.606858506000037], [85.47868369300005, 25.608271126000034], [85.48112949000006, 25.611747120000075], [85.48283073400006, 25.61369417000003], [85.48340605500005, 25.615151136000065], [85.48366731100003, 25.61637384900007], [85.48283876200009, 25.617783303000067], [85.48253319000008, 25.61938610800007], [85.48222423700008, 25.621783150000056], [85.48170939800008, 25.623291478000056], [85.48181519500008, 25.62395026300004], [85.48466650500006, 25.623237106000033], [85.48839968500005, 25.622951181000076], [85.49031659900004, 25.623087982000072], [85.49140954200004, 25.624404135000077], [85.49192982200003, 25.62567154900006], [85.49312486900004, 25.62576430400003], [85.49426686000004, 25.626701212000057], [85.49493999900005, 25.627219096000033], [85.49670223300006, 25.627121388000035], [85.49776867400004, 25.629999138000073], [85.49924083500008, 25.629269962000023]]]]}}, {"type": "Feature", "properties": {"OBJECTID": 426, "GPCODE": "99380", "GPNAME_1": "HASANPUR NORTH", "DIST_CEN_C": null, "BLK_NAME": "MAHNAR", "ST_NAME": "BIHAR", "ST_CODE_1": "10", "GPCODE2011": "101821", "REMARKS": "FINALIZED", "MAP_STATUS": "COMPLETED", "BLK_C_2001": "180016", "BLK_C_2011": "01283", "DIST_NAME": "VAISHALI", "code2011": 0.0, "Shape_Leng": 0.08279220948, "Shape_Area": 0.00033319236, "Area": 3.70742}, "geometry": {"type": "MultiPolygon", "coordinates": [[[[85.53349592200004, 25.59019835400005], [85.53418889700004, 25.588594759000046], [85.53439963000005, 25.58723131100004], [85.53504056900005, 25.586742551000043], [85.53675758000008, 25.586739179000062], [85.53684530100008, 25.57974322900003], [85.53466624300006, 25.580018367000037], [85.53431243300008, 25.579802393000023], [85.53373939400007, 25.577393295000036], [85.53346376200005, 25.576576914000043], [85.53246858700004, 25.57665105500007], [85.53078844300006, 25.577453211000034], [85.52903801900004, 25.578011674000038], [85.52800346900005, 25.57824384500003], [85.52739656600005, 25.578371361000052], [85.52640075200009, 25.578156578000062], [85.52491131600004, 25.577504946000033], [85.52445754100006, 25.577099563000047], [85.52322809100008, 25.577011601000038], [85.52193979800006, 25.577244192000023], [85.52078619600007, 25.577675149000072], [85.51885089600006, 25.57790888900007], [85.51759689000005, 25.577978871000028], [85.51658128900004, 25.577768596000055], [85.51593397100004, 25.577611819000026], [85.51591279000007, 25.577025087000038], [85.51497776500008, 25.577293053000062], [85.51423133600008, 25.577312470000038], [85.51350985200008, 25.577349878000064], [85.51302778700006, 25.577666676000035], [85.51305229800005, 25.579760909000072], [85.51410198100007, 25.58183964600005], [85.51459773700003, 25.58321987900007], [85.51574972500003, 25.58653964900003], [85.51650076600004, 25.588560268000037], [85.51700374500007, 25.59092437000004], [85.51756034400006, 25.592787404000035], [85.51776114900008, 25.593558848000043], [85.51866932500008, 25.59463135900006], [85.51956000600006, 25.59452593800006], [85.52078533200006, 25.594916339000065], [85.52123897100006, 25.595253952000064], [85.52142032200004, 25.59618789500007], [85.52329125500006, 25.59598589500007], [85.52386911000008, 25.59620138400004], [85.52451845400003, 25.597184157000072], [85.52614091800007, 25.59714494600007], [85.52728644500007, 25.597431674000063], [85.52831726400007, 25.597691441000052], [85.52965527300006, 25.597300750000045], [85.52894254600005, 25.590450786000076], [85.53022562500007, 25.590010559000063], [85.53349592200004, 25.59019835400005]]]]}}, {"type": "Feature", "properties": {"OBJECTID": 427, "GPCODE": "99375", "GPNAME_1": "ALIPUR HATTA", "DIST_CEN_C": null, "BLK_NAME": "MAHNAR", "ST_NAME": "BIHAR", "ST_CODE_1": "10", "GPCODE2011": "101816", "REMARKS": "FINALIZED", "MAP_STATUS": "COMPLETED", "BLK_C_2001": "180016", "BLK_C_2011": "01283", "DIST_NAME": "VAISHALI", "code2011": 0.0, "Shape_Leng": 0.2190649058, "Shape_Area": 0.00090127986, "Area": 10.0295}, "geometry": {"type": "MultiPolygon", "coordinates": [[[[85.51000891800004, 25.596885669000073], [85.51100823500008, 25.59636486900007], [85.51149791600005, 25.597248554000032], [85.51172945300004, 25.598412619000044], [85.51250057500005, 25.598230715000057], [85.51293348500008, 25.59818026000005], [85.51347755500007, 25.59887892200004], [85.51866181000008, 25.597939702000076], [85.51845510600003, 25.596766566000042], [85.51778054000005, 25.595549176000077], [85.51866932500008, 25.59463135900006], [85.51776114900008, 25.593558848000043], [85.51756034400006, 25.592787404000035], [85.51700374500007, 25.59092437000004], [85.51650076600004, 25.588560268000037], [85.51574972500003, 25.58653964900003], [85.51459773700003, 25.58321987900007], [85.51410198100007, 25.58183964600005], [85.51305229800005, 25.579760909000072], [85.51302778700006, 25.577666676000035], [85.51198200100004, 25.577312023000047], [85.51139334100003, 25.57667663700005], [85.51090427100007, 25.576054661000057], [85.51007928600006, 25.574246241000026], [85.50914754500008, 25.573733353000023], [85.50885304000008, 25.57327355600006], [85.50844213900007, 25.571960835000027], [85.50804759500005, 25.57130261700007], [85.50724609000008, 25.57114602400003], [85.50668929900007, 25.571413328000062], [85.50618177300004, 25.57145029800006], [85.50582752300005, 25.57102217700003], [85.50510596200007, 25.571009909000054], [85.50469327500008, 25.57115052900008], [85.50406659200007, 25.571327651000047], [85.50285788800005, 25.571577986000023], [85.50229082400006, 25.571687231000055], [85.50162453600007, 25.57191861000007], [85.50100338300007, 25.57233037000003], [85.50052533200005, 25.57219129400005], [85.49987665800006, 25.571339355000077], [85.49884791400007, 25.569567289000076], [85.49776599000006, 25.568585262000056], [85.49670091500008, 25.566050432000054], [85.49737582700004, 25.565187259000027], [85.49776877700003, 25.565114403000052], [85.49918696500004, 25.565134542000067], [85.50047928000004, 25.56440568200003], [85.50185600100008, 25.56364959800004], [85.50045496200005, 25.559946464000063], [85.49933455500008, 25.557109402000037], [85.50042802300004, 25.55653438300004], [85.50345340200005, 25.556651057000067], [85.50454749100004, 25.556378342000073], [85.50551637600006, 25.553424859000074], [85.50574427800007, 25.55062160800003], [85.50688263800004, 25.547821330000033], [85.50747014300003, 25.545730582000033], [85.50425628100004, 25.545736169000065], [85.50307745200007, 25.545882585000072], [85.50061511300004, 25.546080923000034], [85.50019307200006, 25.548852921000048], [85.49976860200007, 25.550505550000025], [85.49776848300007, 25.55048632200004], [85.49733581700008, 25.55059539900003], [85.49709470400006, 25.551904724000053], [85.49565279100005, 25.552358516000027], [85.49482973800008, 25.553781637000043], [85.49425551900003, 25.555240429000037], [85.49385173600007, 25.557317237000063], [85.49332186600003, 25.558514185000035], [85.49278469100005, 25.55862786700004], [85.49179379200007, 25.558295545000078], [85.49105377600006, 25.558969254000033], [85.49043775800004, 25.55941708100005], [85.48670824100003, 25.560614762000057], [85.48390810200004, 25.561219486000027], [85.48345472800008, 25.56095847200004], [85.48229812400007, 25.559800308000035], [85.48060827500007, 25.558191728000054], [85.47849929200004, 25.55595185900006], [85.47734336200006, 25.555096081000045], [85.47470826200004, 25.556183395000062], [85.47425676800003, 25.556820509000033], [85.47549783500006, 25.55797851400007], [85.47533474600004, 25.558574514000043], [85.47590852900004, 25.559399633000055], [85.47850997500007, 25.56156201700003], [85.48094778900008, 25.56395033700005], [85.48111364700009, 25.56484822500005], [85.48078682600004, 25.56563410900003], [85.48025082500004, 25.566384182000036], [85.47884898100006, 25.567135612000072], [85.47769989300008, 25.567322404000038], [85.47885718300006, 25.568796555000063], [85.48373094800007, 25.56991716700003], [85.48585751200005, 25.57076227500005], [85.48728173700005, 25.57129261700004], [85.48883945300008, 25.571384822000027], [85.48965114100008, 25.571667873000024], [85.48978797900008, 25.572895283000037], [85.48938394600003, 25.57493144700004], [85.48966318900005, 25.577702231000046], [85.49258057000003, 25.578252579000036], [85.49502442800008, 25.578429051000057], [85.49511115100006, 25.579885056000023], [85.49472481500004, 25.581167794000066], [85.49587235400008, 25.582033805000037], [85.49704779900009, 25.583918415000028], [85.49710358000004, 25.58595562900007], [85.49776884900007, 25.587999396000043], [85.49714139000008, 25.588588861000062], [85.49776798900007, 25.588814381000077], [85.49892757600009, 25.58879432300006], [85.49889105100004, 25.59035147800006], [85.49776664900008, 25.590547481000044], [85.49738070900008, 25.591246858000034], [85.49718728800008, 25.59369126400003], [85.49776767800006, 25.59586880300003], [85.49922684700005, 25.59866463000003], [85.50017083800003, 25.60022011700005], [85.50054199500005, 25.601555518000055], [85.49898421100005, 25.601671003000035], [85.49977019900007, 25.603804453000066], [85.50116860800006, 25.603666702000055], [85.50256175900006, 25.603407007000044], [85.50292945600006, 25.603108485000064], [85.50325200600008, 25.60262497800005], [85.50452064300003, 25.602361020000046], [85.50501132700003, 25.601358212000036], [85.50798596700008, 25.60049996300006], [85.50723896300008, 25.597982784000067], [85.50889524400003, 25.597460803000047], [85.51000891800004, 25.596885669000073]]]]}}, {"type": "Feature", "properties": {"OBJECTID": 434, "GPCODE": "99383", "GPNAME_1": "LAVAPUR MAHNAR", "DIST_CEN_C": null, "BLK_NAME": "MAHNAR", "ST_NAME": "BIHAR", "ST_CODE_1": "10", "GPCODE2011": "101824", "REMARKS": "FINALIZED", "MAP_STATUS": "COMPLETED", "BLK_C_2001": "180016", "BLK_C_2011": "01283", "DIST_NAME": "VAISHALI", "code2011": 0.0, "Shape_Leng": 0.06585128704, "Shape_Area": 0.00015367003, "Area": 1.70961}, "geometry": {"type": "MultiPolygon", "coordinates": [[[[85.51565257100003, 25.61231139100005], [85.51751139300006, 25.611008080000033], [85.51740475300005, 25.610042386000032], [85.51654634800008, 25.609082672000056], [85.51456153100008, 25.60739819500003], [85.51272179700004, 25.606047544000035], [85.51111667800006, 25.604985276000036], [85.50979464100004, 25.60363804700006], [85.50936519200008, 25.603015984000024], [85.50985260200008, 25.60283006700007], [85.51056875000006, 25.602517415000023], [85.51145230900005, 25.601400999000077], [85.51167965700006, 25.60070102000003], [85.51207699300005, 25.600285107000047], [85.51287771100004, 25.59997220500003], [85.51327986500007, 25.599529226000072], [85.51347755500007, 25.59887892200004], [85.51293348500008, 25.59818026000005], [85.51250057500005, 25.598230715000057], [85.51172945300004, 25.598412619000044], [85.51149791600005, 25.597248554000032], [85.51100823500008, 25.59636486900007], [85.51000891800004, 25.596885669000073], [85.50889524400003, 25.597460803000047], [85.50723896300008, 25.597982784000067], [85.50798596700008, 25.60049996300006], [85.50501132700003, 25.601358212000036], [85.50452064300003, 25.602361020000046], [85.50325200600008, 25.60262497800005], [85.50292945600006, 25.603108485000064], [85.50256175900006, 25.603407007000044], [85.50116860800006, 25.603666702000055], [85.49977019900007, 25.603804453000066], [85.49993050900008, 25.60430520500006], [85.50034452300008, 25.604746781000074], [85.50063024800005, 25.60567602800006], [85.50135001300004, 25.60710111800006], [85.50206978100005, 25.60853062500007], [85.50251874500003, 25.608976666000046], [85.50257982800008, 25.60964449000005], [85.50176402700004, 25.609885114000065], [85.50226116700009, 25.61196495300004], [85.50277644500005, 25.61316915900005], [85.50551299100005, 25.612532515000055], [85.50749759600006, 25.611806906000027], [85.50898551600005, 25.611583121000024], [85.51023938000003, 25.61358480100006], [85.51319964200007, 25.61283933200008], [85.51565257100003, 25.61231139100005]]]]}}, {"type": "Feature", "properties": {"OBJECTID": 436, "GPCODE": "99384", "GPNAME_1": "LAVAPUR NARAYAN", "DIST_CEN_C": null, "BLK_NAME": "MAHNAR", "ST_NAME": "BIHAR", "ST_CODE_1": "10", "GPCODE2011": "101825", "REMARKS": "FINALIZED", "MAP_STATUS": "COMPLETED", "BLK_C_2001": "180016", "BLK_C_2011": "01283", "DIST_NAME": "VAISHALI", "code2011": 0.0, "Shape_Leng": 0.12187694408, "Shape_Area": 0.0004015302, "Area": 4.467}, "geometry": {"type": "MultiPolygon", "coordinates": [[[[85.50484127200008, 25.61966930600005], [85.50741104400004, 25.61785044000004], [85.50847408700008, 25.619094327000028], [85.50907246800006, 25.61956709900005], [85.51060540600008, 25.619379373000072], [85.51220280600006, 25.619096697000032], [85.51281435900006, 25.61876159800005], [85.51305754800006, 25.618409087000032], [85.51340477700006, 25.617871365000042], [85.51395697200007, 25.61766730000005], [85.51506305900006, 25.61811208000006], [85.51579538300007, 25.618331969000053], [85.51673646300009, 25.618420482000033], [85.51769499800008, 25.617439338000054], [85.51839916600005, 25.616187809000053], [85.51888193200006, 25.613952836000067], [85.51973781900006, 25.61378428100005], [85.52279460800008, 25.61391396600004], [85.52551694100003, 25.61363811600006], [85.52723450100007, 25.613702532000048], [85.52832175500004, 25.61674247600007], [85.52877117400004, 25.61735097500008], [85.53007528000006, 25.61724920300003], [85.53119471500008, 25.616976254000065], [85.53245843000008, 25.616666845000054], [85.53404180300004, 25.61683082500008], [85.53451794700004, 25.616098743000066], [85.53279142500008, 25.610126368000067], [85.53117412200004, 25.606094478000045], [85.52945400700008, 25.60274432600005], [85.52831726400007, 25.597691441000052], [85.52728644500007, 25.597431674000063], [85.52614091800007, 25.59714494600007], [85.52451845400003, 25.597184157000072], [85.52386911000008, 25.59620138400004], [85.52329125500006, 25.59598589500007], [85.52142032200004, 25.59618789500007], [85.52123897100006, 25.595253952000064], [85.52078533200006, 25.594916339000065], [85.51956000600006, 25.59452593800006], [85.51866932500008, 25.59463135900006], [85.51778054000005, 25.595549176000077], [85.51845510600003, 25.596766566000042], [85.51866181000008, 25.597939702000076], [85.51347755500007, 25.59887892200004], [85.51327986500007, 25.599529226000072], [85.51287771100004, 25.59997220500003], [85.51207699300005, 25.600285107000047], [85.51167965700006, 25.60070102000003], [85.51145230900005, 25.601400999000077], [85.51056875000006, 25.602517415000023], [85.50985260200008, 25.60283006700007], [85.50936519200008, 25.603015984000024], [85.50979464100004, 25.60363804700006], [85.51111667800006, 25.604985276000036], [85.51272179700004, 25.606047544000035], [85.51456153100008, 25.60739819500003], [85.51654634800008, 25.609082672000056], [85.51740475300005, 25.610042386000032], [85.51751139300006, 25.611008080000033], [85.51565257100003, 25.61231139100005], [85.51319964200007, 25.61283933200008], [85.51023938000003, 25.61358480100006], [85.50898551600005, 25.611583121000024], [85.50749759600006, 25.611806906000027], [85.50551299100005, 25.612532515000055], [85.50277644500005, 25.61316915900005], [85.50327341900004, 25.615136091000068], [85.50352062400003, 25.61669284000004], [85.50160026200007, 25.617233218000024], [85.50195024100003, 25.617936669000073], [85.50262877000006, 25.618657674000076], [85.50340579100003, 25.618863973000032], [85.50484127200008, 25.61966930600005]]]]}}, {"type": "Feature", "properties": {"OBJECTID": 443, "GPCODE": "99377", "GPNAME_1": "CHAMARHARA", "DIST_CEN_C": null, "BLK_NAME": "MAHNAR", "ST_NAME": "BIHAR", "ST_CODE_1": "10", "GPCODE2011": "101818", "REMARKS": "FINALIZED", "MAP_STATUS": "COMPLETED", "BLK_C_2001": "180016", "BLK_C_2011": "01283", "DIST_NAME": "VAISHALI", "code2011": 0.0, "Shape_Leng": 0.17884818032, "Shape_Area": 0.00065293252, "Area": 7.26108}, "geometry": {"type": "MultiPolygon", "coordinates": [[[[85.51240261200007, 25.671573292000062], [85.51235495600008, 25.670296113000063], [85.51354535200005, 25.670334555000068], [85.51421732100005, 25.670157381000024], [85.51417143900005, 25.66968354200003], [85.51386398100004, 25.66805476600007], [85.51252459600005, 25.668156526000075], [85.51200588100005, 25.667823413000065], [85.51530830000007, 25.665831628000035], [85.51514773900004, 25.665281277000076], [85.51368093400004, 25.664060808000045], [85.51342610200004, 25.663673119000066], [85.51348394300004, 25.662819956000078], [85.51407003500003, 25.662128365000058], [85.51521986300008, 25.66186], [85.51839200400008, 25.661818107000045], [85.52038444400006, 25.66199497200006], [85.52243769200004, 25.662668144000065], [85.52327906400006, 25.66255821200008], [85.52431433700008, 25.662308034000034], [85.52517672000005, 25.662681104000058], [85.52561275600004, 25.663885265000033], [85.52616095200005, 25.664042219000066], [85.52723617200007, 25.66384613300005], [85.52803246500008, 25.66360093000003], [85.52766176300008, 25.662676345000023], [85.52805276700008, 25.661646568000037], [85.52814936700008, 25.660351079000066], [85.52899585000006, 25.658178528000064], [85.53046546200005, 25.656275540000024], [85.53080270300006, 25.655715310000062], [85.53295785500006, 25.655264319000025], [85.53383332400006, 25.654838341000072], [85.53363478500006, 25.653015346000075], [85.53228989900003, 25.652864501000067], [85.53179380800003, 25.651529505000042], [85.53469436900008, 25.65047673400005], [85.53443463500008, 25.648058046000074], [85.53311045300006, 25.64819610400008], [85.53174661400004, 25.648410803000047], [85.53166334800005, 25.648993216000065], [85.52989192600006, 25.649556245000042], [85.52852315500007, 25.649793560000035], [85.52739291900008, 25.649854401000027], [85.52651670100005, 25.649896713000032], [85.52466965900004, 25.65004915000003], [85.52367262100006, 25.64957707600007], [85.52123804500008, 25.647546120000072], [85.52019961400003, 25.64855450400006], [85.51755118800008, 25.651050717000032], [85.51686681500007, 25.65010417900004], [85.51567076900005, 25.64964151500004], [85.51462482300008, 25.649548607000042], [85.51432247900004, 25.647924328000045], [85.51361938800005, 25.647460728000055], [85.51292815400006, 25.645625078000023], [85.51224483300007, 25.64508009800005], [85.51185826300008, 25.64365007600003], [85.51119021600005, 25.640997466000044], [85.51178647600005, 25.640418691000036], [85.51165389500005, 25.63898361300005], [85.51103093100005, 25.636466247000044], [85.51040268700007, 25.633741299000064], [85.51001349000006, 25.63107012200004], [85.50681352200007, 25.631676009000046], [85.50416885200008, 25.633576233000042], [85.50292955100008, 25.633795021000026], [85.50216354000008, 25.634107825000058], [85.50298107700007, 25.63693172400008], [85.50326381000008, 25.638790826000047], [85.50251739300006, 25.638986162000037], [85.50239148900005, 25.640710452000064], [85.50894894400005, 25.640699005000045], [85.50912145200004, 25.642170056000055], [85.50903980300006, 25.643524227000057], [85.50707315200003, 25.643627010000046], [85.50714181200004, 25.64542774800003], [85.50766270400004, 25.649163891000057], [85.50721803400006, 25.650789425000028], [85.50690007100008, 25.651101468000036], [85.50226406500008, 25.651109520000034], [85.50134772000007, 25.65103440400003], [85.50093836900004, 25.65057020300003], [85.50059450400005, 25.65039478500006], [85.49982768600006, 25.65043666400004], [85.49923085800003, 25.65078526800005], [85.49914675700006, 25.651038182000036], [85.49963721100005, 25.652219768000066], [85.49987864000008, 25.653361266000047], [85.49960091200006, 25.653921437000065], [85.49921959900007, 25.654928511000037], [85.49928734500008, 25.65635915200005], [85.49776845900004, 25.656348252000043], [85.49696654800005, 25.65623673600004], [85.49656042000004, 25.657347729000037], [85.49683343400005, 25.65931960300003], [85.49581778500004, 25.659443199000066], [85.49574604800006, 25.660896543000035], [85.49629041500003, 25.661635846000024], [85.49776799500006, 25.660924754000064], [85.49853647700007, 25.661681721000036], [85.49905216800005, 25.66296711700005], [85.49938404400007, 25.664528198000028], [85.49957830600005, 25.666901878000033], [85.50007836400005, 25.667880421000064], [85.50096526400006, 25.668113606000077], [85.50092875400009, 25.669666262000078], [85.50142706300005, 25.669818898000074], [85.50153374300004, 25.670780050000076], [85.50194843800006, 25.671406689000037], [85.50413550200005, 25.671736837000026], [85.50473679100008, 25.671117501000026], [85.50577826300008, 25.671409003000065], [85.50700977400004, 25.672016174000078], [85.50735818400005, 25.67191624800006], [85.50878688600005, 25.671620372000064], [85.51240261200007, 25.671573292000062]]]]}}, {"type": "Feature", "properties": {"OBJECTID": 452, "GPCODE": "99379", "GPNAME_1": "GORIGAMA", "DIST_CEN_C": null, "BLK_NAME": "MAHNAR", "ST_NAME": "BIHAR", "ST_CODE_1": "10", "GPCODE2011": "101820", "REMARKS": "FINALIZED", "MAP_STATUS": "COMPLETED", "BLK_C_2001": "180016", "BLK_C_2011": "01283", "DIST_NAME": "VAISHALI", "code2011": 0.0, "Shape_Leng": 0.14624998167, "Shape_Area": 0.00084889025, "Area": 9.44185}, "geometry": {"type": "MultiPolygon", "coordinates": [[[[85.52019961400003, 25.64855450400006], [85.52123804500008, 25.647546120000072], [85.52367262100006, 25.64957707600007], [85.52466965900004, 25.65004915000003], [85.52651670100005, 25.649896713000032], [85.52739291900008, 25.649854401000027], [85.52852315500007, 25.649793560000035], [85.52989192600006, 25.649556245000042], [85.53166334800005, 25.648993216000065], [85.53174661400004, 25.648410803000047], [85.53311045300006, 25.64819610400008], [85.53443463500008, 25.648058046000074], [85.53843478000005, 25.646660094000026], [85.53853599100006, 25.645269837000058], [85.53937727000005, 25.645200429000056], [85.53942603800004, 25.644758024000055], [85.53840142100006, 25.64318494400004], [85.53885854000004, 25.64276426600003], [85.54024272300006, 25.642738949000034], [85.54024074500006, 25.641949133000026], [85.53959706400008, 25.64139521100003], [85.53898403200003, 25.641116659000033], [85.53852520800007, 25.640837672000032], [85.53875330000005, 25.640444590000072], [85.53934081400007, 25.640420881000068], [85.53915412000003, 25.63733410900005], [85.53930801600006, 25.637148763000027], [85.53997394500004, 25.636614818000055], [85.54063699600005, 25.636983584000063], [85.54155723100007, 25.63661167300006], [85.54229758900004, 25.636028002000046], [85.54288299000007, 25.635146683000073], [85.54298623300008, 25.63461391900006], [85.54260171000004, 25.634127291000027], [85.54132106200007, 25.633687456000075], [85.54044787900006, 25.632926498000074], [85.54047142300004, 25.63237125200004], [85.54054567200006, 25.63218607400006], [85.54100893800006, 25.632275459000027], [85.54221076000005, 25.63308547200006], [85.54349066100008, 25.63322279700003], [85.54397438200004, 25.633546745000046], [85.54446279800004, 25.633730816000025], [85.54509966700004, 25.633567089000053], [85.54525306100004, 25.63317408200004], [85.54548597200005, 25.632731359000047], [85.545764, 25.63240582800006], [85.54645581100004, 25.632309665000037], [85.54670786600008, 25.631568884000046], [85.54673083700004, 25.63077899900003], [85.54667754400003, 25.629388987000027], [85.54613609300003, 25.627860119000047], [85.54597978300006, 25.627070555000046], [85.54525495900003, 25.625894043000073], [85.54209335100006, 25.625755913000035], [85.54022130200008, 25.62571005800004], [85.53914542700005, 25.625518096000064], [85.53791311300006, 25.624401182000042], [85.53715998100006, 25.623820482000042], [85.53506523000004, 25.62013261100003], [85.53404180300004, 25.61683082500008], [85.53245843000008, 25.616666845000054], [85.53119471500008, 25.616976254000065], [85.53007528000006, 25.61724920300003], [85.52877117400004, 25.61735097500008], [85.52832175500004, 25.61674247600007], [85.52723450100007, 25.613702532000048], [85.52551694100003, 25.61363811600006], [85.52279460800008, 25.61391396600004], [85.51973781900006, 25.61378428100005], [85.51888193200006, 25.613952836000067], [85.51839916600005, 25.616187809000053], [85.51769499800008, 25.617439338000054], [85.51673646300009, 25.618420482000033], [85.51708683200007, 25.619295459000057], [85.51767943400006, 25.61938464700006], [85.51896894300006, 25.619454508000047], [85.51956448500005, 25.620807394000053], [85.51923742700006, 25.621494066000025], [85.51926211700004, 25.623606289000065], [85.51969973300004, 25.625591391000057], [85.52031394000005, 25.628645778000077], [85.51843312200003, 25.62910961800003], [85.51524355400005, 25.62991432700005], [85.51126190400004, 25.63051269400006], [85.51001349000006, 25.63107012200004], [85.51040268700007, 25.633741299000064], [85.51103093100005, 25.636466247000044], [85.51165389500005, 25.63898361300005], [85.51178647600005, 25.640418691000036], [85.51119021600005, 25.640997466000044], [85.51185826300008, 25.64365007600003], [85.51224483300007, 25.64508009800005], [85.51292815400006, 25.645625078000023], [85.51361938800005, 25.647460728000055], [85.51432247900004, 25.647924328000045], [85.51462482300008, 25.649548607000042], [85.51567076900005, 25.64964151500004], [85.51686681500007, 25.65010417900004], [85.51755118800008, 25.651050717000032], [85.52019961400003, 25.64855450400006]]]]}}, {"type": "Feature", "properties": {"OBJECTID": 506, "GPCODE": "99378", "GPNAME_1": "DEDHPURA", "DIST_CEN_C": null, "BLK_NAME": "MAHNAR", "ST_NAME": "BIHAR", "ST_CODE_1": "10", "GPCODE2011": "101819", "REMARKS": "FINALIZED", "MAP_STATUS": "COMPLETED", "BLK_C_2001": "180016", "BLK_C_2011": "01283", "DIST_NAME": "VAISHALI", "code2011": 0.0, "Shape_Leng": 0.10589278191, "Shape_Area": 0.00033823024, "Area": 3.76029}, "geometry": {"type": "MultiPolygon", "coordinates": [[[[85.53341321400006, 25.693974396000044], [85.53428881100007, 25.693507819000047], [85.53506594600003, 25.693519838000043], [85.53641799800005, 25.694397284000047], [85.53759856900007, 25.69437245000006], [85.53757293900009, 25.69201649200005], [85.53673380200007, 25.691083856000034], [85.53664752000003, 25.690402513000038], [85.53709484200004, 25.689990957000077], [85.53784626600003, 25.689678060000062], [85.53758976300008, 25.688681108000026], [85.537027, 25.688722891000054], [85.53614606400004, 25.68899987700007], [85.53470686700007, 25.689174259000026], [85.53414665500009, 25.688164357000062], [85.53469756900006, 25.687359851000053], [85.53587297400009, 25.687285390000056], [85.53683376800006, 25.687071312000057], [85.53701736200009, 25.686786658000074], [85.53733023400008, 25.686366260000057], [85.53759290000005, 25.685824156000024], [85.53749651200008, 25.68510670200004], [85.53725904500004, 25.683726155000045], [85.53675696300007, 25.68203464900006], [85.53660623100006, 25.681493273000058], [85.53720302500005, 25.681131091000054], [85.53693456500008, 25.67925858700005], [85.53585983100004, 25.679707508000035], [85.53422090000004, 25.67960683700005], [85.53436442100008, 25.677133312000024], [85.53350263800007, 25.677058186000068], [85.53344017300003, 25.67801972500007], [85.53262908100004, 25.678377828000066], [85.53206560300004, 25.678081], [85.53171411500006, 25.676867593000054], [85.53141577500008, 25.67499061600006], [85.53005709000007, 25.675412953000034], [85.52942299000006, 25.67471011200007], [85.52879392600005, 25.674097523000057], [85.52854244800005, 25.67301481800007], [85.52669149200005, 25.67377198500003], [85.52596052100006, 25.674283391000074], [85.52507146800008, 25.675363829000048], [85.52546718900004, 25.676342410000075], [85.52521107500007, 25.677602113000034], [85.52482422100007, 25.678306917000043], [85.52469566800005, 25.678722397000058], [85.52417335400008, 25.679016776000026], [85.52402534800007, 25.679630849000034], [85.52368359200005, 25.680457448000027], [85.52350256400007, 25.681884014000048], [85.52340964600006, 25.68260636100007], [85.52270130500006, 25.684318173000065], [85.52168787100004, 25.68551157400003], [85.52053154700008, 25.687391328000047], [85.51965721600004, 25.688399367000045], [85.51972411100007, 25.689360623000027], [85.52004480400007, 25.69018596500007], [85.52065089600006, 25.691687794000075], [85.52116626100008, 25.692720420000057], [85.52237333100004, 25.69339970900006], [85.52370941100008, 25.69388460600004], [85.52405403400007, 25.694294683000066], [85.52340867500004, 25.69523465000003], [85.52122044200007, 25.696813918000032], [85.52006173600006, 25.697678078000024], [85.51864419900005, 25.698633009000048], [85.51705325800003, 25.700039609000044], [85.51632853700005, 25.701209910000046], [85.51581309800008, 25.702420389000054], [85.51605465300008, 25.70351219300005], [85.51796889600007, 25.70407285500005], [85.51939007100003, 25.704656988000067], [85.52048666400003, 25.70493023000006], [85.52121099000004, 25.703629068000055], [85.52205540700004, 25.702517207000028], [85.52289545000008, 25.70168968300004], [85.52395465300003, 25.700893320000034], [85.52611912500004, 25.699797045000025], [85.52907976400007, 25.698333621000074], [85.52972175500008, 25.695944807000046], [85.53024898700005, 25.695600788000036], [85.53140902100006, 25.695345861000078], [85.53263381700003, 25.69507268900003], [85.53341321400006, 25.693974396000044]]]]}}, {"type": "Feature", "properties": {"OBJECTID": 508, "GPCODE": "99382", "GPNAME_1": "KARNAUTI", "DIST_CEN_C": null, "BLK_NAME": "MAHNAR", "ST_NAME": "BIHAR", "ST_CODE_1": "10", "GPCODE2011": "101823", "REMARKS": "FINALIZED", "MAP_STATUS": "COMPLETED", "BLK_C_2001": "180016", "BLK_C_2011": "01283", "DIST_NAME": "VAISHALI", "code2011": 0.0, "Shape_Leng": 0.12116171883, "Shape_Area": 0.00056954446, "Area": 6.33187}, "geometry": {"type": "MultiPolygon", "coordinates": [[[[85.56454317300006, 25.66811694000006], [85.56470445700006, 25.666947573000073], [85.56336489200004, 25.667000142000063], [85.56245423700005, 25.667245844000036], [85.56213861600008, 25.668465120000064], [85.56288685200008, 25.66889677300003], [85.56454317300006, 25.66811694000006]]], [[[85.56567162100004, 25.699369297000032], [85.56536817500006, 25.697623345000068], [85.56610652900008, 25.696182021000027], [85.56660656200006, 25.695016476000035], [85.56748792100007, 25.69485202100003], [85.56915201800007, 25.69499288800006], [85.57065488600006, 25.694425441000078], [85.57098774400004, 25.69225829800007], [85.57096171900008, 25.68996560200003], [85.57095355600006, 25.68880112100004], [85.57044436700005, 25.688391514000045], [85.57026714400007, 25.68543122500006], [85.57145149700006, 25.685022340000046], [85.57128022900008, 25.68430509800004], [85.56957840300004, 25.679357766000066], [85.56714692100007, 25.675278452000043], [85.56528180200007, 25.672470685000064], [85.56443517000008, 25.67247254600005], [85.56369803100006, 25.670583048000026], [85.56276197100004, 25.67067080100003], [85.56192037500006, 25.67070866000006], [85.56083671000005, 25.67147377400005], [85.55895573600003, 25.67213221000003], [85.55989639000006, 25.67378209700007], [85.55983254400007, 25.674152289000062], [85.55820095600006, 25.674900423000054], [85.55809222600004, 25.675248183000065], [85.55717062100007, 25.67515534300003], [85.55637451900003, 25.67546846500005], [85.55446400600005, 25.676253236000036], [85.55401268500003, 25.67703050500006], [85.55299689800006, 25.677122888000042], [85.55221611200005, 25.677571275000048], [85.55143555700005, 25.678132555000047], [85.55086312500003, 25.67828266600003], [85.55033101200007, 25.678581722000047], [85.55016578700008, 25.67824808000006], [85.54929848100005, 25.677988042000038], [85.54678809500007, 25.677957021000054], [85.54536925200006, 25.678199112000073], [85.54541134400006, 25.679092740000044], [85.54532883900004, 25.67999099700006], [85.54565907900007, 25.68058609600007], [85.54595047100008, 25.68159201800006], [85.54574889200006, 25.682671062000054], [85.54526004500008, 25.684387127000036], [85.54480877100008, 25.68520948500003], [85.54436663200005, 25.686470301000043], [85.54388487100005, 25.687785829000063], [85.54365246600008, 25.688962459000038], [85.54455459400003, 25.689154706000068], [85.54675185100007, 25.68940295300007], [85.54832220400004, 25.689905251000027], [85.54849687000006, 25.692026130000045], [85.54903875600007, 25.693604744000027], [85.54913058800008, 25.694870071000025], [85.54973826000008, 25.695323019000057], [85.55059416100005, 25.69607939800005], [85.55172922400004, 25.695779166000023], [85.55235667200003, 25.695723693000048], [85.55307349500004, 25.695505524000055], [85.55367112700003, 25.69547726500008], [85.55412006700004, 25.695719998000072], [85.55435583300005, 25.696342395000045], [85.55462592700007, 25.696775054000057], [85.55558411900006, 25.697450092000054], [85.55609289200004, 25.697719782000036], [85.55642257300008, 25.698071111000047], [85.55719900300005, 25.69782583600005], [85.55797139000003, 25.697905413000058], [85.55824181200006, 25.69847352000005], [85.55812410400006, 25.69917789400006], [85.55776724700007, 25.699882715000058], [85.55726362700005, 25.701616827000066], [85.55741478400006, 25.702289024000038], [85.55771647200004, 25.703371627000024], [85.56204656200003, 25.70374599400003], [85.56335302300005, 25.704230695000035], [85.56370077700007, 25.70575993400007], [85.56576929800008, 25.706139154000027], [85.56644727100007, 25.704445186000044], [85.56640279500004, 25.702680574000055], [85.56567162100004, 25.699369297000032]]]]}}, {"type": "Feature", "properties": {"OBJECTID": 692, "GPCODE": "99387", "GPNAME_1": "PAHARPUR VISHUNPUR", "DIST_CEN_C": null, "BLK_NAME": "MAHNAR", "ST_NAME": "BIHAR", "ST_CODE_1": "10", "GPCODE2011": "101828", "REMARKS": "FINALIZED", "MAP_STATUS": "COMPLETED", "BLK_C_2001": "180016", "BLK_C_2011": "01283", "DIST_NAME": "VAISHALI", "code2011": 0.0, "Shape_Leng": 0.17281116926, "Shape_Area": 0.00049989979, "Area": 5.55987}, "geometry": {"type": "MultiPolygon", "coordinates": [[[[85.52031394000005, 25.628645778000077], [85.51969973300004, 25.625591391000057], [85.51926211700004, 25.623606289000065], [85.51923742700006, 25.621494066000025], [85.51956448500005, 25.620807394000053], [85.51896894300006, 25.619454508000047], [85.51767943400006, 25.61938464700006], [85.51708683200007, 25.619295459000057], [85.51673646300009, 25.618420482000033], [85.51579538300007, 25.618331969000053], [85.51506305900006, 25.61811208000006], [85.51395697200007, 25.61766730000005], [85.51340477700006, 25.617871365000042], [85.51305754800006, 25.618409087000032], [85.51281435900006, 25.61876159800005], [85.51220280600006, 25.619096697000032], [85.51060540600008, 25.619379373000072], [85.50907246800006, 25.61956709900005], [85.50847408700008, 25.619094327000028], [85.50741104400004, 25.61785044000004], [85.50484127200008, 25.61966930600005], [85.50461986700003, 25.620897396000032], [85.50451682600004, 25.621619656000064], [85.50384293500008, 25.623101287000054], [85.50207048800007, 25.625388136000026], [85.50132174600003, 25.626838235000037], [85.49924083500008, 25.629269962000023], [85.49776867400004, 25.629999138000073], [85.50021020600008, 25.62976722800005], [85.50240549400007, 25.628811504000055], [85.50406229500004, 25.628472067000075], [85.50540817700005, 25.62894519300005], [85.50621009100007, 25.62983336600007], [85.50681352200007, 25.631676009000046], [85.51001349000006, 25.63107012200004], [85.51126190400004, 25.63051269400006], [85.51524355400005, 25.62991432700005], [85.51843312200003, 25.62910961800003], [85.52031394000005, 25.628645778000077]]], [[[85.50186070700005, 25.67233208500005], [85.50194843800006, 25.671406689000037], [85.50153374300004, 25.670780050000076], [85.50142706300005, 25.669818898000074], [85.50092875400009, 25.669666262000078], [85.50096526400006, 25.668113606000077], [85.50007836400005, 25.667880421000064], [85.49957830600005, 25.666901878000033], [85.49938404400007, 25.664528198000028], [85.49905216800005, 25.66296711700005], [85.49853647700007, 25.661681721000036], [85.49776799500006, 25.660924754000064], [85.49629041500003, 25.661635846000024], [85.49574604800006, 25.660896543000035], [85.49581778500004, 25.659443199000066], [85.49683343400005, 25.65931960300003], [85.49656042000004, 25.657347729000037], [85.49696654800005, 25.65623673600004], [85.49776845900004, 25.656348252000043], [85.49928734500008, 25.65635915200005], [85.49921959900007, 25.654928511000037], [85.49960091200006, 25.653921437000065], [85.49987864000008, 25.653361266000047], [85.49963721100005, 25.652219768000066], [85.49914675700006, 25.651038182000036], [85.49923085800003, 25.65078526800005], [85.49982768600006, 25.65043666400004], [85.50059450400005, 25.65039478500006], [85.50093836900004, 25.65057020300003], [85.50134772000007, 25.65103440400003], [85.50226406500008, 25.651109520000034], [85.50690007100008, 25.651101468000036], [85.50721803400006, 25.650789425000028], [85.50766270400004, 25.649163891000057], [85.50714181200004, 25.64542774800003], [85.50707315200003, 25.643627010000046], [85.50903980300006, 25.643524227000057], [85.50912145200004, 25.642170056000055], [85.50894894400005, 25.640699005000045], [85.50239148900005, 25.640710452000064], [85.49653241400006, 25.641361365000023], [85.49477110600003, 25.64197364200004], [85.49093361900003, 25.642688666000026], [85.48843171800007, 25.64403771700006], [85.48864910900005, 25.648126473000048], [85.48953087300004, 25.64835971800005], [85.49072148300007, 25.648592450000024], [85.49119107100006, 25.649345467000046], [85.49124374300004, 25.650798656000063], [85.49161456800005, 25.654417738000063], [85.49224529500003, 25.658505856000033], [85.49256393400003, 25.660901859000035], [85.49229324100008, 25.662500092000073], [85.49203824300008, 25.664427729000067], [85.49240757900003, 25.66729306900004], [85.49240980600007, 25.668371742000033], [85.49288416900004, 25.669011859000022], [85.49386191800005, 25.669804639000063], [85.49443039600004, 25.670128592000026], [85.49619367000008, 25.670270128000027], [85.49676758400005, 25.670833317000074], [85.49739230700004, 25.671865749000062], [85.49776653300006, 25.67218560300006], [85.49885195400003, 25.67207997400004], [85.49991340800005, 25.672335444000055], [85.50186070700005, 25.67233208500005]]]]}}]}